{"type":"FeatureCollection","features":[{"type":"Feature","geometry":{"type":"Polygon","coordinates":[[[-60.46883,-3.09099],[-60.49183,-3.09499],[-60.49199,-3.095],[-60.49215,-3.09499],[-60.50515,-3.09299],[-60.50532,-3.09295],[-60.50547,-3.09288],[-60.50562,-3.09279],[-60.51962,-3.08179],[-60.51976,-3.08165],[-60.51988,-3.08148],[-60.51995,-3.0813],[-60.51999,-3.0811],[-60.52,-3.08091],[-60.51996,-3.08071],[-60.51988,-3.08053],[-60.51977,-3.08036],[-60.51477,-3.07436],[-60.51461,-3.07421],[-60.51442,-3.07409],[-60.51421,-3.07402],[-60.50147,-3.07129],[-60.50581,-3.06261],[-60.5176,-3.05181],[-60.54431,-3.03598],[-60.56808,-3.034],[-60.56832,-3.03395],[-60.56854,-3.03384],[-60.58254,-3.02484],[-60.58269,-3.02472],[-60.58281,-3.02458],[-60.58781,-3.01758],[-60.5879,-3.01743],[-60.58797,-3.01726],[-60.59492,-2.99142],[-60.60075,-2.98267],[-60.62065,-2.96576],[-60.62082,-2.96557],[-60.63467,-2.94578],[-60.65245,-2.93689],[-60.65262,-2.93679],[-60.65276,-2.93665],[-60.65288,-2.93648],[-60.66477,-2.91467],[-60.6806,-2.9028],[-60.68074,-2.90267],[-60.70174,-2.87967],[-60.70184,-2.87954],[-60.70192,-2.87939],[-60.70197,-2.87923],[-60.70589,-2.86256],[-60.75663,-2.82178],[-60.75676,-2.82165],[-60.75686,-2.8215],[-60.75694,-2.82134],[-60.75699,-2.82116],[-60.76499,-2.77216],[-60.80199,-2.54516],[-60.802,-2.545],[-60.80199,-2.54484],[-60.79199,-2.48384],[-60.79192,-2.48362],[-60.78192,-2.45962],[-60.78181,-2.45942],[-60.78166,-2.45925],[-60.77366,-2.45225],[-60.77346,-2.45211],[-60.77324,-2.45203],[-60.74955,-2.44611],[-60.744,-2.43963],[-60.744,-2.43029],[-60.7537,-2.41477],[-60.76745,-2.40789],[-60.76761,-2.40779],[-60.76776,-2.40765],[-60.76787,-2.40749],[-60.76795,-2.40732],[-60.76799,-2.40712],[-60.76899,-2.39912],[-60.769,-2.39894],[-60.76897,-2.39876],[-60.76891,-2.39858],[-60.76882,-2.39842],[-60.7687,-2.39828],[-60.76855,-2.39817],[-60.76839,-2.39808],[-60.73593,-2.38431],[-60.73399,-2.36788],[-60.73395,-2.36769],[-60.73387,-2.3675],[-60.73375,-2.36734],[-60.7336,-2.3672],[-60.73343,-2.3671],[-60.73324,-2.36703],[-60.73304,-2.367],[-60.73284,-2.36701],[-60.73265,-2.36706],[-60.71698,-2.37294],[-60.7095,-2.37045],[-60.71786,-2.35651],[-60.71794,-2.35633],[-60.71799,-2.35613],[-60.718,-2.35593],[-60.71796,-2.35573],[-60.71789,-2.35554],[-60.71778,-2.35537],[-60.71764,-2.35523],[-60.71747,-2.35512],[-60.71728,-2.35504],[-60.70053,-2.35011],[-60.69635,-2.34594],[-60.71077,-2.32864],[-60.71088,-2.32848],[-60.71095,-2.32831],[-60.71099,-2.32812],[-60.71199,-2.32012],[-60.712,-2.31991],[-60.71195,-2.31969],[-60.71186,-2.3195],[-60.71173,-2.31932],[-60.70016,-2.30679],[-60.70593,-2.29237],[-60.70598,-2.29222],[-60.706,-2.29205],[-60.70599,-2.29189],[-60.70506,-2.28351],[-60.71854,-2.27484],[-60.71869,-2.27473],[-60.71881,-2.27458],[-60.71891,-2.27442],[-60.71897,-2.27424],[-60.719,-2.27406],[-60.71899,-2.27387],[-60.71895,-2.27369],[-60.71887,-2.27351],[-60.71877,-2.27336],[-60.71377,-2.26736],[-60.71365,-2.26724],[-60.71351,-2.26714],[-60.71335,-2.26706],[-60.70555,-2.26414],[-60.69996,-2.25854],[-60.69899,-2.24989],[-60.69896,-2.24972],[-60.69889,-2.24955],[-60.6988,-2.2494],[-60.69327,-2.24203],[-60.69777,-2.23664],[-60.69786,-2.2365],[-60.69793,-2.23636],[-60.69798,-2.2362],[-60.70083,-2.22195],[-60.71606,-2.221],[-60.71624,-2.22097],[-60.71641,-2.22091],[-60.71657,-2.22082],[-60.71671,-2.22071],[-60.72771,-2.20971],[-60.72783,-2.20956],[-60.72792,-2.20938],[-60.72798,-2.2092],[-60.728,-2.209],[-60.728,-2.20158],[-60.7345,-2.19787],[-60.73466,-2.19775],[-60.73479,-2.19761],[-60.73489,-2.19745],[-60.73889,-2.18945],[-60.73897,-2.18925],[-60.739,-2.18904],[-60.73898,-2.18882],[-60.73892,-2.18862],[-60.73882,-2.18843],[-60.72982,-2.17543],[-60.7297,-2.17529],[-60.72955,-2.17517],[-60.72939,-2.17508],[-60.72921,-2.17502],[-60.72902,-2.175],[-60.72883,-2.17501],[-60.72865,-2.17506],[-60.72112,-2.17789],[-60.70754,-2.16916],[-60.70737,-2.16907],[-60.70718,-2.16902],[-60.70699,-2.169],[-60.70679,-2.16902],[-60.70661,-2.16908],[-60.70038,-2.17175],[-60.69184,-2.15846],[-60.69172,-2.15831],[-60.69157,-2.15818],[-60.67883,-2.14936],[-60.67594,-2.14165],[-60.67584,-2.14146],[-60.67571,-2.14129],[-60.66436,-2.12995],[-60.68276,-2.10865],[-60.68288,-2.10848],[-60.68296,-2.10829],[-60.683,-2.10809],[-60.68299,-2.10788],[-60.68295,-2.10768],[-60.68286,-2.10749],[-60.68274,-2.10733],[-60.67315,-2.09678],[-60.67594,-2.08935],[-60.67599,-2.08916],[-60.676,-2.08896],[-60.67597,-2.08876],[-60.67591,-2.08858],[-60.66891,-2.07358],[-60.66881,-2.07342],[-60.66869,-2.07328],[-60.66854,-2.07316],[-60.66838,-2.07307],[-60.6682,-2.07302],[-60.66801,-2.073],[-60.66783,-2.07301],[-60.66765,-2.07306],[-60.66002,-2.07592],[-60.65392,-2.07331],[-60.65299,-2.06588],[-60.65295,-2.06568],[-60.65287,-2.06551],[-60.65276,-2.06535],[-60.65261,-2.06521],[-60.65245,-2.06511],[-60.64482,-2.06129],[-60.64295,-2.05568],[-60.64287,-2.05551],[-60.64277,-2.05536],[-60.64263,-2.05523],[-60.64248,-2.05512],[-60.64231,-2.05505],[-60.64212,-2.05501],[-60.63439,-2.05404],[-60.62277,-2.04532],[-60.61493,-2.03161],[-60.60796,-2.00772],[-60.60787,-2.00751],[-60.60774,-2.00733],[-60.59874,-1.99733],[-60.59858,-1.99719],[-60.59839,-1.99708],[-60.59818,-1.99702],[-60.59796,-1.997],[-60.57296,-1.998],[-60.57278,-1.99802],[-60.57261,-1.99808],[-60.55888,-2.00396],[-60.54217,-2.00102],[-60.54199,-2.001],[-60.54181,-2.00102],[-60.54164,-2.00107],[-60.50281,-2.016],[-60.48914,-2.016],[-60.4167,-1.99516],[-60.41289,-1.98755],[-60.41278,-1.98737],[-60.41263,-1.98722],[-60.41245,-1.98711],[-60.39647,-1.97912],[-60.36661,-1.9622],[-60.35771,-1.95329],[-60.35753,-1.95315],[-60.35733,-1.95306],[-60.35711,-1.95301],[-60.33928,-1.95103],[-60.28143,-1.9231],[-60.28125,-1.92303],[-60.28105,-1.923],[-60.28085,-1.92301],[-60.28065,-1.92306],[-60.28047,-1.92315],[-60.28031,-1.92327],[-60.28018,-1.92343],[-60.28008,-1.9236],[-60.28002,-1.92379],[-60.28,-1.92399],[-60.28002,-1.92419],[-60.28008,-1.92438],[-60.28508,-1.93638],[-60.28516,-1.93655],[-60.28528,-1.93669],[-60.28542,-1.93681],[-60.29212,-1.9416],[-60.29589,-1.95668],[-60.26642,-1.98517],[-60.23187,-2.00195],[-60.21821,-1.99902],[-60.21797,-1.999],[-60.21773,-1.99904],[-60.20373,-2.00304],[-60.20347,-2.00315],[-60.16671,-2.026],[-60.159,-2.026],[-60.15881,-2.02602],[-60.15862,-2.02607],[-60.15845,-2.02616],[-60.1583,-2.02628],[-60.15818,-2.02643],[-60.15285,-2.03409],[-60.1518,-2.0356],[-60.15031,-2.03773],[-60.14815,-2.04084],[-60.14756,-2.04069],[-60.14735,-2.04066],[-60.14715,-2.04068],[-60.14695,-2.04073],[-60.14661,-2.04086],[-60.14648,-2.04086],[-60.14596,-2.04067],[-60.14576,-2.04062],[-60.14532,-2.04055],[-60.1453,-2.04055],[-60.14435,-2.04043],[-60.14433,-2.04043],[-60.14374,-2.04037],[-60.14301,-2.03988],[-60.14286,-2.0398],[-60.1427,-2.03974],[-60.14218,-2.03961],[-60.14183,-2.03952],[-60.14181,-2.03951],[-60.1411,-2.03935],[-60.14005,-2.0391],[-60.13991,-2.03908],[-60.13938,-2.03904],[-60.13919,-2.03904],[-60.13901,-2.03908],[-60.13884,-2.03915],[-60.13834,-2.0394],[-60.13818,-2.03951],[-60.13804,-2.03965],[-60.13793,-2.03981],[-60.13785,-2.03999],[-60.13781,-2.04018],[-60.13781,-2.04038],[-60.13785,-2.04057],[-60.13814,-2.04157],[-60.13821,-2.04184],[-60.13763,-2.04207],[-60.13744,-2.04217],[-60.13727,-2.0423],[-60.13714,-2.04247],[-60.13705,-2.04266],[-60.137,-2.04286],[-60.13695,-2.04325],[-60.13673,-2.04372],[-60.13658,-2.04406],[-60.13631,-2.04435],[-60.1359,-2.04383],[-60.13578,-2.04371],[-60.13565,-2.04361],[-60.13509,-2.04324],[-60.13493,-2.04316],[-60.13475,-2.04311],[-60.13457,-2.04309],[-60.13439,-2.0431],[-60.13422,-2.04314],[-60.13406,-2.04321],[-60.13297,-2.04383],[-60.13283,-2.04392],[-60.1327,-2.04405],[-60.1326,-2.04419],[-60.13253,-2.04435],[-60.13236,-2.04479],[-60.13192,-2.04491],[-60.13175,-2.04498],[-60.13107,-2.04531],[-60.13046,-2.04542],[-60.12984,-2.04549],[-60.12965,-2.04553],[-60.12947,-2.04561],[-60.12932,-2.04572],[-60.12918,-2.04585],[-60.12884,-2.04627],[-60.12874,-2.04641],[-60.12867,-2.04657],[-60.12863,-2.04674],[-60.1286,-2.04686],[-60.12824,-2.04733],[-60.1277,-2.04777],[-60.12767,-2.04776],[-60.12715,-2.04755],[-60.12698,-2.0475],[-60.1268,-2.04748],[-60.12662,-2.04749],[-60.12644,-2.04754],[-60.12489,-2.0481],[-60.12473,-2.04818],[-60.12458,-2.04829],[-60.12445,-2.04842],[-60.12427,-2.04864],[-60.12378,-2.04869],[-60.12356,-2.04873],[-60.12285,-2.04897],[-60.12197,-2.04908],[-60.12187,-2.04909],[-60.12072,-2.04935],[-60.12055,-2.04941],[-60.12039,-2.0495],[-60.11972,-2.04994],[-60.11858,-2.05063],[-60.11822,-2.05066],[-60.11779,-2.05058],[-60.11768,-2.05057],[-60.11697,-2.05053],[-60.11678,-2.05053],[-60.11659,-2.05057],[-60.11642,-2.05065],[-60.11626,-2.05076],[-60.11613,-2.0509],[-60.11595,-2.05112],[-60.11584,-2.0513],[-60.1156,-2.05179],[-60.11514,-2.05201],[-60.11509,-2.05203],[-60.11489,-2.05196],[-60.11473,-2.05191],[-60.11455,-2.0519],[-60.11438,-2.05191],[-60.11422,-2.05196],[-60.11353,-2.05221],[-60.11272,-2.05234],[-60.11255,-2.05238],[-60.11238,-2.05246],[-60.11223,-2.05256],[-60.1121,-2.05269],[-60.112,-2.05284],[-60.1116,-2.05358],[-60.11113,-2.05429],[-60.11085,-2.05458],[-60.11047,-2.05467],[-60.11028,-2.05474],[-60.1101,-2.05485],[-60.10995,-2.05499],[-60.10983,-2.05516],[-60.10889,-2.05688],[-60.10885,-2.05694],[-60.10854,-2.05761],[-60.10848,-2.05765],[-60.10819,-2.05768],[-60.10814,-2.05769],[-60.10759,-2.05778],[-60.10741,-2.05782],[-60.10688,-2.05801],[-60.10672,-2.05809],[-60.10657,-2.05819],[-60.10645,-2.05832],[-60.10635,-2.05847],[-60.10628,-2.05863],[-60.10615,-2.05901],[-60.1061,-2.05922],[-60.1061,-2.05944],[-60.10614,-2.05984],[-60.10617,-2.06001],[-60.10623,-2.06017],[-60.1063,-2.06029],[-60.10576,-2.06098],[-60.10567,-2.06113],[-60.10563,-2.06123],[-60.10541,-2.06109],[-60.10523,-2.061],[-60.10464,-2.06078],[-60.10445,-2.06073],[-60.10426,-2.06071],[-60.10407,-2.06073],[-60.10389,-2.06079],[-60.10331,-2.06104],[-60.10276,-2.0612],[-60.10259,-2.06119],[-60.10161,-2.06087],[-60.1015,-2.06084],[-60.10061,-2.06066],[-60.10053,-2.0605],[-60.10043,-2.06035],[-60.10031,-2.06021],[-60.09943,-2.05941],[-60.09926,-2.05928],[-60.09859,-2.0589],[-60.09845,-2.05883],[-60.09765,-2.05852],[-60.09749,-2.05847],[-60.09733,-2.05845],[-60.09645,-2.05842],[-60.09627,-2.05842],[-60.09494,-2.05861],[-60.0939,-2.05848],[-60.09364,-2.05848],[-60.09265,-2.05861],[-60.09239,-2.05855],[-60.09222,-2.05852],[-60.09204,-2.05852],[-60.09187,-2.05855],[-60.09171,-2.05861],[-60.0914,-2.05876],[-60.09123,-2.05886],[-60.09108,-2.05899],[-60.09097,-2.05915],[-60.0906,-2.05976],[-60.0905,-2.05999],[-60.0902,-2.061],[-60.09016,-2.06123],[-60.09018,-2.06146],[-60.0903,-2.06214],[-60.0903,-2.0624],[-60.09029,-2.06311],[-60.09007,-2.06332],[-60.08899,-2.06371],[-60.08777,-2.06393],[-60.08755,-2.064],[-60.08735,-2.06411],[-60.08675,-2.06455],[-60.08661,-2.06467],[-60.0865,-2.06481],[-60.08642,-2.06498],[-60.08636,-2.06515],[-60.08634,-2.06533],[-60.08635,-2.06551],[-60.08671,-2.06782],[-60.08673,-2.06793],[-60.08689,-2.06854],[-60.08682,-2.06937],[-60.0867,-2.07013],[-60.08606,-2.06995],[-60.083,-2.06884],[-60.083,-2.06883],[-60.08255,-2.06867],[-60.08237,-2.06863],[-60.08219,-2.06861],[-60.08202,-2.06863],[-60.082,-2.06864],[-60.08198,-2.06862],[-60.08181,-2.06852],[-60.08162,-2.06846],[-60.08142,-2.06844],[-60.08122,-2.06846],[-60.08102,-2.06852],[-60.08085,-2.06861],[-60.08069,-2.06874],[-60.08057,-2.0689],[-60.08035,-2.06923],[-60.08026,-2.06942],[-60.0802,-2.06962],[-60.08019,-2.06983],[-60.08023,-2.07004],[-60.0803,-2.07023],[-60.08056,-2.07073],[-60.08061,-2.07082],[-60.08119,-2.07172],[-60.08186,-2.07364],[-60.08199,-2.07412],[-60.08205,-2.07429],[-60.08215,-2.07445],[-60.08263,-2.07509],[-60.08255,-2.07515],[-60.08221,-2.07519],[-60.08131,-2.07512],[-60.08118,-2.07511],[-60.08011,-2.07516],[-60.07897,-2.07511],[-60.07893,-2.07511],[-60.07816,-2.07511],[-60.07798,-2.07513],[-60.0778,-2.07518],[-60.07764,-2.07526],[-60.07749,-2.07536],[-60.07719,-2.07563],[-60.07707,-2.07576],[-60.07697,-2.07591],[-60.0769,-2.07607],[-60.07687,-2.07624],[-60.07672,-2.07734],[-60.07659,-2.07807],[-60.07645,-2.07823],[-60.07578,-2.0787],[-60.07433,-2.07911],[-60.07418,-2.07917],[-60.07338,-2.07955],[-60.07323,-2.07963],[-60.0731,-2.07975],[-60.07299,-2.07988],[-60.0729,-2.08004],[-60.07256,-2.08079],[-60.07249,-2.08099],[-60.07219,-2.08236],[-60.07217,-2.08245],[-60.0721,-2.08301],[-60.07043,-2.0833],[-60.07038,-2.08331],[-60.06959,-2.08349],[-60.0694,-2.08355],[-60.06923,-2.08365],[-60.06908,-2.08378],[-60.06896,-2.08394],[-60.06887,-2.08411],[-60.06882,-2.08431],[-60.06875,-2.08479],[-60.06874,-2.085],[-60.06877,-2.08521],[-60.06885,-2.08541],[-60.06897,-2.08559],[-60.06913,-2.08574],[-60.0698,-2.08625],[-60.0689,-2.08638],[-60.06889,-2.08638],[-60.06843,-2.08645],[-60.06783,-2.08628],[-60.06764,-2.08624],[-60.06745,-2.08625],[-60.06669,-2.08633],[-60.0665,-2.08637],[-60.06633,-2.08644],[-60.06617,-2.08654],[-60.06582,-2.08682],[-60.0657,-2.08694],[-60.06504,-2.08766],[-60.06442,-2.08813],[-60.06426,-2.08815],[-60.06384,-2.08806],[-60.06327,-2.08779],[-60.06315,-2.08775],[-60.06214,-2.08743],[-60.06166,-2.08726],[-60.06142,-2.08721],[-60.06106,-2.08718],[-60.06087,-2.08718],[-60.06069,-2.08721],[-60.06052,-2.08728],[-60.06036,-2.08738],[-60.05951,-2.08804],[-60.05809,-2.08867],[-60.05767,-2.08885],[-60.05751,-2.08894],[-60.05737,-2.08905],[-60.05725,-2.08918],[-60.05716,-2.08934],[-60.0571,-2.08951],[-60.05706,-2.08969],[-60.05701,-2.09031],[-60.05702,-2.09057],[-60.05716,-2.09134],[-60.05719,-2.09144],[-60.05694,-2.09158],[-60.05632,-2.09186],[-60.05615,-2.09197],[-60.056,-2.09211],[-60.05587,-2.09227],[-60.05535,-2.09318],[-60.05525,-2.09342],[-60.05488,-2.09477],[-60.05484,-2.09498],[-60.0548,-2.09574],[-60.05437,-2.09584],[-60.05418,-2.09591],[-60.05401,-2.09601],[-60.05386,-2.09615],[-60.05349,-2.09656],[-60.05339,-2.09668],[-60.05332,-2.09682],[-60.05303,-2.09747],[-60.05296,-2.09768],[-60.05294,-2.0979],[-60.05296,-2.0987],[-60.05299,-2.09889],[-60.05305,-2.09907],[-60.05314,-2.09924],[-60.05326,-2.09939],[-60.05376,-2.09987],[-60.0538,-2.0999],[-60.05303,-2.10049],[-60.05193,-2.10096],[-60.05183,-2.101],[-60.05072,-2.10163],[-60.04994,-2.10191],[-60.04865,-2.102],[-60.04726,-2.1019],[-60.04579,-2.10168],[-60.0456,-2.10167],[-60.04542,-2.10169],[-60.04402,-2.102],[-60.0437,-2.10208],[-60.04365,-2.10177],[-60.04358,-2.10154],[-60.04346,-2.10133],[-60.04299,-2.10071],[-60.04288,-2.10058],[-60.042,-2.09976],[-60.04184,-2.0994],[-60.04189,-2.09889],[-60.04189,-2.09872],[-60.04186,-2.09856],[-60.0418,-2.0984],[-60.04154,-2.0978],[-60.04144,-2.09762],[-60.0413,-2.09747],[-60.04114,-2.09735],[-60.04095,-2.09726],[-60.04075,-2.09722],[-60.04054,-2.09721],[-60.03897,-2.09734],[-60.03823,-2.09735],[-60.03806,-2.09737],[-60.0379,-2.09741],[-60.03762,-2.09752],[-60.03758,-2.09753],[-60.03701,-2.09753],[-60.03663,-2.0975],[-60.03635,-2.09724],[-60.03619,-2.09711],[-60.036,-2.09703],[-60.0358,-2.09698],[-60.03559,-2.09697],[-60.03539,-2.09701],[-60.03436,-2.0973],[-60.03372,-2.0973],[-60.03228,-2.09724],[-60.03208,-2.09725],[-60.03189,-2.0973],[-60.03172,-2.09738],[-60.03156,-2.0975],[-60.03085,-2.09815],[-60.02984,-2.09754],[-60.02982,-2.09753],[-60.02972,-2.09747],[-60.02948,-2.09737],[-60.0293,-2.09732],[-60.02923,-2.09728],[-60.02903,-2.0972],[-60.02896,-2.09719],[-60.02835,-2.09697],[-60.02829,-2.09695],[-60.02824,-2.09693],[-60.0282,-2.0969],[-60.02805,-2.09683],[-60.02757,-2.09665],[-60.02741,-2.09661],[-60.02725,-2.09659],[-60.02716,-2.09658],[-60.02699,-2.0966],[-60.02681,-2.09664],[-60.02665,-2.09671],[-60.02657,-2.09675],[-60.02645,-2.0968],[-60.02628,-2.0969],[-60.02615,-2.09699],[-60.02603,-2.09708],[-60.02589,-2.09722],[-60.02575,-2.09739],[-60.02572,-2.0974],[-60.02557,-2.09748],[-60.02549,-2.09754],[-60.02457,-2.09779],[-60.02435,-2.09776],[-60.02418,-2.09775],[-60.02379,-2.09777],[-60.02354,-2.09781],[-60.02333,-2.09787],[-60.0231,-2.09797],[-60.02292,-2.09809],[-60.02278,-2.09818],[-60.02269,-2.09828],[-60.02253,-2.09833],[-60.02207,-2.09821],[-60.02193,-2.09819],[-60.02158,-2.09815],[-60.02134,-2.09815],[-60.02089,-2.09821],[-60.02083,-2.09822],[-60.02063,-2.09826],[-60.02038,-2.09835],[-60.02016,-2.09846],[-60.02,-2.09855],[-60.01943,-2.09897],[-60.01919,-2.09905],[-60.01908,-2.0991],[-60.01854,-2.09936],[-60.01837,-2.09939],[-60.01823,-2.09943],[-60.0169,-2.09988],[-60.01682,-2.09991],[-60.01529,-2.10058],[-60.01513,-2.10068],[-60.01462,-2.10103],[-60.01442,-2.10109],[-60.01397,-2.10118],[-60.01385,-2.10121],[-60.01321,-2.10142],[-60.01296,-2.10154],[-60.01282,-2.10163],[-60.01268,-2.10175],[-60.01257,-2.10189],[-60.01243,-2.10209],[-60.01234,-2.10225],[-60.01228,-2.10242],[-60.0122,-2.10275],[-60.01185,-2.10364],[-60.01168,-2.104],[-60.01167,-2.10402],[-60.01117,-2.10517],[-60.01111,-2.10536],[-60.011,-2.10586],[-60.01097,-2.10596],[-60.01093,-2.10614],[-60.01093,-2.10633],[-60.01096,-2.10651],[-60.01103,-2.10676],[-60.01104,-2.10685],[-60.01108,-2.10701],[-60.01109,-2.10702],[-60.0111,-2.10715],[-60.01114,-2.10739],[-60.01117,-2.10781],[-60.01119,-2.10818],[-60.01118,-2.10823],[-60.01118,-2.10845],[-60.01118,-2.10852],[-60.01121,-2.10865],[-60.01121,-2.10921],[-60.01118,-2.10975],[-60.01119,-2.10994],[-60.0112,-2.11001],[-60.0112,-2.11004],[-60.01118,-2.11037],[-60.01112,-2.11085],[-60.01112,-2.11109],[-60.0111,-2.11115],[-60.01094,-2.11193],[-60.01091,-2.112],[-60.01072,-2.11239],[-60.01072,-2.1124],[-60.01041,-2.11225],[-60.00997,-2.1119],[-60.00987,-2.11183],[-60.00897,-2.11128],[-60.00893,-2.11126],[-60.00878,-2.11117],[-60.00862,-2.11111],[-60.00836,-2.11102],[-60.00786,-2.11076],[-60.00766,-2.11068],[-60.00745,-2.11062],[-60.00733,-2.1106],[-60.00713,-2.11057],[-60.00691,-2.11056],[-60.00676,-2.11057],[-60.00656,-2.11061],[-60.00635,-2.11067],[-60.00619,-2.11073],[-60.00606,-2.11079],[-60.00591,-2.11088],[-60.00569,-2.11103],[-60.0056,-2.1111],[-60.00551,-2.11119],[-60.00537,-2.11134],[-60.00529,-2.11148],[-60.00507,-2.11172],[-60.00506,-2.11172],[-60.00486,-2.11183],[-60.00478,-2.11188],[-60.00466,-2.11198],[-60.00456,-2.11209],[-60.00434,-2.11238],[-60.00414,-2.1126],[-60.00405,-2.11265],[-60.00394,-2.11276],[-60.00393,-2.11277],[-60.0038,-2.11284],[-60.00323,-2.11321],[-60.00311,-2.1133],[-60.00307,-2.11335],[-60.00273,-2.11356],[-60.00262,-2.11363],[-60.00208,-2.11407],[-60.00195,-2.1142],[-60.00186,-2.1143],[-60.00181,-2.11437],[-60.00129,-2.11511],[-60.00124,-2.11518],[-60.00108,-2.11545],[-60.00103,-2.11557],[-60.00097,-2.11565],[-60.0009,-2.11574],[-60.00079,-2.11593],[-60.00076,-2.11597],[-60.00035,-2.11672],[-60.00034,-2.11674],[-59.99967,-2.11801],[-59.9996,-2.11818],[-59.99953,-2.11841],[-59.99941,-2.11865],[-59.99925,-2.11909],[-59.99878,-2.11996],[-59.99868,-2.12011],[-59.99859,-2.12029],[-59.99853,-2.12048],[-59.99602,-2.13381],[-59.996,-2.13402],[-59.99602,-2.13422],[-59.99802,-2.14322],[-59.99804,-2.14327],[-60.02604,-2.24227],[-60.02612,-2.24248],[-60.03803,-2.26431],[-60.04499,-2.32797],[-60.02802,-2.42281],[-60.02302,-2.4478],[-60.023,-2.448],[-60.02302,-2.4482],[-60.02802,-2.47218],[-60.03599,-2.52302],[-60.03501,-2.53186],[-60.03218,-2.54789],[-60.0176,-2.54607],[-60.01285,-2.53847],[-60.01272,-2.53831],[-60.01256,-2.53817],[-60.01238,-2.53807],[-60.01218,-2.53802],[-60.01197,-2.538],[-60.01176,-2.53803],[-60.01157,-2.5381],[-60.01139,-2.53821],[-59.99839,-2.54821],[-59.99825,-2.54833],[-59.99814,-2.54848],[-59.99806,-2.54865],[-59.99802,-2.54883],[-59.99528,-2.56432],[-59.99355,-2.56317],[-59.99341,-2.56309],[-59.98241,-2.55809],[-59.98224,-2.55803],[-59.98206,-2.558],[-59.98188,-2.55801],[-59.9817,-2.55805],[-59.9657,-2.56305],[-59.96549,-2.56314],[-59.96531,-2.56327],[-59.96517,-2.56345],[-59.96146,-2.569],[-59.954,-2.569],[-59.95383,-2.56901],[-59.95367,-2.56905],[-59.95352,-2.56912],[-59.94252,-2.57512],[-59.94229,-2.57529],[-59.94029,-2.57729],[-59.94016,-2.57745],[-59.94007,-2.57764],[-59.94001,-2.57784],[-59.94,-2.57805],[-59.94003,-2.57825],[-59.94011,-2.57845],[-59.94693,-2.5921],[-59.94504,-2.59873],[-59.945,-2.59891],[-59.945,-2.59909],[-59.94504,-2.59927],[-59.94511,-2.59945],[-59.94887,-2.60699],[-59.94159,-2.62064],[-59.92048,-2.60912],[-59.9203,-2.60905],[-59.92011,-2.60901],[-59.91992,-2.609],[-59.91973,-2.60904],[-59.91955,-2.60911],[-59.91938,-2.60921],[-59.91924,-2.60935],[-59.91913,-2.6095],[-59.91113,-2.6235],[-59.91103,-2.62376],[-59.90317,-2.65618],[-59.89576,-2.65803],[-59.89559,-2.65809],[-59.89543,-2.65818],[-59.89529,-2.65829],[-59.89518,-2.65843],[-59.88625,-2.67132],[-59.87235,-2.68324],[-59.87221,-2.68339],[-59.8721,-2.68355],[-59.87203,-2.68374],[-59.872,-2.68394],[-59.871,-2.69994],[-59.871,-2.7001],[-59.87103,-2.70026],[-59.87489,-2.7147],[-59.8695,-2.72009],[-59.84679,-2.72502],[-59.84662,-2.72508],[-59.84646,-2.72516],[-59.83246,-2.73416],[-59.8323,-2.73428],[-59.83218,-2.73443],[-59.83208,-2.73461],[-59.82908,-2.74161],[-59.82901,-2.74183],[-59.829,-2.74207],[-59.83097,-2.76963],[-59.81427,-2.78731],[-59.81415,-2.78747],[-59.81406,-2.78766],[-59.81401,-2.78785],[-59.814,-2.78806],[-59.81403,-2.78826],[-59.81793,-2.80286],[-59.81413,-2.8095],[-59.81242,-2.8125],[-60.46875,-2.8125],[-60.46875,-3.09096],[-60.46883,-3.09099]]]},"properties":{"ghs":"6x","size":552.98,"ghs_len":2,"ghs_area":8050.46,"ghs_bytes":28558,"ghs_items":48,"size_unit":"km2","ghsval_unit":"bytes","ghs_itemsdensity":0.01,"size_unitdensity":0.07}},{"type":"Feature","geometry":{"type":"MultiPolygon","coordinates":[[[[-60.46875,-2.8125],[-59.81242,-2.8125],[-59.81042,-2.816],[-59.803,-2.816],[-59.80282,-2.81602],[-59.80264,-2.81607],[-59.80247,-2.81615],[-59.78188,-2.8289],[-59.75933,-2.82106],[-59.75914,-2.82101],[-59.75895,-2.821],[-59.75876,-2.82103],[-59.75858,-2.82109],[-59.75842,-2.82119],[-59.75142,-2.82619],[-59.75127,-2.82632],[-59.75115,-2.82648],[-59.73715,-2.84948],[-59.73707,-2.84964],[-59.73702,-2.84982],[-59.737,-2.85],[-59.737,-2.8575],[-59.7254,-2.8662],[-59.72521,-2.86638],[-59.71421,-2.88038],[-59.71411,-2.88054],[-59.71404,-2.88071],[-59.71401,-2.8809],[-59.714,-2.88109],[-59.71404,-2.88127],[-59.71411,-2.88145],[-59.71421,-2.88161],[-59.72688,-2.89819],[-59.72013,-2.91844],[-59.70732,-2.93027],[-59.70719,-2.93041],[-59.70709,-2.93058],[-59.70703,-2.93076],[-59.70519,-2.9381],[-59.65387,-2.94501],[-59.65368,-2.94505],[-59.6535,-2.94514],[-59.65334,-2.94525],[-59.63655,-2.96006],[-59.62004,-2.96298],[-59.59624,-2.95703],[-59.59606,-2.957],[-59.59588,-2.95701],[-59.579,-2.95899],[-59.54722,-2.95502],[-59.53232,-2.95005],[-59.53214,-2.95001],[-59.53196,-2.95],[-59.53178,-2.95002],[-59.53161,-2.95008],[-59.52461,-2.95308],[-59.52444,-2.95317],[-59.52429,-2.9533],[-59.52417,-2.95345],[-59.52033,-2.9592],[-59.50661,-2.96508],[-59.50647,-2.96515],[-59.50635,-2.96524],[-59.49935,-2.97124],[-59.4992,-2.9714],[-59.49909,-2.97158],[-59.49902,-2.97179],[-59.499,-2.972],[-59.499,-2.98632],[-59.48463,-2.99207],[-59.48448,-2.99215],[-59.48435,-2.99224],[-59.48423,-2.99236],[-59.4543,-3.02828],[-59.43056,-3.04708],[-59.40478,-3.05303],[-59.40453,-3.05312],[-59.37253,-3.07012],[-59.37239,-3.07021],[-59.37227,-3.07032],[-59.34627,-3.09832],[-59.34617,-3.09844],[-59.3461,-3.09857],[-59.34285,-3.10545],[-59.33547,-3.11137],[-59.31911,-3.11202],[-59.31889,-3.11206],[-59.31869,-3.11213],[-59.31851,-3.11225],[-59.31835,-3.11241],[-59.31222,-3.12038],[-59.30359,-3.13093],[-59.27715,-3.12701],[-59.27693,-3.127],[-59.26193,-3.128],[-59.26178,-3.12802],[-59.26164,-3.12807],[-59.23864,-3.13707],[-59.15964,-3.16707],[-59.15946,-3.16716],[-59.1593,-3.16729],[-59.15917,-3.16744],[-59.15907,-3.16762],[-59.15902,-3.16782],[-59.159,-3.16803],[-59.15903,-3.16823],[-59.15909,-3.16842],[-59.1592,-3.1686],[-59.1622,-3.1726],[-59.16223,-3.17264],[-59.16723,-3.17864],[-59.16737,-3.17877],[-59.16752,-3.17888],[-59.1677,-3.17895],[-59.16788,-3.17899],[-59.16807,-3.179],[-59.18199,-3.178],[-59.20592,-3.18],[-59.2062,-3.17998],[-59.2212,-3.17698],[-59.22139,-3.17692],[-59.22157,-3.17682],[-59.24148,-3.16289],[-59.26423,-3.15398],[-59.35058,-3.14604],[-59.35725,-3.15366],[-59.35738,-3.15378],[-59.35753,-3.15388],[-59.3577,-3.15395],[-59.37704,-3.16],[-59.3897,-3.16395],[-59.38992,-3.164],[-59.39015,-3.16399],[-59.39037,-3.16393],[-59.47922,-3.12899],[-59.51605,-3.127],[-59.51618,-3.12698],[-59.54918,-3.12098],[-59.5494,-3.12091],[-59.57277,-3.1106],[-59.5834,-3.10591],[-59.62638,-3.08693],[-59.68329,-3.06596],[-59.70012,-3.062],[-59.71696,-3.062],[-59.76562,-3.06623],[-59.76562,-2.98828],[-59.94141,-2.98828],[-59.98535,-2.98828],[-60.0293,-2.98828],[-60.11719,-2.98828],[-60.11719,-3.14869],[-60.14042,-3.13791],[-60.1406,-3.1378],[-60.14075,-3.13766],[-60.14087,-3.1375],[-60.14462,-3.13093],[-60.16812,-3.12799],[-60.16834,-3.12794],[-60.16855,-3.12784],[-60.16872,-3.12769],[-60.19559,-3.09983],[-60.21042,-3.09291],[-60.22517,-3.0861],[-60.23085,-3.08348],[-60.23374,-3.08247],[-60.23877,-3.08182],[-60.24183,-3.08174],[-60.24212,-3.08176],[-60.24232,-3.08175],[-60.24251,-3.0817],[-60.24296,-3.08153],[-60.24318,-3.08142],[-60.24418,-3.08074],[-60.24426,-3.08074],[-60.24443,-3.08072],[-60.24459,-3.08067],[-60.24474,-3.0806],[-60.24489,-3.08051],[-60.24564,-3.0805],[-60.24574,-3.08068],[-60.24588,-3.08089],[-60.24601,-3.08105],[-60.24618,-3.08117],[-60.24636,-3.08126],[-60.24656,-3.08131],[-60.24676,-3.08132],[-60.24696,-3.08129],[-60.24716,-3.08122],[-60.24733,-3.08111],[-60.24749,-3.08097],[-60.24761,-3.08086],[-60.24761,-3.08086],[-60.24778,-3.08083],[-60.25284,-3.08275],[-60.25304,-3.0828],[-60.25326,-3.08281],[-60.25347,-3.08278],[-60.2539,-3.08265],[-60.25414,-3.08271],[-60.25431,-3.08273],[-60.25448,-3.08273],[-60.2549,-3.08269],[-60.25554,-3.08273],[-60.2556,-3.08277],[-60.25579,-3.08286],[-60.25599,-3.08291],[-60.25619,-3.08292],[-60.2564,-3.08289],[-60.25659,-3.08281],[-60.25677,-3.0827],[-60.25698,-3.08252],[-60.25758,-3.08242],[-60.25865,-3.08248],[-60.26053,-3.08303],[-60.26067,-3.08306],[-60.26188,-3.08325],[-60.26185,-3.08329],[-60.26177,-3.08349],[-60.26173,-3.0837],[-60.26173,-3.08391],[-60.26178,-3.08412],[-60.26214,-3.08511],[-60.26222,-3.08528],[-60.26233,-3.08543],[-60.26246,-3.08556],[-60.26262,-3.08566],[-60.26279,-3.08573],[-60.26298,-3.08577],[-60.26317,-3.08577],[-60.26331,-3.08576],[-60.26508,-3.08837],[-60.2652,-3.08852],[-60.26535,-3.08864],[-60.26551,-3.08873],[-60.26826,-3.08993],[-60.26844,-3.08999],[-60.26863,-3.09001],[-60.26883,-3.08999],[-60.26901,-3.08994],[-60.26919,-3.08986],[-60.26934,-3.08974],[-60.26947,-3.0896],[-60.27048,-3.08821],[-60.27219,-3.08881],[-60.27189,-3.09022],[-60.27187,-3.09041],[-60.27188,-3.09061],[-60.27194,-3.0908],[-60.27203,-3.09098],[-60.27216,-3.09113],[-60.27352,-3.09249],[-60.27366,-3.09261],[-60.27383,-3.0927],[-60.27401,-3.09276],[-60.2742,-3.09278],[-60.27439,-3.09277],[-60.27457,-3.09272],[-60.27474,-3.09263],[-60.2749,-3.09252],[-60.27542,-3.09205],[-60.28234,-3.09481],[-60.28696,-3.10178],[-60.28709,-3.10194],[-60.28725,-3.10206],[-60.28744,-3.10216],[-60.28764,-3.10221],[-60.28784,-3.10222],[-60.28805,-3.10219],[-60.28824,-3.10212],[-60.28842,-3.102],[-60.29169,-3.09939],[-60.29182,-3.09927],[-60.29192,-3.09913],[-60.292,-3.09897],[-60.29205,-3.0988],[-60.29486,-3.0848],[-60.31082,-3.08037],[-60.31001,-3.08688],[-60.31,-3.08709],[-60.31005,-3.0873],[-60.31013,-3.0875],[-60.31413,-3.0945],[-60.31424,-3.09465],[-60.31437,-3.09478],[-60.31453,-3.09488],[-60.32753,-3.10188],[-60.3277,-3.10195],[-60.32788,-3.10199],[-60.32806,-3.102],[-60.32824,-3.10197],[-60.33624,-3.09997],[-60.3363,-3.09995],[-60.33999,-3.09878],[-60.36607,-3.09468],[-60.38428,-3.09315],[-60.43798,-3.094],[-60.43819,-3.09398],[-60.43839,-3.09392],[-60.44539,-3.09092],[-60.44555,-3.09084],[-60.44568,-3.09073],[-60.4458,-3.0906],[-60.4548,-3.0786],[-60.4549,-3.07844],[-60.45497,-3.07826],[-60.455,-3.07807],[-60.45527,-3.07423],[-60.45601,-3.08012],[-60.45605,-3.08031],[-60.45612,-3.08048],[-60.45623,-3.08064],[-60.45636,-3.08077],[-60.46836,-3.09077],[-60.4685,-3.09087],[-60.46866,-3.09094],[-60.46875,-3.09096],[-60.46875,-2.8125]]],[[[-60.04718,-3.16489],[-60.0472,-3.1649],[-60.05347,-3.16885],[-60.05363,-3.16893],[-60.05381,-3.16898],[-60.05399,-3.169],[-60.05417,-3.16898],[-60.05435,-3.16894],[-60.06324,-3.1656],[-60.06735,-3.16406],[-60.04591,-3.16406],[-60.04718,-3.16489]]],[[[-60.0293,-3.16406],[-59.98535,-3.16406],[-59.93266,-3.16406],[-59.93402,-3.17022],[-59.93409,-3.17041],[-59.93418,-3.17058],[-59.93431,-3.17073],[-59.93447,-3.17085],[-59.94218,-3.17567],[-59.95206,-3.20235],[-59.95215,-3.20253],[-59.95228,-3.20269],[-59.95243,-3.20282],[-59.95261,-3.20292],[-59.9528,-3.20298],[-59.953,-3.203],[-59.9532,-3.20298],[-59.95339,-3.20292],[-59.95939,-3.20035],[-59.96205,-3.20832],[-59.96214,-3.20851],[-59.96226,-3.20867],[-59.96242,-3.20881],[-59.96942,-3.21381],[-59.96958,-3.21391],[-59.96976,-3.21397],[-59.9856,-3.21793],[-59.99347,-3.22285],[-59.99365,-3.22294],[-59.99384,-3.22299],[-59.99404,-3.223],[-59.99423,-3.22297],[-59.99442,-3.22291],[-59.99459,-3.22281],[-59.99474,-3.22267],[-59.99486,-3.22251],[-60.00086,-3.21251],[-60.00094,-3.21233],[-60.00099,-3.21214],[-60.001,-3.21194],[-60.00097,-3.21174],[-60.0009,-3.21156],[-60.00079,-3.21139],[-60.00065,-3.21124],[-60.00049,-3.21113],[-60.00031,-3.21105],[-60.00011,-3.21101],[-59.99318,-3.21024],[-60.00032,-3.2031],[-60.00371,-3.19971],[-60.00384,-3.19955],[-60.00393,-3.19937],[-60.00398,-3.19917],[-60.004,-3.19897],[-60.00397,-3.19877],[-60.00391,-3.19858],[-60.0038,-3.1984],[-60.00367,-3.19825],[-60.0035,-3.19813],[-60.00332,-3.19805],[-60.00312,-3.19801],[-59.98784,-3.19621],[-59.99265,-3.18979],[-60.02344,-3.1749],[-60.02366,-3.17475],[-60.03577,-3.16406],[-60.0293,-3.16406]]]]},"properties":{"ghs":"6xm","size":452.16,"ghs_len":3,"ghs_area":2802.75,"ghs_bytes":846740,"ghs_items":1122,"size_unit":"km2","ghsval_unit":"bytes","ghs_itemsdensity":0.4,"size_unitdensity":0.16}},{"type":"Feature","geometry":{"type":"MultiPolygon","coordinates":[[[[-60.11719,-2.98828],[-60.0293,-2.98828],[-60.0293,-3.03223],[-60.07324,-3.03223],[-60.07324,-3.07617],[-60.07324,-3.12012],[-60.0293,-3.12012],[-60.0293,-3.16406],[-60.03577,-3.16406],[-60.04009,-3.16025],[-60.04591,-3.16406],[-60.06735,-3.16406],[-60.07035,-3.16294],[-60.0706,-3.1628],[-60.0746,-3.1598],[-60.07473,-3.15968],[-60.07485,-3.15953],[-60.07493,-3.15937],[-60.07498,-3.1592],[-60.075,-3.15902],[-60.07499,-3.15884],[-60.07471,-3.15717],[-60.07468,-3.15701],[-60.07305,-3.14722],[-60.08512,-3.12864],[-60.09211,-3.1365],[-60.09604,-3.14929],[-60.09612,-3.14948],[-60.09624,-3.14964],[-60.09638,-3.14978],[-60.09655,-3.14989],[-60.09674,-3.14996],[-60.09693,-3.15],[-60.11193,-3.151],[-60.1121,-3.15099],[-60.11226,-3.15096],[-60.11242,-3.15091],[-60.11719,-3.14869],[-60.11719,-2.98828]]],[[[-59.98535,-3.16406],[-59.98535,-3.12012],[-59.94141,-3.12012],[-59.94141,-3.07617],[-59.89746,-3.07617],[-59.89746,-3.03223],[-59.94141,-3.03223],[-59.94141,-2.98828],[-59.76562,-2.98828],[-59.76562,-3.06623],[-59.78581,-3.06799],[-59.80265,-3.07294],[-59.85849,-3.09887],[-59.8933,-3.12373],[-59.90306,-3.13602],[-59.91622,-3.15262],[-59.91636,-3.15277],[-59.91653,-3.15288],[-59.91673,-3.15296],[-59.92354,-3.15491],[-59.9321,-3.16157],[-59.93266,-3.16406],[-59.98535,-3.16406]]]]},"properties":{"ghs":"6xmq","size":125.94,"ghs_len":4,"ghs_area":382.41,"ghs_bytes":2719471,"ghs_items":2367,"size_unit":"km2","ghsval_unit":"bytes","ghs_itemsdensity":6.19,"size_unitdensity":0.33}},{"type":"Feature","geometry":{"type":"Polygon","coordinates":[[[-60.07324,-3.07617],[-60.0293,-3.07617],[-60.0293,-3.12012],[-60.07324,-3.12012],[-60.07324,-3.07617]]]},"properties":{"ghs":"6xmq3","size":16.67,"ghs_len":5,"ghs_area":23.74,"ghs_bytes":1825826,"ghs_items":1568,"size_unit":"km2","ghsval_unit":"bytes","ghs_itemsdensity":66.06,"size_unitdensity":0.7}},{"type":"Feature","geometry":{"type":"Polygon","coordinates":[[[-60.0293,-3.12012],[-59.98535,-3.12012],[-59.98535,-3.16406],[-60.0293,-3.16406],[-60.0293,-3.12012]]]},"properties":{"ghs":"6xmq4","size":11.74,"ghs_len":5,"ghs_area":23.74,"ghs_bytes":1085777,"ghs_items":975,"size_unit":"km2","ghsval_unit":"bytes","ghs_itemsdensity":41.08,"size_unitdensity":0.49}},{"type":"Feature","geometry":{"type":"Polygon","coordinates":[[[-60.0293,-3.07617],[-59.98535,-3.07617],[-59.98535,-3.12012],[-60.0293,-3.12012],[-60.0293,-3.07617]]]},"properties":{"ghs":"6xmq6","size":18.51,"ghs_len":5,"ghs_area":23.74,"ghs_bytes":1785025,"ghs_items":1413,"size_unit":"km2","ghsval_unit":"bytes","ghs_itemsdensity":59.53,"size_unitdensity":0.78}},{"type":"Feature","geometry":{"type":"Polygon","coordinates":[[[-59.98535,-3.07617],[-59.94141,-3.07617],[-59.94141,-3.12012],[-59.98535,-3.12012],[-59.98535,-3.07617]]]},"properties":{"ghs":"6xmq7","size":12.74,"ghs_len":5,"ghs_area":23.74,"ghs_bytes":1097950,"ghs_items":949,"size_unit":"km2","ghsval_unit":"bytes","ghs_itemsdensity":39.98,"size_unitdensity":0.54}},{"type":"Feature","geometry":{"type":"Polygon","coordinates":[[[-60.07324,-3.03223],[-60.0293,-3.03223],[-60.0293,-3.07617],[-60.07324,-3.07617],[-60.07324,-3.03223]]]},"properties":{"ghs":"6xmq9","size":15.26,"ghs_len":5,"ghs_area":23.74,"ghs_bytes":1032961,"ghs_items":1056,"size_unit":"km2","ghsval_unit":"bytes","ghs_itemsdensity":44.49,"size_unitdensity":0.64}},{"type":"Feature","geometry":{"type":"Polygon","coordinates":[[[-60.0293,-3.03223],[-59.98535,-3.03223],[-59.98535,-3.07617],[-60.0293,-3.07617],[-60.0293,-3.03223]]]},"properties":{"ghs":"6xmqd","size":17.58,"ghs_len":5,"ghs_area":23.74,"ghs_bytes":1101113,"ghs_items":1057,"size_unit":"km2","ghsval_unit":"bytes","ghs_itemsdensity":44.53,"size_unitdensity":0.74}},{"type":"Feature","geometry":{"type":"Polygon","coordinates":[[[-59.98535,-3.03223],[-59.94141,-3.03223],[-59.94141,-3.07617],[-59.98535,-3.07617],[-59.98535,-3.03223]]]},"properties":{"ghs":"6xmqe","size":16.64,"ghs_len":5,"ghs_area":23.74,"ghs_bytes":1959412,"ghs_items":1751,"size_unit":"km2","ghsval_unit":"bytes","ghs_itemsdensity":73.76,"size_unitdensity":0.7}},{"type":"Feature","geometry":{"type":"Polygon","coordinates":[[[-60.0293,-2.98828],[-59.98535,-2.98828],[-59.98535,-3.03223],[-60.0293,-3.03223],[-60.0293,-2.98828]]]},"properties":{"ghs":"6xmqf","size":17.37,"ghs_len":5,"ghs_area":23.74,"ghs_bytes":1441878,"ghs_items":1551,"size_unit":"km2","ghsval_unit":"bytes","ghs_itemsdensity":65.33,"size_unitdensity":0.73}},{"type":"Feature","geometry":{"type":"Polygon","coordinates":[[[-59.98535,-2.98828],[-59.94141,-2.98828],[-59.94141,-3.03223],[-59.98535,-3.03223],[-59.98535,-2.98828]]]},"properties":{"ghs":"6xmqg","size":10.41,"ghs_len":5,"ghs_area":23.74,"ghs_bytes":1618721,"ghs_items":1597,"size_unit":"km2","ghsval_unit":"bytes","ghs_itemsdensity":67.27,"size_unitdensity":0.44}},{"type":"Feature","geometry":{"type":"Polygon","coordinates":[[[-59.94141,-3.03223],[-59.89746,-3.03223],[-59.89746,-3.07617],[-59.94141,-3.07617],[-59.94141,-3.03223]]]},"properties":{"ghs":"6xmqs","size":16.42,"ghs_len":5,"ghs_area":23.74,"ghs_bytes":1368775,"ghs_items":1153,"size_unit":"km2","ghsval_unit":"bytes","ghs_itemsdensity":48.57,"size_unitdensity":0.69}}]}
