{"type": "FeatureCollection", "features": [
{"type": "Feature", "geometry": {"type": "Polygon", "coordinates": [[[-59.879742, -2.812227], [-59.880361, -2.810905], [-59.877007, -2.806483], [-59.876139, -2.804969], [-59.874894, -2.802703], [-59.873327, -2.805108], [-59.879742, -2.812227]]]}, "properties": {}},
{"type": "Feature", "geometry": {"type": "Polygon", "coordinates": [[[-60.04792, -2.755387], [-60.049111, -2.755628], [-60.048701, -2.756817], [-60.048663, -2.756926], [-60.04919, -2.757054], [-60.05032, -2.757326], [-60.052633, -2.759562], [-60.053086, -2.760348], [-60.053166, -2.760486], [-60.053336, -2.76078], [-60.055344, -2.763826], [-60.056655, -2.763829], [-60.057357, -2.765149], [-60.058468, -2.764239], [-60.059375, -2.764647], [-60.060788, -2.763738], [-60.0624, -2.764046], [-60.063409, -2.763846], [-60.065223, -2.764053], [-60.067744, -2.763553], [-60.069051, -2.764975], [-60.07037, -2.764871], [-60.071503, -2.76476], [-60.081993, -2.76733], [-60.081048, -2.765005], [-60.081054, -2.762369], [-60.081764, -2.760445], [-60.082575, -2.758521], [-60.08157, -2.757606], [-60.080865, -2.7573], [-60.080061, -2.756183], [-60.080466, -2.755373], [-60.079964, -2.754663], [-60.078855, -2.75466], [-60.078757, -2.753646], [-60.078762, -2.751619], [-60.078664, -2.750301], [-60.078366, -2.748678], [-60.078673, -2.746651], [-60.07969, -2.742802], [-60.079188, -2.742294], [-60.079392, -2.741179], [-60.078588, -2.740265], [-60.077384, -2.737829], [-60.076779, -2.736602], [-60.077023, -2.734056], [-60.079904, -2.729186], [-60.079628, -2.722082], [-60.081441, -2.716943], [-60.068262, -2.716819], [-60.063586, -2.723883], [-60.056453, -2.724344], [-60.054045, -2.72737], [-60.051424, -2.744098], [-60.050482, -2.749848], [-60.050474, -2.749898], [-60.049871, -2.751194], [-60.049721, -2.751516], [-60.049673, -2.751619], [-60.04792, -2.755387]]]}, "properties": {}},
{"type": "Feature", "geometry": {"type": "Polygon", "coordinates": [[[-60.046587, -2.725646], [-60.046359, -2.727768], [-60.046088, -2.729931], [-60.045919, -2.731063], [-60.045574, -2.73318], [-60.045122, -2.73589], [-60.044587, -2.739061], [-60.044308, -2.74079], [-60.044105, -2.742285], [-60.04363, -2.744953], [-60.04335, -2.746724], [-60.04273, -2.750232], [-60.042632, -2.750792], [-60.04256, -2.751384], [-60.042462, -2.75183], [-60.042373, -2.752135], [-60.042186, -2.752509], [-60.041905, -2.752929], [-60.041811, -2.753071], [-60.041045, -2.753998], [-60.041149, -2.754019], [-60.041268, -2.754043], [-60.041489, -2.754088], [-60.04792, -2.755387], [-60.049673, -2.751619], [-60.050474, -2.749898], [-60.050482, -2.749848], [-60.051424, -2.744098], [-60.053221, -2.733128], [-60.053559, -2.731066], [-60.05419, -2.726269], [-60.046828, -2.723602], [-60.046587, -2.725646]]]}, "properties": {}},
{"type": "Feature", "geometry": {"type": "Polygon", "coordinates": [[[-60.039822, -2.755523], [-60.038659, -2.757005], [-60.038341, -2.757414], [-60.038052, -2.757791], [-60.037834, -2.758129], [-60.037681, -2.758448], [-60.037564, -2.758769], [-60.03746, -2.759137], [-60.037356, -2.760487], [-60.03716, -2.763066], [-60.037401, -2.763075], [-60.03916, -2.763153], [-60.039775, -2.763181], [-60.041987, -2.76333], [-60.042383, -2.763321], [-60.042827, -2.763311], [-60.043945, -2.763348], [-60.046416, -2.763432], [-60.048663, -2.756926], [-60.048701, -2.756817], [-60.049111, -2.755628], [-60.04792, -2.755387], [-60.041268, -2.754043], [-60.041045, -2.753998], [-60.039822, -2.755523]]]}, "properties": {}},
{"type": "Feature", "geometry": {"type": "Polygon", "coordinates": [[[-59.89317, -2.722567], [-59.895488, -2.734872], [-59.89634, -2.73503], [-59.914676, -2.739351], [-59.928638, -2.735594], [-59.925984, -2.726004], [-59.923625, -2.716908], [-59.894115, -2.717105], [-59.89317, -2.722567]]]}, "properties": {}},
{"type": "Feature", "geometry": {"type": "Polygon", "coordinates": [[[-59.940487, -2.793356], [-59.940182, -2.791191], [-59.939913, -2.790693], [-59.935864, -2.7832], [-59.934701, -2.780851], [-59.933094, -2.777607], [-59.932965, -2.777347], [-59.932783, -2.776979], [-59.932097, -2.775593], [-59.932071, -2.775542], [-59.931936, -2.775268], [-59.931896, -2.774706], [-59.93186, -2.774188], [-59.931752, -2.772656], [-59.93168, -2.771629], [-59.931637, -2.771024], [-59.93159, -2.770357], [-59.931422, -2.767976], [-59.931685, -2.765478], [-59.933924, -2.761711], [-59.93135, -2.758903], [-59.928604, -2.759002], [-59.92078, -2.759206], [-59.920505, -2.760114], [-59.918529, -2.762259], [-59.918608, -2.763232], [-59.921215, -2.76661], [-59.923028, -2.771452], [-59.922928, -2.77766], [-59.925068, -2.780696], [-59.928846, -2.787421], [-59.929806, -2.7892], [-59.931065, -2.792517], [-59.932894, -2.799236], [-59.933584, -2.804514], [-59.933693, -2.807216], [-59.933764, -2.808373], [-59.934213, -2.809459], [-59.934573, -2.810273], [-59.935413, -2.811335], [-59.935863, -2.81224], [-59.936342, -2.813265], [-59.936316, -2.815421], [-59.93952, -2.822125], [-59.941684, -2.826392], [-59.942204, -2.827872], [-59.942723, -2.832922], [-59.943935, -2.840846], [-59.945254, -2.843664], [-59.947225, -2.844416], [-59.949477, -2.845112], [-59.950429, -2.846331], [-59.953027, -2.844329], [-59.950729, -2.824211], [-59.950716, -2.824097], [-59.95069, -2.823867], [-59.948864, -2.819546], [-59.94601, -2.81279], [-59.94507, -2.810636], [-59.943421, -2.806474], [-59.942712, -2.804459], [-59.942551, -2.803368], [-59.942453, -2.801839], [-59.941974, -2.799789], [-59.940875, -2.795035], [-59.940828, -2.794831], [-59.940487, -2.793356]]]}, "properties": {}},
{"type": "Feature", "geometry": {"type": "Polygon", "coordinates": [[[-60.02747, -2.761052], [-60.027471, -2.76148], [-60.027534, -2.775704], [-60.02725, -2.786162], [-60.02725, -2.786164], [-60.027232, -2.786821], [-60.027024, -2.794486], [-60.027355, -2.794518], [-60.035891, -2.795346], [-60.035982, -2.795354], [-60.036661, -2.795411], [-60.03658, -2.79319], [-60.036551, -2.791774], [-60.036446, -2.788721], [-60.036369, -2.78561], [-60.036381, -2.782404], [-60.036363, -2.777905], [-60.036351, -2.774394], [-60.036315, -2.770715], [-60.036351, -2.769297], [-60.036505, -2.767335], [-60.036588, -2.766534], [-60.036785, -2.764159], [-60.036915, -2.762304], [-60.037118, -2.75972], [-60.037158, -2.759309], [-60.037213, -2.758745], [-60.037302, -2.75844], [-60.037588, -2.757854], [-60.038182, -2.756981], [-60.038974, -2.756047], [-60.039181, -2.755791], [-60.040645, -2.754011], [-60.041336, -2.753204], [-60.041553, -2.752931], [-60.041823, -2.752506], [-60.042039, -2.752061], [-60.042118, -2.751853], [-60.042182, -2.75163], [-60.042232, -2.7514], [-60.042562, -2.749429], [-60.043253, -2.744733], [-60.043758, -2.741724], [-60.044486, -2.737207], [-60.045167, -2.732707], [-60.045828, -2.728641], [-60.046209, -2.726291], [-60.046679, -2.722592], [-60.046987, -2.720539], [-60.047275, -2.718418], [-60.047457, -2.717054], [-60.047633, -2.715655], [-60.047098, -2.715684], [-60.047015, -2.715689], [-60.038844, -2.716053], [-60.035209, -2.736695], [-60.033856, -2.742515], [-60.033693, -2.743218], [-60.032473, -2.748467], [-60.032194, -2.749668], [-60.03194, -2.750759], [-60.028489, -2.756238], [-60.027532, -2.760019], [-60.027515, -2.760085], [-60.027484, -2.760207], [-60.02747, -2.761052]]]}, "properties": {}},
{"type": "Feature", "geometry": {"type": "Polygon", "coordinates": [[[-60.037037, -2.767378], [-60.037012, -2.767367], [-60.036941, -2.76734], [-60.036882, -2.767319], [-60.03684, -2.767314], [-60.03681, -2.767319], [-60.036794, -2.767328], [-60.036785, -2.767339], [-60.036779, -2.767352], [-60.036773, -2.7674], [-60.036765, -2.767558], [-60.036728, -2.768078], [-60.036672, -2.768855], [-60.036618, -2.769732], [-60.036629, -2.770905], [-60.036689, -2.777327], [-60.036717, -2.782945], [-60.036765, -2.786879], [-60.03688, -2.791607], [-60.036975, -2.794622], [-60.03708, -2.796842], [-60.037175, -2.80134], [-60.037199, -2.803451], [-60.037256, -2.804858], [-60.037277, -2.805741], [-60.037277, -2.806258], [-60.037235, -2.806688], [-60.03717, -2.807284], [-60.036778, -2.8105], [-60.036585, -2.812051], [-60.036332, -2.814005], [-60.036228, -2.814835], [-60.036108, -2.815786], [-60.036036, -2.816364], [-60.035957, -2.817053], [-60.036098, -2.817087], [-60.044823, -2.818938], [-60.045904, -2.767713], [-60.037542, -2.767539], [-60.037393, -2.76751], [-60.037221, -2.767454], [-60.037037, -2.767378]]]}, "properties": {}},
{"type": "Feature", "geometry": {"type": "Polygon", "coordinates": [[[-60.079628, -2.722082], [-60.079904, -2.729186], [-60.077023, -2.734056], [-60.076779, -2.736602], [-60.079929, -2.741255], [-60.07887, -2.751831], [-60.119665, -2.750508], [-60.14978, -2.76122], [-60.158118, -2.745845], [-60.156727, -2.74072], [-60.156262, -2.723483], [-60.165063, -2.716494], [-60.166914, -2.700188], [-60.090472, -2.691344], [-60.079628, -2.722082]]]}, "properties": {}},
{"type": "Feature", "geometry": {"type": "Polygon", "coordinates": [[[-60.050178, -2.722264], [-60.055391, -2.723044], [-60.055493, -2.722158], [-60.050285, -2.72141], [-60.050178, -2.722264]]]}, "properties": {}},
{"type": "Feature", "geometry": {"type": "Polygon", "coordinates": [[[-60.055405, -2.723981], [-60.055504, -2.72324], [-60.050129, -2.722365], [-60.049979, -2.723183], [-60.055405, -2.723981]]]}, "properties": {}},
{"type": "Feature", "geometry": {"type": "Polygon", "coordinates": [[[-59.980513, -2.739943], [-59.9829, -2.743039], [-59.985979, -2.745061], [-59.988115, -2.746577], [-59.989749, -2.747082], [-59.991194, -2.747019], [-59.991948, -2.748599], [-59.993267, -2.749294], [-59.995026, -2.749673], [-59.99622, -2.749989], [-59.997351, -2.748788], [-59.998671, -2.748599], [-60.000304, -2.747272], [-60.000618, -2.745503], [-60.001435, -2.742913], [-60.001875, -2.742091], [-60.003697, -2.741839], [-60.005456, -2.741333], [-60.007467, -2.740133], [-60.009352, -2.740701], [-60.011551, -2.741523], [-60.012996, -2.742091], [-60.013812, -2.742534], [-60.015257, -2.742028], [-60.0162, -2.742218], [-60.017582, -2.743292], [-60.018273, -2.745503], [-60.014287, -2.752277], [-60.018836, -2.754642], [-60.019593, -2.755035], [-60.020253, -2.755378], [-60.022629, -2.756613], [-60.02373, -2.757185], [-60.02442, -2.757543], [-60.024169, -2.758756], [-60.027515, -2.760085], [-60.028489, -2.756238], [-60.031498, -2.751461], [-60.03194, -2.750759], [-60.032194, -2.749668], [-60.032473, -2.748467], [-60.033693, -2.743218], [-60.033856, -2.742515], [-60.035209, -2.736695], [-60.035849, -2.733062], [-60.036073, -2.731788], [-60.036148, -2.731367], [-60.036123, -2.731371], [-60.033808, -2.731827], [-60.028631, -2.730574], [-60.025428, -2.732908], [-60.01579, -2.725906], [-60.013462, -2.72696], [-60.012987, -2.72857], [-59.995931, -2.728622], [-59.983166, -2.728167], [-59.981609, -2.728112], [-59.981267, -2.728508], [-59.976241, -2.733815], [-59.980513, -2.739943]]]}, "properties": {}},
{"type": "Feature", "geometry": {"type": "Polygon", "coordinates": [[[-60.047552, -2.719143], [-60.054436, -2.719976], [-60.054571, -2.719], [-60.047622, -2.718146], [-60.047552, -2.719143]]]}, "properties": {}},
{"type": "Feature", "geometry": {"type": "Polygon", "coordinates": [[[-60.049111, -2.709553], [-60.059798, -2.709501], [-60.059577, -2.704761], [-60.049621, -2.70486], [-60.049111, -2.709553]]]}, "properties": {}},
{"type": "Feature", "geometry": {"type": "Polygon", "coordinates": [[[-60.100784, -2.772236], [-60.096555, -2.772301], [-60.082068, -2.767444], [-60.081451, -2.767702], [-60.078364, -2.768991], [-60.077722, -2.769294], [-60.074805, -2.771947], [-60.074392, -2.772323], [-60.073867, -2.772717], [-60.073834, -2.772741], [-60.073635, -2.77289], [-60.073109, -2.773065], [-60.072615, -2.773229], [-60.072529, -2.773457], [-60.072387, -2.773836], [-60.072008, -2.774329], [-60.071948, -2.774384], [-60.071691, -2.774621], [-60.071708, -2.774778], [-60.071727, -2.774966], [-60.071833, -2.775976], [-60.072363, -2.78106], [-60.072465, -2.782032], [-60.073082, -2.787942], [-60.073129, -2.788398], [-60.073178, -2.78884], [-60.081414, -2.78783], [-60.101471, -2.783875], [-60.100784, -2.772236]]]}, "properties": {}},
{"type": "Feature", "geometry": {"type": "Polygon", "coordinates": [[[-60.02442, -2.757543], [-60.014287, -2.752277], [-60.013492, -2.753076], [-59.996679, -2.767313], [-59.999393, -2.770604], [-60.02725, -2.786164], [-60.02725, -2.786162], [-60.027534, -2.775704], [-60.027497, -2.767215], [-60.027476, -2.762473], [-60.02747, -2.761052], [-60.027484, -2.760207], [-60.02734, -2.760152], [-60.024162, -2.758669], [-60.02442, -2.757543]]]}, "properties": {}},
{"type": "Feature", "geometry": {"type": "Polygon", "coordinates": [[[-60.131224, -2.809091], [-60.131969, -2.809725], [-60.132714, -2.809206], [-60.134147, -2.808976], [-60.133468, -2.80784], [-60.129759, -2.798802], [-60.127057, -2.799671], [-60.131224, -2.809091]]]}, "properties": {}},
{"type": "Feature", "geometry": {"type": "Polygon", "coordinates": [[[-59.925568, -2.721698], [-59.926816, -2.726565], [-59.927419, -2.729101], [-59.928629, -2.73266], [-59.929678, -2.736014], [-59.930644, -2.739573], [-59.931287, -2.742395], [-59.932054, -2.744563], [-59.932829, -2.743625], [-59.940761, -2.741356], [-59.945741, -2.732908], [-59.94916, -2.731159], [-59.948361, -2.725557], [-59.949914, -2.72225], [-59.95927, -2.719454], [-59.965112, -2.723842], [-59.9691, -2.722299], [-59.969724, -2.716537], [-59.924157, -2.716953], [-59.925568, -2.721698]]]}, "properties": {}},
{"type": "Feature", "geometry": {"type": "Polygon", "coordinates": [[[-59.983705, -2.608208], [-59.972123, -2.604507], [-59.941386, -2.63384], [-59.872356, -2.691813], [-59.872051, -2.704071], [-59.872385, -2.705325], [-59.935138, -2.704999], [-59.964367, -2.701293], [-60.005717, -2.657207], [-59.993821, -2.604661], [-59.983705, -2.608208]]]}, "properties": {}},
{"type": "Feature", "geometry": {"type": "MultiPolygon", "coordinates": [[[[-59.852662, -2.724791], [-59.853396, -2.725051], [-59.854259, -2.725095], [-59.855382, -2.724878], [-59.857195, -2.724401], [-59.858317, -2.724401], [-59.859094, -2.724661], [-59.860993, -2.725399], [-59.86164, -2.726528], [-59.862115, -2.728438], [-59.862201, -2.729523], [-59.862546, -2.730391], [-59.863151, -2.73152], [-59.863841, -2.732171], [-59.865006, -2.733126], [-59.867855, -2.734211], [-59.869495, -2.734776], [-59.870747, -2.734819], [-59.872172, -2.734733], [-59.873898, -2.734516], [-59.87636, -2.720106], [-59.875929, -2.717328], [-59.872251, -2.717335], [-59.869501, -2.720085], [-59.85073, -2.724166], [-59.851152, -2.724183], [-59.852662, -2.724791]]], [[[-59.842907, -2.729434], [-59.844072, -2.728262], [-59.845195, -2.727568], [-59.846447, -2.726656], [-59.847008, -2.726049], [-59.848788, -2.724588], [-59.846788, -2.725023], [-59.846617, -2.725076], [-59.846459, -2.725159], [-59.840937, -2.728709], [-59.842086, -2.730779], [-59.842907, -2.729434]]]]}, "properties": {}},
{"type": "Feature", "geometry": {"type": "Polygon", "coordinates": [[[-59.967505, -2.824923], [-59.971669, -2.820968], [-59.972395, -2.820279], [-59.97311, -2.819599], [-59.973016, -2.819497], [-59.972155, -2.818275], [-59.971672, -2.815014], [-59.971052, -2.810781], [-59.971054, -2.810761], [-59.97178, -2.804192], [-59.971811, -2.803913], [-59.97257, -2.796697], [-59.968706, -2.796489], [-59.966636, -2.796558], [-59.964359, -2.797391], [-59.960771, -2.798917], [-59.959046, -2.798847], [-59.955527, -2.799749], [-59.952629, -2.800929], [-59.94773, -2.803495], [-59.950558, -2.808699], [-59.950903, -2.809532], [-59.952007, -2.809948], [-59.952835, -2.810434], [-59.953318, -2.811475], [-59.95318, -2.812585], [-59.952835, -2.813556], [-59.953249, -2.814735], [-59.954077, -2.815152], [-59.955654, -2.815473], [-59.955664, -2.815475], [-59.958271, -2.814827], [-59.959941, -2.815645], [-59.961703, -2.816799], [-59.963381, -2.817163], [-59.964225, -2.82139], [-59.964185, -2.822379], [-59.964184, -2.822389], [-59.964184, -2.822399], [-59.964228, -2.822514], [-59.964387, -2.82293], [-59.964421, -2.822963], [-59.964481, -2.82302], [-59.966779, -2.825204], [-59.967505, -2.824923]]]}, "properties": {}},
{"type": "Feature", "geometry": {"type": "Polygon", "coordinates": [[[-59.8954, -2.735111], [-59.89177, -2.734269], [-59.892074, -2.735241], [-59.892319, -2.736213], [-59.892151, -2.741929], [-59.892214, -2.742841], [-59.892699, -2.74357], [-59.893487, -2.744297], [-59.895545, -2.745387], [-59.898088, -2.746536], [-59.900084, -2.747078], [-59.900992, -2.747258], [-59.902624, -2.747255], [-59.904801, -2.747067], [-59.906554, -2.747062], [-59.907461, -2.747121], [-59.908369, -2.747423], [-59.909035, -2.747664], [-59.912062, -2.749116], [-59.913879, -2.750389], [-59.914848, -2.751116], [-59.915515, -2.751905], [-59.915396, -2.752695], [-59.914855, -2.754034], [-59.915099, -2.754946], [-59.916008, -2.755795], [-59.917582, -2.756642], [-59.918611, -2.756944], [-59.919155, -2.756942], [-59.919641, -2.75761], [-59.919944, -2.758096], [-59.920429, -2.758398], [-59.920974, -2.759005], [-59.921984, -2.759008], [-59.931348, -2.758777], [-59.940324, -2.759322], [-59.940682, -2.757375], [-59.931643, -2.74542], [-59.929264, -2.736853], [-59.914639, -2.739564], [-59.8954, -2.735111]]]}, "properties": {}},
{"type": "Feature", "geometry": {"type": "Polygon", "coordinates": [[[-60.081538, -2.761329], [-60.081277, -2.762247], [-60.08131, -2.763099], [-60.081246, -2.763949], [-60.081245, -2.765033], [-60.081768, -2.766494], [-60.082031, -2.76733], [-60.096513, -2.772139], [-60.106447, -2.771986], [-60.107106, -2.770559], [-60.106548, -2.769845], [-60.105889, -2.767348], [-60.104926, -2.763627], [-60.10452, -2.762353], [-60.094282, -2.759041], [-60.092711, -2.758787], [-60.091674, -2.759297], [-60.088453, -2.759246], [-60.085057, -2.757513], [-60.084276, -2.757335], [-60.082646, -2.75874], [-60.082425, -2.760345], [-60.081538, -2.761329]]]}, "properties": {}},
{"type": "Feature", "geometry": {"type": "Polygon", "coordinates": [[[-60.041987, -2.76333], [-60.041992, -2.764015], [-60.046419, -2.764035], [-60.046416, -2.763432], [-60.042827, -2.763311], [-60.041987, -2.76333]]]}, "properties": {}},
{"type": "Feature", "geometry": {"type": "Polygon", "coordinates": [[[-59.95095, -2.722718], [-59.94973, -2.723643], [-59.948758, -2.726043], [-59.949687, -2.731266], [-59.950116, -2.731633], [-59.952196, -2.73212], [-59.953357, -2.732056], [-59.954521, -2.732852], [-59.955315, -2.732665], [-59.956599, -2.732724], [-59.956968, -2.733706], [-59.957582, -2.734688], [-59.958622, -2.735055], [-59.960028, -2.735051], [-59.961008, -2.735848], [-59.961988, -2.736829], [-59.962419, -2.737996], [-59.963525, -2.740145], [-59.964751, -2.74174], [-59.965423, -2.741431], [-59.969045, -2.722919], [-59.964953, -2.72422], [-59.959135, -2.719993], [-59.955042, -2.721232], [-59.95095, -2.722718]]]}, "properties": {}},
{"type": "Feature", "geometry": {"type": "Polygon", "coordinates": [[[-59.93168, -2.771629], [-59.931752, -2.772656], [-59.93186, -2.774188], [-59.931896, -2.774706], [-59.931936, -2.775268], [-59.932071, -2.775542], [-59.932097, -2.775593], [-59.932783, -2.776979], [-59.932965, -2.777347], [-59.933094, -2.777607], [-59.934701, -2.780851], [-59.935864, -2.7832], [-59.939913, -2.790693], [-59.940182, -2.791191], [-59.940487, -2.793356], [-59.940828, -2.794831], [-59.940875, -2.795035], [-59.940983, -2.794995], [-59.953964, -2.790249], [-59.953292, -2.787243], [-59.950983, -2.784317], [-59.945579, -2.777471], [-59.937589, -2.767347], [-59.931813, -2.770253], [-59.93159, -2.770357], [-59.931637, -2.771024], [-59.93168, -2.771629]]]}, "properties": {}},
{"type": "Feature", "geometry": {"type": "Polygon", "coordinates": [[[-60.039513, -2.765556], [-60.04177, -2.765613], [-60.041769, -2.764951], [-60.041806, -2.764017], [-60.041992, -2.764015], [-60.041987, -2.76333], [-60.039775, -2.763181], [-60.039513, -2.765556]]]}, "properties": {}},
{"type": "Feature", "geometry": {"type": "Polygon", "coordinates": [[[-60.039568, -2.76406], [-60.039557, -2.76405], [-60.039533, -2.764027], [-60.039506, -2.764012], [-60.039487, -2.764001], [-60.039463, -2.763994], [-60.039424, -2.763989], [-60.038274, -2.763975], [-60.03829, -2.763892], [-60.039688, -2.763908], [-60.039694, -2.763908], [-60.039698, -2.763881], [-60.039698, -2.763877], [-60.039775, -2.763181], [-60.037401, -2.763075], [-60.03716, -2.763066], [-60.037003, -2.76512], [-60.036836, -2.767036], [-60.036835, -2.767078], [-60.037025, -2.767177], [-60.037101, -2.767205], [-60.037492, -2.767344], [-60.037629, -2.767357], [-60.038407, -2.767358], [-60.039334, -2.767376], [-60.039366, -2.767363], [-60.039379, -2.767338], [-60.039383, -2.767274], [-60.039378, -2.766805], [-60.039372, -2.766326], [-60.039387, -2.765746], [-60.039412, -2.765432], [-60.039459, -2.76506], [-60.039573, -2.764263], [-60.039583, -2.76413], [-60.039579, -2.764088], [-60.039568, -2.76406]]]}, "properties": {}},
{"type": "Feature", "geometry": {"type": "Polygon", "coordinates": [[[-60.041871, -2.765678], [-60.039509, -2.765624], [-60.0395, -2.765966], [-60.039447, -2.767396], [-60.041852, -2.767442], [-60.041871, -2.765678]]]}, "properties": {}},
{"type": "Feature", "geometry": {"type": "Polygon", "coordinates": [[[-60.041921, -2.767505], [-60.045929, -2.767492], [-60.046341, -2.767491], [-60.046376, -2.766691], [-60.046402, -2.766094], [-60.04641, -2.765904], [-60.046412, -2.765874], [-60.046416, -2.765772], [-60.046417, -2.765749], [-60.046419, -2.765702], [-60.04642, -2.765689], [-60.046416, -2.765689], [-60.041921, -2.765677], [-60.041921, -2.767505]]]}, "properties": {}},
{"type": "Feature", "geometry": {"type": "Polygon", "coordinates": [[[-60.046429, -2.765479], [-60.046439, -2.765243], [-60.046472, -2.764479], [-60.046488, -2.764101], [-60.04642, -2.764102], [-60.041879, -2.764087], [-60.041883, -2.765611], [-60.046408, -2.76563], [-60.046422, -2.76563], [-60.046429, -2.765479]]]}, "properties": {}},
{"type": "Feature", "geometry": {"type": "Polygon", "coordinates": [[[-60.049243, -2.720333], [-60.047244, -2.720072], [-60.047132, -2.720899], [-60.049131, -2.721173], [-60.051585, -2.721525], [-60.051699, -2.720686], [-60.049243, -2.720333]]]}, "properties": {}},
{"type": "Feature", "geometry": {"type": "Polygon", "coordinates": [[[-60.032693, -2.715796], [-60.013181, -2.716048], [-59.992852, -2.7162], [-59.981073, -2.716266], [-59.969764, -2.716521], [-59.970318, -2.721261], [-59.981609, -2.728112], [-59.995931, -2.728622], [-60.012987, -2.72857], [-60.013462, -2.72696], [-60.01579, -2.725906], [-60.025428, -2.732908], [-60.028631, -2.730574], [-60.033808, -2.731827], [-60.036123, -2.731371], [-60.036148, -2.731367], [-60.036158, -2.731307], [-60.038471, -2.718172], [-60.038844, -2.716053], [-60.038646, -2.716047], [-60.032693, -2.715796]]]}, "properties": {}},
{"type": "Feature", "geometry": {"type": "Polygon", "coordinates": [[[-59.973525, -2.770468], [-59.983, -2.769142], [-59.982365, -2.768749], [-59.980631, -2.768037], [-59.979117, -2.766318], [-59.97289, -2.768209], [-59.973525, -2.770468]]]}, "properties": {}},
{"type": "Feature", "geometry": {"type": "Polygon", "coordinates": [[[-60.050039, -2.722243], [-60.050151, -2.721393], [-60.047117, -2.721006], [-60.04702, -2.721763], [-60.046828, -2.723602], [-60.049657, -2.724627], [-60.050039, -2.722243]]]}, "properties": {}},
{"type": "Feature", "geometry": {"type": "Polygon", "coordinates": [[[-60.054318, -2.720937], [-60.054417, -2.720052], [-60.048083, -2.719259], [-60.047974, -2.720103], [-60.054318, -2.720937]]]}, "properties": {}},
{"type": "Feature", "geometry": {"type": "Polygon", "coordinates": [[[-60.040293, -2.26793], [-60.040846, -2.27241], [-60.041333, -2.276311], [-60.041904, -2.281078], [-60.042529, -2.286013], [-60.043154, -2.291164], [-60.043805, -2.296688], [-60.043845, -2.297024], [-60.044877, -2.305269], [-60.045358, -2.309815], [-60.045959, -2.314422], [-60.04656, -2.319422], [-60.047173, -2.324435], [-60.047613, -2.327797], [-60.047756, -2.328982], [-60.047744, -2.329466], [-60.047702, -2.33004], [-60.0475, -2.331207], [-60.046947, -2.334294], [-60.046483, -2.337213], [-60.046156, -2.340288], [-60.045681, -2.34475], [-60.044753, -2.349691], [-60.043855, -2.354381], [-60.042993, -2.358742], [-60.042333, -2.362206], [-60.042101, -2.363707], [-60.041771, -2.367452], [-60.04159, -2.369902], [-60.04139, -2.371997], [-60.041158, -2.375299], [-60.040932, -2.376645], [-60.040784, -2.377578], [-60.040207, -2.380072], [-60.039244, -2.384415], [-60.038155, -2.38944], [-60.037421, -2.392611], [-60.036924, -2.39483], [-60.036437, -2.397034], [-60.035908, -2.399535], [-60.035426, -2.401694], [-60.034867, -2.40421], [-60.034308, -2.406624], [-60.03374, -2.409333], [-60.033163, -2.411918], [-60.032705, -2.413999], [-60.032221, -2.416072], [-60.031706, -2.418456], [-60.031389, -2.419891], [-60.03115, -2.420974], [-60.030689, -2.423068], [-60.03019, -2.425305], [-60.029783, -2.427279], [-60.029236, -2.429684], [-60.028703, -2.432143], [-60.028091, -2.43485], [-60.027677, -2.436626], [-60.027243, -2.438606], [-60.026771, -2.44067], [-60.026265, -2.442833], [-60.025816, -2.444878], [-60.025328, -2.447146], [-60.025117, -2.448061], [-60.025034, -2.448632], [-60.024991, -2.44898], [-60.024979, -2.449454], [-60.025007, -2.450016], [-60.025055, -2.450416], [-60.025138, -2.450842], [-60.025279, -2.451498], [-60.025743, -2.453594], [-60.026147, -2.455386], [-60.026582, -2.457369], [-60.026865, -2.45869], [-60.027306, -2.460719], [-60.027679, -2.46238], [-60.028098, -2.464294], [-60.028521, -2.46617], [-60.028912, -2.467998], [-60.029292, -2.469707], [-60.029711, -2.471683], [-60.030139, -2.473659], [-60.030406, -2.474892], [-60.030815, -2.476741], [-60.031172, -2.478366], [-60.031481, -2.47984], [-60.031864, -2.481608], [-60.032307, -2.48364], [-60.032907, -2.486245], [-60.033153, -2.487426], [-60.033452, -2.488736], [-60.033638, -2.489727], [-60.033962, -2.491216], [-60.034251, -2.492581], [-60.034561, -2.493967], [-60.03483, -2.495244], [-60.035067, -2.496371], [-60.035307, -2.497671], [-60.035524, -2.498923], [-60.035739, -2.500196], [-60.035931, -2.501252], [-60.036106, -2.502282], [-60.036201, -2.502816], [-60.036302, -2.503527], [-60.036316, -2.504044], [-60.038566, -2.504278], [-60.092083, -2.513278], [-60.138739, -2.471133], [-60.098459, -2.45974], [-60.110825, -2.281077], [-60.108613, -2.250985], [-60.041949, -2.267607], [-60.040293, -2.26793]]]}, "properties": {}},
{"type": "Feature", "geometry": {"type": "Polygon", "coordinates": [[[-60.093105, -2.805689], [-60.09721, -2.802811], [-60.098596, -2.802748], [-60.101203, -2.801688], [-60.101787, -2.801209], [-60.101529, -2.78411], [-60.0864, -2.786644], [-60.084164, -2.787253], [-60.083599, -2.808933], [-60.085607, -2.808965], [-60.093105, -2.805689]]]}, "properties": {}},
{"type": "Feature", "geometry": {"type": "Polygon", "coordinates": [[[-59.93487, -2.812864], [-59.93441, -2.811476], [-59.933214, -2.810366], [-59.932846, -2.809256], [-59.932662, -2.808053], [-59.932478, -2.806203], [-59.932294, -2.804631], [-59.93211, -2.802965], [-59.93211, -2.801115], [-59.931927, -2.799542], [-59.931283, -2.797692], [-59.930639, -2.795194], [-59.930455, -2.793992], [-59.929995, -2.792696], [-59.929259, -2.790846], [-59.928707, -2.789458], [-59.927327, -2.787516], [-59.926315, -2.786035], [-59.925579, -2.784278], [-59.925027, -2.783167], [-59.924199, -2.78215], [-59.923739, -2.780762], [-59.922819, -2.779837], [-59.92236, -2.778634], [-59.922544, -2.776784], [-59.922636, -2.775119], [-59.922636, -2.773639], [-59.922452, -2.772343], [-59.92236, -2.771048], [-59.921808, -2.769661], [-59.921624, -2.76855], [-59.92052, -2.766885], [-59.919048, -2.765405], [-59.918036, -2.764202], [-59.918037, -2.762999], [-59.918313, -2.762167], [-59.918957, -2.761334], [-59.920245, -2.760317], [-59.920245, -2.759022], [-59.919417, -2.758004], [-59.918497, -2.757356], [-59.916841, -2.756524], [-59.914909, -2.755413], [-59.914265, -2.754211], [-59.914633, -2.753378], [-59.915093, -2.752083], [-59.914265, -2.751158], [-59.912793, -2.750233], [-59.911597, -2.749307], [-59.909114, -2.748382], [-59.909092, -2.748542], [-59.908929, -2.74977], [-59.908233, -2.773504], [-59.908099, -2.778078], [-59.907544, -2.795419], [-59.90782, -2.822946], [-59.919701, -2.820747], [-59.919816, -2.82071], [-59.928886, -2.817777], [-59.935725, -2.815648], [-59.936095, -2.815532], [-59.936066, -2.815455], [-59.935514, -2.814067], [-59.93487, -2.812864]]]}, "properties": {}},
{"type": "Feature", "geometry": {"type": "Polygon", "coordinates": [[[-60.067835, -2.775158], [-60.066217, -2.775918], [-60.064167, -2.778088], [-60.062548, -2.778305], [-60.060472, -2.777686], [-60.057584, -2.776244], [-60.055975, -2.776109], [-60.0559, -2.776103], [-60.054995, -2.776027], [-60.054605, -2.776156], [-60.051218, -2.779174], [-60.049276, -2.779499], [-60.045871, -2.778323], [-60.045823, -2.778306], [-60.046074, -2.789223], [-60.056388, -2.789328], [-60.057184, -2.794281], [-60.072878, -2.78849], [-60.073129, -2.788398], [-60.071692, -2.774632], [-60.071691, -2.774621], [-60.071687, -2.774578], [-60.071621, -2.774611], [-60.070533, -2.774724], [-60.069562, -2.774507], [-60.068807, -2.77505], [-60.067835, -2.775158]]]}, "properties": {}},
{"type": "Feature", "geometry": {"type": "Polygon", "coordinates": [[[-60.036138, -2.812907], [-60.03618, -2.812462], [-60.036271, -2.811849], [-60.036452, -2.810385], [-60.036547, -2.809571], [-60.036728, -2.808035], [-60.036828, -2.806772], [-60.036861, -2.806183], [-60.03687, -2.805633], [-60.036856, -2.803685], [-60.036794, -2.802182], [-60.036751, -2.8], [-60.036718, -2.797569], [-60.036661, -2.795411], [-60.035891, -2.795346], [-60.035692, -2.795327], [-60.035463, -2.795305], [-60.032475, -2.795015], [-60.027355, -2.794518], [-60.027024, -2.794486], [-60.027232, -2.786821], [-60.026824, -2.786591], [-59.998858, -2.770818], [-59.994698, -2.76549], [-59.991224, -2.777049], [-59.990675, -2.778874], [-59.989174, -2.778109], [-59.973667, -2.778482], [-59.972653, -2.796665], [-59.977098, -2.79716], [-59.985486, -2.797263], [-59.989845, -2.798352], [-59.994334, -2.79836], [-59.995551, -2.798564], [-59.996766, -2.799136], [-59.998289, -2.800474], [-59.999434, -2.801183], [-60.000183, -2.801432], [-60.000689, -2.801994], [-60.001283, -2.803429], [-59.999732, -2.813], [-59.997941, -2.821288], [-60.000762, -2.820592], [-60.003855, -2.817698], [-60.00794, -2.817795], [-60.012459, -2.817947], [-60.013212, -2.818123], [-60.013639, -2.818238], [-60.014781, -2.81259], [-60.015732, -2.814218], [-60.016405, -2.815037], [-60.017618, -2.815506], [-60.018231, -2.821742], [-60.019916, -2.822114], [-60.020138, -2.82212], [-60.020353, -2.822446], [-60.021433, -2.822395], [-60.022, -2.822586], [-60.022675, -2.822398], [-60.023188, -2.822562], [-60.023702, -2.822156], [-60.024134, -2.821913], [-60.024379, -2.821452], [-60.025404, -2.821509], [-60.025783, -2.821211], [-60.026362, -2.816381], [-60.035674, -2.8173], [-60.035889, -2.815424], [-60.036138, -2.812907]]]}, "properties": {}},
{"type": "Feature", "geometry": {"type": "Polygon", "coordinates": [[[-60.053086, -2.760348], [-60.053037, -2.760317], [-60.052992, -2.760288], [-60.051996, -2.759662], [-60.050376, -2.75814], [-60.049509, -2.75772], [-60.049055, -2.757985], [-60.048479, -2.757635], [-60.046493, -2.763993], [-60.046416, -2.765772], [-60.046341, -2.767491], [-60.045871, -2.778323], [-60.045895, -2.778331], [-60.045896, -2.778331], [-60.046067, -2.77839], [-60.04614, -2.778416], [-60.048701, -2.779301], [-60.049276, -2.779499], [-60.049498, -2.779462], [-60.04962, -2.779442], [-60.049698, -2.779429], [-60.051218, -2.779174], [-60.052748, -2.77781], [-60.05421, -2.776508], [-60.054605, -2.776156], [-60.054995, -2.776027], [-60.0559, -2.776103], [-60.055975, -2.776109], [-60.05607, -2.776117], [-60.057584, -2.776244], [-60.060472, -2.777686], [-60.062548, -2.778305], [-60.064167, -2.778088], [-60.066217, -2.775918], [-60.066518, -2.775777], [-60.067835, -2.775158], [-60.068807, -2.77505], [-60.069562, -2.774507], [-60.070533, -2.774724], [-60.071299, -2.774645], [-60.071621, -2.774611], [-60.071687, -2.774578], [-60.071691, -2.774621], [-60.071948, -2.774384], [-60.072007, -2.77433], [-60.072008, -2.774329], [-60.072387, -2.773836], [-60.072529, -2.773457], [-60.072615, -2.773229], [-60.073109, -2.773065], [-60.073635, -2.77289], [-60.073834, -2.772741], [-60.073867, -2.772717], [-60.074392, -2.772323], [-60.074805, -2.771947], [-60.074846, -2.771909], [-60.077722, -2.769294], [-60.078364, -2.768991], [-60.081451, -2.767702], [-60.082068, -2.767444], [-60.071466, -2.764926], [-60.070974, -2.765139], [-60.069841, -2.765022], [-60.068821, -2.765475], [-60.067766, -2.764447], [-60.067049, -2.76418], [-60.065879, -2.764329], [-60.063236, -2.76436], [-60.062253, -2.764623], [-60.061537, -2.764242], [-60.060329, -2.764087], [-60.059648, -2.764655], [-60.058024, -2.764954], [-60.057721, -2.765371], [-60.056966, -2.765256], [-60.056062, -2.764494], [-60.05508, -2.764454], [-60.054093, -2.763516], [-60.053727, -2.761945], [-60.05322, -2.760626], [-60.053166, -2.760486], [-60.053086, -2.760348]]]}, "properties": {}},
{"type": "Feature", "geometry": {"type": "Polygon", "coordinates": [[[-59.908513, -2.763967], [-59.908571, -2.761983], [-59.908708, -2.757311], [-59.908777, -2.754984], [-59.908929, -2.74977], [-59.908963, -2.749514], [-59.908986, -2.749346], [-59.909092, -2.748542], [-59.909114, -2.748382], [-59.90662, -2.747807], [-59.900625, -2.748013], [-59.894477, -2.745667], [-59.891845, -2.744049], [-59.891453, -2.743193], [-59.891322, -2.74135], [-59.891519, -2.737797], [-59.891323, -2.735822], [-59.890734, -2.73444], [-59.890014, -2.733848], [-59.883401, -2.76129], [-59.871843, -2.799567], [-59.876965, -2.799632], [-59.896091, -2.800091], [-59.906757, -2.800215], [-59.907307, -2.800222], [-59.907592, -2.800223], [-59.907586, -2.799596], [-59.907572, -2.798251], [-59.907544, -2.795419], [-59.908099, -2.778078], [-59.908233, -2.773504], [-59.908312, -2.770835], [-59.908345, -2.769709], [-59.908513, -2.763967]]]}, "properties": {}},
{"type": "Feature", "geometry": {"type": "Polygon", "coordinates": [[[-60.047866, -2.720061], [-60.047967, -2.719253], [-60.047478, -2.719179], [-60.047376, -2.720004], [-60.047866, -2.720061]]]}, "properties": {}},
{"type": "Feature", "geometry": {"type": "Polygon", "coordinates": [[[-59.967667, -2.761953], [-59.958336, -2.758258], [-59.932978, -2.760679], [-59.933924, -2.761711], [-59.931685, -2.765478], [-59.931422, -2.767976], [-59.93159, -2.770357], [-59.937589, -2.767347], [-59.953292, -2.787243], [-59.966068, -2.768489], [-59.967667, -2.761953]]]}, "properties": {}},
{"type": "Feature", "geometry": {"type": "Polygon", "coordinates": [[[-60.059827, -2.721744], [-60.055767, -2.721161], [-60.055654, -2.722], [-60.059713, -2.722582], [-60.059827, -2.721744]]]}, "properties": {}},
{"type": "Feature", "geometry": {"type": "Polygon", "coordinates": [[[-60.055243, -2.724919], [-60.055343, -2.724177], [-60.049968, -2.723303], [-60.049817, -2.724121], [-60.055243, -2.724919]]]}, "properties": {}},
{"type": "Feature", "geometry": {"type": "Polygon", "coordinates": [[[-60.055091, -2.72579], [-60.05519, -2.725048], [-60.049815, -2.724174], [-60.049727, -2.724652], [-60.051336, -2.725238], [-60.055091, -2.72579]]]}, "properties": {}}]}
