{"type":"FeatureCollection","features":[{"type":"Feature","geometry":{"type":"MultiPolygon","coordinates":[[[[-42.80369,-5.16778],[-42.80372,-5.16754],[-42.8036,-5.16212],[-42.80456,-5.15939],[-42.80462,-5.15915],[-42.80467,-5.15866],[-42.8053,-5.15236],[-42.80594,-5.14917],[-42.80979,-5.143],[-42.80982,-5.14294],[-42.81326,-5.13662],[-42.81335,-5.13637],[-42.81404,-5.13347],[-42.81524,-5.12857],[-42.81524,-5.12854],[-42.81675,-5.1216],[-42.81677,-5.12149],[-42.81785,-5.11113],[-42.81785,-5.11107],[-42.81821,-5.1029],[-42.81904,-5.09973],[-42.81907,-5.0995],[-42.81908,-5.09864],[-42.81949,-5.09766],[-42.80273,-5.09766],[-42.80273,-5.10315],[-42.80273,-5.10864],[-42.80273,-5.13611],[-42.80273,-5.1416],[-42.80273,-5.17197],[-42.80369,-5.16778]]],[[[-42.8199,-5.27025],[-42.81993,-5.2702],[-42.82104,-5.26814],[-42.82106,-5.2681],[-42.82241,-5.26528],[-42.82472,-5.26345],[-42.82486,-5.26331],[-42.82498,-5.26315],[-42.82505,-5.26298],[-42.82606,-5.25993],[-42.82608,-5.25985],[-42.82833,-5.25037],[-42.82955,-5.24608],[-42.82958,-5.24597],[-42.8301,-5.24286],[-42.83011,-5.24273],[-42.83023,-5.23948],[-42.83021,-5.23921],[-42.82901,-5.23418],[-42.82894,-5.23398],[-42.82883,-5.23379],[-42.82477,-5.22863],[-42.82476,-5.22861],[-42.8217,-5.22487],[-42.82161,-5.22477],[-42.82049,-5.22372],[-42.81404,-5.21688],[-42.81403,-5.21688],[-42.80754,-5.21006],[-42.80648,-5.20828],[-42.80517,-5.20609],[-42.8031,-5.20244],[-42.80219,-5.20083],[-42.80076,-5.19661],[-42.8007,-5.19635],[-42.79991,-5.19283],[-42.79935,-5.19032],[-42.79948,-5.18886],[-42.79949,-5.18876],[-42.79948,-5.18674],[-42.79948,-5.18555],[-42.79948,-5.18555],[-42.75879,-5.18555],[-42.75879,-5.1416],[-42.71484,-5.1416],[-42.71484,-5.09766],[-42.59988,-5.09766],[-42.59972,-5.12091],[-42.59969,-5.12191],[-42.59969,-5.12192],[-42.598,-5.19364],[-42.598,-5.19372],[-42.5982,-5.19748],[-42.5982,-5.1975],[-42.59897,-5.2079],[-42.60012,-5.23274],[-42.60052,-5.25188],[-42.60054,-5.25206],[-42.60059,-5.25225],[-42.60069,-5.25241],[-42.60081,-5.25256],[-42.60095,-5.25268],[-42.60112,-5.25277],[-42.6013,-5.25283],[-42.60149,-5.25285],[-42.60168,-5.25284],[-42.63017,-5.24799],[-42.63032,-5.24795],[-42.63271,-5.24715],[-42.65724,-5.27344],[-42.81792,-5.27344],[-42.8199,-5.27025]],[[-42.75879,-5.22949],[-42.71484,-5.22949],[-42.71484,-5.18555],[-42.75879,-5.18555],[-42.75879,-5.22949]]]]},"properties":{"ghs":"7p1d","ghs_len":4,"ghs_area":354.53,"ghs_bytes":938358,"ghs_items":17780,"ghsval_unit":"items","ghs_itemsdensity":50.15}},{"type":"Feature","geometry":{"type":"Polygon","coordinates":[[[-42.71484,-5.18555],[-42.71484,-5.22949],[-42.75879,-5.22949],[-42.75879,-5.18555],[-42.71484,-5.18555]]]},"properties":{"ghs":"7p1d7","ghs_len":5,"ghs_area":23.68,"ghs_bytes":420364,"ghs_items":7966,"ghsval_unit":"items","ghs_itemsdensity":336.46}},{"type":"Feature","geometry":{"type":"Polygon","coordinates":[[[-42.81372,-5.02075],[-42.80273,-5.02075],[-42.80273,-5.02625],[-42.81372,-5.02625],[-42.81372,-5.02075]]]},"properties":{"ghs":"7p1e3v","ghs_len":6,"ghs_area":0.74,"ghs_bytes":130919,"ghs_items":2480,"ghsval_unit":"items","ghs_itemsdensity":3351.03}},{"type":"Feature","geometry":{"type":"Polygon","coordinates":[[[-42.80273,-5.1416],[-42.79175,-5.1416],[-42.75879,-5.1416],[-42.75879,-5.18555],[-42.79948,-5.18555],[-42.80042,-5.1821],[-42.80043,-5.18206],[-42.80273,-5.17197],[-42.80273,-5.1416]],[[-42.79175,-5.15259],[-42.78076,-5.15259],[-42.78076,-5.14709],[-42.79175,-5.14709],[-42.79175,-5.15259]]]},"properties":{"ghs":"7p1dd","ghs_len":5,"ghs_area":22.68,"ghs_bytes":901707,"ghs_items":17084,"ghsval_unit":"items","ghs_itemsdensity":753.39}},{"type":"Feature","geometry":{"type":"Polygon","coordinates":[[[-42.79175,-5.14709],[-42.78076,-5.14709],[-42.78076,-5.15259],[-42.79175,-5.15259],[-42.79175,-5.14709]]]},"properties":{"ghs":"7p1ddq","ghs_len":6,"ghs_area":0.74,"ghs_bytes":165936,"ghs_items":3144,"ghsval_unit":"items","ghs_itemsdensity":4249.05}},{"type":"Feature","geometry":{"type":"Polygon","coordinates":[[[-42.79175,-5.10864],[-42.79175,-5.10315],[-42.80273,-5.10315],[-42.80273,-5.09766],[-42.75879,-5.09766],[-42.75879,-5.10315],[-42.76978,-5.10315],[-42.76978,-5.10864],[-42.75879,-5.10864],[-42.75879,-5.1416],[-42.79175,-5.1416],[-42.79175,-5.13611],[-42.80273,-5.13611],[-42.80273,-5.10864],[-42.79175,-5.10864]],[[-42.79175,-5.11963],[-42.78076,-5.11963],[-42.78076,-5.11414],[-42.79175,-5.11414],[-42.79175,-5.11963]]]},"properties":{"ghs":"7p1df","ghs_len":5,"ghs_area":20.72,"ghs_bytes":1022276,"ghs_items":19369,"ghsval_unit":"items","ghs_itemsdensity":934.85}},{"type":"Feature","geometry":{"type":"Polygon","coordinates":[[[-42.80273,-5.13611],[-42.79175,-5.13611],[-42.79175,-5.1416],[-42.80273,-5.1416],[-42.80273,-5.13611]]]},"properties":{"ghs":"7p1df0","ghs_len":6,"ghs_area":0.74,"ghs_bytes":80611,"ghs_items":1527,"ghsval_unit":"items","ghs_itemsdensity":2063.67}},{"type":"Feature","geometry":{"type":"Polygon","coordinates":[[[-42.79175,-5.11414],[-42.78076,-5.11414],[-42.78076,-5.11963],[-42.79175,-5.11963],[-42.79175,-5.11414]]]},"properties":{"ghs":"7p1dfk","ghs_len":6,"ghs_area":0.74,"ghs_bytes":94171,"ghs_items":1784,"ghsval_unit":"items","ghs_itemsdensity":2410.92}},{"type":"Feature","geometry":{"type":"Polygon","coordinates":[[[-42.80273,-5.10315],[-42.79175,-5.10315],[-42.79175,-5.10864],[-42.80273,-5.10864],[-42.80273,-5.10315]]]},"properties":{"ghs":"7p1dfn","ghs_len":6,"ghs_area":0.74,"ghs_bytes":85578,"ghs_items":1622,"ghsval_unit":"items","ghs_itemsdensity":2191.95}},{"type":"Feature","geometry":{"type":"Polygon","coordinates":[[[-42.76978,-5.10315],[-42.75879,-5.10315],[-42.75879,-5.10864],[-42.76978,-5.10864],[-42.76978,-5.10315]]]},"properties":{"ghs":"7p1dfy","ghs_len":6,"ghs_area":0.74,"ghs_bytes":95982,"ghs_items":1819,"ghsval_unit":"items","ghs_itemsdensity":2458.18}},{"type":"Feature","geometry":{"type":"Polygon","coordinates":[[[-42.75879,-5.10315],[-42.75879,-5.09766],[-42.7478,-5.09766],[-42.7478,-5.10315],[-42.73682,-5.10315],[-42.73682,-5.09766],[-42.71484,-5.09766],[-42.71484,-5.1416],[-42.75879,-5.1416],[-42.75879,-5.10864],[-42.75879,-5.10315]]]},"properties":{"ghs":"7p1dg","ghs_len":5,"ghs_area":22.94,"ghs_bytes":969187,"ghs_items":18365,"ghsval_unit":"items","ghs_itemsdensity":800.6}},{"type":"Feature","geometry":{"type":"Polygon","coordinates":[[[-42.7478,-5.09766],[-42.73682,-5.09766],[-42.73682,-5.10315],[-42.7478,-5.10315],[-42.7478,-5.09766]]]},"properties":{"ghs":"7p1dgr","ghs_len":6,"ghs_area":0.74,"ghs_bytes":133153,"ghs_items":2522,"ghsval_unit":"items","ghs_itemsdensity":3408.17}},{"type":"Feature","geometry":{"type":"Polygon","coordinates":[[[-42.84869,-5.01793],[-42.84881,-5.01774],[-42.85224,-5.01073],[-42.8523,-5.01057],[-42.85234,-5.0104],[-42.85234,-5.01023],[-42.85232,-5.01006],[-42.85137,-5.00615],[-42.85479,-4.99949],[-42.8577,-4.99456],[-42.8578,-4.99433],[-42.86123,-4.9827],[-42.86125,-4.98263],[-42.86382,-4.97066],[-42.86384,-4.97049],[-42.86384,-4.97032],[-42.86298,-4.96365],[-42.86292,-4.96342],[-42.85697,-4.94809],[-42.8546,-4.94095],[-42.85521,-4.93738],[-42.85703,-4.93413],[-42.86529,-4.93067],[-42.86545,-4.93058],[-42.86559,-4.93047],[-42.87097,-4.92536],[-42.87109,-4.92522],[-42.87271,-4.92297],[-42.87349,-4.92188],[-42.60078,-4.92188],[-42.60066,-4.95522],[-42.60052,-5.00414],[-42.60052,-5.00414],[-42.60052,-5.00617],[-42.60051,-5.00695],[-42.59988,-5.09766],[-42.71484,-5.09766],[-42.71484,-5.05371],[-42.71484,-5.00977],[-42.75879,-5.00977],[-42.75879,-5.05371],[-42.80273,-5.05371],[-42.80273,-5.02625],[-42.80273,-5.02075],[-42.80273,-5.00977],[-42.80273,-4.96582],[-42.84668,-4.96582],[-42.84668,-5.00977],[-42.84668,-5.02042],[-42.84869,-5.01793]]]},"properties":{"ghs":"7p1e","ghs_len":4,"ghs_area":403.34,"ghs_bytes":776337,"ghs_items":14710,"ghsval_unit":"items","ghs_itemsdensity":36.47}},{"type":"Feature","geometry":{"type":"Polygon","coordinates":[[[-42.82097,-5.09408],[-42.82179,-5.09254],[-42.82279,-5.09089],[-42.82404,-5.08917],[-42.82963,-5.08382],[-42.8298,-5.0836],[-42.83553,-5.07375],[-42.83942,-5.06889],[-42.83954,-5.0687],[-42.83961,-5.0685],[-42.8415,-5.06063],[-42.84152,-5.06049],[-42.84219,-5.05371],[-42.83569,-5.05371],[-42.83569,-5.0592],[-42.82471,-5.0592],[-42.82471,-5.05371],[-42.80273,-5.05371],[-42.80273,-5.09766],[-42.81949,-5.09766],[-42.82097,-5.09408]]]},"properties":{"ghs":"7p1e1","ghs_len":5,"ghs_area":15.69,"ghs_bytes":994783,"ghs_items":18848,"ghsval_unit":"items","ghs_itemsdensity":1200.93}},{"type":"Feature","geometry":{"type":"Polygon","coordinates":[[[-42.83569,-5.05371],[-42.82471,-5.05371],[-42.82471,-5.0592],[-42.83569,-5.0592],[-42.83569,-5.05371]]]},"properties":{"ghs":"7p1e1r","ghs_len":6,"ghs_area":0.74,"ghs_bytes":93977,"ghs_items":1780,"ghsval_unit":"items","ghs_itemsdensity":2405.29}},{"type":"Feature","geometry":{"type":"Polygon","coordinates":[[[-42.84668,-5.00977],[-42.80273,-5.00977],[-42.80273,-5.02075],[-42.81372,-5.02075],[-42.81372,-5.02625],[-42.80273,-5.02625],[-42.80273,-5.05371],[-42.82471,-5.05371],[-42.83569,-5.05371],[-42.84219,-5.05371],[-42.84221,-5.05349],[-42.84303,-5.04653],[-42.84396,-5.04166],[-42.84506,-5.03815],[-42.8451,-5.0379],[-42.84539,-5.03243],[-42.84537,-5.0322],[-42.8453,-5.03197],[-42.84416,-5.02935],[-42.84566,-5.02169],[-42.84668,-5.02042],[-42.84668,-5.00977]],[[-42.81372,-5.03174],[-42.82471,-5.03174],[-42.82471,-5.03723],[-42.81372,-5.03723],[-42.81372,-5.03174]]]},"properties":{"ghs":"7p1e3","ghs_len":5,"ghs_area":21.21,"ghs_bytes":985653,"ghs_items":18677,"ghsval_unit":"items","ghs_itemsdensity":880.4}},{"type":"Feature","geometry":{"type":"Polygon","coordinates":[[[-42.82471,-5.03174],[-42.81372,-5.03174],[-42.81372,-5.03723],[-42.82471,-5.03723],[-42.82471,-5.03174]]]},"properties":{"ghs":"7p1e3e","ghs_len":6,"ghs_area":0.74,"ghs_bytes":111872,"ghs_items":2120,"ghsval_unit":"items","ghs_itemsdensity":2864.64}},{"type":"Feature","geometry":{"type":"Polygon","coordinates":[[[-42.75879,-5.05371],[-42.75879,-5.09766],[-42.80273,-5.09766],[-42.80273,-5.05371],[-42.75879,-5.05371]]]},"properties":{"ghs":"7p1e4","ghs_len":5,"ghs_area":23.68,"ghs_bytes":950554,"ghs_items":18011,"ghsval_unit":"items","ghs_itemsdensity":760.59}},{"type":"Feature","geometry":{"type":"Polygon","coordinates":[[[-42.71484,-5.05371],[-42.71484,-5.09766],[-42.73682,-5.09766],[-42.7478,-5.09766],[-42.75879,-5.09766],[-42.75879,-5.05371],[-42.71484,-5.05371]]]},"properties":{"ghs":"7p1e5","ghs_len":5,"ghs_area":23.68,"ghs_bytes":941042,"ghs_items":17830,"ghsval_unit":"items","ghs_itemsdensity":752.95}},{"type":"Feature","geometry":{"type":"Polygon","coordinates":[[[-42.71484,-5.00977],[-42.71484,-5.05371],[-42.75879,-5.05371],[-42.75879,-5.00977],[-42.71484,-5.00977]]]},"properties":{"ghs":"7p1e7","ghs_len":5,"ghs_area":23.68,"ghs_bytes":830806,"ghs_items":15741,"ghsval_unit":"items","ghs_itemsdensity":664.68}},{"type":"Feature","geometry":{"type":"Polygon","coordinates":[[[-42.80273,-4.96582],[-42.80273,-5.00977],[-42.84668,-5.00977],[-42.84668,-4.96582],[-42.80273,-4.96582]]]},"properties":{"ghs":"7p1e9","ghs_len":5,"ghs_area":23.68,"ghs_bytes":694236,"ghs_items":13155,"ghsval_unit":"items","ghs_itemsdensity":555.45}}]}
