{"type":"FeatureCollection","features":[{"type":"Feature","geometry":{"type":"MultiPolygon","coordinates":[[[[-52.33092,-29.53125],[-52.33134,-29.53157],[-52.33159,-29.53183],[-52.33175,-29.53214],[-52.33186,-29.5323],[-52.33227,-29.53281],[-52.33199,-29.53289],[-52.33175,-29.53299],[-52.33112,-29.53338],[-52.33107,-29.53341],[-52.33074,-29.53363],[-52.33049,-29.53374],[-52.33035,-29.53378],[-52.3301,-29.53379],[-52.32984,-29.53381],[-52.32959,-29.53385],[-52.32929,-29.53394],[-52.32909,-29.53403],[-52.32879,-29.5342],[-52.3287,-29.53426],[-52.32827,-29.53458],[-52.32814,-29.53468],[-52.32804,-29.53481],[-52.32789,-29.53502],[-52.32771,-29.5352],[-52.32758,-29.53537],[-52.32749,-29.53557],[-52.32739,-29.53584],[-52.32734,-29.53605],[-52.32734,-29.53627],[-52.32738,-29.53649],[-52.32748,-29.53678],[-52.32758,-29.53698],[-52.32772,-29.53716],[-52.32791,-29.53736],[-52.32792,-29.53738],[-52.32839,-29.53782],[-52.32841,-29.53785],[-52.32891,-29.5383],[-52.32934,-29.53879],[-52.32942,-29.53888],[-52.32976,-29.53918],[-52.32996,-29.53939],[-52.32996,-29.53939],[-52.32986,-29.53954],[-52.3298,-29.53963],[-52.3296,-29.54001],[-52.32951,-29.54022],[-52.32942,-29.54057],[-52.32939,-29.54074],[-52.32934,-29.5412],[-52.32934,-29.54133],[-52.32935,-29.54162],[-52.32937,-29.5418],[-52.32943,-29.54197],[-52.32959,-29.54236],[-52.32966,-29.5425],[-52.32975,-29.54262],[-52.33,-29.54292],[-52.33027,-29.54326],[-52.33038,-29.54338],[-52.33051,-29.54348],[-52.33102,-29.54382],[-52.33111,-29.5439],[-52.33109,-29.54402],[-52.33096,-29.54442],[-52.33092,-29.54463],[-52.33087,-29.54522],[-52.33086,-29.54538],[-52.33089,-29.54553],[-52.33109,-29.54643],[-52.33116,-29.54663],[-52.33147,-29.54731],[-52.3315,-29.54738],[-52.33171,-29.54774],[-52.3318,-29.54807],[-52.33181,-29.54844],[-52.33184,-29.54867],[-52.33192,-29.54889],[-52.33215,-29.54931],[-52.33224,-29.54944],[-52.3326,-29.54992],[-52.33266,-29.54999],[-52.33302,-29.55038],[-52.33321,-29.55054],[-52.33328,-29.55059],[-52.33275,-29.55075],[-52.33275,-29.55075],[-52.33235,-29.55087],[-52.33188,-29.55097],[-52.33188,-29.55097],[-52.33131,-29.55109],[-52.33118,-29.55113],[-52.33063,-29.55132],[-52.3299,-29.55153],[-52.32972,-29.55157],[-52.32969,-29.55156],[-52.32942,-29.5515],[-52.32902,-29.55147],[-52.32887,-29.55147],[-52.32871,-29.5515],[-52.32849,-29.55155],[-52.32828,-29.55163],[-52.32809,-29.55176],[-52.32785,-29.55195],[-52.32771,-29.5521],[-52.3276,-29.55227],[-52.32746,-29.55255],[-52.3274,-29.55268],[-52.32737,-29.55283],[-52.32728,-29.55333],[-52.32727,-29.5535],[-52.32728,-29.55367],[-52.32736,-29.55409],[-52.32741,-29.55429],[-52.32751,-29.55446],[-52.32776,-29.55486],[-52.32784,-29.55495],[-52.3281,-29.55527],[-52.32831,-29.55546],[-52.32872,-29.55573],[-52.32885,-29.5558],[-52.3293,-29.55601],[-52.32947,-29.55608],[-52.32985,-29.55618],[-52.33007,-29.55621],[-52.33046,-29.55622],[-52.33062,-29.55621],[-52.33094,-29.55618],[-52.33124,-29.55615],[-52.33128,-29.55615],[-52.33151,-29.55632],[-52.33175,-29.55651],[-52.332,-29.55665],[-52.33231,-29.55678],[-52.33249,-29.55683],[-52.33272,-29.55688],[-52.33278,-29.55691],[-52.3329,-29.557],[-52.333,-29.55714],[-52.33306,-29.55724],[-52.33291,-29.55754],[-52.33279,-29.5578],[-52.33271,-29.55803],[-52.33266,-29.55824],[-52.33266,-29.55825],[-52.33244,-29.55828],[-52.33218,-29.55835],[-52.33193,-29.55845],[-52.3318,-29.55847],[-52.33167,-29.55848],[-52.33147,-29.55851],[-52.33122,-29.55858],[-52.33104,-29.55864],[-52.33088,-29.55874],[-52.33046,-29.55905],[-52.33,-29.55937],[-52.32996,-29.55939],[-52.32969,-29.55943],[-52.32933,-29.55946],[-52.3291,-29.55951],[-52.32855,-29.55971],[-52.32838,-29.55978],[-52.32804,-29.55998],[-52.32797,-29.56002],[-52.32769,-29.56021],[-52.32765,-29.56024],[-52.32748,-29.56037],[-52.32734,-29.5605],[-52.32723,-29.56065],[-52.32715,-29.56082],[-52.3271,-29.561],[-52.32706,-29.56123],[-52.32703,-29.56137],[-52.32687,-29.56172],[-52.32681,-29.56188],[-52.32679,-29.56205],[-52.32673,-29.5627],[-52.32673,-29.56275],[-52.32671,-29.5635],[-52.32671,-29.56354],[-52.32653,-29.56351],[-52.32631,-29.56345],[-52.32618,-29.5634],[-52.326,-29.56332],[-52.32585,-29.56326],[-52.32564,-29.5632],[-52.3255,-29.56317],[-52.32534,-29.56315],[-52.32508,-29.56314],[-52.32488,-29.56316],[-52.32464,-29.56322],[-52.32452,-29.56327],[-52.32436,-29.56335],[-52.32421,-29.56346],[-52.32409,-29.56359],[-52.32402,-29.56368],[-52.32392,-29.56384],[-52.32385,-29.56403],[-52.32381,-29.56417],[-52.32377,-29.56428],[-52.32375,-29.56434],[-52.32369,-29.56452],[-52.32365,-29.56478],[-52.32364,-29.565],[-52.32363,-29.56516],[-52.32363,-29.56537],[-52.32366,-29.56556],[-52.32372,-29.56579],[-52.32379,-29.56596],[-52.32388,-29.56613],[-52.32399,-29.56627],[-52.32413,-29.5664],[-52.3243,-29.56649],[-52.32452,-29.5666],[-52.32477,-29.56668],[-52.32537,-29.56678],[-52.32543,-29.56681],[-52.32101,-29.60187],[-52.32101,-29.60188],[-52.31329,-29.6643],[-52.31286,-29.6642],[-52.31269,-29.66418],[-52.31252,-29.66419],[-52.31235,-29.66421],[-52.31215,-29.66425],[-52.31196,-29.66434],[-52.31186,-29.6644],[-52.31167,-29.66454],[-52.31152,-29.66473],[-52.31142,-29.6649],[-52.3114,-29.66493],[-52.31132,-29.66493],[-52.31114,-29.66492],[-52.31097,-29.66493],[-52.31079,-29.66496],[-52.31066,-29.665],[-52.31046,-29.6651],[-52.30987,-29.66544],[-52.30981,-29.66548],[-52.30959,-29.66563],[-52.30945,-29.66575],[-52.30933,-29.6659],[-52.30924,-29.66606],[-52.30919,-29.66618],[-52.30912,-29.66644],[-52.30908,-29.66666],[-52.30908,-29.66684],[-52.30908,-29.66685],[-52.30906,-29.66687],[-52.30889,-29.66697],[-52.30819,-29.66718],[-52.30815,-29.66719],[-52.3074,-29.66743],[-52.30735,-29.66745],[-52.30659,-29.66774],[-52.30658,-29.66774],[-52.30599,-29.66797],[-52.30575,-29.66805],[-52.30554,-29.66815],[-52.30536,-29.66829],[-52.30524,-29.66841],[-52.30509,-29.6686],[-52.30499,-29.66881],[-52.30493,-29.66899],[-52.30489,-29.66918],[-52.30489,-29.66938],[-52.3049,-29.66956],[-52.30495,-29.66979],[-52.30507,-29.67017],[-52.30509,-29.67037],[-52.30487,-29.67066],[-52.30468,-29.67071],[-52.30458,-29.67075],[-52.30385,-29.67104],[-52.30369,-29.67111],[-52.30318,-29.67113],[-52.30258,-29.67115],[-52.30252,-29.67115],[-52.30197,-29.6712],[-52.30175,-29.67125],[-52.30137,-29.67137],[-52.30121,-29.67144],[-52.30106,-29.67153],[-52.3006,-29.6719],[-52.3001,-29.67219],[-52.30002,-29.67223],[-52.29992,-29.67225],[-52.29978,-29.67229],[-52.29957,-29.67236],[-52.29939,-29.67244],[-52.29923,-29.67256],[-52.2991,-29.6727],[-52.299,-29.67287],[-52.29894,-29.67298],[-52.29888,-29.67315],[-52.29883,-29.67332],[-52.29879,-29.6736],[-52.29879,-29.67362],[-52.29878,-29.67369],[-52.29878,-29.67389],[-52.29883,-29.67408],[-52.29891,-29.67427],[-52.29902,-29.67443],[-52.29917,-29.67457],[-52.29934,-29.67467],[-52.30091,-29.67543],[-52.30106,-29.67549],[-52.30317,-29.67613],[-52.30322,-29.67615],[-52.304,-29.67635],[-52.30407,-29.67656],[-52.30415,-29.67673],[-52.30425,-29.67688],[-52.30437,-29.67701],[-52.30452,-29.67712],[-52.30535,-29.6776],[-52.30554,-29.67768],[-52.30573,-29.67772],[-52.30606,-29.67776],[-52.30626,-29.67777],[-52.30695,-29.67771],[-52.30727,-29.67773],[-52.30748,-29.67782],[-52.30766,-29.67788],[-52.30785,-29.67791],[-52.30866,-29.67793],[-52.30937,-29.67821],[-52.31023,-29.67856],[-52.31144,-29.67917],[-52.31152,-29.67919],[-52.31154,-29.67925],[-52.31166,-29.67943],[-52.31235,-29.68023],[-52.31242,-29.68036],[-52.31248,-29.68045],[-52.31264,-29.68069],[-52.31283,-29.6809],[-52.31299,-29.68102],[-52.31311,-29.68111],[-52.31324,-29.68117],[-52.31346,-29.68126],[-52.31362,-29.68131],[-52.31378,-29.68133],[-52.31395,-29.68132],[-52.31437,-29.68127],[-52.3144,-29.68144],[-52.31448,-29.68162],[-52.31459,-29.68179],[-52.31474,-29.68194],[-52.31493,-29.68209],[-52.31509,-29.6822],[-52.31527,-29.68227],[-52.31545,-29.68231],[-52.31584,-29.683],[-52.31596,-29.68317],[-52.31611,-29.68331],[-52.31629,-29.68342],[-52.31667,-29.6836],[-52.31685,-29.68366],[-52.31704,-29.68369],[-52.31723,-29.68368],[-52.31733,-29.68366],[-52.3175,-29.68362],[-52.31766,-29.68356],[-52.31771,-29.68352],[-52.31774,-29.68355],[-52.31774,-29.68375],[-52.31674,-29.68648],[-52.31671,-29.68658],[-52.31657,-29.68713],[-52.31655,-29.68732],[-52.31655,-29.68751],[-52.3166,-29.6877],[-52.31662,-29.68776],[-52.31654,-29.68789],[-52.31639,-29.68819],[-52.31632,-29.68837],[-52.31629,-29.68857],[-52.3163,-29.68876],[-52.31635,-29.68896],[-52.31635,-29.68897],[-52.31635,-29.68897],[-52.31629,-29.68915],[-52.31626,-29.68934],[-52.31627,-29.68952],[-52.31631,-29.6897],[-52.31639,-29.68988],[-52.31639,-29.68989],[-52.31636,-29.68994],[-52.3163,-29.69013],[-52.31628,-29.69032],[-52.31628,-29.69065],[-52.31629,-29.69085],[-52.31635,-29.69104],[-52.31644,-29.69121],[-52.31656,-29.69137],[-52.31716,-29.69199],[-52.31713,-29.69205],[-52.31709,-29.69223],[-52.31703,-29.6926],[-52.31702,-29.6928],[-52.31705,-29.693],[-52.31711,-29.69319],[-52.31727,-29.69352],[-52.3172,-29.69399],[-52.31719,-29.69417],[-52.31721,-29.69434],[-52.31726,-29.69458],[-52.3173,-29.69474],[-52.31738,-29.69489],[-52.31747,-29.69503],[-52.31764,-29.69522],[-52.31777,-29.69535],[-52.31791,-29.69545],[-52.31808,-29.69552],[-52.31825,-29.69556],[-52.31829,-29.69557],[-52.31821,-29.69573],[-52.31716,-29.69644],[-52.31702,-29.69655],[-52.3169,-29.69669],[-52.31657,-29.69715],[-52.31648,-29.6973],[-52.31642,-29.69746],[-52.31639,-29.69763],[-52.31627,-29.69878],[-52.31517,-29.69994],[-52.31506,-29.70008],[-52.31458,-29.70082],[-52.31454,-29.70089],[-52.31433,-29.70126],[-52.31411,-29.70139],[-52.31394,-29.7015],[-52.31381,-29.70165],[-52.3137,-29.70182],[-52.31363,-29.702],[-52.3136,-29.7022],[-52.31361,-29.70236],[-52.31352,-29.70253],[-52.31346,-29.70272],[-52.31341,-29.703],[-52.31337,-29.703],[-52.31317,-29.70302],[-52.31297,-29.70309],[-52.3128,-29.70318],[-52.31264,-29.70332],[-52.31252,-29.70348],[-52.31243,-29.70366],[-52.31232,-29.70397],[-52.31227,-29.70417],[-52.31226,-29.70432],[-52.31223,-29.70436],[-52.31213,-29.70454],[-52.31206,-29.70473],[-52.312,-29.70493],[-52.31198,-29.70514],[-52.31201,-29.70535],[-52.31209,-29.70555],[-52.3122,-29.70572],[-52.31239,-29.70596],[-52.31251,-29.70609],[-52.31271,-29.70627],[-52.31286,-29.70638],[-52.31302,-29.70646],[-52.31305,-29.70648],[-52.31305,-29.7065],[-52.31308,-29.70668],[-52.31315,-29.70685],[-52.31324,-29.70701],[-52.31337,-29.70715],[-52.3134,-29.70717],[-52.3134,-29.70719],[-52.31341,-29.70722],[-52.31358,-29.70803],[-52.31364,-29.70823],[-52.31375,-29.70842],[-52.31389,-29.70857],[-52.31418,-29.70883],[-52.31438,-29.70896],[-52.3146,-29.70905],[-52.31494,-29.70914],[-52.31512,-29.70927],[-52.31533,-29.70938],[-52.31561,-29.70949],[-52.31583,-29.70955],[-52.31605,-29.70956],[-52.31642,-29.70953],[-52.31643,-29.70953],[-52.31644,-29.70954],[-52.3166,-29.70967],[-52.31707,-29.70995],[-52.31723,-29.71003],[-52.31739,-29.71008],[-52.31756,-29.7101],[-52.31774,-29.71009],[-52.31774,-29.71009],[-52.31776,-29.71009],[-52.31803,-29.7103],[-52.31827,-29.71043],[-52.31849,-29.71051],[-52.31889,-29.71086],[-52.31901,-29.71108],[-52.31903,-29.71111],[-52.31925,-29.71146],[-52.31938,-29.71164],[-52.31955,-29.71178],[-52.31984,-29.71196],[-52.31997,-29.71204],[-52.32048,-29.71227],[-52.32065,-29.71233],[-52.32137,-29.71252],[-52.32191,-29.71269],[-52.32205,-29.71273],[-52.32241,-29.71279],[-52.32241,-29.71279],[-52.32251,-29.71318],[-52.32257,-29.71336],[-52.32266,-29.71352],[-52.32278,-29.71366],[-52.3231,-29.71396],[-52.32325,-29.71408],[-52.32343,-29.71417],[-52.32362,-29.71422],[-52.32381,-29.71424],[-52.32458,-29.71422],[-52.32464,-29.71422],[-52.32517,-29.71417],[-52.32538,-29.71413],[-52.32558,-29.71404],[-52.32558,-29.71404],[-52.32558,-29.71404],[-52.32578,-29.7141],[-52.32597,-29.71411],[-52.32617,-29.71409],[-52.32624,-29.71408],[-52.3262,-29.7142],[-52.32619,-29.71438],[-52.3262,-29.71455],[-52.32629,-29.71499],[-52.32634,-29.7152],[-52.32644,-29.71538],[-52.32645,-29.71539],[-52.32645,-29.71548],[-52.32647,-29.71566],[-52.32652,-29.71584],[-52.3266,-29.716],[-52.32676,-29.71627],[-52.32694,-29.71649],[-52.32746,-29.71696],[-52.32751,-29.717],[-52.32786,-29.71728],[-52.32809,-29.71748],[-52.32824,-29.71759],[-52.32841,-29.71766],[-52.32859,-29.71771],[-52.32861,-29.71771],[-52.3287,-29.71779],[-52.32914,-29.71811],[-52.32937,-29.71823],[-52.32976,-29.71837],[-52.33,-29.71843],[-52.33033,-29.71847],[-52.33038,-29.71858],[-52.33039,-29.71858],[-52.33049,-29.71878],[-52.33037,-29.71902],[-52.33028,-29.71924],[-52.33026,-29.71947],[-52.33025,-29.7204],[-52.33027,-29.72062],[-52.33035,-29.72084],[-52.33068,-29.72152],[-52.33075,-29.72164],[-52.33077,-29.72168],[-52.33079,-29.72178],[-52.33085,-29.72199],[-52.33096,-29.72218],[-52.33124,-29.72259],[-52.33125,-29.7226],[-52.33173,-29.72326],[-52.33183,-29.72337],[-52.33253,-29.72409],[-52.33261,-29.72416],[-52.3331,-29.72456],[-52.33311,-29.72459],[-52.33322,-29.72558],[-52.33325,-29.72575],[-52.33348,-29.72656],[-52.33368,-29.72748],[-52.33377,-29.72772],[-52.33399,-29.72817],[-52.33401,-29.72864],[-52.33403,-29.72882],[-52.33408,-29.729],[-52.33415,-29.72913],[-52.33414,-29.72918],[-52.33417,-29.72939],[-52.33385,-29.73025],[-52.33359,-29.73063],[-52.33358,-29.73065],[-52.3334,-29.73093],[-52.33309,-29.73117],[-52.33293,-29.73132],[-52.33281,-29.7315],[-52.33273,-29.73171],[-52.33263,-29.7321],[-52.33259,-29.73233],[-52.33262,-29.73257],[-52.33286,-29.73366],[-52.33291,-29.73383],[-52.33299,-29.73398],[-52.3331,-29.73412],[-52.33332,-29.73436],[-52.33341,-29.73452],[-52.33314,-29.73501],[-52.33311,-29.73506],[-52.33276,-29.7358],[-52.33268,-29.736],[-52.33258,-29.73644],[-52.33256,-29.73656],[-52.3325,-29.73712],[-52.33239,-29.73726],[-52.33199,-29.7375],[-52.33179,-29.73765],[-52.33119,-29.73825],[-52.33025,-29.73918],[-52.32873,-29.73994],[-52.3286,-29.74002],[-52.32847,-29.74012],[-52.32129,-29.74729],[-52.32117,-29.74745],[-52.32108,-29.74762],[-52.32102,-29.74781],[-52.321,-29.74801],[-52.32102,-29.7482],[-52.32108,-29.74839],[-52.32241,-29.75152],[-52.3225,-29.75168],[-52.32261,-29.75182],[-52.32275,-29.75194],[-52.3229,-29.75204],[-52.32589,-29.75346],[-52.32669,-29.75525],[-52.32416,-29.7562],[-52.324,-29.75627],[-52.32385,-29.75638],[-52.32372,-29.75652],[-52.32251,-29.75808],[-52.32021,-29.7586],[-52.32004,-29.75865],[-52.31987,-29.75874],[-52.31973,-29.75886],[-52.31829,-29.76029],[-52.31818,-29.76043],[-52.31809,-29.76059],[-52.31803,-29.76076],[-52.318,-29.76095],[-52.31801,-29.76113],[-52.31835,-29.76376],[-52.31839,-29.76394],[-52.31847,-29.76412],[-52.31857,-29.76427],[-52.3187,-29.7644],[-52.32099,-29.7663],[-52.32099,-29.7668],[-52.32018,-29.76705],[-52.31999,-29.76713],[-52.31982,-29.76725],[-52.31969,-29.7674],[-52.31958,-29.76757],[-52.31951,-29.76776],[-52.31948,-29.76796],[-52.31944,-29.76881],[-52.31933,-29.76938],[-52.31932,-29.7695],[-52.31929,-29.77004],[-52.31929,-29.77024],[-52.31935,-29.77067],[-52.31936,-29.77069],[-52.3194,-29.77099],[-52.31944,-29.77113],[-52.31947,-29.77124],[-52.31946,-29.77125],[-52.31941,-29.77133],[-52.31923,-29.7716],[-52.31915,-29.77174],[-52.31869,-29.77278],[-52.31866,-29.77285],[-52.31857,-29.77309],[-52.31848,-29.77333],[-52.31824,-29.77374],[-52.3182,-29.77382],[-52.31794,-29.77435],[-52.31777,-29.7746],[-52.31772,-29.77468],[-52.31758,-29.77492],[-52.31756,-29.77496],[-52.31715,-29.77578],[-52.31714,-29.77581],[-52.31693,-29.77626],[-52.3167,-29.77667],[-52.31666,-29.77674],[-52.31656,-29.77697],[-52.3165,-29.77696],[-52.31638,-29.77696],[-52.31625,-29.77696],[-52.31606,-29.77698],[-52.31588,-29.77704],[-52.31571,-29.77713],[-52.31562,-29.7772],[-52.31546,-29.77733],[-52.31534,-29.77749],[-52.31525,-29.77767],[-52.31519,-29.77786],[-52.31518,-29.77795],[-52.31517,-29.77814],[-52.31519,-29.77833],[-52.31525,-29.77851],[-52.3153,-29.77861],[-52.31544,-29.77884],[-52.31558,-29.77901],[-52.31558,-29.77901],[-52.31544,-29.77933],[-52.31533,-29.77951],[-52.31524,-29.77969],[-52.31513,-29.78001],[-52.31508,-29.7802],[-52.31507,-29.78039],[-52.31508,-29.78076],[-52.3151,-29.78093],[-52.31516,-29.7811],[-52.31524,-29.78126],[-52.31534,-29.78141],[-52.31539,-29.78148],[-52.31556,-29.7817],[-52.31558,-29.78173],[-52.31603,-29.78228],[-52.31604,-29.78229],[-52.31642,-29.78273],[-52.31647,-29.78281],[-52.31621,-29.78297],[-52.31503,-29.7834],[-52.31482,-29.78351],[-52.31464,-29.78366],[-52.31456,-29.78375],[-52.31456,-29.78375],[-52.31132,-29.78726],[-52.30656,-29.79099],[-52.30642,-29.79112],[-52.30631,-29.79127],[-52.30623,-29.79144],[-52.30619,-29.79162],[-52.30617,-29.79181],[-52.30618,-29.79182],[-52.3043,-29.80336],[-52.30357,-29.80789],[-52.30356,-29.80809],[-52.30359,-29.80829],[-52.30366,-29.80849],[-52.30377,-29.80866],[-52.30391,-29.80881],[-52.30408,-29.80892],[-52.30427,-29.809],[-52.30447,-29.80904],[-52.31859,-29.81032],[-52.31795,-29.81155],[-52.31792,-29.8116],[-52.31672,-29.81301],[-52.31672,-29.81301],[-52.31542,-29.81397],[-52.31528,-29.8141],[-52.31516,-29.81425],[-52.31508,-29.81441],[-52.31441,-29.81614],[-52.31419,-29.8166],[-52.31413,-29.81676],[-52.31292,-29.82101],[-52.31289,-29.82122],[-52.31281,-29.82237],[-52.31281,-29.82242],[-52.31281,-29.82262],[-52.31287,-29.82302],[-52.31287,-29.82307],[-52.31307,-29.82414],[-52.31308,-29.82433],[-52.31307,-29.82437],[-52.3127,-29.82521],[-52.31268,-29.82524],[-52.31238,-29.82598],[-52.31234,-29.82608],[-52.31215,-29.82673],[-52.31212,-29.82687],[-52.3121,-29.82707],[-52.3121,-29.82736],[-52.31215,-29.82767],[-52.31223,-29.82795],[-52.31245,-29.82842],[-52.31249,-29.8285],[-52.31298,-29.82932],[-52.31312,-29.82972],[-52.31323,-29.83024],[-52.31333,-29.83116],[-52.31334,-29.83123],[-52.31341,-29.83163],[-52.31343,-29.83251],[-52.31339,-29.8333],[-52.31321,-29.8347],[-52.31312,-29.83532],[-52.31311,-29.83552],[-52.31314,-29.83572],[-52.3132,-29.8359],[-52.31331,-29.83607],[-52.31344,-29.83622],[-52.3136,-29.83633],[-52.31433,-29.83677],[-52.31461,-29.83694],[-52.31475,-29.83701],[-52.3149,-29.83706],[-52.31505,-29.8371],[-52.31522,-29.83713],[-52.31538,-29.83714],[-52.31556,-29.83713],[-52.31565,-29.83712],[-52.31575,-29.83711],[-52.31593,-29.83707],[-52.31597,-29.83706],[-52.31618,-29.83701],[-52.31683,-29.83684],[-52.31767,-29.83666],[-52.31801,-29.8366],[-52.31814,-29.83659],[-52.31818,-29.83659],[-52.31826,-29.8366],[-52.31846,-29.83667],[-52.31889,-29.83687],[-52.31963,-29.83727],[-52.3203,-29.83764],[-52.32072,-29.83791],[-52.32099,-29.83808],[-52.32134,-29.83833],[-52.322,-29.83881],[-52.32303,-29.8396],[-52.32304,-29.83961],[-52.32358,-29.84002],[-52.32425,-29.84053],[-52.32429,-29.84056],[-52.32457,-29.84074],[-52.32467,-29.8408],[-52.32488,-29.84092],[-52.32501,-29.84097],[-52.32521,-29.84105],[-52.32541,-29.8411],[-52.32567,-29.84114],[-52.32595,-29.84114],[-52.32622,-29.8411],[-52.32636,-29.84107],[-52.32659,-29.841],[-52.32673,-29.84095],[-52.32712,-29.84077],[-52.32738,-29.84065],[-52.32834,-29.84026],[-52.32835,-29.84026],[-52.32979,-29.83964],[-52.33071,-29.83927],[-52.33114,-29.8391],[-52.33146,-29.83898],[-52.33231,-29.8387],[-52.33305,-29.83848],[-52.33306,-29.83847],[-52.33466,-29.83795],[-52.33559,-29.83767],[-52.33596,-29.83757],[-52.3362,-29.83752],[-52.33638,-29.8375],[-52.33642,-29.83749],[-52.33668,-29.83745],[-52.33673,-29.83743],[-52.33695,-29.83738],[-52.33711,-29.83733],[-52.33726,-29.83725],[-52.33743,-29.83714],[-52.34924,-29.83833],[-52.34939,-29.83833],[-52.35288,-29.83816],[-52.35463,-29.83975],[-52.3548,-29.83987],[-52.35498,-29.83995],[-52.35518,-29.84],[-52.35539,-29.84],[-52.35559,-29.83996],[-52.35578,-29.83989],[-52.35595,-29.83977],[-52.35726,-29.83866],[-52.36179,-29.83859],[-52.36362,-29.83959],[-52.36381,-29.83967],[-52.36401,-29.8397],[-52.36421,-29.8397],[-52.36441,-29.83966],[-52.36459,-29.83958],[-52.36476,-29.83946],[-52.3649,-29.83932],[-52.365,-29.83914],[-52.36507,-29.83895],[-52.36526,-29.83822],[-52.38,-29.83895],[-52.38,-29.842],[-52.38002,-29.84219],[-52.38007,-29.84237],[-52.38015,-29.84253],[-52.38027,-29.84268],[-52.38041,-29.8428],[-52.38057,-29.8429],[-52.38074,-29.84297],[-52.38092,-29.843],[-52.38111,-29.84299],[-52.38281,-29.8428],[-52.38281,-29.75098],[-52.38281,-29.70703],[-52.42676,-29.70703],[-52.46983,-29.70703],[-52.46983,-29.70701],[-52.4698,-29.70672],[-52.46971,-29.70639],[-52.46963,-29.70618],[-52.4694,-29.70574],[-52.46923,-29.70551],[-52.46899,-29.70527],[-52.46887,-29.70517],[-52.46871,-29.70505],[-52.46857,-29.70495],[-52.46841,-29.70489],[-52.46825,-29.70485],[-52.46809,-29.70483],[-52.468,-29.70482],[-52.46768,-29.70481],[-52.46757,-29.7048],[-52.46757,-29.70464],[-52.46756,-29.70456],[-52.46752,-29.7042],[-52.46749,-29.70406],[-52.46744,-29.70392],[-52.46743,-29.7039],[-52.46757,-29.70364],[-52.46762,-29.70355],[-52.46785,-29.70301],[-52.46802,-29.70266],[-52.46811,-29.70263],[-52.46827,-29.70256],[-52.46841,-29.70245],[-52.46853,-29.70233],[-52.46855,-29.70231],[-52.46856,-29.7023],[-52.46862,-29.70226],[-52.46878,-29.70214],[-52.46892,-29.70199],[-52.46907,-29.70178],[-52.4691,-29.70173],[-52.4692,-29.70157],[-52.46929,-29.7014],[-52.46934,-29.70121],[-52.46935,-29.70101],[-52.46935,-29.70082],[-52.46935,-29.70078],[-52.46948,-29.7007],[-52.46965,-29.7006],[-52.46971,-29.70056],[-52.46979,-29.70055],[-52.46981,-29.70055],[-52.46994,-29.70053],[-52.46998,-29.70053],[-52.47008,-29.70052],[-52.47026,-29.7005],[-52.47048,-29.70049],[-52.47065,-29.70046],[-52.47082,-29.70041],[-52.47098,-29.70032],[-52.47111,-29.70023],[-52.47129,-29.70007],[-52.47129,-29.70007],[-52.4713,-29.70006],[-52.47146,-29.6999],[-52.47157,-29.69971],[-52.47162,-29.69961],[-52.47167,-29.69949],[-52.47173,-29.69938],[-52.47175,-29.69934],[-52.47183,-29.69919],[-52.47187,-29.69907],[-52.47192,-29.69892],[-52.47193,-29.69888],[-52.47197,-29.69875],[-52.472,-29.69857],[-52.47202,-29.69842],[-52.47202,-29.69818],[-52.47195,-29.69795],[-52.47191,-29.69783],[-52.47181,-29.69765],[-52.47168,-29.69749],[-52.47162,-29.69743],[-52.47154,-29.69737],[-52.47168,-29.69726],[-52.47171,-29.69722],[-52.47175,-29.6972],[-52.47176,-29.6972],[-52.47185,-29.69714],[-52.47201,-29.69702],[-52.47214,-29.69687],[-52.47224,-29.69671],[-52.4723,-29.69657],[-52.47238,-29.69629],[-52.4724,-29.69618],[-52.47241,-29.69595],[-52.4724,-29.69585],[-52.47239,-29.69567],[-52.4724,-29.69553],[-52.47241,-29.69545],[-52.47241,-29.6953],[-52.47242,-29.69516],[-52.47243,-29.69513],[-52.47254,-29.69495],[-52.47263,-29.69477],[-52.47268,-29.69458],[-52.47272,-29.6943],[-52.47273,-29.69419],[-52.47275,-29.69385],[-52.47278,-29.69357],[-52.47278,-29.69356],[-52.47283,-29.69301],[-52.47285,-29.69281],[-52.47286,-29.69259],[-52.47284,-29.69237],[-52.47277,-29.6921],[-52.47271,-29.69194],[-52.47262,-29.69177],[-52.4725,-29.69162],[-52.47234,-29.69144],[-52.47216,-29.69129],[-52.4719,-29.69112],[-52.47174,-29.69103],[-52.47157,-29.69098],[-52.47127,-29.69091],[-52.47087,-29.69082],[-52.47044,-29.6907],[-52.47017,-29.69062],[-52.47002,-29.69053],[-52.46981,-29.69038],[-52.46968,-29.69021],[-52.4696,-29.69012],[-52.46939,-29.6899],[-52.46909,-29.68957],[-52.46895,-29.68941],[-52.46885,-29.68932],[-52.46882,-29.68929],[-52.46857,-29.68903],[-52.46842,-29.68877],[-52.46839,-29.68871],[-52.4684,-29.68864],[-52.4684,-29.68859],[-52.46842,-29.68798],[-52.4684,-29.68777],[-52.46834,-29.68757],[-52.46823,-29.68738],[-52.46818,-29.68733],[-52.46907,-29.68689],[-52.46926,-29.68677],[-52.46942,-29.68661],[-52.46962,-29.68636],[-52.46972,-29.6862],[-52.46979,-29.68604],[-52.46983,-29.68586],[-52.46985,-29.68565],[-52.46986,-29.68547],[-52.46983,-29.68529],[-52.46977,-29.68512],[-52.46969,-29.68497],[-52.46958,-29.68481],[-52.46945,-29.68466],[-52.4693,-29.68454],[-52.46913,-29.68444],[-52.46894,-29.68439],[-52.46875,-29.68437],[-52.46852,-29.68437],[-52.46851,-29.68411],[-52.46846,-29.68381],[-52.46841,-29.68365],[-52.46834,-29.68349],[-52.46824,-29.68335],[-52.46759,-29.68256],[-52.46745,-29.68242],[-52.46729,-29.68232],[-52.46704,-29.68218],[-52.46685,-29.6821],[-52.46666,-29.68206],[-52.46646,-29.68204],[-52.46626,-29.68204],[-52.46606,-29.68209],[-52.46588,-29.68217],[-52.46563,-29.68231],[-52.46549,-29.6824],[-52.4648,-29.68296],[-52.4647,-29.68304],[-52.46469,-29.68303],[-52.46469,-29.68293],[-52.46492,-29.68215],[-52.4653,-29.68122],[-52.46537,-29.68093],[-52.46545,-29.68007],[-52.46545,-29.67997],[-52.46545,-29.67926],[-52.46543,-29.67907],[-52.46537,-29.67889],[-52.46529,-29.67873],[-52.4651,-29.67845],[-52.465,-29.67832],[-52.46488,-29.6782],[-52.46474,-29.67811],[-52.46453,-29.678],[-52.46456,-29.67797],[-52.46469,-29.67782],[-52.46511,-29.67724],[-52.46523,-29.67704],[-52.46529,-29.67681],[-52.46534,-29.67651],[-52.46535,-29.6763],[-52.46532,-29.67609],[-52.46519,-29.67564],[-52.46512,-29.67545],[-52.46501,-29.67528],[-52.46486,-29.67513],[-52.46469,-29.67502],[-52.46287,-29.67407],[-52.46287,-29.67382],[-52.46287,-29.67367],[-52.46304,-29.67326],[-52.46353,-29.67245],[-52.46361,-29.67229],[-52.46366,-29.67211],[-52.46381,-29.67134],[-52.46381,-29.67131],[-52.46389,-29.67081],[-52.4639,-29.6706],[-52.46387,-29.6704],[-52.46381,-29.67015],[-52.46372,-29.66992],[-52.46371,-29.66991],[-52.46388,-29.66959],[-52.46394,-29.66944],[-52.46398,-29.66928],[-52.46427,-29.66738],[-52.46439,-29.66729],[-52.46494,-29.66697],[-52.4651,-29.66685],[-52.46524,-29.6667],[-52.46534,-29.66652],[-52.46547,-29.66625],[-52.46554,-29.66604],[-52.46554,-29.666],[-52.48551,-29.66594],[-52.4857,-29.66592],[-52.48588,-29.66587],[-52.48605,-29.66578],[-52.4862,-29.66565],[-52.48633,-29.66551],[-52.48642,-29.66534],[-52.48648,-29.66515],[-52.4865,-29.66496],[-52.48682,-29.65076],[-52.49069,-29.64333],[-52.50086,-29.64322],[-52.50104,-29.6432],[-52.50122,-29.64315],[-52.50139,-29.64306],[-52.50154,-29.64294],[-52.50166,-29.6428],[-52.50175,-29.64264],[-52.51126,-29.62237],[-52.53125,-29.62181],[-52.53145,-29.62178],[-52.53163,-29.62172],[-52.5318,-29.62162],[-52.53195,-29.62149],[-52.53207,-29.62133],[-52.53216,-29.62116],[-52.53221,-29.62097],[-52.53222,-29.62077],[-52.53148,-29.60068],[-52.56364,-29.60012],[-52.56383,-29.6001],[-52.56401,-29.60004],[-52.56418,-29.59995],[-52.56433,-29.59983],[-52.56445,-29.59968],[-52.56454,-29.59952],[-52.5646,-29.59933],[-52.56462,-29.59914],[-52.56496,-29.58457],[-52.56494,-29.58436],[-52.56488,-29.58416],[-52.56478,-29.58398],[-52.56464,-29.58382],[-52.56447,-29.58369],[-52.52806,-29.56178],[-52.52787,-29.56169],[-52.52767,-29.56165],[-52.52747,-29.56164],[-52.52727,-29.56168],[-52.52708,-29.56175],[-52.52691,-29.56187],[-52.52676,-29.56201],[-52.52665,-29.56218],[-52.52658,-29.56238],[-52.52654,-29.56258],[-52.52647,-29.56388],[-52.49798,-29.56337],[-52.49272,-29.56326],[-52.49255,-29.56122],[-52.49251,-29.56104],[-52.49245,-29.56086],[-52.49235,-29.5607],[-52.49222,-29.56056],[-52.49207,-29.56045],[-52.4919,-29.56037],[-52.49172,-29.56032],[-52.49153,-29.56031],[-52.4783,-29.56052],[-52.47825,-29.56052],[-52.4768,-29.56062],[-52.47671,-29.56049],[-52.47657,-29.56036],[-52.47641,-29.56026],[-52.47624,-29.56019],[-52.47605,-29.56016],[-52.47587,-29.56016],[-52.47465,-29.56027],[-52.47458,-29.56018],[-52.47444,-29.56005],[-52.47428,-29.55995],[-52.47419,-29.55991],[-52.47415,-29.55978],[-52.47407,-29.5596],[-52.47396,-29.55944],[-52.47381,-29.55931],[-52.47364,-29.55921],[-52.45164,-29.54861],[-52.45164,-29.54858],[-52.4516,-29.54844],[-52.45158,-29.54837],[-52.45158,-29.54837],[-52.45157,-29.54832],[-52.45152,-29.54816],[-52.45138,-29.54783],[-52.45188,-29.54709],[-52.45197,-29.54691],[-52.45203,-29.54672],[-52.45205,-29.54652],[-52.45204,-29.54617],[-52.45204,-29.54614],[-52.45203,-29.5458],[-52.452,-29.54562],[-52.45194,-29.54545],[-52.45186,-29.54529],[-52.45174,-29.54515],[-52.45159,-29.54499],[-52.45144,-29.54487],[-52.45128,-29.54478],[-52.45111,-29.54472],[-52.45097,-29.54468],[-52.45089,-29.54455],[-52.45074,-29.54438],[-52.45056,-29.54425],[-52.44335,-29.54031],[-52.44331,-29.54022],[-52.44318,-29.54007],[-52.44295,-29.53983],[-52.44273,-29.53966],[-52.44234,-29.53943],[-52.44219,-29.53936],[-52.44202,-29.53931],[-52.44107,-29.53914],[-52.44103,-29.53913],[-52.44028,-29.53903],[-52.44049,-29.53883],[-52.44056,-29.53876],[-52.4407,-29.53861],[-52.44079,-29.53849],[-52.44086,-29.53836],[-52.44095,-29.53816],[-52.44102,-29.53795],[-52.44104,-29.53773],[-52.44101,-29.53752],[-52.44094,-29.53731],[-52.44085,-29.53713],[-52.44075,-29.53697],[-52.44062,-29.53682],[-52.44046,-29.53671],[-52.44029,-29.53662],[-52.4401,-29.53658],[-52.4399,-29.53657],[-52.43964,-29.53658],[-52.43941,-29.53662],[-52.43931,-29.53667],[-52.43934,-29.53626],[-52.43934,-29.53621],[-52.43936,-29.53529],[-52.43936,-29.53525],[-52.43934,-29.5346],[-52.43941,-29.53397],[-52.43961,-29.53408],[-52.43969,-29.53412],[-52.44034,-29.53441],[-52.44057,-29.53448],[-52.44081,-29.5345],[-52.44145,-29.53446],[-52.44162,-29.53443],[-52.44179,-29.53438],[-52.44194,-29.5343],[-52.44207,-29.53419],[-52.44215,-29.53412],[-52.44226,-29.534],[-52.44235,-29.53385],[-52.44246,-29.53366],[-52.44254,-29.53342],[-52.44261,-29.53311],[-52.44264,-29.53284],[-52.44262,-29.53246],[-52.4426,-29.53228],[-52.44254,-29.53205],[-52.44249,-29.53189],[-52.44242,-29.53174],[-52.44217,-29.53133],[-52.44227,-29.53127],[-52.44229,-29.53125],[-52.33092,-29.53125]]],[[[-52.43475,-29.88281],[-52.43478,-29.88295],[-52.43517,-29.88412],[-52.43526,-29.8846],[-52.43531,-29.88477],[-52.43538,-29.88491],[-52.43536,-29.885],[-52.43535,-29.88512],[-52.43528,-29.88518],[-52.43516,-29.88532],[-52.43507,-29.88547],[-52.43494,-29.88574],[-52.43491,-29.88581],[-52.43463,-29.88653],[-52.43458,-29.88673],[-52.43457,-29.88693],[-52.4346,-29.88714],[-52.43486,-29.88819],[-52.43489,-29.88828],[-52.43525,-29.88928],[-52.43528,-29.88935],[-52.43545,-29.88973],[-52.43545,-29.88988],[-52.43547,-29.89006],[-52.43553,-29.89024],[-52.43562,-29.8904],[-52.43574,-29.89054],[-52.43586,-29.89065],[-52.43588,-29.89076],[-52.43595,-29.89095],[-52.43606,-29.89112],[-52.4362,-29.89127],[-52.43623,-29.89129],[-52.43624,-29.89134],[-52.43627,-29.89152],[-52.43633,-29.8917],[-52.43643,-29.8919],[-52.43641,-29.89265],[-52.43642,-29.89275],[-52.43646,-29.89337],[-52.43647,-29.89356],[-52.43641,-29.8938],[-52.43603,-29.89481],[-52.43598,-29.89499],[-52.43596,-29.89518],[-52.43598,-29.89631],[-52.43595,-29.89689],[-52.43596,-29.8971],[-52.43601,-29.89731],[-52.43611,-29.8975],[-52.43625,-29.89766],[-52.43647,-29.89788],[-52.43635,-29.89805],[-52.43629,-29.89805],[-52.43612,-29.89808],[-52.43596,-29.89814],[-52.43581,-29.89822],[-52.43569,-29.89831],[-52.43566,-29.89834],[-52.43564,-29.89834],[-52.43556,-29.89837],[-52.43544,-29.89844],[-52.43542,-29.89844],[-52.43534,-29.89845],[-52.43515,-29.89848],[-52.43497,-29.89855],[-52.4348,-29.89865],[-52.43466,-29.89879],[-52.43464,-29.89882],[-52.43457,-29.89891],[-52.43446,-29.89889],[-52.43427,-29.89889],[-52.43409,-29.89893],[-52.43392,-29.899],[-52.43377,-29.8991],[-52.43373,-29.89913],[-52.43357,-29.8993],[-52.43344,-29.89946],[-52.43337,-29.89951],[-52.43321,-29.89963],[-52.43308,-29.89975],[-52.43298,-29.8999],[-52.43286,-29.90008],[-52.43278,-29.90024],[-52.43273,-29.9004],[-52.43272,-29.90046],[-52.43269,-29.90053],[-52.43263,-29.90068],[-52.43258,-29.90085],[-52.43258,-29.90086],[-52.43252,-29.90096],[-52.43245,-29.90114],[-52.43242,-29.90132],[-52.43243,-29.90151],[-52.43247,-29.90169],[-52.43253,-29.90188],[-52.43257,-29.90197],[-52.43183,-29.90351],[-52.43055,-29.90511],[-52.43044,-29.90528],[-52.43037,-29.90547],[-52.43014,-29.9063],[-52.4301,-29.9065],[-52.43011,-29.90669],[-52.43015,-29.90689],[-52.43103,-29.90951],[-52.43089,-29.91037],[-52.43046,-29.91136],[-52.43039,-29.91156],[-52.43037,-29.91176],[-52.43037,-29.91281],[-52.43038,-29.91297],[-52.43055,-29.91404],[-52.43058,-29.91418],[-52.4308,-29.91487],[-52.43089,-29.91542],[-52.43089,-29.91543],[-52.43095,-29.91579],[-52.43102,-29.91601],[-52.43118,-29.91638],[-52.43128,-29.91655],[-52.43141,-29.9167],[-52.43157,-29.91683],[-52.43175,-29.91691],[-52.43194,-29.91696],[-52.43214,-29.91698],[-52.43234,-29.91695],[-52.43253,-29.91688],[-52.43354,-29.91639],[-52.4337,-29.9163],[-52.43384,-29.91617],[-52.43396,-29.91602],[-52.43443,-29.91527],[-52.43451,-29.91512],[-52.43456,-29.91496],[-52.4347,-29.91431],[-52.43493,-29.91403],[-52.43523,-29.91413],[-52.43794,-29.91694],[-52.43811,-29.91708],[-52.43896,-29.91765],[-52.43903,-29.9177],[-52.44053,-29.91853],[-52.4445,-29.92179],[-52.44459,-29.92185],[-52.44665,-29.92322],[-52.44677,-29.92329],[-52.44871,-29.92422],[-52.44986,-29.92497],[-52.44999,-29.92505],[-52.45014,-29.9251],[-52.45128,-29.92542],[-52.45155,-29.92545],[-52.45235,-29.92544],[-52.45262,-29.92544],[-52.45297,-29.92551],[-52.45319,-29.92553],[-52.45363,-29.92551],[-52.45381,-29.92548],[-52.45398,-29.92543],[-52.4548,-29.92509],[-52.45498,-29.92499],[-52.45514,-29.92485],[-52.45527,-29.92468],[-52.45552,-29.92426],[-52.45561,-29.92409],[-52.45566,-29.92391],[-52.45567,-29.92372],[-52.45565,-29.92354],[-52.45556,-29.92312],[-52.45551,-29.92296],[-52.45542,-29.92271],[-52.45544,-29.92271],[-52.45589,-29.92284],[-52.456,-29.92286],[-52.45685,-29.92301],[-52.45688,-29.92303],[-52.45688,-29.92303],[-52.4569,-29.92313],[-52.45673,-29.92394],[-52.45671,-29.92414],[-52.45672,-29.92434],[-52.45679,-29.92469],[-52.45685,-29.92488],[-52.45694,-29.92505],[-52.45707,-29.92521],[-52.45722,-29.92533],[-52.45792,-29.92581],[-52.45808,-29.9259],[-52.45825,-29.92595],[-52.45887,-29.9261],[-52.45906,-29.92613],[-52.45926,-29.92612],[-52.45975,-29.92605],[-52.45998,-29.92598],[-52.46019,-29.92586],[-52.46052,-29.92562],[-52.46065,-29.92551],[-52.46075,-29.92538],[-52.46083,-29.92524],[-52.46113,-29.9246],[-52.46119,-29.92446],[-52.46202,-29.92165],[-52.46205,-29.92147],[-52.46218,-29.92019],[-52.46218,-29.91998],[-52.46214,-29.91977],[-52.46202,-29.91944],[-52.46194,-29.91926],[-52.46183,-29.9191],[-52.46169,-29.91897],[-52.46141,-29.91875],[-52.46133,-29.91869],[-52.46013,-29.91792],[-52.46001,-29.9178],[-52.4596,-29.91655],[-52.45926,-29.91465],[-52.45928,-29.91437],[-52.45952,-29.91405],[-52.4607,-29.91331],[-52.46083,-29.91321],[-52.46193,-29.91223],[-52.46208,-29.91207],[-52.46219,-29.91188],[-52.46267,-29.91077],[-52.46274,-29.91051],[-52.46299,-29.90883],[-52.463,-29.90864],[-52.46294,-29.90732],[-52.46293,-29.90722],[-52.46269,-29.90565],[-52.46271,-29.90485],[-52.46269,-29.90461],[-52.46254,-29.90392],[-52.46249,-29.90377],[-52.46231,-29.90332],[-52.46233,-29.90322],[-52.4632,-29.90017],[-52.46367,-29.8994],[-52.46412,-29.89899],[-52.46513,-29.89849],[-52.46526,-29.89841],[-52.46547,-29.89827],[-52.46649,-29.89979],[-52.46669,-29.9],[-52.46721,-29.90043],[-52.46745,-29.90057],[-52.4685,-29.90103],[-52.46864,-29.90108],[-52.47087,-29.90168],[-52.47125,-29.90187],[-52.47198,-29.90243],[-52.47217,-29.90255],[-52.47276,-29.90281],[-52.47283,-29.90284],[-52.4735,-29.90309],[-52.4742,-29.90349],[-52.47437,-29.90357],[-52.47509,-29.90381],[-52.47537,-29.90387],[-52.4758,-29.90389],[-52.47599,-29.90388],[-52.47617,-29.90383],[-52.47671,-29.90365],[-52.47693,-29.90354],[-52.47723,-29.90334],[-52.47737,-29.90323],[-52.47748,-29.90311],[-52.47757,-29.90297],[-52.47774,-29.90264],[-52.47782,-29.90246],[-52.47785,-29.90227],[-52.47789,-29.90192],[-52.47789,-29.90175],[-52.47786,-29.90158],[-52.4778,-29.90142],[-52.47767,-29.90113],[-52.47758,-29.90096],[-52.47746,-29.90082],[-52.47731,-29.9007],[-52.47696,-29.90047],[-52.47681,-29.90039],[-52.47666,-29.90034],[-52.47619,-29.90022],[-52.47617,-29.90022],[-52.47533,-29.90003],[-52.47458,-29.89972],[-52.47312,-29.89862],[-52.47157,-29.89703],[-52.46862,-29.89339],[-52.46854,-29.89317],[-52.46864,-29.89202],[-52.46864,-29.89186],[-52.46862,-29.8917],[-52.46848,-29.89109],[-52.46848,-29.89067],[-52.46849,-29.89067],[-52.46999,-29.8905],[-52.47026,-29.89044],[-52.47061,-29.89029],[-52.47077,-29.89021],[-52.47091,-29.89009],[-52.47103,-29.88996],[-52.47124,-29.88968],[-52.47135,-29.88948],[-52.47142,-29.88926],[-52.47148,-29.8889],[-52.47149,-29.8887],[-52.47147,-29.8885],[-52.47137,-29.88806],[-52.47131,-29.88789],[-52.47123,-29.88774],[-52.47079,-29.88706],[-52.47078,-29.88704],[-52.47038,-29.88647],[-52.47054,-29.88648],[-52.47089,-29.88646],[-52.47107,-29.88644],[-52.47124,-29.88639],[-52.47153,-29.88627],[-52.4717,-29.88617],[-52.47185,-29.88605],[-52.47198,-29.8859],[-52.47212,-29.88568],[-52.47221,-29.88552],[-52.47223,-29.88546],[-52.47234,-29.88553],[-52.4725,-29.88563],[-52.47273,-29.88573],[-52.47292,-29.88579],[-52.47326,-29.88587],[-52.47344,-29.8859],[-52.47362,-29.88589],[-52.47379,-29.88585],[-52.47396,-29.88578],[-52.47434,-29.88557],[-52.47451,-29.88545],[-52.47466,-29.8853],[-52.47493,-29.88494],[-52.47503,-29.88478],[-52.47566,-29.88351],[-52.47575,-29.8834],[-52.47577,-29.88339],[-52.47589,-29.88338],[-52.47657,-29.8837],[-52.4766,-29.88371],[-52.47686,-29.88382],[-52.47705,-29.88389],[-52.47725,-29.88391],[-52.47755,-29.88391],[-52.47774,-29.88389],[-52.47813,-29.88381],[-52.47836,-29.88374],[-52.47856,-29.88361],[-52.47882,-29.88341],[-52.47898,-29.88325],[-52.4791,-29.88306],[-52.47917,-29.88284],[-52.47918,-29.88281],[-52.43475,-29.88281]]]]},"properties":{"ghs":"6fd","size":39.05,"ghs_len":3,"ghs_area":444.29,"ghs_bytes":2960822,"ghs_items":12218,"size_unit":"km2","ghsval_unit":"bytes","ghs_itemsdensity":27.5,"size_unitdensity":0.09}},{"type":"Feature","geometry":{"type":"Polygon","coordinates":[[[-52.4707,-29.75098],[-52.4707,-29.79492],[-52.42676,-29.79492],[-52.42676,-29.75098],[-52.38281,-29.75098],[-52.38281,-29.8428],[-52.39914,-29.84097],[-52.39965,-29.8415],[-52.40064,-29.84281],[-52.40068,-29.84285],[-52.4017,-29.84406],[-52.4022,-29.84484],[-52.4023,-29.84497],[-52.40242,-29.84509],[-52.40256,-29.84518],[-52.40316,-29.84551],[-52.40341,-29.84579],[-52.40371,-29.8463],[-52.40388,-29.84723],[-52.40393,-29.8474],[-52.40401,-29.84756],[-52.40411,-29.84771],[-52.40494,-29.84865],[-52.40505,-29.84876],[-52.40612,-29.84964],[-52.40691,-29.85061],[-52.40701,-29.85072],[-52.40779,-29.85143],[-52.4083,-29.85243],[-52.40835,-29.85252],[-52.4099,-29.8549],[-52.41059,-29.85613],[-52.41071,-29.85631],[-52.41087,-29.85646],[-52.41106,-29.85656],[-52.41158,-29.85679],[-52.41162,-29.8568],[-52.41163,-29.85689],[-52.41169,-29.85707],[-52.41178,-29.85725],[-52.41191,-29.8574],[-52.41212,-29.85762],[-52.41228,-29.85774],[-52.41245,-29.85783],[-52.41293,-29.85803],[-52.41454,-29.85902],[-52.41478,-29.85913],[-52.41552,-29.85935],[-52.41564,-29.85938],[-52.41593,-29.85943],[-52.41613,-29.85954],[-52.41629,-29.85962],[-52.41646,-29.85966],[-52.41664,-29.85967],[-52.41693,-29.85967],[-52.41714,-29.85964],[-52.41734,-29.85958],[-52.41752,-29.85947],[-52.41767,-29.85932],[-52.41779,-29.85918],[-52.41793,-29.85898],[-52.41794,-29.85894],[-52.41815,-29.85899],[-52.41918,-29.85981],[-52.41927,-29.85987],[-52.4212,-29.8611],[-52.42135,-29.86118],[-52.42233,-29.86158],[-52.42252,-29.86163],[-52.42272,-29.86165],[-52.42292,-29.86163],[-52.42375,-29.86145],[-52.42395,-29.86138],[-52.42423,-29.86125],[-52.42439,-29.86128],[-52.42457,-29.86129],[-52.42474,-29.86127],[-52.42505,-29.86121],[-52.42515,-29.86119],[-52.42569,-29.86102],[-52.42585,-29.86095],[-52.42601,-29.86086],[-52.42614,-29.86073],[-52.42624,-29.86059],[-52.42632,-29.86043],[-52.42638,-29.86028],[-52.42646,-29.86029],[-52.42658,-29.86044],[-52.42685,-29.86083],[-52.42697,-29.86097],[-52.42712,-29.86109],[-52.42729,-29.86118],[-52.42747,-29.86124],[-52.42768,-29.86128],[-52.42765,-29.86135],[-52.42763,-29.86156],[-52.42765,-29.86177],[-52.42796,-29.86327],[-52.42801,-29.86343],[-52.42812,-29.86371],[-52.42802,-29.86393],[-52.42797,-29.86409],[-52.42795,-29.86425],[-52.42795,-29.86441],[-52.42801,-29.8651],[-52.42805,-29.86528],[-52.42812,-29.86546],[-52.42822,-29.86562],[-52.42835,-29.86575],[-52.4285,-29.86586],[-52.4289,-29.8661],[-52.42908,-29.86618],[-52.42926,-29.86623],[-52.42946,-29.86624],[-52.4299,-29.86622],[-52.43078,-29.86633],[-52.4308,-29.86633],[-52.4314,-29.86639],[-52.4314,-29.8664],[-52.43143,-29.86659],[-52.43146,-29.86672],[-52.43154,-29.86692],[-52.43165,-29.8671],[-52.4318,-29.86725],[-52.43195,-29.86737],[-52.43195,-29.86738],[-52.43207,-29.86756],[-52.43222,-29.86772],[-52.43228,-29.86777],[-52.4323,-29.86784],[-52.4324,-29.86802],[-52.43254,-29.86817],[-52.4327,-29.8683],[-52.43282,-29.86837],[-52.43296,-29.86845],[-52.43306,-29.86848],[-52.43315,-29.86859],[-52.43304,-29.86865],[-52.43291,-29.86878],[-52.43279,-29.86892],[-52.43271,-29.86909],[-52.43266,-29.86927],[-52.43264,-29.86941],[-52.43263,-29.86942],[-52.43254,-29.86958],[-52.43247,-29.86975],[-52.43244,-29.86993],[-52.43244,-29.87011],[-52.43248,-29.87029],[-52.43251,-29.87039],[-52.43257,-29.87055],[-52.43266,-29.8707],[-52.43279,-29.87089],[-52.43282,-29.87091],[-52.43307,-29.87124],[-52.43327,-29.87143],[-52.43379,-29.87181],[-52.43383,-29.87184],[-52.4343,-29.87215],[-52.43452,-29.87226],[-52.43475,-29.87231],[-52.43478,-29.87231],[-52.43479,-29.87249],[-52.43485,-29.87276],[-52.43494,-29.87302],[-52.43504,-29.87332],[-52.43513,-29.87352],[-52.43526,-29.87369],[-52.43542,-29.87383],[-52.43551,-29.87389],[-52.43558,-29.874],[-52.43569,-29.87414],[-52.43582,-29.87426],[-52.43597,-29.87435],[-52.43607,-29.87439],[-52.43617,-29.8746],[-52.4362,-29.87475],[-52.43626,-29.87494],[-52.43636,-29.87511],[-52.43649,-29.87526],[-52.43664,-29.87538],[-52.43664,-29.87539],[-52.43661,-29.87551],[-52.4366,-29.87569],[-52.43662,-29.87586],[-52.43663,-29.87592],[-52.43662,-29.87593],[-52.4365,-29.8761],[-52.43642,-29.8763],[-52.43639,-29.87651],[-52.43637,-29.87673],[-52.43637,-29.87675],[-52.43626,-29.87688],[-52.43616,-29.87703],[-52.43609,-29.87719],[-52.43606,-29.87737],[-52.43604,-29.87747],[-52.43604,-29.87767],[-52.43607,-29.87786],[-52.43614,-29.87805],[-52.43625,-29.87821],[-52.43631,-29.8783],[-52.4364,-29.87839],[-52.43643,-29.87863],[-52.43648,-29.87882],[-52.43657,-29.879],[-52.43669,-29.87917],[-52.43684,-29.8793],[-52.43699,-29.87941],[-52.43706,-29.87963],[-52.43718,-29.87984],[-52.43723,-29.87991],[-52.43714,-29.87993],[-52.43696,-29.88001],[-52.4368,-29.88013],[-52.43666,-29.88028],[-52.43664,-29.88031],[-52.43655,-29.8803],[-52.43625,-29.88033],[-52.43602,-29.88038],[-52.43576,-29.88047],[-52.43558,-29.88055],[-52.43542,-29.88067],[-52.43528,-29.88082],[-52.43518,-29.88099],[-52.43507,-29.88123],[-52.43501,-29.88137],[-52.43486,-29.88187],[-52.43483,-29.88199],[-52.43475,-29.88245],[-52.43473,-29.88262],[-52.43474,-29.88278],[-52.43475,-29.88281],[-52.47918,-29.88281],[-52.47923,-29.8826],[-52.47925,-29.88244],[-52.47925,-29.88227],[-52.47921,-29.88211],[-52.47916,-29.88192],[-52.47909,-29.88176],[-52.479,-29.88161],[-52.47889,-29.88147],[-52.47865,-29.88125],[-52.47851,-29.88114],[-52.47836,-29.88106],[-52.47705,-29.88049],[-52.47635,-29.88007],[-52.47619,-29.88],[-52.47602,-29.87995],[-52.47584,-29.87993],[-52.47554,-29.87993],[-52.47534,-29.87996],[-52.47519,-29.88],[-52.47519,-29.87993],[-52.47517,-29.87968],[-52.47512,-29.87945],[-52.47599,-29.87971],[-52.47619,-29.87975],[-52.47648,-29.87977],[-52.47664,-29.87977],[-52.4768,-29.87975],[-52.47716,-29.87966],[-52.47731,-29.87961],[-52.47744,-29.87955],[-52.47773,-29.87938],[-52.47788,-29.87926],[-52.47801,-29.87912],[-52.47811,-29.87896],[-52.47824,-29.87871],[-52.47831,-29.87849],[-52.47834,-29.87826],[-52.47834,-29.87799],[-52.47834,-29.87797],[-52.47834,-29.87787],[-52.47838,-29.87785],[-52.47854,-29.87772],[-52.47867,-29.87756],[-52.47912,-29.8769],[-52.47923,-29.87669],[-52.47941,-29.87619],[-52.47946,-29.87602],[-52.47947,-29.87584],[-52.47947,-29.87544],[-52.47946,-29.87528],[-52.47942,-29.87511],[-52.47932,-29.87484],[-52.47923,-29.87465],[-52.4791,-29.87448],[-52.47882,-29.87419],[-52.47869,-29.87407],[-52.47856,-29.87399],[-52.47856,-29.87394],[-52.47857,-29.87369],[-52.47858,-29.87367],[-52.47869,-29.87352],[-52.47878,-29.87336],[-52.47884,-29.87319],[-52.47887,-29.87301],[-52.47886,-29.87283],[-52.47884,-29.87259],[-52.47881,-29.87243],[-52.47875,-29.87228],[-52.47867,-29.87214],[-52.47855,-29.87196],[-52.47842,-29.87181],[-52.47826,-29.87168],[-52.47807,-29.87159],[-52.47785,-29.87151],[-52.47761,-29.87145],[-52.47745,-29.87143],[-52.47725,-29.87143],[-52.47705,-29.87147],[-52.4768,-29.87154],[-52.47661,-29.87162],[-52.47629,-29.87179],[-52.47631,-29.87174],[-52.47635,-29.87156],[-52.47638,-29.87126],[-52.47638,-29.87107],[-52.47635,-29.87088],[-52.47609,-29.86998],[-52.47603,-29.86983],[-52.47587,-29.86948],[-52.47577,-29.86932],[-52.47565,-29.86918],[-52.47551,-29.86907],[-52.47532,-29.86894],[-52.47507,-29.86883],[-52.47492,-29.86878],[-52.47477,-29.86875],[-52.47463,-29.86874],[-52.47434,-29.86874],[-52.47431,-29.86874],[-52.47391,-29.86875],[-52.4738,-29.86873],[-52.47341,-29.86856],[-52.47316,-29.86844],[-52.4729,-29.86795],[-52.47286,-29.86752],[-52.47284,-29.86745],[-52.47278,-29.86709],[-52.47275,-29.86673],[-52.4734,-29.86676],[-52.47347,-29.86676],[-52.47408,-29.86674],[-52.47477,-29.86685],[-52.47501,-29.86687],[-52.47533,-29.86684],[-52.47541,-29.86683],[-52.47569,-29.86679],[-52.47584,-29.86676],[-52.47598,-29.8667],[-52.47616,-29.86661],[-52.47636,-29.86649],[-52.47652,-29.86632],[-52.47665,-29.86616],[-52.47675,-29.86599],[-52.47682,-29.86581],[-52.4769,-29.86551],[-52.47693,-29.86532],[-52.47692,-29.86512],[-52.4769,-29.86494],[-52.47684,-29.86472],[-52.47673,-29.86451],[-52.47662,-29.86435],[-52.4765,-29.8642],[-52.47634,-29.86408],[-52.47475,-29.86305],[-52.47464,-29.86298],[-52.47437,-29.86285],[-52.4742,-29.86279],[-52.47402,-29.86276],[-52.47384,-29.86276],[-52.4737,-29.86277],[-52.47366,-29.86277],[-52.47346,-29.86264],[-52.47338,-29.8626],[-52.47282,-29.86232],[-52.47273,-29.86229],[-52.47272,-29.86224],[-52.47266,-29.86206],[-52.47257,-29.86191],[-52.47247,-29.86177],[-52.47233,-29.86161],[-52.47219,-29.86151],[-52.47221,-29.86135],[-52.47226,-29.86109],[-52.47226,-29.86109],[-52.47239,-29.86107],[-52.47266,-29.86103],[-52.47287,-29.86097],[-52.47306,-29.86086],[-52.47357,-29.8605],[-52.474,-29.86022],[-52.47425,-29.86012],[-52.47444,-29.86009],[-52.47467,-29.86012],[-52.47553,-29.86033],[-52.47559,-29.86035],[-52.47586,-29.86039],[-52.47615,-29.8604],[-52.47646,-29.86036],[-52.47664,-29.86032],[-52.47681,-29.86025],[-52.47697,-29.86015],[-52.47715,-29.86],[-52.47731,-29.85984],[-52.47744,-29.85965],[-52.47751,-29.85944],[-52.47756,-29.85922],[-52.47758,-29.85904],[-52.47757,-29.85886],[-52.47753,-29.85868],[-52.47738,-29.85824],[-52.47737,-29.85823],[-52.47727,-29.85792],[-52.47718,-29.85775],[-52.47707,-29.85759],[-52.47693,-29.85746],[-52.47671,-29.8573],[-52.47654,-29.85719],[-52.47644,-29.85716],[-52.47647,-29.8571],[-52.47656,-29.8569],[-52.47675,-29.85665],[-52.47685,-29.85648],[-52.47691,-29.8563],[-52.47697,-29.85607],[-52.477,-29.8559],[-52.477,-29.85573],[-52.47697,-29.85557],[-52.47692,-29.85536],[-52.47686,-29.85519],[-52.47677,-29.85504],[-52.47665,-29.8549],[-52.47633,-29.85459],[-52.47621,-29.85448],[-52.47578,-29.85418],[-52.47561,-29.85408],[-52.4751,-29.85386],[-52.47482,-29.85379],[-52.47436,-29.85373],[-52.47433,-29.85373],[-52.47463,-29.85354],[-52.4748,-29.85339],[-52.47499,-29.8532],[-52.47506,-29.85312],[-52.4753,-29.85281],[-52.4754,-29.85266],[-52.47547,-29.85251],[-52.47551,-29.85234],[-52.47557,-29.85191],[-52.47558,-29.8517],[-52.47555,-29.85149],[-52.47547,-29.8513],[-52.47543,-29.85123],[-52.47531,-29.85104],[-52.47515,-29.85089],[-52.47495,-29.85078],[-52.4748,-29.85071],[-52.47512,-29.85002],[-52.47532,-29.84967],[-52.47539,-29.84953],[-52.47544,-29.84937],[-52.47554,-29.84887],[-52.47554,-29.84887],[-52.47562,-29.84844],[-52.47564,-29.84826],[-52.47563,-29.84807],[-52.47559,-29.84789],[-52.47554,-29.8477],[-52.47544,-29.84752],[-52.47532,-29.84736],[-52.47516,-29.84724],[-52.47504,-29.84715],[-52.47491,-29.84708],[-52.47477,-29.84703],[-52.47455,-29.84697],[-52.47435,-29.84688],[-52.47413,-29.84674],[-52.47396,-29.84659],[-52.47391,-29.84651],[-52.47374,-29.84633],[-52.47354,-29.8462],[-52.47335,-29.8461],[-52.47326,-29.84606],[-52.47315,-29.84602],[-52.47314,-29.84593],[-52.47309,-29.84568],[-52.47302,-29.84545],[-52.47286,-29.84511],[-52.47281,-29.84502],[-52.47259,-29.84466],[-52.47246,-29.84448],[-52.47229,-29.84434],[-52.47217,-29.84425],[-52.47201,-29.84417],[-52.47196,-29.84414],[-52.47187,-29.84404],[-52.47175,-29.84392],[-52.47143,-29.84365],[-52.47143,-29.84365],[-52.47115,-29.84342],[-52.47097,-29.8431],[-52.47099,-29.84302],[-52.47099,-29.84285],[-52.47099,-29.84274],[-52.47096,-29.84255],[-52.4709,-29.84237],[-52.4708,-29.8422],[-52.47067,-29.84206],[-52.47052,-29.84194],[-52.47041,-29.84187],[-52.47025,-29.84179],[-52.47009,-29.84174],[-52.46995,-29.84171],[-52.46978,-29.84169],[-52.4696,-29.84169],[-52.46943,-29.84173],[-52.46934,-29.84176],[-52.46918,-29.84183],[-52.46904,-29.84192],[-52.46891,-29.84204],[-52.46881,-29.84218],[-52.46861,-29.84248],[-52.4685,-29.84266],[-52.46842,-29.84263],[-52.46824,-29.84255],[-52.46824,-29.84254],[-52.46824,-29.84254],[-52.46818,-29.84222],[-52.46813,-29.84203],[-52.46803,-29.84179],[-52.46794,-29.84161],[-52.46781,-29.84144],[-52.46764,-29.84128],[-52.46746,-29.84114],[-52.46704,-29.84088],[-52.46689,-29.8408],[-52.46631,-29.84057],[-52.46595,-29.84039],[-52.46571,-29.84025],[-52.46546,-29.84003],[-52.46538,-29.83996],[-52.4654,-29.83994],[-52.4656,-29.83976],[-52.46575,-29.83978],[-52.4659,-29.83979],[-52.46616,-29.83979],[-52.46635,-29.83977],[-52.46695,-29.83965],[-52.46715,-29.83961],[-52.46736,-29.83954],[-52.46747,-29.83948],[-52.46751,-29.83947],[-52.46766,-29.83943],[-52.46784,-29.83937],[-52.468,-29.83928],[-52.46813,-29.83916],[-52.46825,-29.83902],[-52.46834,-29.83886],[-52.46837,-29.83879],[-52.46844,-29.8386],[-52.46846,-29.8384],[-52.46844,-29.8382],[-52.46839,-29.83801],[-52.46829,-29.83783],[-52.46823,-29.83774],[-52.46813,-29.83761],[-52.46801,-29.8375],[-52.46785,-29.83737],[-52.46764,-29.83725],[-52.46769,-29.83707],[-52.4677,-29.83706],[-52.46786,-29.83702],[-52.46801,-29.83696],[-52.46814,-29.83689],[-52.4683,-29.83678],[-52.46843,-29.83665],[-52.46849,-29.83659],[-52.46854,-29.83657],[-52.46864,-29.83653],[-52.46882,-29.83644],[-52.46897,-29.83635],[-52.4691,-29.83624],[-52.46921,-29.83611],[-52.46937,-29.83588],[-52.46941,-29.83582],[-52.46949,-29.8357],[-52.4695,-29.83569],[-52.46951,-29.83572],[-52.46966,-29.83586],[-52.46982,-29.83597],[-52.47001,-29.83605],[-52.47011,-29.83608],[-52.47029,-29.83612],[-52.47048,-29.83612],[-52.47066,-29.83609],[-52.47074,-29.83607],[-52.47092,-29.836],[-52.47108,-29.83591],[-52.47132,-29.83573],[-52.47144,-29.83562],[-52.47185,-29.8352],[-52.47196,-29.83507],[-52.4723,-29.83456],[-52.47234,-29.83452],[-52.47234,-29.83452],[-52.47245,-29.8345],[-52.47339,-29.83451],[-52.47347,-29.83451],[-52.47424,-29.83445],[-52.47434,-29.83444],[-52.47448,-29.83442],[-52.4747,-29.83435],[-52.47488,-29.83427],[-52.47504,-29.83418],[-52.47517,-29.8341],[-52.47532,-29.83397],[-52.47545,-29.83383],[-52.47554,-29.83365],[-52.4756,-29.83347],[-52.47562,-29.83335],[-52.47564,-29.83313],[-52.47561,-29.83291],[-52.47553,-29.83259],[-52.4756,-29.83251],[-52.47569,-29.83238],[-52.47574,-29.83229],[-52.47587,-29.83222],[-52.47592,-29.83219],[-52.47612,-29.83207],[-52.47629,-29.83194],[-52.47642,-29.83179],[-52.47649,-29.83182],[-52.47671,-29.83187],[-52.47689,-29.83189],[-52.47706,-29.83189],[-52.47722,-29.83187],[-52.47757,-29.83179],[-52.47767,-29.83177],[-52.4778,-29.83172],[-52.47789,-29.83175],[-52.478,-29.83177],[-52.47814,-29.8318],[-52.47824,-29.8318],[-52.47841,-29.8318],[-52.47858,-29.83178],[-52.47868,-29.83175],[-52.47886,-29.83168],[-52.47893,-29.83165],[-52.47905,-29.83158],[-52.47917,-29.83149],[-52.47927,-29.8314],[-52.4794,-29.83125],[-52.4795,-29.83108],[-52.47956,-29.83089],[-52.47959,-29.83069],[-52.47958,-29.8305],[-52.47953,-29.8303],[-52.47826,-29.82699],[-52.47827,-29.82699],[-52.47845,-29.8269],[-52.47862,-29.82679],[-52.47875,-29.82668],[-52.47888,-29.82653],[-52.47899,-29.82637],[-52.47906,-29.82619],[-52.47908,-29.82612],[-52.47911,-29.8259],[-52.4791,-29.82569],[-52.47908,-29.82554],[-52.47903,-29.82536],[-52.47901,-29.82531],[-52.47914,-29.82517],[-52.47925,-29.825],[-52.4793,-29.8249],[-52.47937,-29.82474],[-52.4794,-29.82458],[-52.47941,-29.82441],[-52.4794,-29.82422],[-52.47935,-29.82394],[-52.47929,-29.82378],[-52.47922,-29.82361],[-52.47914,-29.82348],[-52.47911,-29.82336],[-52.4791,-29.82322],[-52.47909,-29.82309],[-52.47906,-29.82289],[-52.47899,-29.82271],[-52.47888,-29.8225],[-52.47874,-29.82229],[-52.47833,-29.82183],[-52.47821,-29.82172],[-52.47808,-29.82163],[-52.47812,-29.82154],[-52.47816,-29.82133],[-52.47818,-29.82113],[-52.47817,-29.82091],[-52.47843,-29.82084],[-52.47849,-29.82082],[-52.47872,-29.82074],[-52.47887,-29.82067],[-52.47901,-29.82058],[-52.47946,-29.82022],[-52.47984,-29.81995],[-52.47993,-29.81988],[-52.48033,-29.81952],[-52.48041,-29.81944],[-52.48088,-29.8189],[-52.48132,-29.81851],[-52.48163,-29.81827],[-52.48172,-29.8182],[-52.482,-29.81793],[-52.48205,-29.81789],[-52.4822,-29.81773],[-52.48233,-29.81755],[-52.48242,-29.81735],[-52.48251,-29.81708],[-52.48255,-29.81681],[-52.48256,-29.81672],[-52.48255,-29.81655],[-52.4825,-29.81637],[-52.48243,-29.81621],[-52.48233,-29.81606],[-52.48217,-29.81587],[-52.48209,-29.81578],[-52.48184,-29.81553],[-52.48187,-29.8155],[-52.48198,-29.81532],[-52.48206,-29.81513],[-52.48209,-29.81493],[-52.4821,-29.81477],[-52.48209,-29.81453],[-52.48202,-29.8143],[-52.48193,-29.81409],[-52.48189,-29.81404],[-52.48208,-29.814],[-52.48221,-29.81396],[-52.48237,-29.81389],[-52.48253,-29.81379],[-52.4827,-29.81365],[-52.48277,-29.81359],[-52.48288,-29.81348],[-52.48294,-29.81341],[-52.48305,-29.81329],[-52.48318,-29.8131],[-52.48326,-29.81289],[-52.48328,-29.81283],[-52.48348,-29.8129],[-52.48357,-29.81292],[-52.48363,-29.81293],[-52.4837,-29.81298],[-52.48382,-29.81305],[-52.48403,-29.81315],[-52.48424,-29.81323],[-52.48446,-29.81325],[-52.48473,-29.81325],[-52.48488,-29.81324],[-52.48503,-29.81321],[-52.48522,-29.81315],[-52.48548,-29.81303],[-52.48568,-29.8129],[-52.48581,-29.8128],[-52.48591,-29.81268],[-52.4863,-29.81219],[-52.48637,-29.81208],[-52.4865,-29.81187],[-52.48657,-29.81171],[-52.48659,-29.81164],[-52.48669,-29.81165],[-52.4871,-29.81163],[-52.48729,-29.8116],[-52.48759,-29.81152],[-52.48777,-29.81146],[-52.48814,-29.81129],[-52.4883,-29.8112],[-52.48859,-29.81099],[-52.48874,-29.81086],[-52.48886,-29.81071],[-52.48907,-29.81037],[-52.48915,-29.81021],[-52.4892,-29.81004],[-52.48922,-29.80986],[-52.48922,-29.80971],[-52.4892,-29.80951],[-52.48915,-29.80932],[-52.48909,-29.80918],[-52.48902,-29.80903],[-52.48891,-29.80889],[-52.4888,-29.80876],[-52.48868,-29.80865],[-52.48854,-29.80855],[-52.4884,-29.80847],[-52.48827,-29.80831],[-52.48814,-29.80816],[-52.48797,-29.80801],[-52.48776,-29.80791],[-52.48753,-29.80782],[-52.48729,-29.80776],[-52.48605,-29.80762],[-52.48584,-29.80762],[-52.48553,-29.80765],[-52.48541,-29.80762],[-52.4854,-29.80762],[-52.48528,-29.80743],[-52.4852,-29.80727],[-52.48531,-29.80693],[-52.48552,-29.80682],[-52.4856,-29.80676],[-52.48613,-29.8064],[-52.48626,-29.80629],[-52.48681,-29.80576],[-52.48695,-29.80559],[-52.48721,-29.80521],[-52.48729,-29.80505],[-52.48752,-29.80452],[-52.48788,-29.80381],[-52.48793,-29.80369],[-52.48803,-29.80339],[-52.48809,-29.80315],[-52.48812,-29.80281],[-52.48811,-29.80253],[-52.48807,-29.80234],[-52.48804,-29.80199],[-52.48805,-29.80158],[-52.48804,-29.80143],[-52.48801,-29.80128],[-52.48795,-29.80107],[-52.4879,-29.80093],[-52.48783,-29.8008],[-52.48752,-29.80033],[-52.48751,-29.80031],[-52.48736,-29.8001],[-52.48729,-29.79989],[-52.48723,-29.79972],[-52.48713,-29.79953],[-52.487,-29.79934],[-52.48682,-29.79918],[-52.48663,-29.79904],[-52.48648,-29.79895],[-52.48631,-29.79889],[-52.48595,-29.79879],[-52.48579,-29.79876],[-52.48525,-29.7987],[-52.48524,-29.7987],[-52.48495,-29.79867],[-52.48477,-29.7986],[-52.48461,-29.79854],[-52.48456,-29.7985],[-52.48448,-29.79841],[-52.48397,-29.79753],[-52.48397,-29.79752],[-52.4838,-29.79723],[-52.48376,-29.79717],[-52.48335,-29.79658],[-52.4834,-29.79654],[-52.48358,-29.7964],[-52.48372,-29.79622],[-52.48378,-29.79611],[-52.48385,-29.79596],[-52.4839,-29.7958],[-52.48392,-29.79566],[-52.48394,-29.79547],[-52.48393,-29.79529],[-52.48389,-29.79511],[-52.48382,-29.79488],[-52.4837,-29.79468],[-52.48357,-29.79452],[-52.48346,-29.7944],[-52.48334,-29.7943],[-52.48219,-29.79354],[-52.48212,-29.79349],[-52.48211,-29.79348],[-52.48199,-29.79328],[-52.48162,-29.79253],[-52.48159,-29.79245],[-52.48168,-29.79239],[-52.48184,-29.79222],[-52.48196,-29.79202],[-52.4821,-29.79172],[-52.48221,-29.79149],[-52.48238,-29.79148],[-52.48252,-29.79145],[-52.48271,-29.7914],[-52.4829,-29.79131],[-52.48312,-29.79116],[-52.48327,-29.79105],[-52.48339,-29.79091],[-52.48347,-29.7908],[-52.48356,-29.79066],[-52.48362,-29.79051],[-52.48366,-29.79034],[-52.48367,-29.79024],[-52.48367,-29.79004],[-52.48364,-29.78984],[-52.48357,-29.78959],[-52.48349,-29.7894],[-52.4833,-29.78903],[-52.48325,-29.78893],[-52.48329,-29.78876],[-52.48332,-29.78861],[-52.48337,-29.78808],[-52.48336,-29.78784],[-52.48334,-29.78768],[-52.4833,-29.78753],[-52.48325,-29.78739],[-52.48315,-29.78718],[-52.48307,-29.78704],[-52.48297,-29.78692],[-52.4828,-29.78674],[-52.48266,-29.78662],[-52.48251,-29.78653],[-52.48235,-29.78647],[-52.48206,-29.78638],[-52.48183,-29.78635],[-52.48152,-29.78633],[-52.48144,-29.78631],[-52.48062,-29.78591],[-52.48083,-29.78556],[-52.4809,-29.78542],[-52.48095,-29.78526],[-52.48103,-29.78491],[-52.48105,-29.7847],[-52.48105,-29.7845],[-52.48103,-29.78432],[-52.48099,-29.78414],[-52.48091,-29.78398],[-52.48084,-29.78387],[-52.48071,-29.78369],[-52.48053,-29.78355],[-52.47987,-29.78312],[-52.47978,-29.78302],[-52.4796,-29.78286],[-52.47942,-29.78277],[-52.47943,-29.78269],[-52.47947,-29.78217],[-52.47952,-29.78197],[-52.47956,-29.78175],[-52.47954,-29.78153],[-52.4795,-29.78126],[-52.47946,-29.7811],[-52.47934,-29.78077],[-52.47932,-29.78072],[-52.47935,-29.78059],[-52.47935,-29.78039],[-52.47929,-29.77972],[-52.47925,-29.77952],[-52.47909,-29.77899],[-52.47905,-29.7788],[-52.47904,-29.77876],[-52.47888,-29.77814],[-52.47878,-29.77755],[-52.47873,-29.77735],[-52.47871,-29.7773],[-52.47874,-29.77722],[-52.47932,-29.77707],[-52.47952,-29.77706],[-52.47974,-29.77703],[-52.48095,-29.77667],[-52.4811,-29.77661],[-52.48125,-29.77653],[-52.4814,-29.77642],[-52.48156,-29.77628],[-52.48165,-29.77618],[-52.48178,-29.77599],[-52.48187,-29.77579],[-52.48191,-29.77556],[-52.48192,-29.77547],[-52.48191,-29.7753],[-52.48188,-29.77513],[-52.48185,-29.77504],[-52.48179,-29.77489],[-52.4817,-29.77474],[-52.48159,-29.77461],[-52.48154,-29.77456],[-52.48136,-29.77442],[-52.48115,-29.77433],[-52.48104,-29.77429],[-52.48089,-29.77426],[-52.48073,-29.77423],[-52.48063,-29.7742],[-52.4805,-29.77383],[-52.48037,-29.77359],[-52.47984,-29.77286],[-52.47985,-29.77281],[-52.47984,-29.77263],[-52.4798,-29.77245],[-52.47972,-29.77228],[-52.47959,-29.77205],[-52.47947,-29.77188],[-52.47932,-29.77174],[-52.47907,-29.77155],[-52.47891,-29.77145],[-52.4789,-29.77143],[-52.47871,-29.77114],[-52.47816,-29.76968],[-52.47808,-29.76951],[-52.47796,-29.76936],[-52.4778,-29.76918],[-52.47766,-29.76905],[-52.4775,-29.76895],[-52.47733,-29.76887],[-52.47715,-29.7688],[-52.47697,-29.76877],[-52.47682,-29.76876],[-52.47691,-29.7687],[-52.47703,-29.7686],[-52.47724,-29.7684],[-52.47736,-29.76827],[-52.47745,-29.76812],[-52.47752,-29.76796],[-52.47759,-29.76779],[-52.47762,-29.76761],[-52.47762,-29.76742],[-52.47761,-29.76736],[-52.47801,-29.76703],[-52.47802,-29.76703],[-52.4783,-29.76679],[-52.47842,-29.76667],[-52.47852,-29.76653],[-52.47859,-29.76637],[-52.47866,-29.76619],[-52.4787,-29.76604],[-52.47872,-29.76588],[-52.47872,-29.76571],[-52.47871,-29.76553],[-52.47866,-29.76535],[-52.47859,-29.76519],[-52.47847,-29.76498],[-52.47832,-29.76478],[-52.47777,-29.76421],[-52.47924,-29.76262],[-52.47936,-29.76246],[-52.47945,-29.76228],[-52.47949,-29.76208],[-52.47953,-29.76184],[-52.47953,-29.76166],[-52.47951,-29.76148],[-52.47946,-29.76131],[-52.47937,-29.76116],[-52.47926,-29.76102],[-52.47824,-29.75993],[-52.47727,-29.75818],[-52.47717,-29.75773],[-52.47764,-29.75542],[-52.47766,-29.75525],[-52.47765,-29.75507],[-52.47751,-29.75414],[-52.47749,-29.75405],[-52.47736,-29.75348],[-52.47726,-29.75323],[-52.4769,-29.75256],[-52.47678,-29.75238],[-52.47662,-29.75223],[-52.47644,-29.75212],[-52.47625,-29.75203],[-52.47684,-29.75108],[-52.47692,-29.75092],[-52.47697,-29.75075],[-52.47699,-29.75057],[-52.47697,-29.7504],[-52.47694,-29.75019],[-52.4769,-29.75002],[-52.47682,-29.74985],[-52.47672,-29.7497],[-52.47628,-29.74919],[-52.47614,-29.74905],[-52.47596,-29.74894],[-52.47577,-29.74887],[-52.47352,-29.74828],[-52.47352,-29.74828],[-52.47353,-29.74828],[-52.47373,-29.74827],[-52.47392,-29.74822],[-52.4741,-29.74814],[-52.47426,-29.74803],[-52.47446,-29.74785],[-52.47459,-29.7477],[-52.4747,-29.74753],[-52.47476,-29.74734],[-52.47481,-29.74714],[-52.47484,-29.74694],[-52.47483,-29.74674],[-52.47478,-29.74655],[-52.47469,-29.74638],[-52.47439,-29.74589],[-52.47429,-29.74574],[-52.47416,-29.74562],[-52.47395,-29.74546],[-52.47377,-29.74535],[-52.47357,-29.74527],[-52.47335,-29.74525],[-52.47259,-29.74523],[-52.47174,-29.74484],[-52.47155,-29.74478],[-52.47134,-29.74475],[-52.4707,-29.74474],[-52.4707,-29.75098]]]},"properties":{"ghs":"6fdw","size":36.61,"ghs_len":4,"ghs_area":98.36,"ghs_bytes":1717789,"ghs_items":4367,"size_unit":"km2","ghsval_unit":"bytes","ghs_itemsdensity":44.4,"size_unitdensity":0.37}},{"type":"Feature","geometry":{"type":"Polygon","coordinates":[[[-52.42676,-29.75098],[-52.42676,-29.79492],[-52.4707,-29.79492],[-52.4707,-29.75098],[-52.42676,-29.75098]]]},"properties":{"ghs":"6fdww","size":11.27,"ghs_len":5,"ghs_area":20.7,"ghs_bytes":1376724,"ghs_items":3873,"size_unit":"km2","ghsval_unit":"bytes","ghs_itemsdensity":187.09,"size_unitdensity":0.54}},{"type":"Feature","geometry":{"type":"Polygon","coordinates":[[[-52.42676,-29.70703],[-52.42676,-29.7345],[-52.42676,-29.73999],[-52.42676,-29.75098],[-52.4707,-29.75098],[-52.4707,-29.74474],[-52.46982,-29.74473],[-52.4688,-29.74421],[-52.46865,-29.74415],[-52.46848,-29.74411],[-52.4682,-29.74408],[-52.46798,-29.74407],[-52.46776,-29.74412],[-52.46756,-29.74421],[-52.46727,-29.74438],[-52.46717,-29.74445],[-52.46692,-29.74389],[-52.46681,-29.74371],[-52.46666,-29.74355],[-52.46651,-29.74341],[-52.46633,-29.74329],[-52.46612,-29.74321],[-52.46497,-29.74289],[-52.4639,-29.74241],[-52.46397,-29.74226],[-52.46404,-29.74209],[-52.46407,-29.74191],[-52.46413,-29.74129],[-52.46413,-29.74105],[-52.46407,-29.74082],[-52.46399,-29.74062],[-52.46391,-29.74046],[-52.4638,-29.74032],[-52.46367,-29.7402],[-52.46301,-29.73969],[-52.46233,-29.73908],[-52.46301,-29.73874],[-52.46315,-29.73866],[-52.46328,-29.73855],[-52.46361,-29.73822],[-52.46372,-29.73808],[-52.46381,-29.73792],[-52.46386,-29.73775],[-52.46402,-29.73712],[-52.46405,-29.73695],[-52.46404,-29.73677],[-52.46401,-29.7366],[-52.4639,-29.73623],[-52.46382,-29.73603],[-52.4637,-29.73585],[-52.46353,-29.73566],[-52.46337,-29.73552],[-52.46319,-29.73541],[-52.46282,-29.73524],[-52.4626,-29.73517],[-52.46238,-29.73514],[-52.46177,-29.73516],[-52.46157,-29.73518],[-52.46139,-29.73524],[-52.45928,-29.73615],[-52.45864,-29.73625],[-52.45861,-29.7361],[-52.45871,-29.73609],[-52.45887,-29.73606],[-52.45903,-29.73601],[-52.45921,-29.73592],[-52.45944,-29.73585],[-52.4596,-29.73578],[-52.45974,-29.73568],[-52.45987,-29.73557],[-52.45995,-29.73547],[-52.46005,-29.73534],[-52.46013,-29.73519],[-52.46016,-29.73512],[-52.46021,-29.73512],[-52.46043,-29.73513],[-52.46122,-29.73505],[-52.4619,-29.7351],[-52.4621,-29.7351],[-52.46408,-29.73484],[-52.4643,-29.73479],[-52.46449,-29.73472],[-52.46468,-29.73463],[-52.46484,-29.7345],[-52.46508,-29.73426],[-52.46521,-29.73411],[-52.46531,-29.73393],[-52.46536,-29.73382],[-52.46541,-29.73365],[-52.46543,-29.73347],[-52.46544,-29.73331],[-52.46543,-29.73314],[-52.46539,-29.73297],[-52.46524,-29.73252],[-52.4653,-29.73241],[-52.46534,-29.73223],[-52.46537,-29.73211],[-52.46538,-29.73193],[-52.46536,-29.73176],[-52.4654,-29.73176],[-52.46555,-29.73176],[-52.46579,-29.73172],[-52.46601,-29.73163],[-52.46618,-29.73152],[-52.46636,-29.73139],[-52.4665,-29.73123],[-52.46662,-29.73106],[-52.46673,-29.73085],[-52.46683,-29.7306],[-52.46688,-29.73041],[-52.4669,-29.73022],[-52.4669,-29.72999],[-52.46685,-29.72972],[-52.4667,-29.7292],[-52.46667,-29.72872],[-52.46665,-29.72857],[-52.46661,-29.72842],[-52.4664,-29.72788],[-52.46634,-29.72774],[-52.46625,-29.72757],[-52.46631,-29.72749],[-52.46636,-29.72742],[-52.46681,-29.72676],[-52.46691,-29.72657],[-52.46697,-29.72636],[-52.467,-29.72612],[-52.46701,-29.72593],[-52.46699,-29.72573],[-52.46694,-29.72556],[-52.46688,-29.72537],[-52.46678,-29.7252],[-52.46664,-29.72505],[-52.46583,-29.72432],[-52.46586,-29.72426],[-52.4659,-29.7241],[-52.46595,-29.72385],[-52.46596,-29.72371],[-52.46596,-29.72356],[-52.4659,-29.72307],[-52.46596,-29.72299],[-52.46614,-29.72286],[-52.46629,-29.72274],[-52.4664,-29.72259],[-52.46649,-29.72242],[-52.46654,-29.72224],[-52.46659,-29.72199],[-52.46661,-29.72179],[-52.46661,-29.72161],[-52.46659,-29.72141],[-52.46653,-29.72121],[-52.46643,-29.72104],[-52.4662,-29.7207],[-52.46607,-29.72055],[-52.46605,-29.72053],[-52.46549,-29.71903],[-52.46561,-29.71898],[-52.4657,-29.71895],[-52.46642,-29.71861],[-52.4666,-29.7185],[-52.46676,-29.71835],[-52.46688,-29.71818],[-52.46696,-29.71798],[-52.46703,-29.71772],[-52.46706,-29.71745],[-52.46706,-29.71727],[-52.46704,-29.71703],[-52.46695,-29.71681],[-52.4663,-29.71554],[-52.46621,-29.7154],[-52.4661,-29.71527],[-52.46585,-29.71504],[-52.46571,-29.71493],[-52.46554,-29.71484],[-52.46525,-29.71472],[-52.46532,-29.71466],[-52.46559,-29.71444],[-52.46574,-29.71429],[-52.46586,-29.7141],[-52.46596,-29.71389],[-52.46603,-29.71371],[-52.46606,-29.71352],[-52.46605,-29.71333],[-52.46602,-29.71305],[-52.46597,-29.71284],[-52.46588,-29.71265],[-52.46575,-29.71248],[-52.46551,-29.71224],[-52.46533,-29.71209],[-52.4651,-29.71194],[-52.46491,-29.71176],[-52.46522,-29.71152],[-52.46534,-29.71142],[-52.46564,-29.71111],[-52.46569,-29.71106],[-52.46601,-29.71069],[-52.46622,-29.71046],[-52.46627,-29.71041],[-52.46641,-29.71024],[-52.46654,-29.7101],[-52.46669,-29.71],[-52.46677,-29.70993],[-52.4668,-29.70991],[-52.46702,-29.70987],[-52.46731,-29.70981],[-52.46732,-29.70981],[-52.46763,-29.70975],[-52.46777,-29.70971],[-52.46791,-29.70965],[-52.46819,-29.70949],[-52.4682,-29.70949],[-52.46857,-29.70928],[-52.46871,-29.70918],[-52.46883,-29.70907],[-52.46913,-29.70873],[-52.46925,-29.70857],[-52.46935,-29.70838],[-52.46942,-29.70826],[-52.46944,-29.70823],[-52.4697,-29.70773],[-52.46979,-29.70752],[-52.46982,-29.7073],[-52.46983,-29.70703],[-52.42676,-29.70703]],[[-52.44873,-29.729],[-52.43774,-29.729],[-52.43774,-29.72351],[-52.44873,-29.72351],[-52.44873,-29.729]]]},"properties":{"ghs":"6fdwy","size":13.12,"ghs_len":5,"ghs_area":18.12,"ghs_bytes":2879259,"ghs_items":11025,"size_unit":"km2","ghsval_unit":"bytes","ghs_itemsdensity":608.53,"size_unitdensity":0.72}},{"type":"Feature","geometry":{"type":"Polygon","coordinates":[[[-52.44873,-29.72351],[-52.43774,-29.72351],[-52.43774,-29.729],[-52.44873,-29.729],[-52.44873,-29.72351]]]},"properties":{"ghs":"6fdwys","size":0.46,"ghs_len":6,"ghs_area":0.65,"ghs_bytes":247850,"ghs_items":1142,"size_unit":"km2","ghsval_unit":"bytes","ghs_itemsdensity":1764.46,"size_unitdensity":0.71}},{"type":"Feature","geometry":{"type":"Polygon","coordinates":[[[-52.41577,-29.73999],[-52.41577,-29.7345],[-52.42676,-29.7345],[-52.42676,-29.70703],[-52.38281,-29.70703],[-52.38281,-29.75098],[-52.42676,-29.75098],[-52.42676,-29.73999],[-52.41577,-29.73999]]]},"properties":{"ghs":"6fdwz","size":15.28,"ghs_len":5,"ghs_area":20.06,"ghs_bytes":2888175,"ghs_items":11799,"size_unit":"km2","ghsval_unit":"bytes","ghs_itemsdensity":588.09,"size_unitdensity":0.76}},{"type":"Feature","geometry":{"type":"Polygon","coordinates":[[[-52.42676,-29.7345],[-52.41577,-29.7345],[-52.41577,-29.73999],[-52.42676,-29.73999],[-52.42676,-29.7345]]]},"properties":{"ghs":"6fdwz4","size":0.44,"ghs_len":6,"ghs_area":0.65,"ghs_bytes":202109,"ghs_items":927,"size_unit":"km2","ghsval_unit":"bytes","ghs_itemsdensity":1432.43,"size_unitdensity":0.69}}]}
