{"type": "FeatureCollection", "features": [
{"type": "Feature", "geometry": {"type": "Point", "coordinates": [-51.090089, -30.239291]}, "properties": {"info": {"setor": 0, "datemodified": "2018-08-21"}, "address": "?, 195"}},
{"type": "Feature", "geometry": {"type": "Point", "coordinates": [-51.083335, -30.240733]}, "properties": {"info": {"setor": 0, "datemodified": "2018-08-17"}, "address": "?, 131/131"}},
{"type": "Feature", "geometry": {"type": "Point", "coordinates": [-51.081415, -30.240555]}, "properties": {"info": {"setor": 0, "datemodified": "2018-08-01"}, "address": "?, 3947"}},
{"type": "Feature", "geometry": {"type": "Point", "coordinates": [-51.08068, -30.240959]}, "properties": {"info": {"setor": 0, "datemodified": "2018-08-01"}, "address": "?, 4013"}},
{"type": "Feature", "geometry": {"type": "Point", "coordinates": [-51.083452, -30.240176]}, "properties": {"info": {"setor": 0, "datemodified": "2018-08-01"}, "address": "?, 115"}},
{"type": "Feature", "geometry": {"type": "Point", "coordinates": [-51.088762, -30.237724]}, "properties": {"info": {"setor": 0, "datemodified": "2018-08-01"}, "address": "?, 2607"}},
{"type": "Feature", "geometry": {"type": "Point", "coordinates": [-51.089692, -30.23901]}, "properties": {"info": {"setor": 0, "datemodified": "2018-08-01"}, "address": "?, 160"}},
{"type": "Feature", "geometry": {"type": "Point", "coordinates": [-51.080756, -30.241277]}, "properties": {"info": {"setor": 0, "datemodified": "2018-08-01"}, "address": "?, 72"}},
{"type": "Feature", "geometry": {"type": "Point", "coordinates": [-51.095425, -30.234607]}, "properties": {"info": {"setor": 0, "datemodified": "2018-08-01"}, "address": "?, 1807"}},
{"type": "Feature", "geometry": {"type": "Point", "coordinates": [-51.089028, -30.238586]}, "properties": {"info": {"setor": 0, "datemodified": "2018-08-01"}, "address": "?, 103"}},
{"type": "Feature", "geometry": {"type": "Point", "coordinates": [-51.090415, -30.240272]}, "properties": {"info": {"setor": 0, "datemodified": "2018-08-21"}, "address": "?, 326"}},
{"type": "Feature", "geometry": {"type": "Point", "coordinates": [-51.094372, -30.238838]}, "properties": {"info": {"setor": 0, "datemodified": "2018-08-17"}, "address": "?, 155"}},
{"type": "Feature", "geometry": {"type": "Point", "coordinates": [-51.094607, -30.23842]}, "properties": {"info": {"setor": 0, "datemodified": "2018-08-21"}, "address": "?, 235"}},
{"type": "Feature", "geometry": {"type": "Point", "coordinates": [-51.088217, -30.239048]}, "properties": {"info": {"setor": 0, "datemodified": "2018-08-01"}, "address": "?, 164"}},
{"type": "Feature", "geometry": {"type": "Point", "coordinates": [-51.089052, -30.2397]}, "properties": {"info": {"setor": 0, "datemodified": "2018-08-01"}, "address": "?, 224"}},
{"type": "Feature", "geometry": {"type": "Point", "coordinates": [-51.087854, -30.238921]}, "properties": {"info": {"setor": 0, "datemodified": "2018-08-20"}, "address": "?, 187"}},
{"type": "Feature", "geometry": {"type": "Point", "coordinates": [-51.080162, -30.234729]}, "properties": {"info": {"setor": 0, "datemodified": "2018-08-01"}, "address": "?, 433"}},
{"type": "Feature", "geometry": {"type": "Point", "coordinates": [-51.081936, -30.239893]}, "properties": {"info": {"setor": 0, "datemodified": "2018-08-17"}, "address": "?, 3630"}},
{"type": "Feature", "geometry": {"type": "Point", "coordinates": [-51.090604, -30.239988]}, "properties": {"info": {"setor": 0, "datemodified": "2018-04-19"}, "address": "?, 275"}},
{"type": "Feature", "geometry": {"type": "Point", "coordinates": [-51.088184, -30.237857]}, "properties": {"info": {"setor": 0, "datemodified": "2018-08-01"}, "address": "?, 2669"}},
{"type": "Feature", "geometry": {"type": "Point", "coordinates": [-51.133791, -30.240177]}, "properties": {"info": {"setor": 0, "datemodified": "2018-08-01"}, "address": "?, 2390"}},
{"type": "Feature", "geometry": {"type": "Point", "coordinates": [-51.090081, -30.238059]}, "properties": {"info": {"setor": 0, "datemodified": "2018-08-01"}, "address": "?, 54"}},
{"type": "Feature", "geometry": {"type": "Point", "coordinates": [-51.090488, -30.239417]}, "properties": {"info": {"setor": 0, "datemodified": "2018-08-01"}, "address": "?, 212"}},
{"type": "Feature", "geometry": {"type": "Point", "coordinates": [-51.080999, -30.240791]}, "properties": {"info": {"setor": 0, "datemodified": "2018-08-01"}, "address": "?, 3983"}},
{"type": "Feature", "geometry": {"type": "Point", "coordinates": [-51.089531, -30.238461]}, "properties": {"info": {"setor": 0, "datemodified": "2018-08-01"}, "address": "?, 100"}},
{"type": "Feature", "geometry": {"type": "Point", "coordinates": [-51.082296, -30.240314]}, "properties": {"info": {"setor": 0, "datemodified": "2018-08-01"}, "address": "?, 143"}},
{"type": "Feature", "geometry": {"type": "Point", "coordinates": [-51.090188, -30.240294]}, "properties": {"info": {"setor": 0, "datemodified": "2018-08-21"}, "address": "?, 342"}},
{"type": "Feature", "geometry": {"type": "Point", "coordinates": [-51.093319, -30.240288]}, "properties": {"info": {"setor": 0, "datemodified": "2018-08-01"}, "address": "?, 38"}},
{"type": "Feature", "geometry": {"type": "Point", "coordinates": [-51.088188, -30.238959]}, "properties": {"info": {"setor": 0, "datemodified": "2018-08-01"}, "address": "?, 176"}},
{"type": "Feature", "geometry": {"type": "Point", "coordinates": [-51.088271, -30.239248]}, "properties": {"info": {"setor": 0, "datemodified": "2018-08-01"}, "address": "?, 152"}},
{"type": "Feature", "geometry": {"type": "Point", "coordinates": [-51.081606, -30.240937]}, "properties": {"info": {"setor": 0, "datemodified": "2018-08-01"}, "address": "?, 86"}},
{"type": "Feature", "geometry": {"type": "Point", "coordinates": [-51.087795, -30.238727]}, "properties": {"info": {"setor": 0, "datemodified": "2018-08-20"}, "address": "?, 205"}},
{"type": "Feature", "geometry": {"type": "Point", "coordinates": [-51.095025, -30.236743]}, "properties": {"info": {"setor": 0, "datemodified": "2018-08-01"}, "address": "?, 1985"}},
{"type": "Feature", "geometry": {"type": "Point", "coordinates": [-51.083392, -30.240093]}, "properties": {"info": {"setor": 0, "datemodified": "2018-08-01"}, "address": "?, 127"}},
{"type": "Feature", "geometry": {"type": "Point", "coordinates": [-51.082624, -30.241445]}, "properties": {"info": {"setor": 0, "datemodified": "2018-08-17"}, "address": "?, 45340"}},
{"type": "Feature", "geometry": {"type": "Point", "coordinates": [-51.080114, -30.241856]}, "properties": {"info": {"setor": 0, "datemodified": "2018-08-01"}, "address": "?, 45560"}},
{"type": "Feature", "geometry": {"type": "Point", "coordinates": [-51.082915, -30.240667]}, "properties": {"info": {"setor": 0, "datemodified": "2018-04-19"}, "address": "?, 131/140"}},
{"type": "Feature", "geometry": {"type": "Point", "coordinates": [-51.090722, -30.23931]}, "properties": {"info": {"setor": 0, "datemodified": "2018-08-01"}, "address": "?, 201"}},
{"type": "Feature", "geometry": {"type": "Point", "coordinates": [-51.090834, -30.239655]}, "properties": {"info": {"setor": 0, "datemodified": "2018-08-01"}, "address": "?, 241"}},
{"type": "Feature", "geometry": {"type": "Point", "coordinates": [-51.088642, -30.238296]}, "properties": {"info": {"setor": 0, "datemodified": "2018-08-01"}, "address": "?, 62"}},
{"type": "Feature", "geometry": {"type": "Point", "coordinates": [-51.083768, -30.240159]}, "properties": {"info": {"setor": 0, "datemodified": "2018-08-20"}, "address": "?, 106"}},
{"type": "Feature", "geometry": {"type": "Point", "coordinates": [-51.133536, -30.240542]}, "properties": {"info": {"setor": 0, "datemodified": "2018-04-19"}, "address": "?, 2450"}},
{"type": "Feature", "geometry": {"type": "Point", "coordinates": [-51.088847, -30.238995]}, "properties": {"info": {"setor": 0, "datemodified": "2018-08-01"}, "address": "?, 146"}},
{"type": "Feature", "geometry": {"type": "Point", "coordinates": [-51.082674, -30.241224]}, "properties": {"info": {"setor": 0, "datemodified": "2018-08-01"}, "address": "?, 37"}},
{"type": "Feature", "geometry": {"type": "Point", "coordinates": [-51.090521, -30.239523]}, "properties": {"info": {"setor": 0, "datemodified": "2018-08-01"}, "address": "?, 222"}},
{"type": "Feature", "geometry": {"type": "Point", "coordinates": [-51.090186, -30.239574]}, "properties": {"info": {"setor": 0, "datemodified": "2018-08-21"}, "address": "?, 231"}},
{"type": "Feature", "geometry": {"type": "Point", "coordinates": [-51.082467, -30.240724]}, "properties": {"info": {"setor": 0, "datemodified": "2018-08-01"}, "address": "?, 97"}},
{"type": "Feature", "geometry": {"type": "Point", "coordinates": [-51.083796, -30.240206]}, "properties": {"info": {"setor": 0, "datemodified": "2018-08-20"}, "address": "?, 96"}},
{"type": "Feature", "geometry": {"type": "Point", "coordinates": [-51.083545, -30.240323]}, "properties": {"info": {"setor": 0, "datemodified": "2018-08-01"}, "address": "?, 95"}},
{"type": "Feature", "geometry": {"type": "Point", "coordinates": [-51.089614, -30.238737]}, "properties": {"info": {"setor": 0, "datemodified": "2018-08-01"}, "address": "?, 130"}},
{"type": "Feature", "geometry": {"type": "Point", "coordinates": [-51.088951, -30.238323]}, "properties": {"info": {"setor": 0, "datemodified": "2018-08-01"}, "address": "?, 75"}},
{"type": "Feature", "geometry": {"type": "Point", "coordinates": [-51.089055, -30.238678]}, "properties": {"info": {"setor": 0, "datemodified": "2018-08-01"}, "address": "?, 113"}},
{"type": "Feature", "geometry": {"type": "Point", "coordinates": [-51.094032, -30.239515]}, "properties": {"info": {"setor": 0, "datemodified": "2018-08-17"}, "address": "?, 81"}},
{"type": "Feature", "geometry": {"type": "Point", "coordinates": [-51.088982, -30.238411]}, "properties": {"info": {"setor": 0, "datemodified": "2018-08-01"}, "address": "?, 85"}},
{"type": "Feature", "geometry": {"type": "Point", "coordinates": [-51.088242, -30.239145]}, "properties": {"info": {"setor": 0, "datemodified": "2018-08-01"}, "address": "?, 154"}},
{"type": "Feature", "geometry": {"type": "Point", "coordinates": [-51.088296, -30.239344]}, "properties": {"info": {"setor": 0, "datemodified": "2018-08-01"}, "address": "?, 132"}},
{"type": "Feature", "geometry": {"type": "Point", "coordinates": [-51.088327, -30.239443]}, "properties": {"info": {"setor": 0, "datemodified": "2018-08-01"}, "address": "?, 120"}},
{"type": "Feature", "geometry": {"type": "Point", "coordinates": [-51.081735, -30.241302]}, "properties": {"info": {"setor": 0, "datemodified": "2018-08-01"}, "address": "?, 46"}},
{"type": "Feature", "geometry": {"type": "Point", "coordinates": [-51.089102, -30.239871]}, "properties": {"info": {"setor": 0, "datemodified": "2018-08-01"}, "address": "?, 244"}},
{"type": "Feature", "geometry": {"type": "Point", "coordinates": [-51.090663, -30.239111]}, "properties": {"info": {"setor": 0, "datemodified": "2018-08-01"}, "address": "?, 181"}},
{"type": "Feature", "geometry": {"type": "Point", "coordinates": [-51.090791, -30.239532]}, "properties": {"info": {"setor": 0, "datemodified": "2018-08-01"}, "address": "?, 221"}},
{"type": "Feature", "geometry": {"type": "Point", "coordinates": [-51.090859, -30.239743]}, "properties": {"info": {"setor": 0, "datemodified": "2018-08-01"}, "address": "?, 247"}},
{"type": "Feature", "geometry": {"type": "Point", "coordinates": [-51.093831, -30.239937]}, "properties": {"info": {"setor": 0, "datemodified": "2018-08-17"}, "address": "?, 33"}},
{"type": "Feature", "geometry": {"type": "Point", "coordinates": [-51.089559, -30.238554]}, "properties": {"info": {"setor": 0, "datemodified": "2018-08-01"}, "address": "?, 110"}},
{"type": "Feature", "geometry": {"type": "Point", "coordinates": [-51.088876, -30.23808]}, "properties": {"info": {"setor": 0, "datemodified": "2018-08-01"}, "address": "?, 35"}},
{"type": "Feature", "geometry": {"type": "Point", "coordinates": [-51.083598, -30.240405]}, "properties": {"info": {"setor": 0, "datemodified": "2018-08-01"}, "address": "?, 87"}},
{"type": "Feature", "geometry": {"type": "Point", "coordinates": [-51.090575, -30.239637]}, "properties": {"info": {"setor": 0, "datemodified": "2018-08-01"}, "address": "?, 234"}},
{"type": "Feature", "geometry": {"type": "Point", "coordinates": [-51.090153, -30.239466]}, "properties": {"info": {"setor": 0, "datemodified": "2018-08-21"}, "address": "?, 219"}},
{"type": "Feature", "geometry": {"type": "Point", "coordinates": [-51.090123, -30.239396]}, "properties": {"info": {"setor": 0, "datemodified": "2018-08-21"}, "address": "?, 205"}},
{"type": "Feature", "geometry": {"type": "Point", "coordinates": [-51.090459, -30.239319]}, "properties": {"info": {"setor": 0, "datemodified": "2018-08-01"}, "address": "?, 200"}},
{"type": "Feature", "geometry": {"type": "Point", "coordinates": [-51.081585, -30.240467]}, "properties": {"info": {"setor": 0, "datemodified": "2018-08-01"}, "address": "?, 3927"}},
{"type": "Feature", "geometry": {"type": "Point", "coordinates": [-51.0811, -30.240726]}, "properties": {"info": {"setor": 0, "datemodified": "2018-08-01"}, "address": "?, 3973"}},
{"type": "Feature", "geometry": {"type": "Point", "coordinates": [-51.083144, -30.240425]}, "properties": {"info": {"setor": 0, "datemodified": "2018-06-18"}, "address": "?, 131/85"}},
{"type": "Feature", "geometry": {"type": "Point", "coordinates": [-51.088923, -30.237701]}, "properties": {"info": {"setor": 0, "datemodified": "2018-04-19"}, "address": "?, 2595"}},
{"type": "Feature", "geometry": {"type": "Point", "coordinates": [-51.089719, -30.2391]}, "properties": {"info": {"setor": 0, "datemodified": "2018-08-01"}, "address": "?, 170"}},
{"type": "Feature", "geometry": {"type": "Point", "coordinates": [-51.095438, -30.2348]}, "properties": {"info": {"setor": 0, "datemodified": "2018-08-01"}, "address": "?, 1827"}},
{"type": "Feature", "geometry": {"type": "Point", "coordinates": [-51.089078, -30.238763]}, "properties": {"info": {"setor": 0, "datemodified": "2018-08-01"}, "address": "?, 123"}},
{"type": "Feature", "geometry": {"type": "Point", "coordinates": [-51.089182, -30.239116]}, "properties": {"info": {"setor": 0, "datemodified": "2018-08-01"}, "address": "?, 163"}},
{"type": "Feature", "geometry": {"type": "Point", "coordinates": [-51.089389, -30.239814]}, "properties": {"info": {"setor": 0, "datemodified": "2018-08-01"}, "address": "?, 241"}},
{"type": "Feature", "geometry": {"type": "Point", "coordinates": [-51.090295, -30.24028]}, "properties": {"info": {"setor": 0, "datemodified": "2018-08-21"}, "address": "?, 336"}},
{"type": "Feature", "geometry": {"type": "Point", "coordinates": [-51.09443, -30.238739]}, "properties": {"info": {"setor": 0, "datemodified": "2018-08-17"}, "address": "?, 195"}},
{"type": "Feature", "geometry": {"type": "Point", "coordinates": [-51.088799, -30.23883]}, "properties": {"info": {"setor": 0, "datemodified": "2018-08-01"}, "address": "?, 126"}},
{"type": "Feature", "geometry": {"type": "Point", "coordinates": [-51.081806, -30.241481]}, "properties": {"info": {"setor": 0, "datemodified": "2018-06-18"}, "address": "?, 36"}},
{"type": "Feature", "geometry": {"type": "Point", "coordinates": [-51.082711, -30.240141]}, "properties": {"info": {"setor": 0, "datemodified": "2018-08-17"}, "address": "?, 131/70"}},
{"type": "Feature", "geometry": {"type": "Point", "coordinates": [-51.088924, -30.238242]}, "properties": {"info": {"setor": 0, "datemodified": "2018-08-01"}, "address": "?, 65"}},
{"type": "Feature", "geometry": {"type": "Point", "coordinates": [-51.087945, -30.237931]}, "properties": {"info": {"setor": 0, "datemodified": "2018-04-19"}, "address": "?, 2689"}},
{"type": "Feature", "geometry": {"type": "Point", "coordinates": [-51.083543, -30.239802]}, "properties": {"info": {"setor": 0, "datemodified": "2018-08-20"}, "address": "?, 146"}},
{"type": "Feature", "geometry": {"type": "Point", "coordinates": [-51.087988, -30.238287]}, "properties": {"info": {"setor": 0, "datemodified": "2018-08-01"}, "address": "?, 252"}},
{"type": "Feature", "geometry": {"type": "Point", "coordinates": [-51.090224, -30.239674]}, "properties": {"info": {"setor": 0, "datemodified": "2018-08-21"}, "address": "?, 241"}},
{"type": "Feature", "geometry": {"type": "Point", "coordinates": [-51.089588, -30.238643]}, "properties": {"info": {"setor": 0, "datemodified": "2018-08-01"}, "address": "?, 120"}},
{"type": "Feature", "geometry": {"type": "Point", "coordinates": [-51.089668, -30.238926]}, "properties": {"info": {"setor": 0, "datemodified": "2018-08-01"}, "address": "?, 150"}},
{"type": "Feature", "geometry": {"type": "Point", "coordinates": [-51.095449, -30.234907]}, "properties": {"info": {"setor": 0, "datemodified": "2018-08-01"}, "address": "?, 1837"}},
{"type": "Feature", "geometry": {"type": "Point", "coordinates": [-51.089412, -30.239903]}, "properties": {"info": {"setor": 0, "datemodified": "2018-08-01"}, "address": "?, 251"}},
{"type": "Feature", "geometry": {"type": "Point", "coordinates": [-51.089771, -30.240312]}, "properties": {"info": {"setor": 0, "datemodified": "2018-08-01"}, "address": "?, 388"}},
{"type": "Feature", "geometry": {"type": "Point", "coordinates": [-51.093214, -30.240286]}, "properties": {"info": {"setor": 0, "datemodified": "2018-08-01"}, "address": "?, 48"}},
{"type": "Feature", "geometry": {"type": "Point", "coordinates": [-51.088775, -30.238743]}, "properties": {"info": {"setor": 0, "datemodified": "2018-08-01"}, "address": "?, 116"}},
{"type": "Feature", "geometry": {"type": "Point", "coordinates": [-51.088117, -30.239768]}, "properties": {"info": {"setor": 0, "datemodified": "2018-08-21"}, "address": "?, 85"}},
{"type": "Feature", "geometry": {"type": "Point", "coordinates": [-51.082772, -30.240496]}, "properties": {"info": {"setor": 0, "datemodified": "2018-04-19"}, "address": "?, 131/110"}},
{"type": "Feature", "geometry": {"type": "Point", "coordinates": [-51.090693, -30.239214]}, "properties": {"info": {"setor": 0, "datemodified": "2018-08-01"}, "address": "?, 191"}},
{"type": "Feature", "geometry": {"type": "Point", "coordinates": [-51.088568, -30.238034]}, "properties": {"info": {"setor": 0, "datemodified": "2018-08-01"}, "address": "?, 36"}},
{"type": "Feature", "geometry": {"type": "Point", "coordinates": [-51.083657, -30.239977]}, "properties": {"info": {"setor": 0, "datemodified": "2018-08-20"}, "address": "?, 126"}},
{"type": "Feature", "geometry": {"type": "Point", "coordinates": [-51.131878, -30.239802]}, "properties": {"info": {"setor": 0, "datemodified": "2018-08-01"}, "address": "?, 201"}},
{"type": "Feature", "geometry": {"type": "Point", "coordinates": [-51.087952, -30.238177]}, "properties": {"info": {"setor": 0, "datemodified": "2018-08-01"}, "address": "?, 262"}},
{"type": "Feature", "geometry": {"type": "Point", "coordinates": [-51.082815, -30.2411]}, "properties": {"info": {"setor": 0, "datemodified": "2018-06-18"}, "address": "?, 64"}},
{"type": "Feature", "geometry": {"type": "Point", "coordinates": [-51.083763, -30.240658]}, "properties": {"info": {"setor": 0, "datemodified": "2018-08-01"}, "address": "?, 53"}},
{"type": "Feature", "geometry": {"type": "Point", "coordinates": [-51.089736, -30.238243]}, "properties": {"info": {"setor": 0, "datemodified": "2018-08-01"}, "address": "?, 73"}},
{"type": "Feature", "geometry": {"type": "Point", "coordinates": [-51.083286, -30.240673]}, "properties": {"info": {"setor": 0, "datemodified": "2018-06-18"}, "address": "?, 131/121"}},
{"type": "Feature", "geometry": {"type": "Point", "coordinates": [-51.08259, -30.241022]}, "properties": {"info": {"setor": 0, "datemodified": "2018-08-01"}, "address": "?, 61"}},
{"type": "Feature", "geometry": {"type": "Point", "coordinates": [-51.083501, -30.240258]}, "properties": {"info": {"setor": 0, "datemodified": "2018-08-01"}, "address": "?, 103"}},
{"type": "Feature", "geometry": {"type": "Point", "coordinates": [-51.083195, -30.240503]}, "properties": {"info": {"setor": 0, "datemodified": "2018-06-18"}, "address": "?, 131/101"}},
{"type": "Feature", "geometry": {"type": "Point", "coordinates": [-51.090745, -30.239386]}, "properties": {"info": {"setor": 0, "datemodified": "2018-08-01"}, "address": "?, 211"}},
{"type": "Feature", "geometry": {"type": "Point", "coordinates": [-51.088391, -30.237806]}, "properties": {"info": {"setor": 0, "datemodified": "2018-08-01"}, "address": "?, 2649"}},
{"type": "Feature", "geometry": {"type": "Point", "coordinates": [-51.132464, -30.241878]}, "properties": {"info": {"setor": 0, "datemodified": "2018-04-19"}, "address": "?, 2600"}},
{"type": "Feature", "geometry": {"type": "Point", "coordinates": [-51.087916, -30.238065]}, "properties": {"info": {"setor": 0, "datemodified": "2018-08-01"}, "address": "?, 272"}},
{"type": "Feature", "geometry": {"type": "Point", "coordinates": [-51.082707, -30.239659]}, "properties": {"info": {"setor": 0, "datemodified": "2018-08-01"}, "address": "?, 3521"}},
{"type": "Feature", "geometry": {"type": "Point", "coordinates": [-51.090113, -30.238164]}, "properties": {"info": {"setor": 0, "datemodified": "2018-08-01"}, "address": "?, 64"}},
{"type": "Feature", "geometry": {"type": "Point", "coordinates": [-51.089864, -30.238666]}, "properties": {"info": {"setor": 0, "datemodified": "2018-08-01"}, "address": "?, 125"}},
{"type": "Feature", "geometry": {"type": "Point", "coordinates": [-51.090257, -30.239786]}, "properties": {"info": {"setor": 0, "datemodified": "2018-08-21"}, "address": "?, 271"}},
{"type": "Feature", "geometry": {"type": "Point", "coordinates": [-51.082506, -30.240814]}, "properties": {"info": {"setor": 0, "datemodified": "2018-08-01"}, "address": "?, 85"}},
{"type": "Feature", "geometry": {"type": "Point", "coordinates": [-51.080608, -30.241809]}, "properties": {"info": {"setor": 0, "datemodified": "2018-08-01"}, "address": "?, 1320"}},
{"type": "Feature", "geometry": {"type": "Point", "coordinates": [-51.080797, -30.240902]}, "properties": {"info": {"setor": 0, "datemodified": "2018-08-01"}, "address": "?, 4003"}},
{"type": "Feature", "geometry": {"type": "Point", "coordinates": [-51.083615, -30.241094]}, "properties": {"info": {"setor": 0, "datemodified": "2018-08-01"}, "address": "?, 1004"}},
{"type": "Feature", "geometry": {"type": "Point", "coordinates": [-51.095433, -30.234704]}, "properties": {"info": {"setor": 0, "datemodified": "2018-08-01"}, "address": "?, 1817"}},
{"type": "Feature", "geometry": {"type": "Point", "coordinates": [-51.096104, -30.234808]}, "properties": {"info": {"setor": 0, "datemodified": "2018-08-01"}, "address": "?, 101"}},
{"type": "Feature", "geometry": {"type": "Point", "coordinates": [-51.08913, -30.23894]}, "properties": {"info": {"setor": 0, "datemodified": "2018-08-01"}, "address": "?, 143"}},
{"type": "Feature", "geometry": {"type": "Point", "coordinates": [-51.089156, -30.23903]}, "properties": {"info": {"setor": 0, "datemodified": "2018-08-01"}, "address": "?, 153"}},
{"type": "Feature", "geometry": {"type": "Point", "coordinates": [-51.092864, -30.240267]}, "properties": {"info": {"setor": 0, "datemodified": "2018-08-01"}, "address": "?, 84"}},
{"type": "Feature", "geometry": {"type": "Point", "coordinates": [-51.094108, -30.239368]}, "properties": {"info": {"setor": 0, "datemodified": "2018-08-17"}, "address": "?, 91"}},
{"type": "Feature", "geometry": {"type": "Point", "coordinates": [-51.091531, -30.237637]}, "properties": {"info": {"setor": 0, "datemodified": "2018-08-01"}, "address": "?, 2335"}},
{"type": "Feature", "geometry": {"type": "Point", "coordinates": [-51.094561, -30.238502]}, "properties": {"info": {"setor": 0, "datemodified": "2018-08-21"}, "address": "?, 225"}},
{"type": "Feature", "geometry": {"type": "Point", "coordinates": [-51.088821, -30.238908]}, "properties": {"info": {"setor": 0, "datemodified": "2018-08-01"}, "address": "?, 136"}},
{"type": "Feature", "geometry": {"type": "Point", "coordinates": [-51.089439, -30.238118]}, "properties": {"info": {"setor": 0, "datemodified": "2018-08-01"}, "address": "?, 60"}},
{"type": "Feature", "geometry": {"type": "Point", "coordinates": [-51.089464, -30.238206]}, "properties": {"info": {"setor": 0, "datemodified": "2018-08-01"}, "address": "?, 70"}},
{"type": "Feature", "geometry": {"type": "Point", "coordinates": [-51.081394, -30.241172]}, "properties": {"info": {"setor": 0, "datemodified": "2018-06-18"}, "address": "?, 67"}},
{"type": "Feature", "geometry": {"type": "Point", "coordinates": [-51.089099, -30.23885]}, "properties": {"info": {"setor": 0, "datemodified": "2018-08-01"}, "address": "?, 133"}},
{"type": "Feature", "geometry": {"type": "Point", "coordinates": [-51.093986, -30.239611]}, "properties": {"info": {"setor": 0, "datemodified": "2018-08-17"}, "address": "?, 71"}},
{"type": "Feature", "geometry": {"type": "Point", "coordinates": [-51.092973, -30.240271]}, "properties": {"info": {"setor": 0, "datemodified": "2018-08-01"}, "address": "?, 74"}},
{"type": "Feature", "geometry": {"type": "Point", "coordinates": [-51.094195, -30.239233]}, "properties": {"info": {"setor": 0, "datemodified": "2018-08-17"}, "address": "?, 101"}},
{"type": "Feature", "geometry": {"type": "Point", "coordinates": [-51.095093, -30.237338]}, "properties": {"info": {"setor": 0, "datemodified": "2018-08-17"}, "address": "?, 365"}},
{"type": "Feature", "geometry": {"type": "Point", "coordinates": [-51.093431, -30.240296]}, "properties": {"info": {"setor": 0, "datemodified": "2018-08-01"}, "address": "?, 28"}},
{"type": "Feature", "geometry": {"type": "Point", "coordinates": [-51.088383, -30.239627]}, "properties": {"info": {"setor": 0, "datemodified": "2018-08-01"}, "address": "?, 98"}},
{"type": "Feature", "geometry": {"type": "Point", "coordinates": [-51.088442, -30.239823]}, "properties": {"info": {"setor": 0, "datemodified": "2018-08-01"}, "address": "?, 76"}},
{"type": "Feature", "geometry": {"type": "Point", "coordinates": [-51.083418, -30.241089]}, "properties": {"info": {"setor": 0, "datemodified": "2018-08-01"}, "address": "?, 1016"}},
{"type": "Feature", "geometry": {"type": "Point", "coordinates": [-51.087824, -30.238824]}, "properties": {"info": {"setor": 0, "datemodified": "2018-08-20"}, "address": "?, 203"}},
{"type": "Feature", "geometry": {"type": "Point", "coordinates": [-51.133917, -30.238253]}, "properties": {"info": {"setor": 0, "datemodified": "2018-08-01"}, "address": "?, 2475"}},
{"type": "Feature", "geometry": {"type": "Point", "coordinates": [-51.083707, -30.240564]}, "properties": {"info": {"setor": 0, "datemodified": "2018-08-01"}, "address": "?, 63"}},
{"type": "Feature", "geometry": {"type": "Point", "coordinates": [-51.08084, -30.241808]}, "properties": {"info": {"setor": 0, "datemodified": "2018-06-18"}, "address": "?, 45470"}},
{"type": "Feature", "geometry": {"type": "Point", "coordinates": [-51.088354, -30.239535]}, "properties": {"info": {"setor": 0, "datemodified": "2018-08-01"}, "address": "?, 110"}},
{"type": "Feature", "geometry": {"type": "Point", "coordinates": [-51.088414, -30.239728]}, "properties": {"info": {"setor": 0, "datemodified": "2018-08-01"}, "address": "?, 88"}},
{"type": "Feature", "geometry": {"type": "Point", "coordinates": [-51.088506, -30.237779]}, "properties": {"info": {"setor": 0, "datemodified": "2018-08-01"}, "address": "?, 2635"}},
{"type": "Feature", "geometry": {"type": "Point", "coordinates": [-51.080029, -30.241654]}, "properties": {"info": {"setor": 0, "datemodified": "2018-04-19"}, "address": "?, 30"}},
{"type": "Feature", "geometry": {"type": "Point", "coordinates": [-51.089127, -30.23996]}, "properties": {"info": {"setor": 0, "datemodified": "2018-08-01"}, "address": "?, 254"}},
{"type": "Feature", "geometry": {"type": "Point", "coordinates": [-51.083812, -30.240742]}, "properties": {"info": {"setor": 0, "datemodified": "2018-08-01"}, "address": "?, 43"}},
{"type": "Feature", "geometry": {"type": "Point", "coordinates": [-51.083646, -30.24049]}, "properties": {"info": {"setor": 0, "datemodified": "2018-08-01"}, "address": "?, 77"}},
{"type": "Feature", "geometry": {"type": "Point", "coordinates": [-51.131964, -30.243314]}, "properties": {"info": {"setor": 0, "datemodified": "2018-04-19"}, "address": "?, 2851"}},
{"type": "Feature", "geometry": {"type": "Point", "coordinates": [-51.082814, -30.240572]}, "properties": {"info": {"setor": 0, "datemodified": "2018-04-19"}, "address": "?, 131/120"}},
{"type": "Feature", "geometry": {"type": "Point", "coordinates": [-51.089901, -30.239705]}, "properties": {"info": {"setor": 0, "datemodified": "2018-08-01"}, "address": "?, 240"}},
{"type": "Feature", "geometry": {"type": "Point", "coordinates": [-51.089925, -30.23979]}, "properties": {"info": {"setor": 0, "datemodified": "2018-08-01"}, "address": "?, 250"}},
{"type": "Feature", "geometry": {"type": "Point", "coordinates": [-51.083603, -30.239892]}, "properties": {"info": {"setor": 0, "datemodified": "2018-08-20"}, "address": "?, 136"}},
{"type": "Feature", "geometry": {"type": "Point", "coordinates": [-51.083715, -30.240077]}, "properties": {"info": {"setor": 0, "datemodified": "2018-08-20"}, "address": "?, 116"}},
{"type": "Feature", "geometry": {"type": "Point", "coordinates": [-51.082631, -30.241121]}, "properties": {"info": {"setor": 0, "datemodified": "2018-08-01"}, "address": "?, 49"}},
{"type": "Feature", "geometry": {"type": "Point", "coordinates": [-51.090589, -30.239733]}, "properties": {"info": {"setor": 0, "datemodified": "2018-06-18"}, "address": "?, 252"}},
{"type": "Feature", "geometry": {"type": "Point", "coordinates": [-51.083235, -30.240591]}, "properties": {"info": {"setor": 0, "datemodified": "2018-06-18"}, "address": "?, 131/111"}},
{"type": "Feature", "geometry": {"type": "Point", "coordinates": [-51.082331, -30.240413]}, "properties": {"info": {"setor": 0, "datemodified": "2018-08-01"}, "address": "?, 131"}},
{"type": "Feature", "geometry": {"type": "Point", "coordinates": [-51.082368, -30.240518]}, "properties": {"info": {"setor": 0, "datemodified": "2018-08-01"}, "address": "?, 119"}},
{"type": "Feature", "geometry": {"type": "Point", "coordinates": [-51.090427, -30.239213]}, "properties": {"info": {"setor": 0, "datemodified": "2018-08-01"}, "address": "?, 188"}},
{"type": "Feature", "geometry": {"type": "Point", "coordinates": [-51.081956, -30.241551]}, "properties": {"info": {"setor": 0, "datemodified": "2018-08-17"}, "address": "?, 1182"}},
{"type": "Feature", "geometry": {"type": "Point", "coordinates": [-51.089641, -30.238837]}, "properties": {"info": {"setor": 0, "datemodified": "2018-08-01"}, "address": "?, 140"}},
{"type": "Feature", "geometry": {"type": "Point", "coordinates": [-51.095016, -30.237524]}, "properties": {"info": {"setor": 0, "datemodified": "2018-08-17"}, "address": "?, 345"}},
{"type": "Feature", "geometry": {"type": "Point", "coordinates": [-51.0931, -30.240275]}, "properties": {"info": {"setor": 0, "datemodified": "2018-08-01"}, "address": "?, 62"}},
{"type": "Feature", "geometry": {"type": "Point", "coordinates": [-51.092744, -30.240253]}, "properties": {"info": {"setor": 0, "datemodified": "2018-08-01"}, "address": "?, 96"}},
{"type": "Feature", "geometry": {"type": "Point", "coordinates": [-51.081701, -30.241206]}, "properties": {"info": {"setor": 0, "datemodified": "2018-08-01"}, "address": "?, 56"}},
{"type": "Feature", "geometry": {"type": "Point", "coordinates": [-51.088924, -30.239268]}, "properties": {"info": {"setor": 0, "datemodified": "2018-08-01"}, "address": "?, 174"}},
{"type": "Feature", "geometry": {"type": "Point", "coordinates": [-51.089077, -30.239785]}, "properties": {"info": {"setor": 0, "datemodified": "2018-08-01"}, "address": "?, 234"}},
{"type": "Feature", "geometry": {"type": "Point", "coordinates": [-51.082773, -30.241415]}, "properties": {"info": {"setor": 0, "datemodified": "2018-08-17"}, "address": "?, 1190"}},
{"type": "Feature", "geometry": {"type": "Point", "coordinates": [-51.093666, -30.240091]}, "properties": {"info": {"setor": 0, "datemodified": "2018-08-17"}, "address": "?, 15"}},
{"type": "Feature", "geometry": {"type": "Point", "coordinates": [-51.089847, -30.239522]}, "properties": {"info": {"setor": 0, "datemodified": "2018-08-01"}, "address": "?, 210"}},
{"type": "Feature", "geometry": {"type": "Point", "coordinates": [-51.088283, -30.237831]}, "properties": {"info": {"setor": 0, "datemodified": "2018-08-01"}, "address": "?, 2659"}},
{"type": "Feature", "geometry": {"type": "Point", "coordinates": [-51.088085, -30.237883]}, "properties": {"info": {"setor": 0, "datemodified": "2018-08-01"}, "address": "?, 2679"}},
{"type": "Feature", "geometry": {"type": "Point", "coordinates": [-51.133273, -30.240873]}, "properties": {"info": {"setor": 0, "datemodified": "2018-04-19"}, "address": "?, 2510"}},
{"type": "Feature", "geometry": {"type": "Point", "coordinates": [-51.088203, -30.240058]}, "properties": {"info": {"setor": 0, "datemodified": "2018-08-21"}, "address": "?, 49"}},
{"type": "Feature", "geometry": {"type": "Point", "coordinates": [-51.138026, -30.235759]}, "properties": {"info": {"setor": 0, "datemodified": "2018-08-09"}, "address": "?, 2097/129"}},
{"type": "Feature", "geometry": {"type": "Point", "coordinates": [-51.139229, -30.235466]}, "properties": {"info": {"setor": 0, "datemodified": "2018-08-09"}, "address": "?, 2097/255"}},
{"type": "Feature", "geometry": {"type": "Point", "coordinates": [-51.138705, -30.235617]}, "properties": {"info": {"setor": 0, "datemodified": "2018-08-09"}, "address": "?, 2097/193"}},
{"type": "Feature", "geometry": {"type": "Point", "coordinates": [-51.138141, -30.235727]}, "properties": {"info": {"setor": 0, "datemodified": "2018-08-09"}, "address": "?, 2097/141"}},
{"type": "Feature", "geometry": {"type": "Point", "coordinates": [-51.138509, -30.235668]}, "properties": {"info": {"setor": 0, "datemodified": "2018-04-19"}, "address": "?, 2097/181"}},
{"type": "Feature", "geometry": {"type": "Point", "coordinates": [-51.139466, -30.235406]}, "properties": {"info": {"setor": 0, "datemodified": "2018-08-09"}, "address": "?, 2097/281"}},
{"type": "Feature", "geometry": {"type": "Point", "coordinates": [-51.139346, -30.235437]}, "properties": {"info": {"setor": 0, "datemodified": "2018-08-09"}, "address": "?, 2097/269"}},
{"type": "Feature", "geometry": {"type": "Point", "coordinates": [-51.141781, -30.241722]}, "properties": {"info": {"setor": 46, "datemodified": "2018-05-17"}, "address": "?, 2451"}},
{"type": "Feature", "geometry": {"type": "Point", "coordinates": [-51.138148, -30.241362]}, "properties": {"info": {"setor": 0, "datemodified": "2018-06-18"}, "address": "?, 3201"}},
{"type": "Feature", "geometry": {"type": "Point", "coordinates": [-51.14443, -30.252763]}, "properties": {"info": {"setor": 0, "datemodified": "2018-12-06"}, "address": "?, 2003/50"}},
{"type": "Feature", "geometry": {"type": "Point", "coordinates": [-51.141386, -30.243534]}, "properties": {"info": {"setor": 0, "datemodified": "2018-12-06"}, "address": "?, 2501"}},
{"type": "Feature", "geometry": {"type": "Point", "coordinates": [-51.142912, -30.248435]}, "properties": {"info": {"setor": 0, "datemodified": "2018-12-06"}, "address": "?, 2003/30"}},
{"type": "Feature", "geometry": {"type": "Point", "coordinates": [-51.141955, -30.245451]}, "properties": {"info": {"setor": 0, "datemodified": "2018-12-06"}, "address": "?, 2003/20"}},
{"type": "Feature", "geometry": {"type": "Point", "coordinates": [-51.083366, -30.240847]}, "properties": {"info": {"setor": 0, "datemodified": "2019-08-23"}, "address": "?, 131/141"}},
{"type": "Feature", "geometry": {"type": "Point", "coordinates": [-51.1273, -30.239115]}, "properties": {"info": {"setor": 0, "datemodified": "2019-08-23"}, "address": "?, 701"}},
{"type": "Feature", "geometry": {"type": "Point", "coordinates": [-51.133565, -30.236867]}, "properties": {"info": {"setor": 0, "datemodified": "2019-08-23"}, "address": "?, 2200"}}]}
