{"type":"FeatureCollection","features":[{"type":"Feature","geometry":{"type":"Polygon","coordinates":[[[-34.80458,-7.14455],[-34.80457,-7.14454],[-34.80437,-7.1445],[-34.80427,-7.14447],[-34.80422,-7.14445],[-34.80401,-7.14439],[-34.80381,-7.14435],[-34.80362,-7.14436],[-34.80342,-7.1444],[-34.80276,-7.14462],[-34.80226,-7.14474],[-34.802,-7.1448],[-34.80162,-7.14485],[-34.80138,-7.1449],[-34.80138,-7.14491],[-34.80103,-7.14494],[-34.80088,-7.14493],[-34.80072,-7.14493],[-34.80011,-7.14499],[-34.80009,-7.14499],[-34.79898,-7.14511],[-34.79808,-7.14517],[-34.7978,-7.14523],[-34.79715,-7.14546],[-34.79698,-7.14554],[-34.79683,-7.14565],[-34.79595,-7.14643],[-34.79577,-7.14663],[-34.79529,-7.14738],[-34.79521,-7.14752],[-34.79515,-7.14767],[-34.79497,-7.14841],[-34.7948,-7.14908],[-34.79424,-7.15058],[-34.7928,-7.15304],[-34.79278,-7.15307],[-34.79214,-7.15427],[-34.79207,-7.15442],[-34.79203,-7.15458],[-34.79202,-7.15475],[-34.79202,-7.15557],[-34.79206,-7.15584],[-34.79259,-7.15766],[-34.7926,-7.1577],[-34.79349,-7.16043],[-34.79349,-7.16045],[-34.79408,-7.16214],[-34.79423,-7.16296],[-34.79453,-7.16462],[-34.79474,-7.16619],[-34.79476,-7.16736],[-34.79476,-7.16765],[-34.79467,-7.16983],[-34.79468,-7.16999],[-34.79485,-7.1714],[-34.795,-7.17342],[-34.79492,-7.1746],[-34.79488,-7.17487],[-34.79482,-7.17508],[-34.79477,-7.17533],[-34.79475,-7.1757],[-34.79476,-7.17585],[-34.79496,-7.17786],[-34.79497,-7.17789],[-34.7951,-7.17885],[-34.79512,-7.17903],[-34.79509,-7.17941],[-34.79509,-7.17943],[-34.79506,-7.18014],[-34.79506,-7.1802],[-34.79507,-7.18073],[-34.79507,-7.18085],[-34.79489,-7.18165],[-34.79487,-7.18177],[-34.79481,-7.18233],[-34.7948,-7.18246],[-34.79485,-7.18396],[-34.79468,-7.18588],[-34.79459,-7.18655],[-34.79436,-7.18768],[-34.79417,-7.18838],[-34.79414,-7.18852],[-34.79411,-7.18882],[-34.7941,-7.18888],[-34.79407,-7.18945],[-34.79401,-7.19004],[-34.79397,-7.19038],[-34.79392,-7.19064],[-34.79383,-7.19089],[-34.79379,-7.19101],[-34.79373,-7.19126],[-34.79371,-7.19144],[-34.7937,-7.19153],[-34.79369,-7.19237],[-34.7937,-7.19252],[-34.79376,-7.19302],[-34.79379,-7.19331],[-34.79379,-7.19392],[-34.7938,-7.19404],[-34.79389,-7.19482],[-34.79391,-7.1949],[-34.79398,-7.19525],[-34.79402,-7.19539],[-34.79419,-7.19585],[-34.79422,-7.19595],[-34.79429,-7.19614],[-34.79479,-7.19708],[-34.79487,-7.1972],[-34.79515,-7.1976],[-34.7952,-7.19766],[-34.79599,-7.1986],[-34.79656,-7.19932],[-34.79688,-7.19978],[-34.79715,-7.2002],[-34.79716,-7.20021],[-34.79758,-7.20083],[-34.7976,-7.20086],[-34.7978,-7.20113],[-34.79818,-7.20178],[-34.79821,-7.20183],[-34.79849,-7.20225],[-34.79883,-7.20276],[-34.79916,-7.20332],[-34.79931,-7.20359],[-34.7997,-7.20436],[-34.7997,-7.20437],[-34.7999,-7.20476],[-34.80008,-7.20518],[-34.80024,-7.20563],[-34.80028,-7.20572],[-34.80047,-7.20614],[-34.80052,-7.20645],[-34.80053,-7.20647],[-34.8006,-7.20683],[-34.80063,-7.20695],[-34.80082,-7.20754],[-34.80087,-7.20766],[-34.80114,-7.20821],[-34.80131,-7.20866],[-34.80155,-7.20942],[-34.80155,-7.20942],[-34.80177,-7.2101],[-34.80195,-7.21092],[-34.80195,-7.21092],[-34.80212,-7.21163],[-34.80213,-7.21168],[-34.80257,-7.21325],[-34.80272,-7.21381],[-34.80286,-7.2146],[-34.80302,-7.21599],[-34.80305,-7.21665],[-34.80305,-7.21674],[-34.80308,-7.21693],[-34.80308,-7.21697],[-34.80312,-7.21718],[-34.80315,-7.21749],[-34.8032,-7.21801],[-34.80322,-7.21859],[-34.80327,-7.22103],[-34.80323,-7.22175],[-34.80323,-7.22175],[-34.80321,-7.22235],[-34.80321,-7.22248],[-34.80329,-7.2235],[-34.80332,-7.22469],[-34.80332,-7.22472],[-34.80338,-7.2258],[-34.80339,-7.22585],[-34.80358,-7.22766],[-34.80368,-7.22875],[-34.80375,-7.2297],[-34.80375,-7.22975],[-34.80387,-7.23077],[-34.80387,-7.23166],[-34.80383,-7.23191],[-34.80368,-7.23194],[-34.80353,-7.23199],[-34.8034,-7.23204],[-34.80327,-7.23211],[-34.80318,-7.23217],[-34.80305,-7.23227],[-34.80294,-7.23238],[-34.80289,-7.23243],[-34.80279,-7.23258],[-34.80272,-7.23275],[-34.80267,-7.23292],[-34.80266,-7.23301],[-34.80265,-7.23325],[-34.8027,-7.23349],[-34.80277,-7.23367],[-34.8029,-7.23392],[-34.80302,-7.23409],[-34.80302,-7.23409],[-34.80303,-7.23411],[-34.80309,-7.23425],[-34.80333,-7.23517],[-34.80334,-7.2352],[-34.80359,-7.23599],[-34.8036,-7.23602],[-34.80367,-7.23621],[-34.80377,-7.23691],[-34.80379,-7.237],[-34.80405,-7.23803],[-34.80431,-7.23985],[-34.80432,-7.2399],[-34.8046,-7.24126],[-34.80477,-7.24238],[-34.80469,-7.24339],[-34.80443,-7.24548],[-34.80442,-7.24552],[-34.8043,-7.24702],[-34.8043,-7.24717],[-34.80432,-7.24733],[-34.80438,-7.24757],[-34.80443,-7.24772],[-34.80451,-7.24787],[-34.80467,-7.24812],[-34.80481,-7.2483],[-34.805,-7.24845],[-34.80526,-7.2486],[-34.80544,-7.24869],[-34.80564,-7.24873],[-34.80584,-7.24874],[-34.80622,-7.24872],[-34.80645,-7.24867],[-34.80679,-7.24857],[-34.80695,-7.24851],[-34.80709,-7.24842],[-34.80722,-7.24831],[-34.80729,-7.24823],[-34.80743,-7.24806],[-34.80752,-7.24786],[-34.80757,-7.24764],[-34.80761,-7.24727],[-34.8076,-7.24698],[-34.80755,-7.2467],[-34.80746,-7.24644],[-34.80739,-7.24629],[-34.80743,-7.24621],[-34.80756,-7.24607],[-34.80816,-7.2457],[-34.80828,-7.24561],[-34.80849,-7.24543],[-34.80861,-7.2453],[-34.80876,-7.24512],[-34.8089,-7.24488],[-34.80907,-7.24448],[-34.80913,-7.2443],[-34.80924,-7.24377],[-34.80925,-7.24371],[-34.80934,-7.24313],[-34.80949,-7.24214],[-34.80949,-7.2419],[-34.80944,-7.24167],[-34.8091,-7.24064],[-34.80904,-7.24051],[-34.80806,-7.23861],[-34.80792,-7.23786],[-34.80799,-7.23725],[-34.80891,-7.23685],[-34.8097,-7.23688],[-34.81133,-7.23824],[-34.81149,-7.23835],[-34.81166,-7.23843],[-34.81184,-7.23847],[-34.81203,-7.23848],[-34.8144,-7.23835],[-34.8149,-7.2387],[-34.81546,-7.23939],[-34.81562,-7.23955],[-34.81581,-7.23967],[-34.81602,-7.23974],[-34.81701,-7.23996],[-34.81722,-7.23998],[-34.81742,-7.23996],[-34.81826,-7.23979],[-34.81844,-7.23973],[-34.81862,-7.23964],[-34.81877,-7.23951],[-34.81889,-7.23936],[-34.81916,-7.23896],[-34.81926,-7.23877],[-34.81931,-7.23856],[-34.81933,-7.23835],[-34.81929,-7.23814],[-34.81897,-7.23694],[-34.8189,-7.23675],[-34.81879,-7.23658],[-34.81822,-7.23586],[-34.81811,-7.23565],[-34.81811,-7.23558],[-34.81838,-7.23532],[-34.8192,-7.23473],[-34.81924,-7.23487],[-34.81931,-7.23501],[-34.81966,-7.23559],[-34.81977,-7.23574],[-34.81991,-7.23587],[-34.82007,-7.23597],[-34.82025,-7.23604],[-34.82126,-7.23632],[-34.82144,-7.23635],[-34.82199,-7.23639],[-34.8227,-7.23681],[-34.82286,-7.23689],[-34.82302,-7.23693],[-34.82319,-7.23695],[-34.82418,-7.23697],[-34.82438,-7.23696],[-34.82456,-7.2369],[-34.82474,-7.23682],[-34.82555,-7.23631],[-34.82568,-7.23621],[-34.82579,-7.2361],[-34.82634,-7.23544],[-34.82645,-7.23527],[-34.82653,-7.23508],[-34.82656,-7.23488],[-34.82656,-7.23468],[-34.82652,-7.23448],[-34.82616,-7.23342],[-34.82613,-7.23333],[-34.82609,-7.23325],[-34.82618,-7.2329],[-34.8262,-7.23271],[-34.82622,-7.23221],[-34.82622,-7.23206],[-34.82619,-7.23191],[-34.82607,-7.23148],[-34.82616,-7.23154],[-34.82652,-7.23176],[-34.82669,-7.23184],[-34.82687,-7.23188],[-34.82706,-7.23189],[-34.82725,-7.23187],[-34.82743,-7.23181],[-34.82813,-7.2315],[-34.8283,-7.23141],[-34.82844,-7.23129],[-34.82863,-7.2311],[-34.82869,-7.23123],[-34.82878,-7.23135],[-34.82907,-7.23171],[-34.82922,-7.23186],[-34.82941,-7.23197],[-34.82968,-7.2321],[-34.82988,-7.23217],[-34.83009,-7.2322],[-34.8305,-7.23221],[-34.83066,-7.2322],[-34.83082,-7.23216],[-34.83137,-7.23199],[-34.83157,-7.23191],[-34.83174,-7.23178],[-34.83188,-7.23162],[-34.83199,-7.23143],[-34.8321,-7.23118],[-34.83215,-7.23101],[-34.83218,-7.23083],[-34.83219,-7.23058],[-34.83218,-7.2304],[-34.83214,-7.23021],[-34.8319,-7.22954],[-34.83195,-7.22907],[-34.832,-7.2289],[-34.83274,-7.22907],[-34.83288,-7.22912],[-34.83289,-7.22914],[-34.83296,-7.22925],[-34.83281,-7.22953],[-34.83275,-7.22965],[-34.83269,-7.22982],[-34.83264,-7.23005],[-34.83262,-7.23022],[-34.83261,-7.23037],[-34.83263,-7.23052],[-34.83266,-7.23068],[-34.83272,-7.23089],[-34.83283,-7.23108],[-34.83295,-7.23124],[-34.83311,-7.23141],[-34.8333,-7.23154],[-34.83356,-7.23168],[-34.83381,-7.23177],[-34.83418,-7.23185],[-34.83419,-7.23185],[-34.83528,-7.23207],[-34.83586,-7.2324],[-34.83603,-7.23247],[-34.83645,-7.23262],[-34.8365,-7.23263],[-34.83656,-7.23265],[-34.83656,-7.23265],[-34.83645,-7.23277],[-34.83615,-7.23315],[-34.83606,-7.23329],[-34.83599,-7.23345],[-34.83586,-7.23384],[-34.83582,-7.23398],[-34.83579,-7.23417],[-34.83577,-7.23435],[-34.83579,-7.23454],[-34.83587,-7.235],[-34.8359,-7.23511],[-34.83629,-7.23643],[-34.83632,-7.23652],[-34.83657,-7.23714],[-34.83667,-7.23732],[-34.83688,-7.23765],[-34.83704,-7.23783],[-34.83721,-7.23799],[-34.8374,-7.23812],[-34.83757,-7.23822],[-34.8377,-7.23828],[-34.8379,-7.23836],[-34.8381,-7.23841],[-34.83824,-7.23844],[-34.83837,-7.23845],[-34.83857,-7.23846],[-34.83874,-7.23845],[-34.83891,-7.23842],[-34.83914,-7.23834],[-34.83931,-7.23827],[-34.83947,-7.23817],[-34.83961,-7.23804],[-34.83971,-7.23789],[-34.83978,-7.23778],[-34.83985,-7.23761],[-34.8399,-7.23749],[-34.83994,-7.23733],[-34.83995,-7.23717],[-34.83995,-7.23705],[-34.83994,-7.23688],[-34.8399,-7.23672],[-34.83985,-7.23657],[-34.83976,-7.23638],[-34.83961,-7.23613],[-34.83957,-7.23599],[-34.8398,-7.23556],[-34.8401,-7.23516],[-34.84024,-7.23509],[-34.84036,-7.23505],[-34.84039,-7.23504],[-34.84043,-7.23504],[-34.84042,-7.23514],[-34.84041,-7.23539],[-34.84045,-7.23585],[-34.84044,-7.23611],[-34.84045,-7.23628],[-34.84049,-7.23646],[-34.84053,-7.23659],[-34.84056,-7.2367],[-34.84065,-7.2369],[-34.84077,-7.23707],[-34.84092,-7.23722],[-34.8411,-7.23735],[-34.84128,-7.23746],[-34.84149,-7.23753],[-34.84171,-7.23758],[-34.84188,-7.2376],[-34.84205,-7.23759],[-34.84221,-7.23756],[-34.84248,-7.23748],[-34.84266,-7.2374],[-34.84381,-7.23679],[-34.84398,-7.23668],[-34.84413,-7.23653],[-34.84424,-7.23635],[-34.84431,-7.23615],[-34.84439,-7.23582],[-34.84492,-7.23607],[-34.84509,-7.23613],[-34.84526,-7.23616],[-34.84544,-7.23616],[-34.8461,-7.2361],[-34.84628,-7.23606],[-34.84645,-7.23599],[-34.84673,-7.23585],[-34.8469,-7.23574],[-34.84705,-7.23559],[-34.84716,-7.23542],[-34.84724,-7.23523],[-34.84729,-7.23506],[-34.84732,-7.23486],[-34.84731,-7.23466],[-34.84727,-7.23447],[-34.84719,-7.23425],[-34.84711,-7.23406],[-34.84698,-7.23389],[-34.84673,-7.23363],[-34.84671,-7.2336],[-34.84638,-7.23328],[-34.84637,-7.23326],[-34.84622,-7.23276],[-34.84628,-7.23277],[-34.84645,-7.23293],[-34.84666,-7.23332],[-34.84677,-7.23349],[-34.84692,-7.23364],[-34.84724,-7.23389],[-34.84738,-7.23398],[-34.84753,-7.23405],[-34.84802,-7.23423],[-34.84838,-7.23446],[-34.84857,-7.23466],[-34.8488,-7.23508],[-34.84887,-7.23519],[-34.84911,-7.23551],[-34.84925,-7.23567],[-34.84942,-7.23579],[-34.8496,-7.23587],[-34.84981,-7.23591],[-34.85019,-7.23596],[-34.85038,-7.23596],[-34.85057,-7.23592],[-34.85075,-7.23585],[-34.85091,-7.23575],[-34.85141,-7.23537],[-34.85152,-7.23527],[-34.85161,-7.23515],[-34.85198,-7.23463],[-34.85233,-7.23413],[-34.85243,-7.23396],[-34.85249,-7.23378],[-34.85251,-7.23358],[-34.8525,-7.23338],[-34.85242,-7.23296],[-34.85237,-7.23276],[-34.85228,-7.23254],[-34.8523,-7.23253],[-34.85256,-7.23245],[-34.85301,-7.23224],[-34.85314,-7.23216],[-34.85333,-7.23204],[-34.85344,-7.23224],[-34.8536,-7.23245],[-34.85403,-7.23289],[-34.85423,-7.23304],[-34.85434,-7.23311],[-34.85453,-7.2332],[-34.85475,-7.23324],[-34.85496,-7.23324],[-34.85508,-7.23323],[-34.85524,-7.2332],[-34.85546,-7.23314],[-34.85565,-7.23307],[-34.85581,-7.23296],[-34.85595,-7.23283],[-34.85627,-7.23245],[-34.85639,-7.23229],[-34.85668,-7.23176],[-34.85681,-7.23167],[-34.85758,-7.23141],[-34.85781,-7.23129],[-34.85841,-7.23088],[-34.85859,-7.23073],[-34.85873,-7.23054],[-34.85911,-7.22986],[-34.85918,-7.22969],[-34.85921,-7.22957],[-34.8593,-7.2296],[-34.85937,-7.22962],[-34.85957,-7.22966],[-34.8598,-7.22969],[-34.86003,-7.22966],[-34.86044,-7.22955],[-34.86059,-7.2295],[-34.86116,-7.23015],[-34.86136,-7.23032],[-34.86153,-7.23044],[-34.86168,-7.23052],[-34.86184,-7.23057],[-34.86201,-7.2306],[-34.86218,-7.23061],[-34.86242,-7.2306],[-34.86265,-7.23053],[-34.86278,-7.23047],[-34.86295,-7.23038],[-34.8631,-7.23025],[-34.86321,-7.23014],[-34.86333,-7.22999],[-34.86348,-7.22975],[-34.86356,-7.22959],[-34.86362,-7.22941],[-34.86364,-7.22922],[-34.86364,-7.22889],[-34.86374,-7.22854],[-34.86376,-7.2285],[-34.86393,-7.22853],[-34.86438,-7.22867],[-34.86448,-7.2287],[-34.86473,-7.22874],[-34.86491,-7.22876],[-34.86508,-7.22875],[-34.86529,-7.22871],[-34.86544,-7.22868],[-34.86558,-7.22862],[-34.86593,-7.22844],[-34.86609,-7.22834],[-34.86622,-7.22822],[-34.86633,-7.22808],[-34.86641,-7.22792],[-34.86647,-7.22778],[-34.86708,-7.22795],[-34.86775,-7.22815],[-34.86824,-7.22829],[-34.8687,-7.22852],[-34.86889,-7.22859],[-34.86909,-7.22862],[-34.86929,-7.22861],[-34.86959,-7.22857],[-34.86976,-7.22853],[-34.86993,-7.22846],[-34.87008,-7.22836],[-34.8702,-7.22823],[-34.87046,-7.22794],[-34.87058,-7.22777],[-34.87066,-7.22759],[-34.8707,-7.22739],[-34.8707,-7.22719],[-34.87066,-7.22699],[-34.87048,-7.22639],[-34.87038,-7.22617],[-34.87024,-7.22598],[-34.87008,-7.22582],[-34.8705,-7.22583],[-34.87069,-7.22582],[-34.87147,-7.22569],[-34.87166,-7.22564],[-34.87184,-7.22555],[-34.87236,-7.22522],[-34.87252,-7.22509],[-34.87264,-7.22494],[-34.87274,-7.22477],[-34.87291,-7.22436],[-34.87298,-7.22414],[-34.87299,-7.22391],[-34.87296,-7.22337],[-34.87293,-7.22319],[-34.87287,-7.22302],[-34.87266,-7.22254],[-34.87255,-7.22236],[-34.8724,-7.2222],[-34.87223,-7.22208],[-34.87207,-7.22198],[-34.87218,-7.22187],[-34.87218,-7.22187],[-34.87254,-7.22211],[-34.8727,-7.2222],[-34.87289,-7.22226],[-34.87307,-7.22229],[-34.87408,-7.22232],[-34.87431,-7.2223],[-34.87577,-7.222],[-34.87652,-7.22187],[-34.87671,-7.22181],[-34.8769,-7.22171],[-34.87743,-7.22135],[-34.87758,-7.22123],[-34.8777,-7.22108],[-34.8782,-7.22034],[-34.87856,-7.22004],[-34.87956,-7.21969],[-34.87963,-7.21966],[-34.88173,-7.21872],[-34.8848,-7.21748],[-34.88481,-7.21747],[-34.8864,-7.21681],[-34.88748,-7.21635],[-34.88858,-7.21594],[-34.88976,-7.21549],[-34.89016,-7.21547],[-34.89138,-7.21567],[-34.89146,-7.21568],[-34.89229,-7.21575],[-34.89365,-7.21599],[-34.89371,-7.21599],[-34.89474,-7.21611],[-34.895,-7.21611],[-34.89583,-7.21598],[-34.89588,-7.21597],[-34.89708,-7.21572],[-34.89714,-7.21571],[-34.89745,-7.21562],[-34.89789,-7.21569],[-34.89813,-7.2157],[-34.89837,-7.21565],[-34.89875,-7.21553],[-34.89944,-7.21555],[-34.8996,-7.21555],[-34.89976,-7.21551],[-34.89992,-7.21545],[-34.90039,-7.21523],[-34.90097,-7.21513],[-34.90155,-7.21512],[-34.90172,-7.2151],[-34.90189,-7.21506],[-34.90288,-7.21468],[-34.90299,-7.21463],[-34.90453,-7.21383],[-34.90533,-7.21348],[-34.90553,-7.2134],[-34.90565,-7.21335],[-34.90576,-7.21328],[-34.90649,-7.21312],[-34.90871,-7.21351],[-34.90874,-7.21351],[-34.91171,-7.21394],[-34.91173,-7.21395],[-34.91179,-7.21398],[-34.91214,-7.21416],[-34.91262,-7.21475],[-34.9145,-7.21716],[-34.91452,-7.21719],[-34.91573,-7.21864],[-34.91584,-7.21875],[-34.91632,-7.21917],[-34.9165,-7.2193],[-34.91917,-7.22076],[-34.91923,-7.22079],[-34.9233,-7.22266],[-34.92693,-7.22442],[-34.92797,-7.22507],[-34.92844,-7.22571],[-34.92863,-7.22597],[-34.92876,-7.22611],[-34.92891,-7.22623],[-34.92908,-7.22631],[-34.92926,-7.22636],[-34.92945,-7.22638],[-34.92964,-7.22636],[-34.92982,-7.2263],[-34.92998,-7.22622],[-34.93057,-7.22583],[-34.93078,-7.22565],[-34.93123,-7.22513],[-34.93136,-7.22495],[-34.9318,-7.22413],[-34.93189,-7.22391],[-34.93208,-7.22317],[-34.93211,-7.22297],[-34.9321,-7.22277],[-34.93203,-7.2223],[-34.93214,-7.22222],[-34.93228,-7.22211],[-34.9324,-7.22198],[-34.93256,-7.22176],[-34.93267,-7.22158],[-34.93274,-7.22139],[-34.93276,-7.22119],[-34.93275,-7.22098],[-34.9327,-7.22077],[-34.93272,-7.22072],[-34.93304,-7.22028],[-34.93356,-7.22001],[-34.93374,-7.21988],[-34.93389,-7.21972],[-34.93419,-7.21932],[-34.9343,-7.21913],[-34.93437,-7.21893],[-34.93439,-7.21872],[-34.93439,-7.21769],[-34.93446,-7.2174],[-34.93477,-7.21697],[-34.93484,-7.21686],[-34.93499,-7.2166],[-34.93506,-7.21647],[-34.9351,-7.2164],[-34.93525,-7.21608],[-34.93528,-7.21602],[-34.93553,-7.2154],[-34.93577,-7.21504],[-34.93594,-7.2149],[-34.93717,-7.21469],[-34.93721,-7.21468],[-34.93834,-7.21444],[-34.93837,-7.21443],[-34.93911,-7.21425],[-34.94114,-7.21401],[-34.94235,-7.21396],[-34.94295,-7.21405],[-34.94477,-7.2145],[-34.94477,-7.2145],[-34.94633,-7.21488],[-34.94844,-7.21548],[-34.94844,-7.21548],[-34.95015,-7.21597],[-34.95131,-7.21634],[-34.95145,-7.21637],[-34.95273,-7.21658],[-34.9529,-7.2166],[-34.95406,-7.21658],[-34.95423,-7.21656],[-34.95439,-7.21652],[-34.95455,-7.21644],[-34.95469,-7.21634],[-34.95543,-7.21571],[-34.95546,-7.21569],[-34.95611,-7.21509],[-34.95644,-7.21497],[-34.95748,-7.21507],[-34.95934,-7.21538],[-34.96083,-7.21569],[-34.96124,-7.21587],[-34.96137,-7.21592],[-34.96152,-7.21595],[-34.96205,-7.21601],[-34.96223,-7.21601],[-34.96248,-7.216],[-34.96274,-7.21607],[-34.96295,-7.21611],[-34.96317,-7.2161],[-34.96357,-7.21605],[-34.96418,-7.21597],[-34.96436,-7.21598],[-34.96519,-7.21632],[-34.96525,-7.21634],[-34.96576,-7.21652],[-34.96599,-7.21666],[-34.9663,-7.2169],[-34.96644,-7.21699],[-34.9666,-7.21706],[-34.96677,-7.2171],[-34.9672,-7.21716],[-34.96748,-7.21716],[-34.96787,-7.2171],[-34.96806,-7.21706],[-34.96823,-7.21698],[-34.96839,-7.21687],[-34.96844,-7.21682],[-34.96891,-7.21651],[-34.96916,-7.21637],[-34.96931,-7.21625],[-34.96945,-7.21611],[-34.96955,-7.21595],[-34.96962,-7.21576],[-34.96965,-7.21557],[-34.96964,-7.21538],[-34.96961,-7.21513],[-34.9696,-7.21505],[-34.96972,-7.21462],[-34.96976,-7.21443],[-34.97035,-7.20703],[-34.89258,-7.20703],[-34.84863,-7.20703],[-34.80469,-7.20703],[-34.80469,-7.14454],[-34.80458,-7.14455]],[[-34.8254,-7.23072],[-34.82548,-7.23069],[-34.82556,-7.23081],[-34.8254,-7.23072]]]},"properties":{"ghs":"7nx","size":15.55,"ghs_len":3,"ghs_area":43.39,"ghs_bytes":340106,"ghs_items":848,"size_unit":"km2","ghsval_unit":"bytes","ghs_itemsdensity":19.54,"size_unitdensity":0.36}},{"type":"Feature","geometry":{"type":"Polygon","coordinates":[[[-34.97099,-7.19912],[-34.971,-7.19907],[-34.975,-7.1757],[-34.97501,-7.1755],[-34.97498,-7.17529],[-34.97491,-7.17509],[-34.9748,-7.17492],[-34.97465,-7.17477],[-34.97448,-7.17465],[-34.97124,-7.17292],[-34.97111,-7.1728],[-34.97109,-7.17272],[-34.971,-7.17253],[-34.97088,-7.17236],[-34.97073,-7.17223],[-34.97061,-7.17214],[-34.97046,-7.17206],[-34.97038,-7.17199],[-34.97023,-7.17188],[-34.97007,-7.17179],[-34.9699,-7.17174],[-34.96976,-7.17173],[-34.96972,-7.17171],[-34.96944,-7.17157],[-34.96936,-7.17152],[-34.96915,-7.17128],[-34.96899,-7.17114],[-34.96882,-7.17103],[-34.96862,-7.17097],[-34.96854,-7.17096],[-34.96853,-7.17095],[-34.96844,-7.1709],[-34.96836,-7.17082],[-34.96829,-7.17076],[-34.96825,-7.17067],[-34.96815,-7.1705],[-34.96813,-7.17048],[-34.96804,-7.17033],[-34.96797,-7.17025],[-34.9679,-7.17016],[-34.96785,-7.17006],[-34.96771,-7.16985],[-34.96759,-7.16971],[-34.96745,-7.16958],[-34.96733,-7.16948],[-34.96727,-7.16944],[-34.96716,-7.16937],[-34.96714,-7.1693],[-34.96707,-7.1691],[-34.96696,-7.16893],[-34.96681,-7.16878],[-34.96672,-7.1687],[-34.96656,-7.16859],[-34.96638,-7.16851],[-34.9662,-7.16847],[-34.966,-7.16847],[-34.96597,-7.16847],[-34.96583,-7.16843],[-34.96566,-7.1684],[-34.96557,-7.16841],[-34.96533,-7.16814],[-34.96519,-7.168],[-34.9648,-7.1677],[-34.96455,-7.16757],[-34.96427,-7.16746],[-34.96421,-7.1674],[-34.96404,-7.16729],[-34.96373,-7.16711],[-34.96364,-7.16704],[-34.9636,-7.167],[-34.96328,-7.16675],[-34.96307,-7.16647],[-34.96293,-7.16631],[-34.96275,-7.16618],[-34.96255,-7.16609],[-34.96213,-7.16596],[-34.96188,-7.16592],[-34.96147,-7.1659],[-34.9612,-7.16593],[-34.96086,-7.16601],[-34.96074,-7.16604],[-34.96047,-7.16614],[-34.96029,-7.16623],[-34.96014,-7.16635],[-34.95998,-7.16635],[-34.95985,-7.16633],[-34.9594,-7.16626],[-34.95919,-7.16625],[-34.95869,-7.16627],[-34.95865,-7.16628],[-34.95823,-7.16631],[-34.9581,-7.16633],[-34.95755,-7.16646],[-34.9574,-7.1665],[-34.95613,-7.167],[-34.95588,-7.16702],[-34.95502,-7.16697],[-34.95499,-7.16697],[-34.95457,-7.16696],[-34.95439,-7.16697],[-34.95422,-7.16701],[-34.95405,-7.16709],[-34.95379,-7.16724],[-34.95366,-7.16733],[-34.95354,-7.16744],[-34.95344,-7.16755],[-34.95313,-7.16764],[-34.95252,-7.16781],[-34.95217,-7.1678],[-34.95199,-7.16709],[-34.95189,-7.16682],[-34.95156,-7.16625],[-34.95143,-7.16607],[-34.9509,-7.16548],[-34.95071,-7.16499],[-34.95061,-7.1648],[-34.95028,-7.16429],[-34.95018,-7.16416],[-34.95006,-7.16404],[-34.94919,-7.16335],[-34.949,-7.16323],[-34.94879,-7.16315],[-34.94808,-7.16299],[-34.94779,-7.16297],[-34.94518,-7.16315],[-34.94443,-7.16294],[-34.94417,-7.1629],[-34.94348,-7.1629],[-34.94339,-7.1629],[-34.94248,-7.16297],[-34.94173,-7.163],[-34.94157,-7.16302],[-34.94142,-7.16306],[-34.94062,-7.16336],[-34.93877,-7.16391],[-34.93773,-7.16404],[-34.93756,-7.16407],[-34.9374,-7.16414],[-34.93725,-7.16423],[-34.93712,-7.16435],[-34.93577,-7.1658],[-34.93423,-7.16737],[-34.93371,-7.16758],[-34.93296,-7.16768],[-34.9324,-7.16723],[-34.93223,-7.16712],[-34.93203,-7.16704],[-34.93103,-7.16678],[-34.92997,-7.16639],[-34.92979,-7.16634],[-34.92863,-7.16614],[-34.92839,-7.16613],[-34.92815,-7.16618],[-34.9272,-7.1665],[-34.92701,-7.16658],[-34.92684,-7.16671],[-34.9256,-7.16786],[-34.92548,-7.168],[-34.92538,-7.16816],[-34.92472,-7.16952],[-34.92447,-7.16982],[-34.92421,-7.16999],[-34.92332,-7.17005],[-34.9225,-7.17004],[-34.92214,-7.16993],[-34.92189,-7.1697],[-34.92135,-7.16909],[-34.92121,-7.16896],[-34.92056,-7.16847],[-34.92003,-7.16806],[-34.91987,-7.16795],[-34.91928,-7.16766],[-34.91922,-7.16763],[-34.91892,-7.1675],[-34.91867,-7.16728],[-34.9184,-7.16701],[-34.91823,-7.16675],[-34.9182,-7.1667],[-34.91794,-7.16636],[-34.91781,-7.16622],[-34.91766,-7.1661],[-34.91707,-7.16575],[-34.91711,-7.16537],[-34.91712,-7.16517],[-34.91709,-7.16485],[-34.91703,-7.16458],[-34.9169,-7.16424],[-34.91679,-7.16403],[-34.9164,-7.16348],[-34.91631,-7.16336],[-34.91485,-7.16181],[-34.91419,-7.16095],[-34.91397,-7.16039],[-34.91383,-7.15956],[-34.91371,-7.15868],[-34.91373,-7.15789],[-34.9138,-7.157],[-34.9138,-7.15683],[-34.91373,-7.15588],[-34.91369,-7.15568],[-34.91343,-7.15473],[-34.91337,-7.15459],[-34.9133,-7.15445],[-34.91275,-7.15362],[-34.91262,-7.15346],[-34.91247,-7.15333],[-34.91168,-7.15281],[-34.91165,-7.15265],[-34.91162,-7.15255],[-34.91151,-7.15234],[-34.91136,-7.15215],[-34.91112,-7.15192],[-34.911,-7.15177],[-34.91099,-7.15173],[-34.911,-7.1517],[-34.91102,-7.15155],[-34.91101,-7.15139],[-34.91097,-7.15108],[-34.91095,-7.15094],[-34.91097,-7.15083],[-34.91097,-7.15073],[-34.91111,-7.15061],[-34.91124,-7.15048],[-34.91136,-7.15036],[-34.91141,-7.15031],[-34.91152,-7.1502],[-34.91159,-7.15013],[-34.91171,-7.15],[-34.9118,-7.14984],[-34.91186,-7.14968],[-34.9119,-7.14955],[-34.9119,-7.14953],[-34.91194,-7.14933],[-34.91205,-7.14916],[-34.91205,-7.14915],[-34.91226,-7.1488],[-34.9124,-7.14861],[-34.91249,-7.14852],[-34.91256,-7.1485],[-34.91258,-7.1485],[-34.91271,-7.14846],[-34.91284,-7.14841],[-34.91285,-7.14841],[-34.91295,-7.14839],[-34.91309,-7.14839],[-34.9133,-7.14836],[-34.91337,-7.14834],[-34.91356,-7.14827],[-34.91372,-7.14817],[-34.91378,-7.14813],[-34.91388,-7.14805],[-34.91395,-7.14798],[-34.91405,-7.14786],[-34.91413,-7.14774],[-34.91418,-7.14765],[-34.91425,-7.1475],[-34.91429,-7.14734],[-34.9143,-7.14729],[-34.91431,-7.14712],[-34.9143,-7.14694],[-34.91429,-7.14694],[-34.9143,-7.14693],[-34.91432,-7.1469],[-34.91436,-7.14685],[-34.91438,-7.14683],[-34.91441,-7.14679],[-34.9145,-7.14674],[-34.91454,-7.14672],[-34.91468,-7.14661],[-34.91468,-7.14661],[-34.91469,-7.1466],[-34.91477,-7.14656],[-34.91482,-7.14653],[-34.91484,-7.14651],[-34.91484,-7.14651],[-34.91489,-7.14649],[-34.91504,-7.14641],[-34.91517,-7.1463],[-34.91517,-7.14629],[-34.91519,-7.14628],[-34.91519,-7.14628],[-34.91531,-7.14618],[-34.91531,-7.14618],[-34.91535,-7.14615],[-34.91541,-7.14611],[-34.91542,-7.1461],[-34.91551,-7.14606],[-34.91563,-7.14597],[-34.91567,-7.14593],[-34.91581,-7.1458],[-34.91592,-7.14564],[-34.91597,-7.14554],[-34.91601,-7.14547],[-34.91604,-7.14539],[-34.91609,-7.14527],[-34.91612,-7.14517],[-34.91614,-7.1451],[-34.91617,-7.14508],[-34.91635,-7.14494],[-34.91638,-7.14489],[-34.91643,-7.14484],[-34.91647,-7.1448],[-34.91656,-7.14467],[-34.91663,-7.14453],[-34.91666,-7.14448],[-34.91669,-7.1444],[-34.91672,-7.1443],[-34.91676,-7.14416],[-34.91677,-7.14402],[-34.91679,-7.14394],[-34.9168,-7.1439],[-34.91682,-7.14387],[-34.91686,-7.14376],[-34.91689,-7.14369],[-34.91692,-7.14361],[-34.91695,-7.14353],[-34.91695,-7.14352],[-34.917,-7.14337],[-34.91703,-7.14331],[-34.91715,-7.14331],[-34.91732,-7.14328],[-34.91736,-7.14327],[-34.91754,-7.1432],[-34.91756,-7.14319],[-34.91772,-7.14318],[-34.91791,-7.14314],[-34.9181,-7.14306],[-34.91826,-7.14294],[-34.91843,-7.14279],[-34.91855,-7.14265],[-34.91865,-7.1425],[-34.91872,-7.14233],[-34.91875,-7.14216],[-34.91882,-7.1416],[-34.91881,-7.14132],[-34.91871,-7.1407],[-34.91867,-7.14053],[-34.91859,-7.14036],[-34.91853,-7.14028],[-34.91854,-7.14018],[-34.91866,-7.14006],[-34.91877,-7.13991],[-34.91885,-7.13974],[-34.91889,-7.13956],[-34.9189,-7.13937],[-34.91887,-7.13919],[-34.91885,-7.13909],[-34.91893,-7.13902],[-34.91897,-7.13899],[-34.91912,-7.13884],[-34.91924,-7.13871],[-34.91933,-7.13856],[-34.91939,-7.13839],[-34.91942,-7.13822],[-34.91947,-7.13775],[-34.9196,-7.13711],[-34.91962,-7.13692],[-34.9196,-7.13673],[-34.91955,-7.13654],[-34.91946,-7.13637],[-34.91936,-7.13622],[-34.9194,-7.13621],[-34.91955,-7.13613],[-34.91983,-7.13596],[-34.91999,-7.13584],[-34.92011,-7.1357],[-34.92021,-7.13553],[-34.92027,-7.13535],[-34.92034,-7.13506],[-34.92037,-7.13486],[-34.92036,-7.13465],[-34.9203,-7.13445],[-34.9202,-7.13427],[-34.92007,-7.13411],[-34.91991,-7.13398],[-34.91972,-7.13389],[-34.91961,-7.13385],[-34.91952,-7.13368],[-34.91945,-7.13343],[-34.91936,-7.13322],[-34.91922,-7.13303],[-34.91904,-7.13283],[-34.91892,-7.13272],[-34.91886,-7.13268],[-34.91886,-7.13267],[-34.91885,-7.13246],[-34.91881,-7.13226],[-34.91871,-7.13199],[-34.91863,-7.1318],[-34.91851,-7.13164],[-34.91823,-7.13133],[-34.91807,-7.13119],[-34.9166,-7.13012],[-34.91631,-7.12982],[-34.91617,-7.1297],[-34.91601,-7.12961],[-34.91563,-7.12944],[-34.91548,-7.12938],[-34.91506,-7.12927],[-34.91396,-7.12862],[-34.9136,-7.12816],[-34.91318,-7.12753],[-34.91305,-7.12737],[-34.91289,-7.12724],[-34.91238,-7.12691],[-34.91221,-7.12682],[-34.91203,-7.12676],[-34.91184,-7.12675],[-34.91117,-7.12674],[-34.91089,-7.12678],[-34.90879,-7.12739],[-34.90858,-7.12742],[-34.90857,-7.12742],[-34.90817,-7.12712],[-34.90753,-7.12664],[-34.90731,-7.12652],[-34.90391,-7.12514],[-34.90297,-7.12332],[-34.90253,-7.12197],[-34.90226,-7.1211],[-34.90219,-7.12092],[-34.90208,-7.12076],[-34.90165,-7.12024],[-34.90149,-7.12008],[-34.90129,-7.11996],[-34.90108,-7.11989],[-34.90028,-7.11973],[-34.90014,-7.11971],[-34.89999,-7.11972],[-34.89816,-7.1199],[-34.89796,-7.11994],[-34.89777,-7.12002],[-34.89562,-7.12122],[-34.89526,-7.12123],[-34.89516,-7.12112],[-34.89515,-7.12069],[-34.89515,-7.12069],[-34.89511,-7.11925],[-34.89518,-7.11823],[-34.89518,-7.11807],[-34.89515,-7.11791],[-34.89466,-7.11598],[-34.89458,-7.11576],[-34.89366,-7.11401],[-34.89359,-7.1139],[-34.89237,-7.11216],[-34.89226,-7.11065],[-34.89459,-7.1088],[-34.89472,-7.10868],[-34.89655,-7.10664],[-34.89668,-7.10645],[-34.89677,-7.10624],[-34.89755,-7.10345],[-34.89758,-7.10325],[-34.89757,-7.10305],[-34.89753,-7.10285],[-34.89744,-7.10267],[-34.89732,-7.10251],[-34.89717,-7.10237],[-34.8969,-7.10217],[-34.89514,-7.09944],[-34.89454,-7.09835],[-34.89453,-7.09834],[-34.89212,-7.0941],[-34.89207,-7.09403],[-34.89135,-7.09299],[-34.89132,-7.09295],[-34.88021,-7.07855],[-34.8789,-7.07685],[-34.86533,-7.05928],[-34.8652,-7.05914],[-34.86505,-7.05903],[-34.86487,-7.05895],[-34.86468,-7.0589],[-34.86449,-7.05889],[-34.8643,-7.05892],[-34.86412,-7.05899],[-34.86395,-7.05908],[-34.86319,-7.05964],[-34.86162,-7.06053],[-34.86127,-7.06068],[-34.86026,-7.06099],[-34.85911,-7.06101],[-34.85888,-7.06105],[-34.85789,-7.06132],[-34.85772,-7.06138],[-34.85756,-7.06148],[-34.85742,-7.06161],[-34.8565,-7.06261],[-34.85641,-7.06273],[-34.85597,-7.06339],[-34.85588,-7.06356],[-34.85583,-7.06375],[-34.85581,-7.06394],[-34.85581,-7.06488],[-34.85583,-7.06509],[-34.856,-7.06586],[-34.8561,-7.06612],[-34.85665,-7.06714],[-34.85671,-7.06724],[-34.85691,-7.06753],[-34.85723,-7.06798],[-34.85731,-7.06807],[-34.858,-7.06885],[-34.8583,-7.06943],[-34.85847,-7.07027],[-34.85856,-7.07098],[-34.8585,-7.07153],[-34.85812,-7.07273],[-34.85785,-7.07355],[-34.8578,-7.07377],[-34.85781,-7.07401],[-34.858,-7.07527],[-34.85804,-7.07543],[-34.8581,-7.07558],[-34.85833,-7.07603],[-34.85841,-7.07616],[-34.85851,-7.07628],[-34.85887,-7.07663],[-34.85907,-7.07679],[-34.85963,-7.07712],[-34.85979,-7.0772],[-34.85995,-7.07724],[-34.86088,-7.07742],[-34.86101,-7.07743],[-34.86212,-7.0775],[-34.86313,-7.07765],[-34.86384,-7.07828],[-34.86447,-7.07904],[-34.86461,-7.07934],[-34.86478,-7.08047],[-34.8648,-7.0808],[-34.86458,-7.08138],[-34.86405,-7.08193],[-34.86335,-7.08241],[-34.86314,-7.08259],[-34.86294,-7.08284],[-34.86292,-7.08286],[-34.86256,-7.08333],[-34.86246,-7.08348],[-34.86239,-7.08364],[-34.86235,-7.08382],[-34.86225,-7.08459],[-34.86225,-7.08475],[-34.86229,-7.08583],[-34.86211,-7.08677],[-34.86195,-7.08715],[-34.86187,-7.08719],[-34.86164,-7.08719],[-34.86124,-7.08713],[-34.86121,-7.08713],[-34.86037,-7.08703],[-34.86019,-7.08702],[-34.85813,-7.08716],[-34.85796,-7.08718],[-34.8578,-7.08723],[-34.85765,-7.08732],[-34.85704,-7.08771],[-34.85687,-7.08786],[-34.85673,-7.08803],[-34.85664,-7.08823],[-34.85643,-7.08884],[-34.8564,-7.089],[-34.85638,-7.08917],[-34.85639,-7.09],[-34.8564,-7.09016],[-34.85644,-7.0903],[-34.85677,-7.09134],[-34.85685,-7.09153],[-34.85739,-7.09246],[-34.85754,-7.09266],[-34.8583,-7.09343],[-34.85839,-7.09352],[-34.85848,-7.09359],[-34.85842,-7.09385],[-34.8584,-7.09394],[-34.85834,-7.09442],[-34.85778,-7.09427],[-34.85772,-7.09426],[-34.85734,-7.09418],[-34.85728,-7.09417],[-34.85704,-7.09414],[-34.85689,-7.09413],[-34.85588,-7.09413],[-34.85571,-7.09415],[-34.85532,-7.09422],[-34.85508,-7.09421],[-34.85491,-7.09422],[-34.85475,-7.09426],[-34.85439,-7.09438],[-34.85419,-7.09447],[-34.85402,-7.0946],[-34.85388,-7.09477],[-34.85378,-7.09496],[-34.85365,-7.09527],[-34.85359,-7.0955],[-34.85359,-7.09572],[-34.85332,-7.09581],[-34.85295,-7.0959],[-34.85271,-7.09593],[-34.85191,-7.09588],[-34.85175,-7.09588],[-34.8516,-7.09591],[-34.85115,-7.09603],[-34.85097,-7.0961],[-34.8508,-7.0962],[-34.85065,-7.09634],[-34.85044,-7.09658],[-34.85032,-7.09676],[-34.85024,-7.09695],[-34.8502,-7.09715],[-34.8501,-7.09715],[-34.84992,-7.09718],[-34.84961,-7.09726],[-34.84944,-7.09733],[-34.84929,-7.09742],[-34.84915,-7.09754],[-34.84904,-7.09768],[-34.84896,-7.09784],[-34.8489,-7.09801],[-34.84886,-7.09818],[-34.84878,-7.09856],[-34.84869,-7.09888],[-34.84834,-7.09876],[-34.84818,-7.09872],[-34.84789,-7.09868],[-34.84764,-7.09864],[-34.84713,-7.09848],[-34.84687,-7.09838],[-34.84663,-7.09832],[-34.84634,-7.09829],[-34.84639,-7.09813],[-34.84657,-7.0976],[-34.84681,-7.09713],[-34.84687,-7.09697],[-34.84706,-7.09635],[-34.84708,-7.09626],[-34.84726,-7.09535],[-34.84759,-7.09433],[-34.84778,-7.09376],[-34.84783,-7.09358],[-34.84787,-7.09324],[-34.84787,-7.09297],[-34.84782,-7.09257],[-34.84782,-7.09243],[-34.84784,-7.09223],[-34.84789,-7.09177],[-34.8479,-7.09168],[-34.84795,-7.0913],[-34.84795,-7.0913],[-34.84804,-7.09059],[-34.84817,-7.09001],[-34.84817,-7.09],[-34.84821,-7.08982],[-34.84823,-7.08954],[-34.84821,-7.08927],[-34.84817,-7.08871],[-34.84817,-7.08829],[-34.84819,-7.08795],[-34.84825,-7.08748],[-34.84826,-7.08742],[-34.84838,-7.08543],[-34.84838,-7.08534],[-34.84836,-7.08472],[-34.84835,-7.08458],[-34.84831,-7.08436],[-34.84829,-7.08417],[-34.84825,-7.08377],[-34.84825,-7.08308],[-34.84825,-7.08305],[-34.84823,-7.0822],[-34.84822,-7.08208],[-34.848,-7.08068],[-34.84796,-7.08051],[-34.84778,-7.08],[-34.84772,-7.07932],[-34.84776,-7.07847],[-34.84776,-7.07842],[-34.84777,-7.07838],[-34.84777,-7.07825],[-34.84777,-7.07822],[-34.84776,-7.07774],[-34.84786,-7.07725],[-34.84789,-7.07707],[-34.84791,-7.07691],[-34.8479,-7.07675],[-34.84787,-7.0765],[-34.84787,-7.07647],[-34.84799,-7.07601],[-34.84802,-7.07586],[-34.84802,-7.07571],[-34.84801,-7.07538],[-34.848,-7.07535],[-34.84796,-7.07485],[-34.84794,-7.0747],[-34.84786,-7.07436],[-34.84779,-7.07418],[-34.8477,-7.07401],[-34.84768,-7.074],[-34.84779,-7.07367],[-34.84783,-7.07341],[-34.84784,-7.0731],[-34.8479,-7.07284],[-34.84797,-7.07261],[-34.848,-7.0724],[-34.848,-7.0722],[-34.84796,-7.07193],[-34.84802,-7.07133],[-34.84806,-7.07112],[-34.84815,-7.07085],[-34.84861,-7.06983],[-34.84866,-7.0697],[-34.84876,-7.06938],[-34.84878,-7.06933],[-34.84878,-7.06933],[-34.84882,-7.06922],[-34.84884,-7.06917],[-34.84888,-7.06909],[-34.84888,-7.06908],[-34.84898,-7.06896],[-34.84909,-7.06881],[-34.84917,-7.06864],[-34.84926,-7.06836],[-34.84931,-7.06815],[-34.84945,-7.06701],[-34.84957,-7.06611],[-34.84962,-7.06601],[-34.8497,-7.06577],[-34.84971,-7.0657],[-34.84985,-7.06519],[-34.84988,-7.0651],[-34.84989,-7.06505],[-34.84996,-7.06483],[-34.85,-7.06463],[-34.85002,-7.06446],[-34.85003,-7.06435],[-34.85005,-7.06414],[-34.85006,-7.0641],[-34.85016,-7.0636],[-34.85017,-7.06356],[-34.85018,-7.0635],[-34.85018,-7.0635],[-34.85022,-7.06332],[-34.85022,-7.0633],[-34.85025,-7.06319],[-34.85028,-7.06296],[-34.85028,-7.06246],[-34.85025,-7.06226],[-34.85011,-7.06157],[-34.85008,-7.06141],[-34.85006,-7.06123],[-34.85009,-7.06081],[-34.85009,-7.06066],[-34.85005,-7.06014],[-34.85001,-7.05992],[-34.84992,-7.05972],[-34.8498,-7.05954],[-34.84959,-7.05931],[-34.84948,-7.05921],[-34.84935,-7.05912],[-34.84909,-7.05896],[-34.84897,-7.0589],[-34.8488,-7.05883],[-34.84865,-7.05872],[-34.84839,-7.05831],[-34.84816,-7.05791],[-34.84802,-7.05773],[-34.84774,-7.05744],[-34.84772,-7.05742],[-34.8477,-7.0574],[-34.84771,-7.05732],[-34.84769,-7.05717],[-34.84763,-7.05687],[-34.84756,-7.05666],[-34.84745,-7.05647],[-34.8473,-7.05631],[-34.84706,-7.0561],[-34.84691,-7.056],[-34.84675,-7.05592],[-34.84658,-7.05588],[-34.84621,-7.05581],[-34.84589,-7.05574],[-34.84551,-7.05559],[-34.84548,-7.05559],[-34.84496,-7.0554],[-34.84482,-7.05537],[-34.84374,-7.05516],[-34.84355,-7.05515],[-34.84328,-7.05515],[-34.8431,-7.05512],[-34.8429,-7.0551],[-34.84289,-7.0551],[-34.84257,-7.05501],[-34.84238,-7.05497],[-34.84219,-7.05497],[-34.84199,-7.05501],[-34.84182,-7.05509],[-34.84165,-7.0552],[-34.84152,-7.05533],[-34.84141,-7.0555],[-34.84133,-7.05568],[-34.8413,-7.05587],[-34.84121,-7.05679],[-34.84106,-7.0578],[-34.84089,-7.05882],[-34.83999,-7.06156],[-34.83867,-7.06388],[-34.83791,-7.06504],[-34.83747,-7.06562],[-34.83634,-7.0671],[-34.83539,-7.06805],[-34.83357,-7.06977],[-34.83335,-7.06996],[-34.83302,-7.07008],[-34.83285,-7.07016],[-34.83188,-7.07076],[-34.83186,-7.07077],[-34.83028,-7.07179],[-34.83024,-7.07182],[-34.82975,-7.07218],[-34.8296,-7.07232],[-34.82921,-7.07275],[-34.82911,-7.07288],[-34.82903,-7.07303],[-34.8286,-7.07404],[-34.82855,-7.07421],[-34.82852,-7.07439],[-34.82848,-7.07564],[-34.82848,-7.07574],[-34.82853,-7.07652],[-34.82854,-7.07661],[-34.8287,-7.07765],[-34.82867,-7.07813],[-34.82866,-7.07821],[-34.82866,-7.07894],[-34.82868,-7.07916],[-34.82896,-7.08041],[-34.829,-7.08055],[-34.82923,-7.08113],[-34.82931,-7.0813],[-34.82963,-7.08181],[-34.83017,-7.08307],[-34.83068,-7.08435],[-34.83074,-7.08448],[-34.83116,-7.08521],[-34.8322,-7.0898],[-34.83229,-7.09057],[-34.83234,-7.09122],[-34.83236,-7.09192],[-34.83236,-7.09196],[-34.83245,-7.09328],[-34.83242,-7.09407],[-34.83179,-7.09635],[-34.83163,-7.09682],[-34.83141,-7.09743],[-34.83139,-7.09748],[-34.8307,-7.09972],[-34.83004,-7.10115],[-34.82913,-7.10257],[-34.82753,-7.10451],[-34.82621,-7.10586],[-34.82496,-7.10695],[-34.82364,-7.10799],[-34.82324,-7.10826],[-34.82311,-7.10836],[-34.82288,-7.10857],[-34.82267,-7.10878],[-34.82221,-7.10903],[-34.82202,-7.10916],[-34.82187,-7.10933],[-34.82157,-7.10976],[-34.8212,-7.11002],[-34.82114,-7.11006],[-34.82084,-7.1103],[-34.82071,-7.11043],[-34.82046,-7.11072],[-34.82032,-7.11091],[-34.82024,-7.11113],[-34.82019,-7.11134],[-34.82004,-7.11184],[-34.82001,-7.112],[-34.82001,-7.11217],[-34.82003,-7.11261],[-34.82004,-7.11273],[-34.82023,-7.11384],[-34.82028,-7.11404],[-34.82047,-7.11451],[-34.82083,-7.11543],[-34.82084,-7.11545],[-34.82104,-7.11596],[-34.82143,-7.1176],[-34.82176,-7.11951],[-34.82179,-7.11973],[-34.8218,-7.1198],[-34.82186,-7.12009],[-34.82186,-7.12017],[-34.82187,-7.1232],[-34.82174,-7.12454],[-34.82145,-7.12591],[-34.82099,-7.12764],[-34.82033,-7.12988],[-34.81962,-7.13167],[-34.81843,-7.13436],[-34.81721,-7.13631],[-34.81561,-7.13855],[-34.81496,-7.13928],[-34.81386,-7.14046],[-34.81385,-7.14047],[-34.81339,-7.14099],[-34.81238,-7.14188],[-34.81232,-7.14193],[-34.81141,-7.14285],[-34.81067,-7.14338],[-34.80928,-7.14419],[-34.80834,-7.14457],[-34.80812,-7.14463],[-34.80798,-7.14463],[-34.80776,-7.1445],[-34.80762,-7.14443],[-34.80747,-7.14438],[-34.80696,-7.14427],[-34.80678,-7.14424],[-34.80659,-7.14425],[-34.80641,-7.1443],[-34.8061,-7.14441],[-34.80469,-7.14454],[-34.80469,-7.20703],[-34.84863,-7.20703],[-34.84863,-7.16309],[-34.89258,-7.16309],[-34.89258,-7.20703],[-34.97035,-7.20703],[-34.97099,-7.19912]]]},"properties":{"ghs":"7nxp","size":76.98,"ghs_len":4,"ghs_area":154.47,"ghs_bytes":2919538,"ghs_items":6111,"size_unit":"km2","ghsval_unit":"bytes","ghs_itemsdensity":39.56,"size_unitdensity":0.5}},{"type":"Feature","geometry":{"type":"Polygon","coordinates":[[[-34.89258,-7.16309],[-34.84863,-7.16309],[-34.84863,-7.20703],[-34.89258,-7.20703],[-34.89258,-7.16309]]]},"properties":{"ghs":"7nxpn","size":16.21,"ghs_len":5,"ghs_area":23.59,"ghs_bytes":791520,"ghs_items":1760,"size_unit":"km2","ghsval_unit":"bytes","ghs_itemsdensity":74.61,"size_unitdensity":0.69}}]}
