{"type":"FeatureCollection","features":[{"type":"Feature","geometry":{"type":"Polygon","coordinates":[[[-49.02413,-27.15404],[-49.02403,-27.15384],[-49.02388,-27.15366],[-49.02355,-27.15335],[-49.02333,-27.15319],[-49.02275,-27.15289],[-49.02252,-27.15281],[-49.02176,-27.15263],[-49.02163,-27.15261],[-49.02047,-27.15248],[-49.02024,-27.15248],[-49.01978,-27.15254],[-49.01958,-27.15259],[-49.01938,-27.15268],[-49.01921,-27.15282],[-49.01908,-27.15298],[-49.01898,-27.15317],[-49.01879,-27.15365],[-49.01873,-27.15388],[-49.01873,-27.1541],[-49.01878,-27.15468],[-49.01867,-27.15468],[-49.01836,-27.15452],[-49.01781,-27.15392],[-49.01704,-27.15292],[-49.01653,-27.15192],[-49.01653,-27.15154],[-49.01652,-27.15139],[-49.01649,-27.15125],[-49.01636,-27.15082],[-49.01629,-27.15066],[-49.01619,-27.15051],[-49.01607,-27.15038],[-49.01593,-27.15027],[-49.01574,-27.15015],[-49.01676,-27.14953],[-49.01688,-27.14944],[-49.01763,-27.14882],[-49.0183,-27.14842],[-49.01997,-27.14794],[-49.0208,-27.14776],[-49.02101,-27.14769],[-49.02119,-27.14757],[-49.02168,-27.1472],[-49.02182,-27.14707],[-49.02193,-27.14691],[-49.02201,-27.14673],[-49.02232,-27.14582],[-49.02237,-27.14554],[-49.0224,-27.14497],[-49.02239,-27.14477],[-49.02234,-27.14457],[-49.02225,-27.14439],[-49.02212,-27.14423],[-49.02196,-27.14409],[-49.02154,-27.14381],[-49.02145,-27.14376],[-49.02079,-27.14341],[-49.02053,-27.14332],[-49.01918,-27.14303],[-49.01894,-27.143],[-49.0187,-27.14304],[-49.01815,-27.1432],[-49.01808,-27.14322],[-49.01767,-27.14337],[-49.01623,-27.14372],[-49.01604,-27.14379],[-49.016,-27.14381],[-49.01591,-27.14376],[-49.01455,-27.14284],[-49.01378,-27.1421],[-49.01359,-27.14195],[-49.01278,-27.14148],[-49.0126,-27.1414],[-49.0124,-27.14135],[-49.01137,-27.14122],[-49.01117,-27.14121],[-49.01097,-27.14125],[-49.01036,-27.14142],[-49.00928,-27.14139],[-49.00909,-27.1414],[-49.00891,-27.14144],[-49.00874,-27.14152],[-49.00859,-27.14163],[-49.00822,-27.14195],[-49.00806,-27.14212],[-49.00795,-27.14233],[-49.00787,-27.14253],[-49.00732,-27.14278],[-49.00691,-27.14287],[-49.00607,-27.14282],[-49.00557,-27.14275],[-49.00502,-27.14243],[-49.00481,-27.14234],[-49.00424,-27.14217],[-49.00406,-27.14213],[-49.00388,-27.14213],[-49.0037,-27.14216],[-49.00328,-27.14226],[-49.00311,-27.14232],[-49.00296,-27.14241],[-49.00282,-27.14252],[-49.00241,-27.14293],[-49.00183,-27.14338],[-49.0017,-27.1435],[-49.0016,-27.14363],[-49.00093,-27.14467],[-49.00092,-27.1447],[-49.00045,-27.14546],[-48.99972,-27.14612],[-48.99889,-27.14644],[-48.9986,-27.14634],[-48.9981,-27.14586],[-48.99809,-27.14585],[-48.99743,-27.14523],[-48.99724,-27.14509],[-48.99703,-27.145],[-48.99598,-27.14469],[-48.99588,-27.14466],[-48.99467,-27.14444],[-48.9944,-27.14443],[-48.99309,-27.14454],[-48.99306,-27.14454],[-48.99259,-27.1446],[-48.9924,-27.14464],[-48.99222,-27.14472],[-48.99175,-27.14499],[-48.9915,-27.14509],[-48.99101,-27.14515],[-48.99009,-27.14508],[-48.98947,-27.14499],[-48.98893,-27.14481],[-48.98893,-27.14469],[-48.9891,-27.14438],[-48.98926,-27.14419],[-48.98937,-27.14403],[-48.98944,-27.14384],[-48.98948,-27.14364],[-48.98948,-27.14344],[-48.98944,-27.14317],[-48.9894,-27.14298],[-48.98933,-27.1428],[-48.98922,-27.14264],[-48.98909,-27.14251],[-48.98893,-27.1424],[-48.98842,-27.14213],[-48.98781,-27.14166],[-48.98734,-27.14116],[-48.98729,-27.14112],[-48.98684,-27.1407],[-48.9864,-27.1402],[-48.9863,-27.1401],[-48.98593,-27.13979],[-48.98593,-27.13979],[-48.9855,-27.13943],[-48.98504,-27.13901],[-48.98456,-27.13857],[-48.98443,-27.13847],[-48.98429,-27.13839],[-48.98413,-27.13834],[-48.98356,-27.13819],[-48.98338,-27.13816],[-48.9832,-27.13816],[-48.98282,-27.13821],[-48.98264,-27.13825],[-48.98247,-27.13832],[-48.98232,-27.13842],[-48.98218,-27.13855],[-48.98198,-27.13878],[-48.98187,-27.13893],[-48.98179,-27.1391],[-48.98175,-27.13929],[-48.98174,-27.13948],[-48.98176,-27.13966],[-48.98182,-27.13984],[-48.98144,-27.14038],[-48.981,-27.1406],[-48.98095,-27.14063],[-48.98029,-27.14101],[-48.98008,-27.14116],[-48.97965,-27.14159],[-48.97952,-27.14174],[-48.97943,-27.14191],[-48.97937,-27.1421],[-48.97935,-27.14229],[-48.97937,-27.14249],[-48.97945,-27.14293],[-48.9795,-27.1431],[-48.97952,-27.14315],[-48.97951,-27.14314],[-48.97935,-27.14311],[-48.97886,-27.14307],[-48.97869,-27.14306],[-48.97836,-27.14309],[-48.9782,-27.14311],[-48.97814,-27.14313],[-48.97813,-27.14312],[-48.97811,-27.14194],[-48.978,-27.13517],[-48.98294,-27.12134],[-48.98299,-27.12115],[-48.983,-27.12095],[-48.98297,-27.12076],[-48.9829,-27.12057],[-48.9828,-27.12041],[-48.98267,-27.12026],[-48.98252,-27.12014],[-48.98234,-27.12006],[-48.97138,-27.11607],[-48.95869,-27.11022],[-48.95586,-27.10569],[-48.95387,-27.1025],[-48.95051,-27.09608],[-48.95296,-27.08727],[-48.953,-27.08706],[-48.95299,-27.08685],[-48.95294,-27.08665],[-48.95284,-27.08646],[-48.95272,-27.0863],[-48.95255,-27.08617],[-48.94743,-27.08275],[-48.9528,-27.0756],[-48.9529,-27.07544],[-48.95297,-27.07525],[-48.953,-27.07506],[-48.95299,-27.07487],[-48.95295,-27.07468],[-48.95184,-27.07136],[-48.95095,-27.06868],[-48.95088,-27.06852],[-48.95078,-27.06837],[-48.95066,-27.06825],[-48.95051,-27.06814],[-48.94553,-27.06515],[-48.93729,-27.05966],[-48.93989,-27.05445],[-48.93996,-27.05427],[-48.94,-27.05408],[-48.93999,-27.05389],[-48.93996,-27.05371],[-48.93988,-27.05353],[-48.93978,-27.05338],[-48.93578,-27.04838],[-48.93565,-27.04824],[-48.93551,-27.04814],[-48.93534,-27.04806],[-48.93517,-27.04801],[-48.93498,-27.048],[-48.9348,-27.04802],[-48.93026,-27.04893],[-48.92842,-27.04745],[-48.92639,-27.04583],[-48.93579,-27.03361],[-48.93591,-27.03342],[-48.93598,-27.03322],[-48.936,-27.033],[-48.936,-27.028],[-48.93598,-27.0278],[-48.93592,-27.02762],[-48.93583,-27.02744],[-48.93571,-27.02729],[-48.9277,-27.01929],[-48.92671,-27.01829],[-48.92657,-27.01818],[-48.92641,-27.01809],[-48.92624,-27.01803],[-48.92606,-27.018],[-48.92588,-27.01801],[-48.91794,-27.019],[-48.91365,-27.019],[-48.90991,-27.01059],[-48.90982,-27.01043],[-48.90969,-27.01028],[-48.90954,-27.01016],[-48.90937,-27.01007],[-48.90919,-27.01002],[-48.909,-27.01],[-48.89549,-27.01],[-48.88923,-27.00196],[-48.88879,-27.00139],[-48.88867,-27.00126],[-48.88853,-27.00115],[-48.88837,-27.00107],[-48.8882,-27.00102],[-48.88349,-27.00008],[-48.88258,-26.99918],[-48.8824,-26.99904],[-48.88219,-26.99894],[-48.8792,-26.99796],[-48.87904,-26.99792],[-48.87888,-26.99791],[-48.87099,-26.998],[-48.87077,-26.99803],[-48.87056,-26.9981],[-48.87038,-26.99822],[-48.86538,-27.00222],[-48.86523,-27.00236],[-48.86512,-27.00253],[-48.86504,-27.00272],[-48.865,-27.00292],[-48.86501,-27.00312],[-48.86505,-27.00332],[-48.86785,-27.01171],[-48.85441,-27.02418],[-48.8515,-27.02575],[-48.85134,-27.02586],[-48.8512,-27.026],[-48.85109,-27.02617],[-48.85101,-27.02635],[-48.85098,-27.02655],[-48.85098,-27.02675],[-48.85103,-27.02694],[-48.85111,-27.02712],[-48.85122,-27.02729],[-48.85137,-27.02742],[-48.85174,-27.0277],[-48.85217,-27.02825],[-48.85251,-27.0287],[-48.85265,-27.02884],[-48.85307,-27.02921],[-48.85337,-27.0295],[-48.85342,-27.02955],[-48.85372,-27.02981],[-48.85439,-27.03048],[-48.85457,-27.03077],[-48.85468,-27.03092],[-48.85509,-27.03138],[-48.85514,-27.03142],[-48.85544,-27.03172],[-48.85555,-27.03183],[-48.85555,-27.03184],[-48.85558,-27.03201],[-48.85559,-27.03206],[-48.85566,-27.03236],[-48.85568,-27.03257],[-48.85571,-27.03278],[-48.8558,-27.03298],[-48.85603,-27.0334],[-48.85603,-27.03341],[-48.85624,-27.03378],[-48.85635,-27.03394],[-48.8565,-27.03408],[-48.85667,-27.03421],[-48.85688,-27.03434],[-48.85711,-27.03441],[-48.85766,-27.0345],[-48.85779,-27.03452],[-48.85856,-27.03454],[-48.85879,-27.03453],[-48.85989,-27.03431],[-48.86042,-27.03421],[-48.86085,-27.03413],[-48.86109,-27.03415],[-48.86116,-27.03415],[-48.86143,-27.03414],[-48.86199,-27.03415],[-48.86198,-27.03417],[-48.86187,-27.03436],[-48.8618,-27.03451],[-48.86176,-27.03467],[-48.86174,-27.03483],[-48.86174,-27.03504],[-48.86174,-27.03517],[-48.86177,-27.03543],[-48.8618,-27.03559],[-48.86186,-27.03574],[-48.86188,-27.03579],[-48.86188,-27.03587],[-48.86187,-27.03613],[-48.86189,-27.03634],[-48.86196,-27.03654],[-48.86205,-27.03676],[-48.8621,-27.03688],[-48.8621,-27.0369],[-48.86218,-27.03778],[-48.86222,-27.03798],[-48.8623,-27.03817],[-48.86242,-27.03834],[-48.86257,-27.03849],[-48.86269,-27.03856],[-48.86254,-27.03865],[-48.86241,-27.03875],[-48.86233,-27.03883],[-48.8622,-27.03899],[-48.8621,-27.03918],[-48.86209,-27.03919],[-48.86205,-27.03921],[-48.8619,-27.03931],[-48.86177,-27.03944],[-48.86166,-27.03959],[-48.86159,-27.03976],[-48.86154,-27.03994],[-48.86153,-27.04012],[-48.86154,-27.04038],[-48.86154,-27.04039],[-48.86163,-27.04258],[-48.86152,-27.04257],[-48.86145,-27.04259],[-48.86138,-27.04259],[-48.86121,-27.04262],[-48.86105,-27.04268],[-48.8609,-27.04277],[-48.86083,-27.04282],[-48.86075,-27.04287],[-48.86069,-27.04286],[-48.86063,-27.04284],[-48.86043,-27.04281],[-48.86023,-27.04282],[-48.86014,-27.04285],[-48.86004,-27.04283],[-48.85984,-27.04285],[-48.85975,-27.04285],[-48.85959,-27.04287],[-48.85938,-27.04291],[-48.85919,-27.04299],[-48.85902,-27.04312],[-48.85887,-27.04328],[-48.85881,-27.04336],[-48.85871,-27.04354],[-48.85864,-27.04374],[-48.85863,-27.04382],[-48.8586,-27.04382],[-48.85839,-27.04382],[-48.85818,-27.04387],[-48.85798,-27.04396],[-48.85781,-27.0441],[-48.85773,-27.04417],[-48.85758,-27.04436],[-48.85742,-27.04461],[-48.85735,-27.04475],[-48.85733,-27.0448],[-48.85732,-27.04481],[-48.85726,-27.04484],[-48.85719,-27.0449],[-48.85718,-27.04489],[-48.85706,-27.04488],[-48.8569,-27.04486],[-48.85684,-27.04486],[-48.85681,-27.04484],[-48.85666,-27.04478],[-48.85646,-27.04473],[-48.85628,-27.04469],[-48.85609,-27.04469],[-48.85591,-27.04473],[-48.85574,-27.04479],[-48.85559,-27.04489],[-48.85546,-27.04499],[-48.85533,-27.04506],[-48.85519,-27.04517],[-48.85486,-27.04545],[-48.85482,-27.04549],[-48.8547,-27.04561],[-48.85456,-27.04577],[-48.85446,-27.04596],[-48.85441,-27.04617],[-48.8544,-27.04621],[-48.85432,-27.04633],[-48.85424,-27.04648],[-48.85424,-27.04649],[-48.85424,-27.04649],[-48.85413,-27.04664],[-48.85406,-27.04681],[-48.85401,-27.04699],[-48.854,-27.04709],[-48.85391,-27.04724],[-48.85391,-27.04725],[-48.85386,-27.04732],[-48.85378,-27.04751],[-48.85374,-27.04772],[-48.85374,-27.04793],[-48.85374,-27.04793],[-48.85373,-27.04801],[-48.85373,-27.04822],[-48.85378,-27.04842],[-48.85382,-27.04855],[-48.8539,-27.04873],[-48.85401,-27.04888],[-48.85415,-27.04901],[-48.85421,-27.04905],[-48.8542,-27.04907],[-48.85402,-27.04918],[-48.85386,-27.04933],[-48.85374,-27.04951],[-48.85365,-27.04966],[-48.85358,-27.04983],[-48.85354,-27.05],[-48.85353,-27.05018],[-48.85356,-27.05036],[-48.85359,-27.05045],[-48.85358,-27.05047],[-48.85362,-27.05067],[-48.8537,-27.05086],[-48.85382,-27.05103],[-48.85394,-27.05115],[-48.85396,-27.05122],[-48.85397,-27.05125],[-48.8539,-27.05145],[-48.85389,-27.05154],[-48.85384,-27.05157],[-48.85378,-27.05163],[-48.85375,-27.05164],[-48.8536,-27.0517],[-48.85345,-27.05178],[-48.8534,-27.05182],[-48.85329,-27.05187],[-48.85327,-27.05188],[-48.85308,-27.05198],[-48.85291,-27.05209],[-48.85288,-27.05211],[-48.8528,-27.05216],[-48.85269,-27.05224],[-48.85257,-27.05233],[-48.85254,-27.05237],[-48.85237,-27.0525],[-48.85222,-27.05257],[-48.85204,-27.05272],[-48.8519,-27.0529],[-48.85184,-27.05301],[-48.85177,-27.05315],[-48.85172,-27.05316],[-48.85155,-27.05324],[-48.85149,-27.05329],[-48.85146,-27.05329],[-48.85129,-27.05338],[-48.85113,-27.0535],[-48.85104,-27.05359],[-48.85091,-27.05374],[-48.85082,-27.0539],[-48.85075,-27.05408],[-48.85073,-27.05427],[-48.85072,-27.0544],[-48.85072,-27.05445],[-48.85072,-27.05455],[-48.85074,-27.05471],[-48.85062,-27.05481],[-48.85056,-27.05486],[-48.8505,-27.05493],[-48.85047,-27.05496],[-48.85033,-27.05511],[-48.8503,-27.05516],[-48.8502,-27.05523],[-48.85013,-27.0553],[-48.85,-27.05545],[-48.84989,-27.05562],[-48.84988,-27.05565],[-48.84982,-27.05575],[-48.84978,-27.05582],[-48.84973,-27.05589],[-48.84965,-27.05604],[-48.84964,-27.05607],[-48.84945,-27.05615],[-48.84932,-27.05622],[-48.84915,-27.05634],[-48.84915,-27.05635],[-48.84911,-27.05636],[-48.84889,-27.05654],[-48.8488,-27.05663],[-48.84875,-27.05669],[-48.84874,-27.0567],[-48.84859,-27.05682],[-48.84847,-27.05696],[-48.84838,-27.05712],[-48.84833,-27.0573],[-48.84833,-27.0573],[-48.84749,-27.0591],[-48.84681,-27.06027],[-48.84627,-27.0612],[-48.8462,-27.06136],[-48.84572,-27.06269],[-48.84521,-27.06308],[-48.84507,-27.06322],[-48.84496,-27.06338],[-48.84488,-27.06356],[-48.84484,-27.06376],[-48.8447,-27.06491],[-48.84415,-27.06668],[-48.84336,-27.06689],[-48.84335,-27.06689],[-48.84125,-27.06746],[-48.84106,-27.06753],[-48.8409,-27.06763],[-48.83887,-27.0692],[-48.83801,-27.06971],[-48.83786,-27.06982],[-48.83773,-27.06995],[-48.83702,-27.07085],[-48.83692,-27.07101],[-48.8364,-27.072],[-48.824,-27.072],[-48.8238,-27.07202],[-48.82362,-27.07208],[-48.82344,-27.07217],[-48.82329,-27.07229],[-48.80744,-27.08814],[-48.80438,-27.08934],[-48.78964,-27.09507],[-48.78946,-27.09516],[-48.78931,-27.09528],[-48.78918,-27.09543],[-48.78908,-27.09561],[-48.78902,-27.09579],[-48.789,-27.09599],[-48.78902,-27.09619],[-48.78907,-27.09638],[-48.78917,-27.09655],[-48.78929,-27.09671],[-48.79671,-27.10413],[-48.79351,-27.10893],[-48.79317,-27.10945],[-48.79307,-27.10963],[-48.79301,-27.10983],[-48.793,-27.11004],[-48.79303,-27.11025],[-48.7931,-27.11044],[-48.79321,-27.11062],[-48.79336,-27.11077],[-48.80479,-27.12029],[-48.80208,-27.12661],[-48.80202,-27.1268],[-48.802,-27.12701],[-48.80202,-27.12722],[-48.80209,-27.12741],[-48.8022,-27.12759],[-48.80234,-27.12775],[-48.81134,-27.13575],[-48.8115,-27.13587],[-48.81168,-27.13595],[-48.8205,-27.13889],[-48.82289,-27.14094],[-48.82293,-27.14098],[-48.84135,-27.15676],[-48.84151,-27.15687],[-48.8417,-27.15695],[-48.84736,-27.15875],[-48.86346,-27.16388],[-48.86543,-27.16584],[-48.86345,-27.16717],[-48.86329,-27.1673],[-48.86316,-27.16746],[-48.86307,-27.16764],[-48.86301,-27.16783],[-48.863,-27.16804],[-48.86303,-27.16824],[-48.8631,-27.16843],[-48.8632,-27.1686],[-48.86334,-27.16875],[-48.87134,-27.17575],[-48.87151,-27.17587],[-48.87169,-27.17595],[-48.87189,-27.17599],[-48.8721,-27.176],[-48.8723,-27.17596],[-48.87248,-27.17588],[-48.87265,-27.17576],[-48.87303,-27.17544],[-48.87317,-27.17529],[-48.87321,-27.17522],[-48.87825,-27.17775],[-48.88111,-27.18345],[-48.88121,-27.18361],[-48.88135,-27.18376],[-48.88151,-27.18387],[-48.88169,-27.18395],[-48.88189,-27.18399],[-48.88208,-27.184],[-48.89341,-27.18305],[-48.89711,-27.19045],[-48.89722,-27.19062],[-48.89736,-27.19077],[-48.89753,-27.19088],[-48.89772,-27.19096],[-48.89792,-27.191],[-48.89812,-27.19099],[-48.90564,-27.19005],[-48.91329,-27.19771],[-48.91343,-27.19782],[-48.9136,-27.19791],[-48.91377,-27.19797],[-48.9306,-27.20193],[-48.93243,-27.20316],[-48.93129,-27.20429],[-48.93116,-27.20446],[-48.93106,-27.20465],[-48.93101,-27.20485],[-48.931,-27.20507],[-48.93104,-27.20527],[-48.93304,-27.21227],[-48.93311,-27.21245],[-48.9332,-27.2126],[-48.93333,-27.21274],[-48.93347,-27.21285],[-48.93364,-27.21293],[-48.93382,-27.21298],[-48.934,-27.213],[-48.93477,-27.213],[-48.9574,-27.22382],[-48.97027,-27.23768],[-48.97045,-27.23783],[-48.98545,-27.24783],[-48.98562,-27.24792],[-48.98581,-27.24798],[-48.986,-27.248],[-48.99567,-27.248],[-49.0034,-27.2538],[-49.0036,-27.25392],[-49.00383,-27.25398],[-49.02083,-27.25698],[-49.02103,-27.257],[-49.02122,-27.25697],[-49.02141,-27.25691],[-49.02159,-27.25681],[-49.02174,-27.25668],[-49.02186,-27.25652],[-49.02194,-27.25634],[-49.02199,-27.25614],[-49.02399,-27.24214],[-49.024,-27.24195],[-49.02397,-27.24177],[-49.02391,-27.24159],[-49.02382,-27.24143],[-49.0237,-27.24129],[-49.02355,-27.24117],[-49.009,-27.23146],[-49.009,-27.201],[-49.00898,-27.20079],[-49.00891,-27.20059],[-49.00881,-27.20041],[-49.00867,-27.20026],[-48.99595,-27.18875],[-48.98781,-27.18139],[-48.97808,-27.16147],[-48.98919,-27.15408],[-48.99297,-27.15502],[-49.0042,-27.15783],[-49.00604,-27.16427],[-49.00611,-27.16445],[-49.00621,-27.16461],[-49.00633,-27.16474],[-49.00648,-27.16485],[-49.00665,-27.16494],[-49.00683,-27.16499],[-49.00701,-27.165],[-49.01766,-27.16484],[-49.01785,-27.16482],[-49.01803,-27.16477],[-49.0182,-27.16468],[-49.01834,-27.16456],[-49.01847,-27.16441],[-49.01936,-27.16313],[-49.02002,-27.16231],[-49.02033,-27.16226],[-49.02154,-27.16217],[-49.02169,-27.16215],[-49.02183,-27.1621],[-49.02264,-27.16179],[-49.02283,-27.16169],[-49.023,-27.16155],[-49.02313,-27.16138],[-49.02322,-27.16118],[-49.02338,-27.16073],[-49.02342,-27.16056],[-49.02344,-27.16038],[-49.02342,-27.1602],[-49.02337,-27.16003],[-49.02329,-27.15987],[-49.02298,-27.15938],[-49.02287,-27.15924],[-49.02275,-27.15912],[-49.0226,-27.15902],[-49.02185,-27.15862],[-49.02165,-27.15854],[-49.02084,-27.15832],[-49.02071,-27.15821],[-49.02081,-27.15814],[-49.02261,-27.1572],[-49.02276,-27.1571],[-49.02288,-27.15699],[-49.02339,-27.15644],[-49.02377,-27.15603],[-49.02392,-27.15581],[-49.02422,-27.15523],[-49.0243,-27.15503],[-49.02433,-27.15483],[-49.02432,-27.15462],[-49.02427,-27.15442],[-49.02413,-27.15404]]]},"properties":{"ghs":"6gj","size":682.12,"ghs_len":3,"ghs_area":294.6,"ghs_bytes":1021137,"ghs_items":2204,"size_unit":"km","ghsval_unit":"bytes","ghs_itemsdensity":7.48,"size_unitdensity":2.32}}]}
