{"type":"FeatureCollection","features":[{"type":"Feature","geometry":{"type":"Polygon","coordinates":[[[-52.82996,-27.01641],[-52.82977,-27.01641],[-52.82156,-27.01745],[-52.79658,-27.00618],[-52.79641,-27.0061],[-52.7964,-27.00609],[-52.78192,-26.99936],[-52.7819,-26.99935],[-52.76967,-26.994],[-52.76698,-26.9808],[-52.76698,-26.98079],[-52.76358,-26.96467],[-52.76336,-26.96359],[-52.76306,-26.96216],[-52.76298,-26.9618],[-52.76282,-26.96098],[-52.76245,-26.95903],[-52.75898,-26.94081],[-52.75893,-26.94063],[-52.75884,-26.94045],[-52.75872,-26.9403],[-52.75857,-26.94018],[-52.7584,-26.94008],[-52.75821,-26.94002],[-52.75802,-26.94],[-52.75795,-26.94001],[-52.75798,-26.93989],[-52.75798,-26.93968],[-52.75794,-26.93948],[-52.75786,-26.93928],[-52.75773,-26.93911],[-52.75758,-26.93897],[-52.75728,-26.93875],[-52.75686,-26.93834],[-52.75685,-26.93834],[-52.75655,-26.93805],[-52.75623,-26.93766],[-52.75607,-26.93751],[-52.75551,-26.93708],[-52.75537,-26.93699],[-52.75522,-26.93692],[-52.75485,-26.9368],[-52.75463,-26.93676],[-52.75441,-26.93676],[-52.75414,-26.93679],[-52.75396,-26.93683],[-52.7538,-26.9369],[-52.75365,-26.93699],[-52.75352,-26.93712],[-52.75327,-26.93739],[-52.75318,-26.93751],[-52.75294,-26.93788],[-52.75285,-26.93801],[-52.75273,-26.9382],[-52.75267,-26.93842],[-52.75265,-26.93851],[-52.75263,-26.9387],[-52.75264,-26.93877],[-52.75257,-26.939],[-52.7524,-26.93929],[-52.75234,-26.93941],[-52.75226,-26.93961],[-52.75218,-26.93963],[-52.75191,-26.93966],[-52.75122,-26.93969],[-52.75058,-26.93963],[-52.75038,-26.93964],[-52.75019,-26.93968],[-52.75,-26.93976],[-52.74943,-26.94008],[-52.74929,-26.94018],[-52.74916,-26.94031],[-52.74906,-26.94046],[-52.74898,-26.94062],[-52.74888,-26.94092],[-52.74887,-26.94092],[-52.74869,-26.94084],[-52.74851,-26.94079],[-52.74832,-26.94078],[-52.74814,-26.94081],[-52.74796,-26.94087],[-52.74748,-26.94109],[-52.74752,-26.94075],[-52.74762,-26.94048],[-52.74771,-26.9403],[-52.74785,-26.9401],[-52.74795,-26.93991],[-52.74802,-26.93971],[-52.74808,-26.93952],[-52.74809,-26.93932],[-52.74807,-26.93912],[-52.748,-26.93893],[-52.7479,-26.93876],[-52.74777,-26.93861],[-52.7476,-26.93845],[-52.74743,-26.93833],[-52.74723,-26.93824],[-52.74702,-26.93819],[-52.74681,-26.9382],[-52.7466,-26.93824],[-52.74649,-26.93828],[-52.74642,-26.93827],[-52.74627,-26.93828],[-52.74614,-26.93829],[-52.74609,-26.93828],[-52.74564,-26.93813],[-52.74542,-26.93808],[-52.7452,-26.93808],[-52.74499,-26.93813],[-52.74484,-26.93817],[-52.7447,-26.93824],[-52.74468,-26.93824],[-52.74449,-26.93827],[-52.74431,-26.93834],[-52.74415,-26.93843],[-52.74401,-26.93856],[-52.7439,-26.93871],[-52.74364,-26.93913],[-52.74327,-26.93948],[-52.74295,-26.93954],[-52.74294,-26.93954],[-52.74136,-26.93983],[-52.74112,-26.93991],[-52.7405,-26.9402],[-52.74033,-26.9403],[-52.74019,-26.9404],[-52.73975,-26.9405],[-52.7396,-26.94055],[-52.73893,-26.94082],[-52.73876,-26.94091],[-52.73861,-26.94103],[-52.73849,-26.94118],[-52.73839,-26.94135],[-52.73822,-26.94175],[-52.73816,-26.94195],[-52.73814,-26.94216],[-52.73816,-26.94237],[-52.73823,-26.94257],[-52.73832,-26.94277],[-52.73835,-26.94305],[-52.73823,-26.94315],[-52.73777,-26.94339],[-52.73768,-26.94345],[-52.7372,-26.94377],[-52.73687,-26.94395],[-52.73671,-26.94407],[-52.73657,-26.9442],[-52.73647,-26.94437],[-52.73633,-26.94463],[-52.73625,-26.94482],[-52.73622,-26.94502],[-52.7362,-26.94524],[-52.73621,-26.94545],[-52.73626,-26.94566],[-52.73635,-26.94585],[-52.73649,-26.94602],[-52.73665,-26.94615],[-52.73678,-26.94624],[-52.7367,-26.94629],[-52.73657,-26.94642],[-52.73646,-26.94657],[-52.73638,-26.94674],[-52.73628,-26.94702],[-52.73622,-26.94725],[-52.73622,-26.94747],[-52.73623,-26.94753],[-52.73612,-26.94821],[-52.73606,-26.94841],[-52.73599,-26.94843],[-52.73532,-26.94854],[-52.73474,-26.94861],[-52.73454,-26.94865],[-52.73436,-26.94873],[-52.73419,-26.94885],[-52.73376,-26.94923],[-52.73314,-26.94967],[-52.73272,-26.9499],[-52.73205,-26.94997],[-52.73161,-26.94994],[-52.73136,-26.94996],[-52.73113,-26.95003],[-52.73094,-26.95012],[-52.73078,-26.95021],[-52.73064,-26.95033],[-52.73059,-26.95039],[-52.73053,-26.95039],[-52.73034,-26.9504],[-52.73017,-26.95043],[-52.73003,-26.95047],[-52.72991,-26.95038],[-52.72972,-26.9503],[-52.72952,-26.95025],[-52.72931,-26.95025],[-52.72913,-26.95027],[-52.72894,-26.9503],[-52.72877,-26.95038],[-52.72861,-26.95048],[-52.72847,-26.95061],[-52.72829,-26.95082],[-52.72827,-26.95086],[-52.72825,-26.95086],[-52.72811,-26.95091],[-52.72798,-26.95098],[-52.72788,-26.95104],[-52.72772,-26.95116],[-52.72758,-26.95132],[-52.72742,-26.95155],[-52.72731,-26.95175],[-52.72725,-26.95197],[-52.72723,-26.9521],[-52.72723,-26.95218],[-52.7272,-26.95221],[-52.72702,-26.95238],[-52.72694,-26.95246],[-52.72667,-26.95277],[-52.72655,-26.95292],[-52.7265,-26.95301],[-52.72649,-26.95302],[-52.72634,-26.95311],[-52.72621,-26.95323],[-52.72611,-26.95337],[-52.72601,-26.95353],[-52.72593,-26.95369],[-52.72588,-26.95386],[-52.72586,-26.95404],[-52.72587,-26.95422],[-52.7259,-26.9544],[-52.7259,-26.95444],[-52.72589,-26.95447],[-52.72586,-26.95467],[-52.72586,-26.95481],[-52.7257,-26.95476],[-52.72554,-26.95473],[-52.72536,-26.95471],[-52.72518,-26.95472],[-52.725,-26.95477],[-52.72458,-26.95492],[-52.72437,-26.95503],[-52.72419,-26.95518],[-52.72403,-26.95534],[-52.72391,-26.95551],[-52.72382,-26.9557],[-52.72377,-26.95591],[-52.72377,-26.95613],[-52.72378,-26.95615],[-52.72356,-26.95628],[-52.72355,-26.95629],[-52.72341,-26.95637],[-52.72329,-26.95647],[-52.72304,-26.95647],[-52.72295,-26.95647],[-52.72269,-26.9565],[-52.72221,-26.95654],[-52.72203,-26.95657],[-52.72185,-26.95664],[-52.72169,-26.95674],[-52.72156,-26.95686],[-52.72144,-26.95701],[-52.72136,-26.95718],[-52.72135,-26.95722],[-52.72126,-26.95731],[-52.72117,-26.95747],[-52.7211,-26.95765],[-52.72107,-26.95783],[-52.72107,-26.95796],[-52.72098,-26.95806],[-52.72091,-26.95815],[-52.72089,-26.95818],[-52.72087,-26.95819],[-52.72072,-26.95829],[-52.72059,-26.9584],[-52.72049,-26.95854],[-52.72046,-26.95859],[-52.72041,-26.9586],[-52.72024,-26.95866],[-52.72008,-26.95872],[-52.71994,-26.9588],[-52.71981,-26.95891],[-52.71962,-26.95909],[-52.71945,-26.95922],[-52.71914,-26.95944],[-52.71909,-26.95946],[-52.71902,-26.95949],[-52.7184,-26.95976],[-52.71819,-26.95989],[-52.71798,-26.96005],[-52.71785,-26.96017],[-52.71774,-26.96032],[-52.71766,-26.96049],[-52.71761,-26.96067],[-52.7176,-26.96086],[-52.71762,-26.96104],[-52.71768,-26.96122],[-52.71776,-26.96138],[-52.71787,-26.96154],[-52.71792,-26.96163],[-52.71792,-26.96167],[-52.71795,-26.96188],[-52.71803,-26.96207],[-52.71814,-26.96225],[-52.71827,-26.9624],[-52.71846,-26.96258],[-52.71851,-26.96262],[-52.71842,-26.96273],[-52.71834,-26.9629],[-52.71818,-26.96333],[-52.71813,-26.96349],[-52.71811,-26.96367],[-52.71811,-26.96403],[-52.71812,-26.96423],[-52.71818,-26.96442],[-52.71827,-26.96459],[-52.7184,-26.96475],[-52.71855,-26.96487],[-52.71872,-26.96497],[-52.71907,-26.96511],[-52.71934,-26.96518],[-52.71982,-26.96523],[-52.71995,-26.96524],[-52.71997,-26.96533],[-52.71998,-26.96546],[-52.72002,-26.96565],[-52.72005,-26.96573],[-52.72005,-26.96573],[-52.72004,-26.96594],[-52.72008,-26.96614],[-52.72016,-26.96634],[-52.72023,-26.96643],[-52.72023,-26.96644],[-52.72022,-26.96652],[-52.72019,-26.96712],[-52.72019,-26.96721],[-52.7202,-26.96756],[-52.72017,-26.96787],[-52.72017,-26.96803],[-52.7202,-26.96819],[-52.72027,-26.96851],[-52.72025,-26.96853],[-52.71996,-26.96882],[-52.71924,-26.96924],[-52.71905,-26.96938],[-52.7186,-26.96981],[-52.71851,-26.9699],[-52.71807,-26.97045],[-52.71797,-26.97058],[-52.7179,-26.97073],[-52.71781,-26.97099],[-52.71772,-26.97109],[-52.71749,-26.97123],[-52.71746,-26.97124],[-52.71711,-26.97147],[-52.71695,-26.9716],[-52.71682,-26.97175],[-52.71673,-26.97193],[-52.71667,-26.97212],[-52.71665,-26.97233],[-52.71665,-26.97235],[-52.7165,-26.97242],[-52.71635,-26.97253],[-52.71623,-26.97267],[-52.71604,-26.97291],[-52.71594,-26.97307],[-52.71587,-26.97324],[-52.71571,-26.97378],[-52.71568,-26.97397],[-52.71562,-26.97457],[-52.71562,-26.97461],[-52.71559,-26.97521],[-52.71547,-26.97577],[-52.71486,-26.97705],[-52.71485,-26.97707],[-52.71413,-26.97864],[-52.71409,-26.97873],[-52.71378,-26.97964],[-52.71377,-26.97967],[-52.71356,-26.98035],[-52.71329,-26.98064],[-52.71315,-26.98081],[-52.71299,-26.98108],[-52.7129,-26.98128],[-52.71285,-26.9815],[-52.71286,-26.98173],[-52.71293,-26.98226],[-52.71296,-26.98241],[-52.71302,-26.98257],[-52.71311,-26.98274],[-52.71311,-26.98313],[-52.71314,-26.98336],[-52.71334,-26.98415],[-52.71337,-26.98432],[-52.69831,-26.98922],[-52.6983,-26.98923],[-52.69817,-26.98927],[-52.69744,-26.98952],[-52.69702,-26.98966],[-52.69665,-26.98979],[-52.69657,-26.98981],[-52.69646,-26.98985],[-52.69619,-26.98994],[-52.695,-26.99031],[-52.69466,-26.99042],[-52.69371,-26.99072],[-52.69367,-26.99073],[-52.69319,-26.9909],[-52.69312,-26.99093],[-52.69275,-26.99109],[-52.69116,-26.99158],[-52.69112,-26.99148],[-52.69028,-26.99007],[-52.6901,-26.98986],[-52.68875,-26.98857],[-52.68862,-26.98846],[-52.68847,-26.98838],[-52.68653,-26.98749],[-52.68628,-26.98741],[-52.68577,-26.98733],[-52.68553,-26.98732],[-52.68478,-26.98737],[-52.68457,-26.98741],[-52.68437,-26.98749],[-52.68371,-26.98786],[-52.68353,-26.98798],[-52.68338,-26.98815],[-52.68327,-26.98834],[-52.68272,-26.98961],[-52.68251,-26.98991],[-52.68078,-26.9903],[-52.68057,-26.99038],[-52.6778,-26.99171],[-52.67766,-26.99179],[-52.67462,-26.99392],[-52.67438,-26.99391],[-52.6741,-26.99384],[-52.67244,-26.99258],[-52.67228,-26.99247],[-52.67209,-26.99241],[-52.67105,-26.99213],[-52.67078,-26.9921],[-52.64672,-26.99244],[-52.64227,-26.99231],[-52.64208,-26.99232],[-52.64189,-26.99237],[-52.64172,-26.99245],[-52.64157,-26.99257],[-52.64144,-26.99271],[-52.64003,-26.99458],[-52.64003,-26.99458],[-52.63992,-26.99473],[-52.6393,-26.99557],[-52.63919,-26.99572],[-52.63917,-26.99575],[-52.63856,-26.99661],[-52.63775,-26.99775],[-52.63761,-26.99794],[-52.63737,-26.99828],[-52.6343,-27.00238],[-52.63416,-27.00256],[-52.6341,-27.00264],[-52.63358,-27.00334],[-52.63235,-27.00498],[-52.62904,-27.00938],[-52.62441,-27.01537],[-52.62322,-27.01691],[-52.62197,-27.01853],[-52.62138,-27.01929],[-52.62073,-27.02013],[-52.61808,-27.02356],[-52.61712,-27.02481],[-52.61695,-27.02503],[-52.61684,-27.02517],[-52.61684,-27.02517],[-52.61682,-27.0252],[-52.61671,-27.02534],[-52.61664,-27.02542],[-52.61644,-27.02569],[-52.61622,-27.02596],[-52.61613,-27.02608],[-52.61599,-27.02627],[-52.61569,-27.02666],[-52.61538,-27.02706],[-52.61433,-27.02839],[-52.61433,-27.0284],[-52.61379,-27.02909],[-52.61039,-27.03351],[-52.61005,-27.03394],[-52.60973,-27.03437],[-52.60899,-27.03421],[-52.6086,-27.03413],[-52.6082,-27.03405],[-52.60782,-27.03397],[-52.60105,-27.03257],[-52.59475,-27.03126],[-52.58654,-27.02956],[-52.58635,-27.02953],[-52.58615,-27.02955],[-52.58596,-27.02961],[-52.58579,-27.0297],[-52.58564,-27.02982],[-52.58553,-27.02995],[-52.58549,-27.02997],[-52.58534,-27.03006],[-52.58521,-27.03019],[-52.5851,-27.03033],[-52.5849,-27.03067],[-52.58468,-27.03095],[-52.58456,-27.03113],[-52.58449,-27.03133],[-52.58446,-27.03154],[-52.58444,-27.03248],[-52.58444,-27.03255],[-52.5845,-27.03387],[-52.58419,-27.03398],[-52.58289,-27.03368],[-52.58267,-27.03365],[-52.58222,-27.03365],[-52.58186,-27.03365],[-52.58165,-27.03367],[-52.58144,-27.03374],[-52.58125,-27.03385],[-52.58084,-27.03417],[-52.58012,-27.03467],[-52.57963,-27.03486],[-52.57797,-27.03523],[-52.57724,-27.03539],[-52.57706,-27.03544],[-52.57689,-27.03553],[-52.57675,-27.03565],[-52.57663,-27.03579],[-52.57653,-27.03596],[-52.57645,-27.03614],[-52.57639,-27.03631],[-52.57636,-27.03648],[-52.57635,-27.03668],[-52.57635,-27.03685],[-52.57638,-27.03702],[-52.57643,-27.03718],[-52.57643,-27.03724],[-52.57633,-27.03727],[-52.57626,-27.03729],[-52.57603,-27.03737],[-52.57574,-27.03737],[-52.57491,-27.03726],[-52.57477,-27.03725],[-52.57451,-27.03725],[-52.57428,-27.03728],[-52.57407,-27.03735],[-52.57376,-27.03751],[-52.57368,-27.03755],[-52.57353,-27.03751],[-52.57334,-27.03749],[-52.57315,-27.0375],[-52.57296,-27.03756],[-52.57279,-27.03765],[-52.57174,-27.03833],[-52.57159,-27.03845],[-52.57118,-27.03884],[-52.57107,-27.03897],[-52.57098,-27.03911],[-52.57078,-27.0395],[-52.57071,-27.0397],[-52.57065,-27.03993],[-52.57046,-27.04021],[-52.57041,-27.0403],[-52.56987,-27.04129],[-52.56978,-27.04153],[-52.56969,-27.04191],[-52.56966,-27.04209],[-52.56967,-27.04227],[-52.5697,-27.04244],[-52.56983,-27.04287],[-52.56986,-27.04293],[-52.56994,-27.04317],[-52.57004,-27.04335],[-52.57017,-27.04351],[-52.57033,-27.04365],[-52.57051,-27.04374],[-52.57071,-27.0438],[-52.57105,-27.04385],[-52.57119,-27.04386],[-52.57142,-27.04482],[-52.57135,-27.04522],[-52.57126,-27.04543],[-52.57056,-27.0462],[-52.57046,-27.04633],[-52.57038,-27.04649],[-52.57033,-27.04665],[-52.57006,-27.04786],[-52.56983,-27.04826],[-52.56976,-27.04842],[-52.56972,-27.04858],[-52.5697,-27.04875],[-52.5697,-27.04913],[-52.56972,-27.04933],[-52.56978,-27.04953],[-52.56998,-27.04998],[-52.57011,-27.05021],[-52.57023,-27.05036],[-52.57025,-27.05037],[-52.57005,-27.05042],[-52.56981,-27.05051],[-52.56963,-27.05062],[-52.56948,-27.05055],[-52.56931,-27.05051],[-52.56913,-27.0505],[-52.569,-27.05051],[-52.56876,-27.05054],[-52.5687,-27.05057],[-52.5686,-27.05057],[-52.56859,-27.05057],[-52.56804,-27.05055],[-52.56797,-27.05055],[-52.56748,-27.05057],[-52.56739,-27.05058],[-52.5669,-27.05064],[-52.56671,-27.05069],[-52.56627,-27.05083],[-52.56607,-27.05092],[-52.56599,-27.05097],[-52.5658,-27.05102],[-52.56549,-27.05106],[-52.56547,-27.05106],[-52.56532,-27.05098],[-52.56528,-27.05096],[-52.56501,-27.05084],[-52.56475,-27.05071],[-52.56458,-27.05064],[-52.5644,-27.0506],[-52.56422,-27.0506],[-52.56389,-27.05062],[-52.56369,-27.05066],[-52.56343,-27.05073],[-52.56329,-27.0507],[-52.56298,-27.0506],[-52.56284,-27.05057],[-52.56244,-27.0505],[-52.56228,-27.05049],[-52.56189,-27.05048],[-52.56154,-27.05047],[-52.56099,-27.05043],[-52.56088,-27.05043],[-52.56062,-27.05043],[-52.56047,-27.05045],[-52.56033,-27.05048],[-52.56011,-27.05056],[-52.55993,-27.05064],[-52.55978,-27.05075],[-52.5595,-27.05098],[-52.55945,-27.05103],[-52.55935,-27.05113],[-52.55919,-27.05124],[-52.55917,-27.05126],[-52.55864,-27.05167],[-52.55863,-27.05167],[-52.55838,-27.05187],[-52.55814,-27.05206],[-52.558,-27.05219],[-52.55789,-27.05234],[-52.55783,-27.05244],[-52.55767,-27.05261],[-52.55739,-27.0528],[-52.55733,-27.05285],[-52.55703,-27.05309],[-52.55679,-27.05324],[-52.55676,-27.05327],[-52.55637,-27.05355],[-52.55622,-27.05367],[-52.55611,-27.05382],[-52.55602,-27.05399],[-52.55596,-27.05412],[-52.55591,-27.0543],[-52.55589,-27.05448],[-52.55591,-27.05466],[-52.55594,-27.05488],[-52.55595,-27.0549],[-52.55597,-27.05502],[-52.55594,-27.05511],[-52.55592,-27.05521],[-52.55591,-27.05527],[-52.55586,-27.05537],[-52.55576,-27.05552],[-52.55566,-27.05567],[-52.55536,-27.0561],[-52.55503,-27.05654],[-52.55499,-27.05661],[-52.55485,-27.05683],[-52.5548,-27.05691],[-52.5545,-27.0575],[-52.55437,-27.05774],[-52.55431,-27.05782],[-52.55431,-27.05782],[-52.55382,-27.05807],[-52.55373,-27.05813],[-52.5535,-27.05828],[-52.55334,-27.05842],[-52.55321,-27.05859],[-52.55311,-27.05878],[-52.55307,-27.0589],[-52.55303,-27.05906],[-52.55301,-27.05924],[-52.55303,-27.05941],[-52.55307,-27.05957],[-52.55316,-27.05981],[-52.55323,-27.05997],[-52.55333,-27.06011],[-52.55345,-27.06023],[-52.55361,-27.06037],[-52.55377,-27.06048],[-52.55395,-27.06056],[-52.55416,-27.06063],[-52.55441,-27.06068],[-52.55469,-27.0607],[-52.55487,-27.0607],[-52.55521,-27.06066],[-52.55541,-27.06061],[-52.5556,-27.06053],[-52.55579,-27.06042],[-52.55598,-27.06027],[-52.55603,-27.06023],[-52.55606,-27.06021],[-52.55644,-27.06013],[-52.55645,-27.06013],[-52.55694,-27.06003],[-52.557,-27.06001],[-52.55755,-27.05986],[-52.55761,-27.05984],[-52.55798,-27.05971],[-52.55815,-27.05966],[-52.55829,-27.05961],[-52.55879,-27.05939],[-52.55923,-27.05919],[-52.55951,-27.05909],[-52.55989,-27.059],[-52.56012,-27.05897],[-52.56013,-27.05897],[-52.56035,-27.05894],[-52.56046,-27.05895],[-52.56072,-27.05902],[-52.56072,-27.05902],[-52.56107,-27.05912],[-52.56131,-27.05921],[-52.56143,-27.05925],[-52.56161,-27.05929],[-52.5616,-27.05932],[-52.56141,-27.05965],[-52.56133,-27.05975],[-52.56104,-27.06007],[-52.56085,-27.06025],[-52.56054,-27.06054],[-52.56036,-27.06065],[-52.55996,-27.06073],[-52.55996,-27.06073],[-52.55953,-27.06082],[-52.55935,-27.06088],[-52.55911,-27.06098],[-52.5589,-27.06109],[-52.55873,-27.06125],[-52.55862,-27.06138],[-52.55848,-27.06152],[-52.55821,-27.06174],[-52.55809,-27.06186],[-52.55799,-27.06201],[-52.5578,-27.06233],[-52.55779,-27.06235],[-52.55769,-27.06242],[-52.55749,-27.06252],[-52.55703,-27.06268],[-52.55658,-27.0628],[-52.55653,-27.06282],[-52.55608,-27.06297],[-52.55607,-27.06298],[-52.55578,-27.06308],[-52.55561,-27.06316],[-52.55545,-27.06326],[-52.5553,-27.0634],[-52.55524,-27.06345],[-52.55491,-27.06378],[-52.55481,-27.06391],[-52.55448,-27.06436],[-52.55447,-27.06439],[-52.55433,-27.0646],[-52.55427,-27.0647],[-52.554,-27.06522],[-52.55391,-27.06547],[-52.55382,-27.06591],[-52.55381,-27.06601],[-52.55379,-27.06621],[-52.55374,-27.06644],[-52.55372,-27.06664],[-52.55372,-27.06686],[-52.55372,-27.06698],[-52.55375,-27.06717],[-52.55374,-27.06733],[-52.55372,-27.06753],[-52.55373,-27.06775],[-52.55378,-27.06797],[-52.55385,-27.06809],[-52.55377,-27.06815],[-52.55375,-27.06818],[-52.55345,-27.06845],[-52.55341,-27.06849],[-52.55315,-27.06875],[-52.55274,-27.06912],[-52.55274,-27.06913],[-52.55244,-27.06939],[-52.5519,-27.06987],[-52.55189,-27.06988],[-52.55168,-27.07006],[-52.55127,-27.07034],[-52.55125,-27.07035],[-52.55113,-27.07029],[-52.55095,-27.07023],[-52.55067,-27.0701],[-52.55063,-27.07009],[-52.55024,-27.06993],[-52.54986,-27.06973],[-52.54957,-27.06957],[-52.54949,-27.06953],[-52.54926,-27.06942],[-52.54904,-27.06935],[-52.54881,-27.06934],[-52.54859,-27.06934],[-52.54841,-27.06937],[-52.54817,-27.06942],[-52.54803,-27.06946],[-52.5479,-27.06952],[-52.54775,-27.0696],[-52.54754,-27.06966],[-52.54743,-27.0697],[-52.54711,-27.06983],[-52.54697,-27.0699],[-52.54682,-27.06967],[-52.54658,-27.06922],[-52.54655,-27.06915],[-52.54639,-27.06889],[-52.5462,-27.06867],[-52.54607,-27.06855],[-52.54587,-27.06842],[-52.54566,-27.06833],[-52.54547,-27.06829],[-52.5453,-27.06826],[-52.54512,-27.06826],[-52.54495,-27.06829],[-52.54478,-27.06835],[-52.54466,-27.06841],[-52.54451,-27.06851],[-52.54437,-27.06862],[-52.54426,-27.06877],[-52.54415,-27.06894],[-52.54408,-27.06905],[-52.54396,-27.0693],[-52.54381,-27.06946],[-52.54379,-27.06949],[-52.54365,-27.06965],[-52.54343,-27.06986],[-52.54319,-27.0701],[-52.54309,-27.07021],[-52.5429,-27.07046],[-52.54283,-27.07056],[-52.54271,-27.07078],[-52.54263,-27.07094],[-52.54252,-27.07123],[-52.54251,-27.07126],[-52.54238,-27.07166],[-52.54234,-27.07179],[-52.54228,-27.07213],[-52.54222,-27.07245],[-52.54211,-27.07253],[-52.54197,-27.0727],[-52.54188,-27.07285],[-52.54187,-27.07287],[-52.54175,-27.07306],[-52.54152,-27.07334],[-52.54144,-27.07346],[-52.54134,-27.07362],[-52.54119,-27.07382],[-52.54072,-27.07434],[-52.54065,-27.07444],[-52.54049,-27.07466],[-52.54019,-27.07497],[-52.54009,-27.07505],[-52.5399,-27.07516],[-52.53985,-27.0752],[-52.53971,-27.0753],[-52.53957,-27.07541],[-52.53946,-27.07555],[-52.53936,-27.07571],[-52.5393,-27.07581],[-52.53919,-27.07601],[-52.53913,-27.07616],[-52.53901,-27.07651],[-52.539,-27.07653],[-52.53895,-27.07669],[-52.53894,-27.07666],[-52.53879,-27.07645],[-52.53864,-27.07606],[-52.53864,-27.07605],[-52.53843,-27.07551],[-52.53841,-27.07548],[-52.5382,-27.07497],[-52.53815,-27.07485],[-52.53815,-27.07478],[-52.53814,-27.07469],[-52.53812,-27.0745],[-52.53804,-27.07424],[-52.538,-27.07415],[-52.53798,-27.07393],[-52.53798,-27.07389],[-52.53795,-27.07362],[-52.53792,-27.07349],[-52.53782,-27.07309],[-52.53774,-27.07288],[-52.53761,-27.07269],[-52.53746,-27.07252],[-52.53731,-27.07238],[-52.53713,-27.07227],[-52.53694,-27.0722],[-52.53673,-27.07218],[-52.53647,-27.07217],[-52.53622,-27.07219],[-52.536,-27.07227],[-52.53584,-27.07235],[-52.53565,-27.07247],[-52.53537,-27.0727],[-52.53511,-27.07289],[-52.5351,-27.0729],[-52.53481,-27.07312],[-52.53459,-27.07327],[-52.53444,-27.0734],[-52.53421,-27.07362],[-52.53405,-27.07377],[-52.53371,-27.07401],[-52.53325,-27.07434],[-52.53325,-27.07435],[-52.5328,-27.07467],[-52.5328,-27.07467],[-52.53251,-27.07488],[-52.53239,-27.07498],[-52.53228,-27.07511],[-52.53213,-27.07532],[-52.53201,-27.07555],[-52.53195,-27.07573],[-52.5318,-27.07608],[-52.53177,-27.07617],[-52.53163,-27.07661],[-52.53159,-27.07678],[-52.53157,-27.07701],[-52.53157,-27.07723],[-52.53159,-27.07743],[-52.53159,-27.07749],[-52.53164,-27.07775],[-52.53164,-27.07813],[-52.53165,-27.07825],[-52.53168,-27.0785],[-52.53169,-27.0786],[-52.53168,-27.07866],[-52.53165,-27.07869],[-52.53144,-27.07893],[-52.53114,-27.0792],[-52.53087,-27.0794],[-52.53071,-27.07949],[-52.53068,-27.0795],[-52.53048,-27.07953],[-52.53013,-27.07954],[-52.52975,-27.07953],[-52.52961,-27.0795],[-52.52945,-27.07943],[-52.5293,-27.07932],[-52.52901,-27.079],[-52.52897,-27.07895],[-52.52863,-27.07863],[-52.52841,-27.07846],[-52.52814,-27.07832],[-52.52796,-27.07824],[-52.52757,-27.07813],[-52.52747,-27.0781],[-52.52708,-27.07802],[-52.52663,-27.07792],[-52.52648,-27.07789],[-52.52633,-27.07789],[-52.526,-27.07791],[-52.5258,-27.07794],[-52.52522,-27.07809],[-52.52502,-27.07816],[-52.5247,-27.07833],[-52.52466,-27.07835],[-52.52432,-27.07854],[-52.52404,-27.07867],[-52.52386,-27.07878],[-52.52368,-27.07893],[-52.5235,-27.0791],[-52.52338,-27.07925],[-52.52329,-27.07938],[-52.52322,-27.07953],[-52.52314,-27.07976],[-52.52294,-27.08025],[-52.52284,-27.08044],[-52.5227,-27.08058],[-52.52244,-27.08083],[-52.52234,-27.08093],[-52.52218,-27.08115],[-52.52205,-27.08126],[-52.52187,-27.08139],[-52.52176,-27.08143],[-52.52153,-27.08147],[-52.52113,-27.08152],[-52.52087,-27.0815],[-52.52085,-27.0815],[-52.52052,-27.08147],[-52.52011,-27.08141],[-52.52009,-27.08141],[-52.51972,-27.08136],[-52.51959,-27.08135],[-52.51887,-27.08135],[-52.51875,-27.08135],[-52.51843,-27.08139],[-52.518,-27.08141],[-52.5177,-27.08138],[-52.5177,-27.08138],[-52.51747,-27.08136],[-52.51733,-27.08135],[-52.51713,-27.08136],[-52.51697,-27.08138],[-52.51681,-27.08142],[-52.51628,-27.08163],[-52.51606,-27.08174],[-52.51579,-27.08193],[-52.51573,-27.08198],[-52.5155,-27.08216],[-52.51543,-27.08222],[-52.5153,-27.08235],[-52.51519,-27.08241],[-52.51477,-27.08262],[-52.51419,-27.08289],[-52.51406,-27.08296],[-52.51361,-27.08326],[-52.51355,-27.0833],[-52.51326,-27.08352],[-52.51314,-27.08363],[-52.51294,-27.08384],[-52.51281,-27.08402],[-52.51272,-27.08422],[-52.51267,-27.08439],[-52.51262,-27.08466],[-52.51261,-27.08481],[-52.51262,-27.085],[-52.51267,-27.08517],[-52.51273,-27.08536],[-52.51287,-27.08562],[-52.51296,-27.08575],[-52.51309,-27.0859],[-52.51325,-27.08602],[-52.51342,-27.0861],[-52.5137,-27.08621],[-52.51372,-27.08622],[-52.51395,-27.0863],[-52.51416,-27.08639],[-52.51436,-27.08646],[-52.51448,-27.08649],[-52.51461,-27.08654],[-52.51464,-27.08655],[-52.51497,-27.08668],[-52.5156,-27.08692],[-52.51568,-27.08694],[-52.51589,-27.08701],[-52.51591,-27.08702],[-52.51607,-27.08714],[-52.5162,-27.08722],[-52.51631,-27.08728],[-52.51632,-27.08728],[-52.51643,-27.08743],[-52.51651,-27.0876],[-52.51661,-27.08776],[-52.51673,-27.08792],[-52.51676,-27.08796],[-52.51685,-27.08808],[-52.51678,-27.08817],[-52.51645,-27.08851],[-52.51617,-27.08875],[-52.5161,-27.08882],[-52.51605,-27.08886],[-52.51597,-27.08889],[-52.51597,-27.0889],[-52.5157,-27.089],[-52.51555,-27.08907],[-52.51541,-27.08917],[-52.51529,-27.08928],[-52.51514,-27.08947],[-52.51503,-27.08962],[-52.51483,-27.08997],[-52.5148,-27.09002],[-52.51463,-27.09037],[-52.51456,-27.09056],[-52.51449,-27.09081],[-52.51446,-27.09096],[-52.51443,-27.09128],[-52.51443,-27.09149],[-52.51447,-27.09194],[-52.51451,-27.09211],[-52.51462,-27.09249],[-52.51466,-27.09259],[-52.51474,-27.09279],[-52.51484,-27.0931],[-52.51496,-27.09349],[-52.51498,-27.09353],[-52.51478,-27.09344],[-52.51454,-27.09328],[-52.51409,-27.09297],[-52.51366,-27.09261],[-52.5136,-27.09256],[-52.51319,-27.09226],[-52.51317,-27.09225],[-52.51288,-27.09204],[-52.51274,-27.09196],[-52.51258,-27.0919],[-52.51221,-27.0918],[-52.51192,-27.09177],[-52.51148,-27.09177],[-52.5112,-27.09182],[-52.51082,-27.09194],[-52.51071,-27.09198],[-52.51029,-27.09217],[-52.51007,-27.09227],[-52.50969,-27.0924],[-52.5091,-27.09251],[-52.50858,-27.09258],[-52.50837,-27.09264],[-52.50818,-27.09273],[-52.50802,-27.09287],[-52.50788,-27.09303],[-52.50766,-27.09338],[-52.50671,-27.09399],[-52.50508,-27.09489],[-52.50156,-27.09677],[-52.50149,-27.09681],[-52.49689,-27.09976],[-52.49687,-27.09977],[-52.4938,-27.10183],[-52.49234,-27.10278],[-52.49229,-27.10282],[-52.48941,-27.10498],[-52.48634,-27.10681],[-52.48427,-27.10774],[-52.48422,-27.10777],[-52.4822,-27.1088],[-52.48205,-27.1089],[-52.48192,-27.10902],[-52.48182,-27.10916],[-52.48173,-27.10932],[-52.48133,-27.11031],[-52.48095,-27.11037],[-52.48077,-27.11041],[-52.48052,-27.1105],[-52.48034,-27.11059],[-52.48018,-27.11071],[-52.48004,-27.11086],[-52.47994,-27.11103],[-52.47984,-27.11125],[-52.47978,-27.11143],[-52.47975,-27.11163],[-52.47977,-27.11182],[-52.47983,-27.11221],[-52.47985,-27.11229],[-52.47991,-27.11254],[-52.47999,-27.11274],[-52.48011,-27.11293],[-52.48024,-27.11305],[-52.48031,-27.11317],[-52.48045,-27.11333],[-52.48062,-27.11346],[-52.4808,-27.11357],[-52.48091,-27.11362],[-52.48129,-27.11378],[-52.48147,-27.11384],[-52.48198,-27.11395],[-52.48225,-27.11397],[-52.48276,-27.11394],[-52.48278,-27.11394],[-52.48338,-27.11389],[-52.48353,-27.11387],[-52.48399,-27.11376],[-52.48489,-27.11375],[-52.48561,-27.11386],[-52.48688,-27.11431],[-52.48778,-27.11469],[-52.48791,-27.11474],[-52.48859,-27.11492],[-52.48872,-27.11495],[-52.48941,-27.11504],[-52.49012,-27.11524],[-52.49031,-27.11527],[-52.49104,-27.11533],[-52.49117,-27.11533],[-52.49182,-27.11529],[-52.49196,-27.11527],[-52.49262,-27.11514],[-52.49278,-27.11509],[-52.49323,-27.11492],[-52.49327,-27.1149],[-52.49522,-27.11406],[-52.49673,-27.11345],[-52.49813,-27.1132],[-52.49914,-27.1131],[-52.49946,-27.11309],[-52.49954,-27.1133],[-52.49959,-27.11363],[-52.49962,-27.11377],[-52.49977,-27.11425],[-52.49982,-27.11438],[-52.50012,-27.11502],[-52.50018,-27.11513],[-52.5005,-27.11564],[-52.50067,-27.11585],[-52.50117,-27.1163],[-52.50133,-27.11643],[-52.50173,-27.11666],[-52.5018,-27.11671],[-52.503,-27.11729],[-52.50475,-27.11817],[-52.50484,-27.11825],[-52.50482,-27.11829],[-52.50468,-27.11837],[-52.5043,-27.11855],[-52.50421,-27.11859],[-52.50384,-27.11881],[-52.50371,-27.1189],[-52.50359,-27.11902],[-52.50314,-27.11954],[-52.50302,-27.1197],[-52.50247,-27.12069],[-52.50244,-27.12074],[-52.50224,-27.12117],[-52.5022,-27.12124],[-52.50191,-27.122],[-52.50188,-27.12207],[-52.50106,-27.12476],[-52.50103,-27.12493],[-52.50091,-27.12585],[-52.50072,-27.12644],[-52.50041,-27.12707],[-52.49996,-27.12754],[-52.49937,-27.12795],[-52.49814,-27.12845],[-52.49795,-27.12855],[-52.4976,-27.12879],[-52.49607,-27.12932],[-52.49569,-27.12941],[-52.4955,-27.12948],[-52.49279,-27.13071],[-52.49273,-27.13074],[-52.49014,-27.13211],[-52.49006,-27.13216],[-52.48903,-27.13283],[-52.48886,-27.13297],[-52.48806,-27.13378],[-52.48789,-27.134],[-52.4876,-27.13454],[-52.48751,-27.13476],[-52.48743,-27.13507],[-52.4874,-27.13524],[-52.4874,-27.13542],[-52.48743,-27.1356],[-52.48751,-27.13587],[-52.4876,-27.13609],[-52.48773,-27.13631],[-52.48777,-27.13646],[-52.48779,-27.13655],[-52.48729,-27.1381],[-52.48726,-27.13824],[-52.48698,-27.13993],[-52.48696,-27.1401],[-52.48698,-27.14027],[-52.48717,-27.14133],[-52.48722,-27.1415],[-52.48741,-27.14202],[-52.48747,-27.14216],[-52.48756,-27.14229],[-52.48787,-27.14268],[-52.48805,-27.14286],[-52.48835,-27.14308],[-52.48853,-27.14319],[-52.48927,-27.14353],[-52.48946,-27.1436],[-52.48966,-27.14363],[-52.49013,-27.14364],[-52.49022,-27.14364],[-52.49236,-27.14352],[-52.49476,-27.14358],[-52.49639,-27.14383],[-52.49802,-27.14424],[-52.49882,-27.14444],[-52.49944,-27.1447],[-52.49948,-27.14472],[-52.50019,-27.14497],[-52.50044,-27.14503],[-52.501,-27.14508],[-52.50115,-27.14508],[-52.5013,-27.14506],[-52.50249,-27.14481],[-52.50256,-27.14479],[-52.50352,-27.14452],[-52.5037,-27.14446],[-52.50423,-27.14419],[-52.50447,-27.14403],[-52.5058,-27.1428],[-52.50714,-27.14166],[-52.50805,-27.14105],[-52.50839,-27.14091],[-52.50839,-27.14106],[-52.50834,-27.14147],[-52.50814,-27.14219],[-52.50811,-27.14231],[-52.508,-27.14301],[-52.50799,-27.14308],[-52.50791,-27.14387],[-52.50791,-27.14393],[-52.50789,-27.14456],[-52.50791,-27.14478],[-52.508,-27.14528],[-52.50804,-27.14542],[-52.5081,-27.14556],[-52.50836,-27.14605],[-52.50845,-27.1462],[-52.50856,-27.14632],[-52.50915,-27.14688],[-52.50927,-27.14697],[-52.5094,-27.14705],[-52.51015,-27.14741],[-52.51033,-27.14748],[-52.51082,-27.1476],[-52.51095,-27.14763],[-52.51169,-27.14772],[-52.51191,-27.14772],[-52.51251,-27.14767],[-52.51291,-27.14769],[-52.51464,-27.14805],[-52.5147,-27.14806],[-52.51653,-27.14833],[-52.51608,-27.14846],[-52.51586,-27.14854],[-52.51333,-27.14992],[-52.51073,-27.15126],[-52.5106,-27.15135],[-52.50877,-27.1527],[-52.50871,-27.15275],[-52.50706,-27.1542],[-52.50695,-27.15431],[-52.50574,-27.15574],[-52.50567,-27.15584],[-52.50493,-27.15698],[-52.50482,-27.15721],[-52.5047,-27.15756],[-52.50466,-27.15776],[-52.50466,-27.15796],[-52.5047,-27.15847],[-52.50473,-27.15864],[-52.5048,-27.15881],[-52.505,-27.15923],[-52.50512,-27.15942],[-52.50528,-27.15958],[-52.50561,-27.15984],[-52.50576,-27.15993],[-52.50592,-27.16],[-52.5063,-27.16012],[-52.50657,-27.16025],[-52.50674,-27.16037],[-52.50691,-27.16047],[-52.50709,-27.16053],[-52.50729,-27.16055],[-52.50834,-27.16058],[-52.50905,-27.1607],[-52.50972,-27.16094],[-52.51019,-27.16129],[-52.51209,-27.16303],[-52.51399,-27.16509],[-52.51418,-27.16525],[-52.51508,-27.16584],[-52.51528,-27.16594],[-52.5162,-27.16627],[-52.51623,-27.16628],[-52.51718,-27.16659],[-52.5174,-27.16663],[-52.51825,-27.1667],[-52.51841,-27.1667],[-52.51927,-27.16664],[-52.51948,-27.1666],[-52.52111,-27.16611],[-52.5225,-27.16583],[-52.52272,-27.16583],[-52.52284,-27.1659],[-52.52288,-27.16595],[-52.52293,-27.16614],[-52.52284,-27.16665],[-52.52269,-27.16717],[-52.52166,-27.16876],[-52.52164,-27.1688],[-52.5214,-27.1692],[-52.52134,-27.16933],[-52.52129,-27.16948],[-52.52091,-27.17114],[-52.5209,-27.17115],[-52.52063,-27.17236],[-52.52041,-27.17301],[-52.51944,-27.17464],[-52.51842,-27.17632],[-52.51835,-27.17647],[-52.5183,-27.17662],[-52.51819,-27.17711],[-52.51817,-27.1773],[-52.51818,-27.1775],[-52.51826,-27.17797],[-52.51831,-27.17814],[-52.51838,-27.1783],[-52.51863,-27.17873],[-52.5187,-27.17883],[-52.51897,-27.17919],[-52.51908,-27.17931],[-52.51921,-27.17942],[-52.51936,-27.1795],[-52.52009,-27.17982],[-52.52028,-27.17989],[-52.52126,-27.18011],[-52.5214,-27.18013],[-52.52248,-27.18022],[-52.5227,-27.18021],[-52.52348,-27.1801],[-52.52359,-27.18008],[-52.52581,-27.17949],[-52.52587,-27.17948],[-52.52549,-27.17984],[-52.52539,-27.17995],[-52.52428,-27.18134],[-52.52411,-27.18154],[-52.52401,-27.18166],[-52.52296,-27.18331],[-52.52286,-27.18351],[-52.5222,-27.18537],[-52.52173,-27.18656],[-52.51961,-27.18928],[-52.51879,-27.18994],[-52.51832,-27.19011],[-52.51784,-27.1901],[-52.51697,-27.18978],[-52.51525,-27.18902],[-52.51507,-27.18896],[-52.51488,-27.18893],[-52.51385,-27.18889],[-52.51363,-27.18891],[-52.51342,-27.18897],[-52.51323,-27.18908],[-52.51289,-27.18932],[-52.51275,-27.18944],[-52.51263,-27.18959],[-52.51254,-27.18977],[-52.51249,-27.18995],[-52.51237,-27.19064],[-52.51235,-27.19083],[-52.51237,-27.19101],[-52.51243,-27.1912],[-52.51278,-27.19206],[-52.51289,-27.19226],[-52.51318,-27.19266],[-52.51331,-27.19281],[-52.51414,-27.19358],[-52.51427,-27.19368],[-52.51441,-27.19376],[-52.51578,-27.19439],[-52.51592,-27.19444],[-52.51914,-27.19538],[-52.51958,-27.19573],[-52.52002,-27.19634],[-52.52014,-27.19686],[-52.52007,-27.19761],[-52.51933,-27.19951],[-52.51928,-27.19965],[-52.51926,-27.1998],[-52.51911,-27.20198],[-52.51911,-27.20213],[-52.51917,-27.2028],[-52.5192,-27.20298],[-52.51927,-27.20316],[-52.51967,-27.20393],[-52.51973,-27.20405],[-52.52102,-27.20592],[-52.52189,-27.20742],[-52.52193,-27.20748],[-52.52244,-27.20824],[-52.52255,-27.20838],[-52.52268,-27.20849],[-52.52324,-27.2089],[-52.5234,-27.209],[-52.52356,-27.20906],[-52.52424,-27.20925],[-52.5244,-27.20928],[-52.52456,-27.20929],[-52.52541,-27.20924],[-52.52555,-27.20923],[-52.52725,-27.20888],[-52.52813,-27.20874],[-52.52872,-27.20875],[-52.52932,-27.20889],[-52.53213,-27.21012],[-52.53313,-27.21071],[-52.53388,-27.21141],[-52.5343,-27.21194],[-52.53439,-27.21228],[-52.53438,-27.21264],[-52.53395,-27.21381],[-52.53391,-27.21396],[-52.53369,-27.215],[-52.53367,-27.21523],[-52.5337,-27.21619],[-52.53373,-27.21638],[-52.53379,-27.21657],[-52.5342,-27.21749],[-52.53428,-27.21764],[-52.53439,-27.21777],[-52.53506,-27.21848],[-52.53523,-27.21863],[-52.53543,-27.21873],[-52.53747,-27.21949],[-52.53764,-27.21954],[-52.53975,-27.21992],[-52.53986,-27.21994],[-52.54182,-27.22007],[-52.54239,-27.22017],[-52.54293,-27.22036],[-52.54338,-27.22067],[-52.54343,-27.22075],[-52.54341,-27.2208],[-52.54241,-27.22193],[-52.54228,-27.22211],[-52.5406,-27.22514],[-52.53637,-27.22997],[-52.53627,-27.23011],[-52.53571,-27.23103],[-52.53562,-27.2312],[-52.53557,-27.2314],[-52.53543,-27.23233],[-52.53542,-27.23255],[-52.53546,-27.23276],[-52.53563,-27.23336],[-52.53569,-27.23352],[-52.53577,-27.23366],[-52.53646,-27.23465],[-52.5366,-27.2348],[-52.53676,-27.23493],[-52.53695,-27.23502],[-52.53715,-27.23506],[-52.53761,-27.23513],[-52.53782,-27.23513],[-52.53876,-27.23506],[-52.54054,-27.23501],[-52.54232,-27.23509],[-52.54314,-27.23529],[-52.54346,-27.2355],[-52.54359,-27.23574],[-52.54359,-27.23587],[-52.54324,-27.23667],[-52.54323,-27.2367],[-52.54281,-27.23777],[-52.54276,-27.23792],[-52.54274,-27.23809],[-52.54269,-27.23926],[-52.5427,-27.23943],[-52.54273,-27.23961],[-52.54289,-27.2401],[-52.54296,-27.24027],[-52.54305,-27.24041],[-52.54317,-27.24054],[-52.54331,-27.24065],[-52.54441,-27.24133],[-52.54457,-27.24142],[-52.54476,-27.24147],[-52.54494,-27.24149],[-52.54513,-27.24147],[-52.54531,-27.24141],[-52.54548,-27.24133],[-52.54702,-27.24033],[-52.54869,-27.23969],[-52.54964,-27.23947],[-52.55081,-27.2395],[-52.55141,-27.23968],[-52.55233,-27.24033],[-52.55398,-27.24203],[-52.55772,-27.24701],[-52.55782,-27.24713],[-52.55794,-27.24722],[-52.55994,-27.24867],[-52.56013,-27.24877],[-52.56249,-27.2498],[-52.56267,-27.24985],[-52.56574,-27.25054],[-52.56589,-27.25056],[-52.56605,-27.25056],[-52.56911,-27.2503],[-52.56917,-27.25029],[-52.57738,-27.24908],[-52.57746,-27.24907],[-52.58198,-27.24803],[-52.58639,-27.24772],[-52.58854,-27.24833],[-52.59032,-27.2493],[-52.59073,-27.24958],[-52.59562,-27.25387],[-52.59728,-27.25539],[-52.60259,-27.26027],[-52.60267,-27.26033],[-52.60631,-27.26304],[-52.60643,-27.26312],[-52.61081,-27.26544],[-52.61103,-27.26552],[-52.61887,-27.26752],[-52.61912,-27.26755],[-52.63045,-27.26755],[-52.6307,-27.26752],[-52.63762,-27.26572],[-52.63767,-27.2657],[-52.6437,-27.26374],[-52.64389,-27.26366],[-52.64581,-27.26256],[-52.64601,-27.2624],[-52.64699,-27.26145],[-52.6471,-27.26132],[-52.64719,-27.26117],[-52.64847,-27.25854],[-52.64856,-27.25829],[-52.64928,-27.25454],[-52.65057,-27.25106],[-52.65244,-27.2474],[-52.65437,-27.24378],[-52.65714,-27.24116],[-52.6604,-27.23926],[-52.66282,-27.23873],[-52.66477,-27.23881],[-52.66772,-27.23965],[-52.67048,-27.24096],[-52.67159,-27.24212],[-52.67382,-27.24475],[-52.67556,-27.24771],[-52.67615,-27.25291],[-52.67617,-27.25814],[-52.67618,-27.25823],[-52.67673,-27.2645],[-52.67677,-27.26471],[-52.67837,-27.2699],[-52.67839,-27.26998],[-52.68081,-27.27602],[-52.68089,-27.27619],[-52.68294,-27.27945],[-52.6831,-27.27964],[-52.68609,-27.28249],[-52.68625,-27.28261],[-52.68945,-27.28462],[-52.68967,-27.28472],[-52.6916,-27.28533],[-52.69187,-27.28538],[-52.69415,-27.28545],[-52.69434,-27.28544],[-52.69452,-27.28539],[-52.69765,-27.28426],[-52.6979,-27.28413],[-52.70131,-27.28168],[-52.70143,-27.28158],[-52.70531,-27.27779],[-52.70545,-27.27763],[-52.70554,-27.27745],[-52.70725,-27.27326],[-52.70729,-27.27312],[-52.70732,-27.27297],[-52.70765,-27.26916],[-52.70764,-27.2689],[-52.70668,-27.26346],[-52.70639,-27.25895],[-52.70697,-27.25549],[-52.70984,-27.24927],[-52.70987,-27.24919],[-52.71219,-27.24278],[-52.71365,-27.2398],[-52.71575,-27.23778],[-52.71991,-27.23662],[-52.72303,-27.23648],[-52.72648,-27.23749],[-52.72953,-27.23967],[-52.73219,-27.24308],[-52.73412,-27.24652],[-52.73565,-27.25055],[-52.73571,-27.25067],[-52.73755,-27.25411],[-52.73768,-27.25429],[-52.7399,-27.25682],[-52.7401,-27.25698],[-52.7435,-27.25927],[-52.74364,-27.25935],[-52.74379,-27.2594],[-52.74693,-27.26028],[-52.74717,-27.26031],[-52.75135,-27.26039],[-52.75161,-27.26037],[-52.75565,-27.25939],[-52.75585,-27.25931],[-52.75603,-27.25921],[-52.7586,-27.25722],[-52.75878,-27.25704],[-52.76089,-27.25432],[-52.76096,-27.25423],[-52.76206,-27.2524],[-52.76215,-27.25218],[-52.76373,-27.24719],[-52.76377,-27.24702],[-52.76378,-27.24686],[-52.7636,-27.24102],[-52.76357,-27.24078],[-52.76099,-27.23173],[-52.76098,-27.2317],[-52.75903,-27.22567],[-52.7583,-27.22236],[-52.75829,-27.21996],[-52.75896,-27.21684],[-52.76016,-27.2147],[-52.76281,-27.21277],[-52.76655,-27.21089],[-52.78642,-27.20728],[-52.78661,-27.20723],[-52.78679,-27.20713],[-52.78695,-27.20701],[-52.78707,-27.20685],[-52.78717,-27.20667],[-52.78722,-27.20648],[-52.78724,-27.20628],[-52.78722,-27.20608],[-52.78715,-27.20589],[-52.78705,-27.20571],[-52.78538,-27.20341],[-52.78516,-27.20311],[-52.78496,-27.20177],[-52.78464,-27.19923],[-52.78915,-27.19464],[-52.78928,-27.19447],[-52.78937,-27.19429],[-52.78943,-27.19408],[-52.78943,-27.19388],[-52.7894,-27.19367],[-52.78933,-27.19348],[-52.78921,-27.1933],[-52.78906,-27.19316],[-52.78758,-27.19196],[-52.78738,-27.19184],[-52.78717,-27.19176],[-52.78694,-27.19174],[-52.78432,-27.19175],[-52.78121,-27.19158],[-52.77802,-27.19133],[-52.77799,-27.19133],[-52.77705,-27.19129],[-52.77703,-27.19129],[-52.77713,-27.19062],[-52.77736,-27.18916],[-52.77737,-27.18893],[-52.77732,-27.18827],[-52.7773,-27.18812],[-52.77715,-27.18745],[-52.7771,-27.18729],[-52.77702,-27.18713],[-52.77691,-27.18699],[-52.77679,-27.18688],[-52.7754,-27.18581],[-52.77502,-27.18538],[-52.77487,-27.18525],[-52.7747,-27.18514],[-52.77424,-27.18493],[-52.77406,-27.18487],[-52.77387,-27.18484],[-52.77363,-27.18482],[-52.77341,-27.18483],[-52.77321,-27.18489],[-52.77302,-27.18498],[-52.77135,-27.18608],[-52.77131,-27.1861],[-52.77062,-27.18659],[-52.76963,-27.18713],[-52.76909,-27.18742],[-52.76771,-27.18781],[-52.76606,-27.18775],[-52.76599,-27.18775],[-52.76488,-27.18778],[-52.76476,-27.18779],[-52.76308,-27.18805],[-52.76287,-27.18811],[-52.76268,-27.18821],[-52.76183,-27.18877],[-52.75985,-27.18957],[-52.75896,-27.1899],[-52.7589,-27.18993],[-52.75725,-27.19068],[-52.75685,-27.19083],[-52.75669,-27.19085],[-52.75667,-27.19083],[-52.75627,-27.19058],[-52.75618,-27.19051],[-52.75586,-27.18991],[-52.75585,-27.18988],[-52.75564,-27.18952],[-52.75555,-27.18938],[-52.75544,-27.18926],[-52.7553,-27.18917],[-52.75496,-27.18895],[-52.75484,-27.18889],[-52.75466,-27.18881],[-52.75438,-27.18873],[-52.75417,-27.1887],[-52.75405,-27.1887],[-52.75385,-27.1887],[-52.75361,-27.18873],[-52.75339,-27.18881],[-52.7532,-27.18891],[-52.75314,-27.18894],[-52.75287,-27.18912],[-52.75282,-27.18915],[-52.75258,-27.18932],[-52.75242,-27.18938],[-52.75155,-27.18964],[-52.75062,-27.18976],[-52.75013,-27.18976],[-52.74971,-27.18971],[-52.74956,-27.18965],[-52.74943,-27.18941],[-52.74941,-27.18928],[-52.74945,-27.18889],[-52.74945,-27.18889],[-52.74949,-27.18856],[-52.74949,-27.18834],[-52.74945,-27.18813],[-52.74932,-27.18773],[-52.74926,-27.187],[-52.74924,-27.18685],[-52.74919,-27.1867],[-52.74914,-27.18656],[-52.74935,-27.18614],[-52.74959,-27.18576],[-52.75003,-27.18534],[-52.75011,-27.18525],[-52.75059,-27.18466],[-52.75069,-27.18451],[-52.75089,-27.18415],[-52.75093,-27.18407],[-52.75099,-27.18393],[-52.75106,-27.18374],[-52.75111,-27.1835],[-52.75113,-27.1833],[-52.75111,-27.1831],[-52.75108,-27.18292],[-52.75101,-27.18271],[-52.7509,-27.18252],[-52.7508,-27.18238],[-52.75069,-27.18225],[-52.75056,-27.18214],[-52.75042,-27.18204],[-52.75022,-27.18194],[-52.75002,-27.18188],[-52.74977,-27.18183],[-52.74962,-27.18182],[-52.74947,-27.18183],[-52.7494,-27.18184],[-52.74931,-27.18182],[-52.74909,-27.18182],[-52.74905,-27.18182],[-52.74863,-27.1817],[-52.74916,-27.18146],[-52.74921,-27.18144],[-52.74962,-27.18123],[-52.74978,-27.18113],[-52.75014,-27.18085],[-52.75027,-27.18077],[-52.7503,-27.18075],[-52.75092,-27.18046],[-52.75108,-27.18037],[-52.75174,-27.1799],[-52.75211,-27.17969],[-52.75225,-27.17958],[-52.75266,-27.17923],[-52.75275,-27.17915],[-52.75313,-27.17874],[-52.75318,-27.17867],[-52.75333,-27.17848],[-52.75342,-27.17833],[-52.75359,-27.178],[-52.75366,-27.17783],[-52.7537,-27.17765],[-52.7537,-27.17747],[-52.75367,-27.17729],[-52.75355,-27.17681],[-52.75349,-27.17665],[-52.75341,-27.1765],[-52.75315,-27.17612],[-52.75303,-27.17597],[-52.75288,-27.17585],[-52.75192,-27.17521],[-52.75189,-27.17519],[-52.75138,-27.17488],[-52.75019,-27.17406],[-52.74953,-27.17342],[-52.7492,-27.17293],[-52.74911,-27.17281],[-52.74857,-27.17223],[-52.74843,-27.1721],[-52.74827,-27.17201],[-52.74805,-27.1719],[-52.7491,-27.17179],[-52.74928,-27.17175],[-52.74946,-27.17168],[-52.74962,-27.17158],[-52.74998,-27.1713],[-52.7501,-27.17119],[-52.75043,-27.17083],[-52.75056,-27.17065],[-52.75065,-27.17045],[-52.75069,-27.17023],[-52.75071,-27.16997],[-52.75071,-27.1698],[-52.75068,-27.16963],[-52.75062,-27.16947],[-52.75053,-27.16932],[-52.75018,-27.16882],[-52.75006,-27.16868],[-52.74983,-27.16846],[-52.74965,-27.16832],[-52.74866,-27.16772],[-52.74857,-27.16767],[-52.74778,-27.16729],[-52.74704,-27.16676],[-52.7468,-27.16663],[-52.74656,-27.16654],[-52.7459,-27.16599],[-52.74574,-27.16587],[-52.74521,-27.16559],[-52.74508,-27.16553],[-52.74493,-27.16549],[-52.74469,-27.16544],[-52.74446,-27.16531],[-52.74426,-27.16521],[-52.74403,-27.16517],[-52.74351,-27.16514],[-52.74326,-27.16515],[-52.74261,-27.16527],[-52.74234,-27.16536],[-52.742,-27.16553],[-52.74181,-27.16566],[-52.74166,-27.16582],[-52.74136,-27.16621],[-52.74122,-27.16646],[-52.74114,-27.16666],[-52.74109,-27.1669],[-52.74108,-27.1669],[-52.74092,-27.16686],[-52.74077,-27.16683],[-52.73916,-27.16662],[-52.73912,-27.16661],[-52.73765,-27.16648],[-52.73699,-27.16642],[-52.73683,-27.16641],[-52.73591,-27.16647],[-52.73547,-27.16646],[-52.7354,-27.16611],[-52.73537,-27.16583],[-52.73534,-27.16567],[-52.73528,-27.16551],[-52.7352,-27.16533],[-52.73522,-27.16509],[-52.73521,-27.16485],[-52.73514,-27.16461],[-52.735,-27.16428],[-52.73493,-27.16414],[-52.73484,-27.16401],[-52.73467,-27.16382],[-52.73453,-27.16369],[-52.7342,-27.16342],[-52.73403,-27.16332],[-52.73384,-27.16324],[-52.73364,-27.16321],[-52.73302,-27.16317],[-52.73281,-27.16318],[-52.73202,-27.1633],[-52.73198,-27.1633],[-52.73245,-27.16256],[-52.73252,-27.16243],[-52.73257,-27.16228],[-52.73273,-27.16167],[-52.73276,-27.16148],[-52.73275,-27.16128],[-52.73268,-27.16076],[-52.73264,-27.16056],[-52.73255,-27.16038],[-52.73243,-27.16022],[-52.73229,-27.16009],[-52.73211,-27.15998],[-52.7316,-27.15975],[-52.73141,-27.15968],[-52.73121,-27.15965],[-52.7303,-27.15962],[-52.72884,-27.15958],[-52.7284,-27.15947],[-52.7276,-27.15864],[-52.72751,-27.15855],[-52.7267,-27.1579],[-52.72668,-27.15788],[-52.72671,-27.15775],[-52.72706,-27.1569],[-52.72727,-27.15639],[-52.72733,-27.15621],[-52.72742,-27.15577],[-52.72744,-27.15559],[-52.72743,-27.1554],[-52.72738,-27.15522],[-52.7273,-27.15506],[-52.72705,-27.15464],[-52.72696,-27.15451],[-52.72685,-27.1544],[-52.72645,-27.15406],[-52.72641,-27.15403],[-52.72591,-27.15363],[-52.72585,-27.15359],[-52.7254,-27.15328],[-52.72511,-27.15303],[-52.72494,-27.15292],[-52.72475,-27.15284],[-52.72402,-27.15262],[-52.72392,-27.1526],[-52.72342,-27.1525],[-52.72302,-27.15238],[-52.72307,-27.15222],[-52.72339,-27.15151],[-52.72388,-27.1506],[-52.72396,-27.15044],[-52.7242,-27.14971],[-52.72424,-27.14952],[-52.72425,-27.14933],[-52.72422,-27.14881],[-52.72419,-27.14863],[-52.72409,-27.14821],[-52.72403,-27.14803],[-52.72393,-27.14782],[-52.72385,-27.14743],[-52.72387,-27.14732],[-52.72388,-27.1473],[-52.72423,-27.14691],[-52.72437,-27.14671],[-52.72446,-27.14649],[-52.72459,-27.14597],[-52.72462,-27.1458],[-52.72461,-27.14562],[-52.72454,-27.14487],[-52.72452,-27.14435],[-52.72449,-27.14417],[-52.72444,-27.144],[-52.7243,-27.14368],[-52.72435,-27.14342],[-52.72437,-27.14322],[-52.72434,-27.14161],[-52.72432,-27.14141],[-52.72411,-27.14052],[-52.72394,-27.13949],[-52.72391,-27.13935],[-52.72364,-27.13847],[-52.72366,-27.1374],[-52.72364,-27.13718],[-52.72357,-27.13697],[-52.72346,-27.13679],[-52.72331,-27.13663],[-52.72291,-27.13628],[-52.72276,-27.13617],[-52.72259,-27.13609],[-52.72241,-27.13605],[-52.72202,-27.13599],[-52.72187,-27.13598],[-52.72171,-27.136],[-52.72109,-27.1361],[-52.72095,-27.1361],[-52.72037,-27.13574],[-52.72,-27.13509],[-52.71991,-27.13495],[-52.71979,-27.13483],[-52.71966,-27.13473],[-52.71927,-27.13449],[-52.71914,-27.13386],[-52.71907,-27.13365],[-52.71881,-27.13308],[-52.71872,-27.13293],[-52.71861,-27.1328],[-52.71848,-27.13268],[-52.71773,-27.13214],[-52.71764,-27.13209],[-52.71704,-27.13174],[-52.71686,-27.13152],[-52.71664,-27.13133],[-52.7163,-27.13111],[-52.71606,-27.13081],[-52.71593,-27.13069],[-52.71589,-27.13065],[-52.71603,-27.13058],[-52.71618,-27.13048],[-52.71631,-27.13035],[-52.71642,-27.13021],[-52.7165,-27.13004],[-52.71655,-27.12987],[-52.71666,-27.12926],[-52.71667,-27.12923],[-52.71678,-27.12849],[-52.71694,-27.12797],[-52.71697,-27.12782],[-52.71698,-27.12767],[-52.71697,-27.12676],[-52.71714,-27.12613],[-52.71718,-27.12592],[-52.71717,-27.1257],[-52.71711,-27.1255],[-52.71701,-27.12531],[-52.71662,-27.12472],[-52.71649,-27.12456],[-52.71632,-27.12443],[-52.71613,-27.12434],[-52.71592,-27.12429],[-52.71522,-27.12419],[-52.71498,-27.12419],[-52.71472,-27.12422],[-52.71467,-27.12412],[-52.71455,-27.12397],[-52.71425,-27.12367],[-52.7141,-27.12332],[-52.714,-27.12314],[-52.71387,-27.12299],[-52.7135,-27.12264],[-52.71345,-27.1226],[-52.71322,-27.1224],[-52.71307,-27.1223],[-52.71302,-27.12228],[-52.71313,-27.12208],[-52.71321,-27.12189],[-52.71325,-27.12169],[-52.71324,-27.12149],[-52.71323,-27.12141],[-52.71325,-27.12131],[-52.71326,-27.12103],[-52.71325,-27.12096],[-52.71323,-27.12084],[-52.71322,-27.12078],[-52.71317,-27.12063],[-52.71309,-27.12048],[-52.71299,-27.12035],[-52.71294,-27.12028],[-52.7128,-27.12016],[-52.71265,-27.12006],[-52.71259,-27.12004],[-52.71243,-27.11979],[-52.71242,-27.11978],[-52.71224,-27.11953],[-52.71211,-27.11938],[-52.71193,-27.11921],[-52.71177,-27.11908],[-52.71157,-27.11896],[-52.71145,-27.11888],[-52.71137,-27.11873],[-52.71125,-27.11845],[-52.71123,-27.11834],[-52.71127,-27.11825],[-52.71127,-27.11824],[-52.71156,-27.11792],[-52.71168,-27.11776],[-52.71176,-27.11757],[-52.71181,-27.11738],[-52.71189,-27.11669],[-52.71199,-27.11599],[-52.712,-27.11579],[-52.71197,-27.1156],[-52.71191,-27.11542],[-52.71181,-27.11525],[-52.71119,-27.11442],[-52.71083,-27.11377],[-52.71074,-27.11329],[-52.71084,-27.11263],[-52.71085,-27.11241],[-52.71078,-27.11144],[-52.71077,-27.11135],[-52.71067,-27.11068],[-52.71069,-27.11048],[-52.7107,-27.11043],[-52.71071,-27.11019],[-52.71071,-27.11015],[-52.71072,-27.11004],[-52.71072,-27.11004],[-52.71076,-27.10981],[-52.71077,-27.10966],[-52.71076,-27.10946],[-52.71071,-27.10925],[-52.71062,-27.10907],[-52.71053,-27.10893],[-52.71041,-27.10878],[-52.71027,-27.10865],[-52.71011,-27.10856],[-52.70958,-27.10831],[-52.70954,-27.10828],[-52.7095,-27.10821],[-52.70945,-27.10813],[-52.70935,-27.108],[-52.70923,-27.10788],[-52.70909,-27.10779],[-52.70889,-27.10767],[-52.70881,-27.10764],[-52.7088,-27.10758],[-52.70875,-27.10709],[-52.70872,-27.10692],[-52.70866,-27.10677],[-52.70857,-27.10662],[-52.70846,-27.10645],[-52.70846,-27.10643],[-52.70849,-27.10623],[-52.70847,-27.10602],[-52.70841,-27.10583],[-52.70831,-27.10565],[-52.7081,-27.10534],[-52.70801,-27.10514],[-52.70786,-27.10491],[-52.70773,-27.10475],[-52.70767,-27.10459],[-52.7076,-27.10446],[-52.70781,-27.10404],[-52.70787,-27.10387],[-52.7079,-27.1037],[-52.7079,-27.10352],[-52.70785,-27.10281],[-52.70788,-27.10275],[-52.70788,-27.10275],[-52.70795,-27.1026],[-52.70811,-27.10248],[-52.70828,-27.1023],[-52.70868,-27.10179],[-52.70877,-27.10164],[-52.70884,-27.10147],[-52.70888,-27.10129],[-52.70888,-27.10111],[-52.70885,-27.10093],[-52.70879,-27.10067],[-52.70883,-27.10059],[-52.70888,-27.10043],[-52.7089,-27.10041],[-52.709,-27.10026],[-52.70906,-27.10012],[-52.70917,-27.10003],[-52.70931,-27.09989],[-52.70951,-27.09961],[-52.70961,-27.09945],[-52.70968,-27.09927],[-52.70971,-27.09908],[-52.70971,-27.09889],[-52.70967,-27.0987],[-52.70961,-27.09852],[-52.70963,-27.09834],[-52.7096,-27.09814],[-52.70954,-27.09795],[-52.70946,-27.09776],[-52.70939,-27.09763],[-52.70927,-27.09742],[-52.70915,-27.09727],[-52.709,-27.09714],[-52.70884,-27.09704],[-52.70865,-27.09698],[-52.70846,-27.09695],[-52.7084,-27.09695],[-52.70828,-27.09685],[-52.70832,-27.09684],[-52.70839,-27.09681],[-52.70839,-27.0968],[-52.70934,-27.09635],[-52.70936,-27.09634],[-52.70941,-27.09632],[-52.70966,-27.0962],[-52.70971,-27.09618],[-52.70995,-27.09607],[-52.70997,-27.09606],[-52.71548,-27.0934],[-52.71577,-27.09327],[-52.71578,-27.09326],[-52.716,-27.09316],[-52.71636,-27.09299],[-52.71688,-27.09274],[-52.72096,-27.09078],[-52.721,-27.09075],[-52.72337,-27.08962],[-52.72356,-27.08953],[-52.72356,-27.08953],[-52.72687,-27.08792],[-52.72723,-27.08775],[-52.72724,-27.08775],[-52.72845,-27.08718],[-52.72964,-27.08661],[-52.72964,-27.08661],[-52.73011,-27.08639],[-52.73039,-27.08626],[-52.7304,-27.08625],[-52.73244,-27.08527],[-52.73261,-27.08516],[-52.73276,-27.08502],[-52.73288,-27.08485],[-52.73296,-27.08466],[-52.733,-27.08446],[-52.733,-27.08425],[-52.73295,-27.08405],[-52.73286,-27.08386],[-52.73274,-27.0837],[-52.73269,-27.08364],[-52.73268,-27.08362],[-52.73261,-27.08351],[-52.7325,-27.08339],[-52.73239,-27.08329],[-52.73237,-27.08326],[-52.73237,-27.08326],[-52.73231,-27.08317],[-52.73227,-27.0831],[-52.73212,-27.08292],[-52.73194,-27.08277],[-52.73178,-27.08267],[-52.73162,-27.0826],[-52.73159,-27.08255],[-52.73147,-27.08243],[-52.73147,-27.08239],[-52.73148,-27.08219],[-52.73144,-27.082],[-52.73137,-27.08181],[-52.73126,-27.08165],[-52.73112,-27.08148],[-52.73097,-27.08133],[-52.73084,-27.08124],[-52.73082,-27.08123],[-52.73064,-27.08101],[-52.73056,-27.08092],[-52.73057,-27.08091],[-52.73067,-27.08077],[-52.73091,-27.0804],[-52.73102,-27.08017],[-52.73125,-27.07947],[-52.73128,-27.07939],[-52.73138,-27.07896],[-52.73139,-27.07895],[-52.73185,-27.07881],[-52.73204,-27.07874],[-52.73221,-27.07862],[-52.73235,-27.07848],[-52.73258,-27.07818],[-52.73268,-27.07804],[-52.73288,-27.07767],[-52.73295,-27.07751],[-52.73299,-27.07735],[-52.733,-27.07717],[-52.73299,-27.0768],[-52.73297,-27.07661],[-52.73293,-27.07644],[-52.73295,-27.07617],[-52.73314,-27.0759],[-52.73368,-27.07562],[-52.73398,-27.07559],[-52.73414,-27.07556],[-52.73429,-27.0755],[-52.73475,-27.0753],[-52.73479,-27.07528],[-52.73542,-27.07497],[-52.73558,-27.07486],[-52.73572,-27.07473],[-52.73583,-27.07457],[-52.73591,-27.07439],[-52.73603,-27.07405],[-52.73607,-27.07387],[-52.73608,-27.07369],[-52.73607,-27.07353],[-52.73604,-27.07332],[-52.73596,-27.07312],[-52.73584,-27.07294],[-52.73569,-27.07279],[-52.73559,-27.07273],[-52.73554,-27.07257],[-52.73545,-27.07242],[-52.73536,-27.07228],[-52.73523,-27.07213],[-52.73507,-27.072],[-52.73489,-27.07191],[-52.7347,-27.07186],[-52.73451,-27.07183],[-52.73437,-27.07182],[-52.73451,-27.07172],[-52.73466,-27.07159],[-52.73478,-27.07144],[-52.73487,-27.07128],[-52.73492,-27.07109],[-52.73494,-27.0709],[-52.73493,-27.07076],[-52.73497,-27.07076],[-52.73517,-27.07077],[-52.73536,-27.07073],[-52.73555,-27.07066],[-52.73562,-27.07062],[-52.73578,-27.07068],[-52.73601,-27.07071],[-52.73615,-27.07071],[-52.73634,-27.0707],[-52.73652,-27.07065],[-52.73669,-27.07057],[-52.73684,-27.07045],[-52.73697,-27.07031],[-52.73705,-27.0702],[-52.73714,-27.07006],[-52.73721,-27.06989],[-52.73726,-27.06973],[-52.7373,-27.06953],[-52.73729,-27.06931],[-52.73724,-27.0691],[-52.73715,-27.06891],[-52.73708,-27.0688],[-52.73697,-27.06866],[-52.73683,-27.06853],[-52.73668,-27.06844],[-52.73653,-27.06836],[-52.73634,-27.06821],[-52.7361,-27.06796],[-52.73593,-27.06767],[-52.7359,-27.06761],[-52.73569,-27.06732],[-52.7356,-27.06719],[-52.73548,-27.06709],[-52.73541,-27.06703],[-52.73536,-27.06694],[-52.73526,-27.0668],[-52.73515,-27.06667],[-52.73514,-27.06666],[-52.73521,-27.06652],[-52.73526,-27.06634],[-52.73527,-27.06616],[-52.73527,-27.06587],[-52.73526,-27.06577],[-52.73529,-27.06576],[-52.73549,-27.06567],[-52.73566,-27.06555],[-52.7358,-27.06539],[-52.7359,-27.0652],[-52.73596,-27.06506],[-52.73602,-27.06489],[-52.73602,-27.06489],[-52.73605,-27.06485],[-52.73617,-27.0647],[-52.73625,-27.06452],[-52.7363,-27.06433],[-52.73631,-27.06424],[-52.73632,-27.06405],[-52.73629,-27.06386],[-52.73627,-27.06375],[-52.73624,-27.06365],[-52.73622,-27.06353],[-52.73618,-27.06335],[-52.7361,-27.06319],[-52.73599,-27.06304],[-52.73586,-27.06291],[-52.73574,-27.06282],[-52.73574,-27.06281],[-52.73549,-27.06262],[-52.73539,-27.06254],[-52.73543,-27.0623],[-52.73545,-27.06212],[-52.73542,-27.06194],[-52.73537,-27.06177],[-52.73524,-27.06144],[-52.73521,-27.06138],[-52.73508,-27.0611],[-52.73498,-27.06094],[-52.73497,-27.06078],[-52.73494,-27.06062],[-52.7349,-27.06049],[-52.735,-27.06036],[-52.73507,-27.06019],[-52.7352,-27.05983],[-52.73524,-27.05962],[-52.73525,-27.0594],[-52.7352,-27.05919],[-52.73512,-27.059],[-52.73499,-27.05882],[-52.73491,-27.05874],[-52.73494,-27.0586],[-52.73496,-27.05839],[-52.73494,-27.05818],[-52.73487,-27.05798],[-52.73476,-27.0578],[-52.73437,-27.05728],[-52.73424,-27.05714],[-52.73409,-27.05702],[-52.73392,-27.05694],[-52.73373,-27.05689],[-52.73354,-27.05688],[-52.73336,-27.0569],[-52.73295,-27.05699],[-52.73277,-27.05702],[-52.73274,-27.05702],[-52.73245,-27.05692],[-52.73227,-27.05678],[-52.7321,-27.05667],[-52.73198,-27.05663],[-52.73195,-27.05658],[-52.73181,-27.05645],[-52.7318,-27.05643],[-52.73184,-27.0562],[-52.73192,-27.05587],[-52.73196,-27.05566],[-52.73194,-27.05545],[-52.73188,-27.05524],[-52.73178,-27.05505],[-52.73172,-27.05496],[-52.7317,-27.05487],[-52.73173,-27.05468],[-52.73174,-27.0545],[-52.73172,-27.0543],[-52.73167,-27.0541],[-52.73157,-27.05392],[-52.73144,-27.05376],[-52.73123,-27.05355],[-52.73116,-27.05345],[-52.73103,-27.05331],[-52.73088,-27.0532],[-52.73077,-27.05314],[-52.73093,-27.05299],[-52.73114,-27.05272],[-52.73138,-27.05247],[-52.73148,-27.05232],[-52.73156,-27.05217],[-52.73161,-27.052],[-52.73163,-27.05182],[-52.73162,-27.05164],[-52.7316,-27.0515],[-52.73155,-27.05131],[-52.73146,-27.05113],[-52.73134,-27.05097],[-52.73119,-27.05084],[-52.73102,-27.05074],[-52.73102,-27.05073],[-52.73105,-27.05071],[-52.7312,-27.05059],[-52.73132,-27.05044],[-52.73145,-27.05024],[-52.73146,-27.05022],[-52.73169,-27.04984],[-52.73177,-27.04969],[-52.73182,-27.04953],[-52.73188,-27.04927],[-52.73191,-27.04907],[-52.73189,-27.04886],[-52.73183,-27.04866],[-52.7318,-27.0486],[-52.73182,-27.04854],[-52.73186,-27.0484],[-52.73193,-27.0483],[-52.73208,-27.04806],[-52.73216,-27.0479],[-52.73221,-27.04773],[-52.73222,-27.04756],[-52.73223,-27.04734],[-52.73233,-27.04729],[-52.73248,-27.04719],[-52.73261,-27.04706],[-52.73272,-27.04691],[-52.73279,-27.04675],[-52.73284,-27.04657],[-52.73288,-27.0463],[-52.73289,-27.04611],[-52.73287,-27.04592],[-52.73281,-27.04575],[-52.73272,-27.04558],[-52.73261,-27.04544],[-52.73246,-27.04532],[-52.7323,-27.04522],[-52.73212,-27.04517],[-52.73191,-27.04512],[-52.73166,-27.04509],[-52.73113,-27.04511],[-52.73092,-27.04513],[-52.73072,-27.04521],[-52.73021,-27.04546],[-52.73014,-27.04549],[-52.73002,-27.04556],[-52.72996,-27.04558],[-52.72949,-27.04562],[-52.72927,-27.04567],[-52.72906,-27.04576],[-52.72863,-27.04602],[-52.72855,-27.04607],[-52.72802,-27.04646],[-52.72789,-27.04658],[-52.72778,-27.04672],[-52.72774,-27.0468],[-52.72757,-27.04676],[-52.72735,-27.04674],[-52.72697,-27.04675],[-52.72684,-27.04669],[-52.72658,-27.04652],[-52.72641,-27.04643],[-52.72628,-27.04639],[-52.72629,-27.04632],[-52.72631,-27.04612],[-52.72629,-27.04592],[-52.72623,-27.04573],[-52.72613,-27.04555],[-52.72576,-27.04501],[-52.72549,-27.04457],[-52.72537,-27.04441],[-52.72523,-27.04428],[-52.72506,-27.04418],[-52.72473,-27.04403],[-52.72468,-27.04401],[-52.72479,-27.04341],[-52.72481,-27.04325],[-52.7248,-27.04309],[-52.72474,-27.04262],[-52.72477,-27.04218],[-52.72484,-27.04182],[-52.7249,-27.04164],[-52.72494,-27.04144],[-52.72494,-27.04124],[-52.7249,-27.04104],[-52.72482,-27.04086],[-52.72471,-27.04069],[-52.72461,-27.04058],[-52.72446,-27.04043],[-52.72427,-27.04032],[-52.72407,-27.04025],[-52.72386,-27.04022],[-52.72372,-27.04023],[-52.72376,-27.04013],[-52.72378,-27.03994],[-52.72377,-27.03976],[-52.72373,-27.03957],[-52.72365,-27.0394],[-52.72357,-27.0393],[-52.72361,-27.03925],[-52.72376,-27.0391],[-52.7239,-27.03897],[-52.72392,-27.03896],[-52.72397,-27.0389],[-52.7241,-27.03874],[-52.7242,-27.03856],[-52.72426,-27.03836],[-52.72427,-27.0383],[-52.72428,-27.03812],[-52.72426,-27.03794],[-52.72421,-27.03776],[-52.72414,-27.03759],[-52.72405,-27.03742],[-52.72394,-27.03727],[-52.7238,-27.03715],[-52.72362,-27.03702],[-52.72368,-27.03692],[-52.72398,-27.03669],[-52.72445,-27.03638],[-52.72461,-27.03624],[-52.72474,-27.03607],[-52.72484,-27.03588],[-52.72489,-27.03568],[-52.72489,-27.03547],[-52.72486,-27.03503],[-52.72495,-27.03474],[-52.72514,-27.03457],[-52.72519,-27.03453],[-52.72575,-27.03394],[-52.72591,-27.03372],[-52.72619,-27.03317],[-52.72651,-27.03313],[-52.72669,-27.03308],[-52.72687,-27.033],[-52.72702,-27.03289],[-52.72715,-27.03275],[-52.72726,-27.03258],[-52.72733,-27.0324],[-52.72736,-27.03221],[-52.72735,-27.03202],[-52.72733,-27.03189],[-52.72736,-27.03177],[-52.72738,-27.03157],[-52.72749,-27.03131],[-52.72755,-27.03111],[-52.72756,-27.03091],[-52.72755,-27.03034],[-52.72772,-27.02977],[-52.72805,-27.02914],[-52.72811,-27.029],[-52.72814,-27.02886],[-52.72816,-27.02876],[-52.72838,-27.02842],[-52.72848,-27.02824],[-52.72853,-27.02805],[-52.72854,-27.02785],[-52.72854,-27.02756],[-52.72864,-27.02737],[-52.72895,-27.02701],[-52.72913,-27.02691],[-52.72929,-27.02681],[-52.72942,-27.02667],[-52.7296,-27.02645],[-52.72972,-27.02628],[-52.72979,-27.02609],[-52.72983,-27.02588],[-52.72982,-27.02568],[-52.72977,-27.02548],[-52.72973,-27.02538],[-52.72973,-27.02527],[-52.72977,-27.02497],[-52.72978,-27.02472],[-52.72974,-27.02426],[-52.72979,-27.02396],[-52.72983,-27.02377],[-52.7299,-27.02369],[-52.73003,-27.02353],[-52.73012,-27.02335],[-52.73016,-27.02323],[-52.73021,-27.02302],[-52.73021,-27.02302],[-52.73022,-27.02301],[-52.73028,-27.02284],[-52.7303,-27.02266],[-52.7303,-27.02248],[-52.73029,-27.02241],[-52.73025,-27.02226],[-52.73028,-27.02214],[-52.7303,-27.022],[-52.73038,-27.02199],[-52.73056,-27.02194],[-52.73073,-27.02185],[-52.73099,-27.02169],[-52.73117,-27.02154],[-52.73132,-27.02136],[-52.73147,-27.0211],[-52.73171,-27.02094],[-52.73173,-27.02093],[-52.7318,-27.02095],[-52.732,-27.02096],[-52.73236,-27.02095],[-52.73255,-27.02092],[-52.73274,-27.02086],[-52.7329,-27.02076],[-52.73307,-27.02064],[-52.73322,-27.02051],[-52.73328,-27.02044],[-52.73338,-27.02041],[-52.73356,-27.02033],[-52.73371,-27.02021],[-52.73385,-27.02007],[-52.73391,-27.01999],[-52.73392,-27.01997],[-52.7341,-27.01975],[-52.73413,-27.01974],[-52.73419,-27.01977],[-52.7344,-27.01983],[-52.7346,-27.01986],[-52.73479,-27.01987],[-52.73525,-27.01985],[-52.73528,-27.01985],[-52.73554,-27.01983],[-52.73572,-27.0198],[-52.73581,-27.01977],[-52.73602,-27.0197],[-52.73611,-27.01965],[-52.73627,-27.01955],[-52.73641,-27.01942],[-52.73652,-27.01926],[-52.73657,-27.01915],[-52.73662,-27.01912],[-52.73724,-27.01876],[-52.73746,-27.01858],[-52.73783,-27.01818],[-52.73794,-27.01812],[-52.7381,-27.01802],[-52.73823,-27.01789],[-52.73843,-27.01766],[-52.73845,-27.01763],[-52.73866,-27.01737],[-52.73871,-27.01731],[-52.73917,-27.01663],[-52.73942,-27.01644],[-52.73956,-27.01631],[-52.73967,-27.01616],[-52.73976,-27.01599],[-52.73987,-27.01569],[-52.74025,-27.01503],[-52.74106,-27.01412],[-52.7423,-27.01375],[-52.74231,-27.01381],[-52.74232,-27.01395],[-52.74233,-27.01466],[-52.74235,-27.01481],[-52.74238,-27.01496],[-52.74249,-27.01527],[-52.74254,-27.0154],[-52.74288,-27.01607],[-52.74296,-27.01621],[-52.74307,-27.01633],[-52.74356,-27.01682],[-52.74377,-27.01698],[-52.74466,-27.01748],[-52.74474,-27.01752],[-52.74587,-27.01803],[-52.74607,-27.01809],[-52.74628,-27.01812],[-52.74648,-27.0181],[-52.74668,-27.01804],[-52.74686,-27.01794],[-52.74701,-27.0178],[-52.74714,-27.01764],[-52.74716,-27.01761],[-52.74719,-27.01756],[-52.74724,-27.01756],[-52.74742,-27.01753],[-52.74748,-27.01751],[-52.74814,-27.01762],[-52.74832,-27.01763],[-52.74849,-27.01761],[-52.7485,-27.01761],[-52.74851,-27.01762],[-52.74863,-27.01775],[-52.74877,-27.01785],[-52.74892,-27.01793],[-52.74934,-27.01809],[-52.74949,-27.01814],[-52.75003,-27.01826],[-52.75034,-27.0184],[-52.7505,-27.01845],[-52.75066,-27.01848],[-52.75083,-27.01848],[-52.75091,-27.01847],[-52.75109,-27.01847],[-52.75132,-27.01847],[-52.7515,-27.01844],[-52.75159,-27.01842],[-52.75181,-27.0185],[-52.75198,-27.01854],[-52.75216,-27.01855],[-52.75234,-27.01853],[-52.75251,-27.01847],[-52.75275,-27.01838],[-52.7529,-27.0183],[-52.75304,-27.01819],[-52.75325,-27.018],[-52.75329,-27.01797],[-52.75369,-27.01788],[-52.75371,-27.01787],[-52.7543,-27.01772],[-52.75442,-27.01768],[-52.7549,-27.01749],[-52.75575,-27.01721],[-52.75591,-27.01714],[-52.75628,-27.01694],[-52.75656,-27.01688],[-52.75691,-27.01686],[-52.75714,-27.01682],[-52.75735,-27.01674],[-52.7579,-27.01644],[-52.75801,-27.01639],[-52.75819,-27.01629],[-52.75828,-27.01621],[-52.75833,-27.0162],[-52.75845,-27.01614],[-52.75852,-27.01614],[-52.7587,-27.01609],[-52.75895,-27.016],[-52.7591,-27.01593],[-52.75917,-27.01589],[-52.75919,-27.01588],[-52.75947,-27.01584],[-52.75966,-27.01579],[-52.75984,-27.0157],[-52.75991,-27.01564],[-52.76008,-27.01583],[-52.76021,-27.01595],[-52.76035,-27.01604],[-52.76051,-27.01611],[-52.76068,-27.01615],[-52.7608,-27.01617],[-52.76117,-27.01636],[-52.76133,-27.01643],[-52.7615,-27.01648],[-52.76155,-27.01648],[-52.76157,-27.01793],[-52.76157,-27.01865],[-52.76159,-27.01886],[-52.76165,-27.01905],[-52.76183,-27.01947],[-52.76193,-27.01965],[-52.76208,-27.01982],[-52.76226,-27.01994],[-52.76246,-27.02003],[-52.76269,-27.0201],[-52.76269,-27.02018],[-52.76273,-27.02036],[-52.76285,-27.02074],[-52.76294,-27.02093],[-52.76306,-27.0211],[-52.76307,-27.0211],[-52.76307,-27.0211],[-52.76307,-27.0213],[-52.76311,-27.02148],[-52.76319,-27.02166],[-52.76326,-27.0218],[-52.76349,-27.02225],[-52.76341,-27.02239],[-52.76336,-27.02258],[-52.76335,-27.02277],[-52.76337,-27.02296],[-52.76343,-27.02314],[-52.76352,-27.02331],[-52.76374,-27.02364],[-52.76386,-27.02379],[-52.764,-27.02391],[-52.76417,-27.024],[-52.76424,-27.02403],[-52.76436,-27.02426],[-52.76449,-27.02445],[-52.76465,-27.0246],[-52.7647,-27.02464],[-52.76465,-27.0247],[-52.76454,-27.02488],[-52.76446,-27.02507],[-52.76443,-27.02528],[-52.76444,-27.0255],[-52.7645,-27.0257],[-52.76465,-27.02609],[-52.76474,-27.02626],[-52.76486,-27.02641],[-52.76501,-27.02654],[-52.76574,-27.02705],[-52.76589,-27.02727],[-52.76614,-27.02766],[-52.76629,-27.02793],[-52.7663,-27.02807],[-52.76635,-27.02827],[-52.76644,-27.02844],[-52.76656,-27.0286],[-52.76671,-27.02873],[-52.76681,-27.0288],[-52.76678,-27.02888],[-52.76673,-27.02907],[-52.76672,-27.02926],[-52.76676,-27.02996],[-52.76679,-27.03018],[-52.76687,-27.03038],[-52.76687,-27.03039],[-52.76682,-27.03045],[-52.76672,-27.03063],[-52.76666,-27.03083],[-52.76664,-27.03103],[-52.76666,-27.03123],[-52.76674,-27.03159],[-52.76679,-27.03176],[-52.76688,-27.03193],[-52.76699,-27.03207],[-52.76786,-27.03298],[-52.768,-27.03311],[-52.76816,-27.0332],[-52.76834,-27.03326],[-52.76852,-27.03329],[-52.76858,-27.03329],[-52.76879,-27.03367],[-52.7688,-27.0337],[-52.76908,-27.03417],[-52.76893,-27.03425],[-52.76876,-27.03436],[-52.76862,-27.03452],[-52.76825,-27.03499],[-52.76814,-27.03516],[-52.76808,-27.03535],[-52.76804,-27.03554],[-52.76802,-27.03589],[-52.76804,-27.03614],[-52.76814,-27.03669],[-52.7682,-27.03689],[-52.7683,-27.03707],[-52.76843,-27.03723],[-52.7686,-27.03736],[-52.76878,-27.03745],[-52.76895,-27.03751],[-52.76901,-27.0376],[-52.7692,-27.03807],[-52.76932,-27.03829],[-52.76981,-27.03895],[-52.76993,-27.03909],[-52.77008,-27.03921],[-52.77025,-27.03929],[-52.7706,-27.03943],[-52.77077,-27.03948],[-52.77094,-27.0395],[-52.77135,-27.03951],[-52.77141,-27.03966],[-52.77189,-27.04084],[-52.77191,-27.04089],[-52.7723,-27.04174],[-52.77241,-27.04191],[-52.77255,-27.04207],[-52.77272,-27.04219],[-52.77292,-27.04227],[-52.77312,-27.04231],[-52.77358,-27.04235],[-52.77364,-27.04235],[-52.77368,-27.04235],[-52.77361,-27.04241],[-52.77309,-27.04296],[-52.77296,-27.04312],[-52.77287,-27.0433],[-52.77282,-27.04349],[-52.77281,-27.04369],[-52.77284,-27.04389],[-52.7729,-27.04408],[-52.77315,-27.0446],[-52.77322,-27.04474],[-52.77332,-27.04486],[-52.77412,-27.04573],[-52.77419,-27.04579],[-52.77411,-27.04593],[-52.77405,-27.04607],[-52.77399,-27.04625],[-52.77397,-27.04644],[-52.77398,-27.04662],[-52.77403,-27.04681],[-52.77411,-27.04697],[-52.77425,-27.04721],[-52.77436,-27.04736],[-52.77449,-27.04749],[-52.77465,-27.04759],[-52.77482,-27.04766],[-52.77501,-27.04769],[-52.77546,-27.04774],[-52.77568,-27.04773],[-52.77571,-27.04773],[-52.77578,-27.04776],[-52.77582,-27.04781],[-52.77583,-27.04786],[-52.77588,-27.04806],[-52.77597,-27.04824],[-52.7761,-27.0484],[-52.77626,-27.04853],[-52.77628,-27.04855],[-52.77634,-27.04867],[-52.77647,-27.04884],[-52.77648,-27.04884],[-52.7765,-27.04898],[-52.77656,-27.04917],[-52.77656,-27.0493],[-52.77657,-27.04942],[-52.7766,-27.04971],[-52.77664,-27.04988],[-52.7767,-27.05004],[-52.77685,-27.05033],[-52.77695,-27.05049],[-52.77708,-27.05063],[-52.77723,-27.05074],[-52.7774,-27.05082],[-52.77759,-27.05087],[-52.77777,-27.05088],[-52.77802,-27.05087],[-52.77804,-27.05088],[-52.77834,-27.05109],[-52.77833,-27.05114],[-52.77828,-27.0513],[-52.77826,-27.05145],[-52.77825,-27.05168],[-52.77826,-27.05187],[-52.7783,-27.05205],[-52.77838,-27.05222],[-52.77868,-27.05276],[-52.77871,-27.05279],[-52.77878,-27.05292],[-52.7788,-27.05305],[-52.77886,-27.05325],[-52.77896,-27.05344],[-52.77909,-27.0536],[-52.77926,-27.05373],[-52.77929,-27.05375],[-52.77937,-27.05387],[-52.77951,-27.05401],[-52.77967,-27.05412],[-52.77986,-27.05419],[-52.78001,-27.05423],[-52.78013,-27.05426],[-52.7803,-27.05429],[-52.78047,-27.0543],[-52.78064,-27.05429],[-52.7808,-27.05424],[-52.78087,-27.05422],[-52.78088,-27.05422],[-52.78103,-27.05425],[-52.78107,-27.05426],[-52.78108,-27.05426],[-52.78127,-27.05434],[-52.78148,-27.05437],[-52.7817,-27.05436],[-52.7819,-27.05431],[-52.78209,-27.05421],[-52.78214,-27.05418],[-52.78231,-27.05403],[-52.78232,-27.05402],[-52.78237,-27.05401],[-52.78266,-27.05402],[-52.78292,-27.05404],[-52.78334,-27.05419],[-52.78349,-27.05423],[-52.78364,-27.05424],[-52.78485,-27.05427],[-52.785,-27.05426],[-52.78515,-27.05423],[-52.78575,-27.05406],[-52.78587,-27.05402],[-52.78754,-27.0533],[-52.78812,-27.05329],[-52.78829,-27.05327],[-52.78846,-27.05322],[-52.78862,-27.05314],[-52.78938,-27.05266],[-52.78959,-27.05253],[-52.78993,-27.05238],[-52.79074,-27.05209],[-52.7908,-27.05208],[-52.79092,-27.05206],[-52.79112,-27.05201],[-52.79129,-27.052],[-52.79163,-27.05193],[-52.7918,-27.05188],[-52.79195,-27.0518],[-52.79279,-27.05128],[-52.79787,-27.05085],[-52.79863,-27.05094],[-52.79884,-27.05094],[-52.79979,-27.05086],[-52.79991,-27.05084],[-52.80051,-27.05071],[-52.80052,-27.05071],[-52.8011,-27.05058],[-52.80125,-27.05053],[-52.80178,-27.05032],[-52.80194,-27.05024],[-52.80208,-27.05013],[-52.8022,-27.05],[-52.80262,-27.04946],[-52.80293,-27.04937],[-52.80313,-27.04929],[-52.8033,-27.04917],[-52.80344,-27.04902],[-52.80355,-27.04884],[-52.80377,-27.04841],[-52.80389,-27.04836],[-52.80461,-27.0481],[-52.80475,-27.04812],[-52.80488,-27.04818],[-52.80495,-27.04831],[-52.80508,-27.0485],[-52.80524,-27.04866],[-52.80554,-27.04887],[-52.80564,-27.04902],[-52.80575,-27.04914],[-52.80588,-27.04925],[-52.80606,-27.04937],[-52.80605,-27.04948],[-52.80602,-27.04981],[-52.80602,-27.05],[-52.80606,-27.05019],[-52.80614,-27.05037],[-52.80635,-27.05075],[-52.80649,-27.05095],[-52.80683,-27.05131],[-52.80697,-27.05144],[-52.80713,-27.05153],[-52.80729,-27.05161],[-52.8075,-27.05168],[-52.80772,-27.05171],[-52.80795,-27.05168],[-52.80809,-27.05165],[-52.80823,-27.05161],[-52.80837,-27.05154],[-52.80853,-27.05145],[-52.80919,-27.05125],[-52.80932,-27.05122],[-52.80945,-27.0514],[-52.80958,-27.05154],[-52.80973,-27.05165],[-52.81002,-27.05183],[-52.8102,-27.05192],[-52.8104,-27.05197],[-52.8106,-27.05198],[-52.8108,-27.05194],[-52.81099,-27.05187],[-52.81127,-27.05174],[-52.8116,-27.05187],[-52.81178,-27.05193],[-52.81196,-27.05195],[-52.81215,-27.05194],[-52.81233,-27.05189],[-52.81235,-27.05188],[-52.81243,-27.05187],[-52.81254,-27.05185],[-52.81275,-27.0518],[-52.81299,-27.05171],[-52.8132,-27.05159],[-52.81335,-27.05163],[-52.81357,-27.05164],[-52.81379,-27.0516],[-52.8139,-27.05156],[-52.81408,-27.05149],[-52.81424,-27.05139],[-52.81437,-27.05125],[-52.81448,-27.0511],[-52.81456,-27.05097],[-52.81457,-27.05093],[-52.81458,-27.05093],[-52.81473,-27.05089],[-52.81487,-27.05083],[-52.815,-27.05075],[-52.81519,-27.05062],[-52.81531,-27.05051],[-52.81542,-27.05039],[-52.81551,-27.05025],[-52.81557,-27.05014],[-52.81571,-27.05021],[-52.81589,-27.05026],[-52.81607,-27.05027],[-52.81626,-27.05026],[-52.81643,-27.05021],[-52.81657,-27.05015],[-52.81669,-27.05011],[-52.81678,-27.05008],[-52.81694,-27.05],[-52.81701,-27.05004],[-52.81718,-27.0501],[-52.81736,-27.05012],[-52.81754,-27.05011],[-52.81764,-27.0501],[-52.8178,-27.05006],[-52.81796,-27.05],[-52.81808,-27.04994],[-52.81823,-27.04984],[-52.81837,-27.04971],[-52.81849,-27.04957],[-52.81861,-27.04941],[-52.8187,-27.04925],[-52.81874,-27.04917],[-52.81889,-27.04904],[-52.81898,-27.04895],[-52.8191,-27.04878],[-52.81919,-27.0486],[-52.81919,-27.04858],[-52.81923,-27.04857],[-52.81933,-27.04853],[-52.81943,-27.04852],[-52.81963,-27.04848],[-52.81975,-27.04844],[-52.81991,-27.0484],[-52.82008,-27.04836],[-52.82023,-27.04832],[-52.82035,-27.04827],[-52.82056,-27.04816],[-52.8206,-27.04813],[-52.82066,-27.0481],[-52.82067,-27.0481],[-52.82083,-27.04811],[-52.82103,-27.04811],[-52.82105,-27.04813],[-52.82121,-27.04823],[-52.82137,-27.0483],[-52.82155,-27.04834],[-52.82173,-27.04835],[-52.82191,-27.04832],[-52.82211,-27.04827],[-52.82229,-27.04821],[-52.82246,-27.04811],[-52.82252,-27.04807],[-52.82257,-27.04806],[-52.82266,-27.04804],[-52.82284,-27.04799],[-52.82296,-27.04793],[-52.82309,-27.04794],[-52.82316,-27.04793],[-52.82328,-27.04792],[-52.82339,-27.04791],[-52.82359,-27.04785],[-52.82377,-27.04776],[-52.82378,-27.04775],[-52.82385,-27.04772],[-52.82402,-27.04761],[-52.82408,-27.04756],[-52.82409,-27.04756],[-52.82418,-27.04748],[-52.82426,-27.0474],[-52.82506,-27.04657],[-52.8253,-27.04634],[-52.82557,-27.04629],[-52.82574,-27.04624],[-52.8259,-27.04616],[-52.82605,-27.04606],[-52.82617,-27.04593],[-52.82627,-27.04577],[-52.82698,-27.04444],[-52.82742,-27.04432],[-52.82938,-27.0447],[-52.82948,-27.04472],[-52.83134,-27.04488],[-52.83433,-27.04725],[-52.83449,-27.04735],[-52.83467,-27.04742],[-52.83486,-27.04746],[-52.83505,-27.04746],[-52.83523,-27.04742],[-52.83541,-27.04735],[-52.84008,-27.04492],[-52.84026,-27.04481],[-52.84041,-27.04466],[-52.84052,-27.04448],[-52.84059,-27.04428],[-52.84062,-27.04408],[-52.84074,-27.04098],[-52.84074,-27.04097],[-52.84139,-27.01804],[-52.84138,-27.01785],[-52.84133,-27.01767],[-52.84124,-27.01749],[-52.84113,-27.01734],[-52.84099,-27.01721],[-52.84082,-27.01711],[-52.84064,-27.01705],[-52.84045,-27.01702],[-52.82996,-27.01641]]]},"properties":{"ghs":"6g4","size":920.23,"ghs_len":3,"ghs_area":644.55,"ghs_bytes":464686,"ghs_items":2591,"size_unit":"km","ghsval_unit":"bytes","ghs_itemsdensity":4.02,"size_unitdensity":1.43}}]}
