{"type":"FeatureCollection","features":[{"type":"Feature","geometry":{"type":"MultiPolygon","coordinates":[[[[-38.45215,-13.00781],[-38.4519,-13.00781],[-38.45194,-13.00805],[-38.452,-13.00828],[-38.45212,-13.00849],[-38.4524,-13.00887],[-38.45252,-13.00901],[-38.45267,-13.00912],[-38.45284,-13.00921],[-38.45292,-13.00924],[-38.45296,-13.0094],[-38.45305,-13.00961],[-38.45318,-13.00979],[-38.45335,-13.00994],[-38.4536,-13.01012],[-38.45378,-13.01022],[-38.45397,-13.01028],[-38.45417,-13.0103],[-38.45438,-13.01028],[-38.45457,-13.01022],[-38.45475,-13.01012],[-38.4549,-13.00999],[-38.45503,-13.00983],[-38.45512,-13.00965],[-38.45538,-13.00892],[-38.45562,-13.00847],[-38.45587,-13.00803],[-38.45589,-13.00802],[-38.45607,-13.00796],[-38.45686,-13.00785],[-38.4577,-13.00798],[-38.45826,-13.00813],[-38.45851,-13.00837],[-38.45936,-13.00937],[-38.4595,-13.00951],[-38.45967,-13.00961],[-38.46143,-13.0105],[-38.46317,-13.0114],[-38.46616,-13.01311],[-38.46663,-13.0135],[-38.4667,-13.01365],[-38.46678,-13.0143],[-38.46679,-13.01527],[-38.46681,-13.01547],[-38.46694,-13.01608],[-38.46699,-13.01624],[-38.46706,-13.01639],[-38.46716,-13.01652],[-38.46745,-13.01687],[-38.4676,-13.01701],[-38.46777,-13.01712],[-38.46796,-13.01719],[-38.46816,-13.01722],[-38.46836,-13.01721],[-38.46855,-13.01717],[-38.46873,-13.01708],[-38.46889,-13.01696],[-38.46954,-13.01637],[-38.4697,-13.01617],[-38.47,-13.01571],[-38.47004,-13.01568],[-38.47008,-13.01567],[-38.4702,-13.01571],[-38.47058,-13.01595],[-38.47075,-13.01605],[-38.47094,-13.0161],[-38.47114,-13.01612],[-38.47133,-13.0161],[-38.47152,-13.01604],[-38.47237,-13.01568],[-38.47251,-13.01561],[-38.47301,-13.0153],[-38.47477,-13.01554],[-38.4768,-13.01583],[-38.47766,-13.01596],[-38.47801,-13.01611],[-38.47825,-13.01645],[-38.47838,-13.0166],[-38.47854,-13.01672],[-38.47872,-13.01681],[-38.47951,-13.01711],[-38.47968,-13.01715],[-38.47985,-13.01717],[-38.48002,-13.01716],[-38.48019,-13.01711],[-38.48043,-13.01703],[-38.48058,-13.01696],[-38.48072,-13.01687],[-38.48084,-13.01676],[-38.48104,-13.01654],[-38.48133,-13.01645],[-38.48147,-13.0164],[-38.4816,-13.01632],[-38.48201,-13.01605],[-38.4824,-13.01619],[-38.48245,-13.01621],[-38.48344,-13.01651],[-38.48346,-13.01652],[-38.48359,-13.01655],[-38.48361,-13.01658],[-38.48375,-13.01671],[-38.48421,-13.01706],[-38.48439,-13.01717],[-38.4846,-13.01724],[-38.48481,-13.01727],[-38.48502,-13.01724],[-38.48507,-13.01723],[-38.48558,-13.01772],[-38.48574,-13.01784],[-38.48636,-13.01824],[-38.48654,-13.01833],[-38.48674,-13.01838],[-38.48694,-13.01839],[-38.48714,-13.01837],[-38.48773,-13.01822],[-38.48795,-13.01825],[-38.4881,-13.01826],[-38.48826,-13.01824],[-38.48866,-13.01817],[-38.48886,-13.01812],[-38.48904,-13.01803],[-38.4892,-13.0179],[-38.48932,-13.01774],[-38.48942,-13.01756],[-38.48973,-13.01678],[-38.48979,-13.01653],[-38.48985,-13.01601],[-38.49002,-13.01594],[-38.49018,-13.01586],[-38.49032,-13.01575],[-38.49045,-13.01561],[-38.49054,-13.01545],[-38.4906,-13.01528],[-38.49065,-13.01512],[-38.49068,-13.01493],[-38.49068,-13.01478],[-38.49114,-13.01456],[-38.49121,-13.01453],[-38.49168,-13.01442],[-38.49188,-13.01435],[-38.49206,-13.01424],[-38.49211,-13.0142],[-38.49219,-13.0142],[-38.4924,-13.01418],[-38.4926,-13.01411],[-38.49279,-13.01401],[-38.49313,-13.01375],[-38.49327,-13.01363],[-38.49338,-13.01348],[-38.49346,-13.01331],[-38.49351,-13.01312],[-38.49353,-13.01294],[-38.49352,-13.01287],[-38.49364,-13.01292],[-38.49384,-13.01297],[-38.49405,-13.01297],[-38.49426,-13.01293],[-38.49486,-13.01274],[-38.49514,-13.01275],[-38.49589,-13.01287],[-38.49611,-13.01288],[-38.49633,-13.01285],[-38.4965,-13.0128],[-38.49657,-13.01284],[-38.49676,-13.01291],[-38.49695,-13.01294],[-38.49715,-13.01294],[-38.49749,-13.01289],[-38.49829,-13.01303],[-38.49883,-13.01322],[-38.49887,-13.01324],[-38.49951,-13.01342],[-38.5,-13.0136],[-38.50024,-13.01365],[-38.50076,-13.0137],[-38.50096,-13.0137],[-38.50116,-13.01366],[-38.50135,-13.01358],[-38.50151,-13.01346],[-38.50165,-13.01331],[-38.50208,-13.01274],[-38.50219,-13.01256],[-38.50221,-13.01251],[-38.50228,-13.01249],[-38.50243,-13.01239],[-38.50273,-13.01216],[-38.5028,-13.01216],[-38.50316,-13.01235],[-38.50415,-13.01288],[-38.50417,-13.01289],[-38.50417,-13.0129],[-38.50424,-13.01305],[-38.50434,-13.01318],[-38.5047,-13.01361],[-38.50484,-13.01375],[-38.505,-13.01385],[-38.50517,-13.01393],[-38.50536,-13.01396],[-38.50555,-13.01396],[-38.50574,-13.01393],[-38.50611,-13.01382],[-38.5063,-13.01375],[-38.50647,-13.01364],[-38.50661,-13.01349],[-38.50672,-13.01333],[-38.50689,-13.01299],[-38.50699,-13.01291],[-38.50718,-13.01287],[-38.50781,-13.01281],[-38.50803,-13.01277],[-38.50823,-13.01268],[-38.5086,-13.01247],[-38.50868,-13.01242],[-38.50899,-13.0122],[-38.50948,-13.012],[-38.50964,-13.01199],[-38.50974,-13.01203],[-38.51016,-13.01234],[-38.51031,-13.01242],[-38.51071,-13.01262],[-38.51089,-13.01269],[-38.51107,-13.01272],[-38.51126,-13.01271],[-38.51145,-13.01267],[-38.51162,-13.0126],[-38.51178,-13.0125],[-38.51179,-13.01249],[-38.51183,-13.01251],[-38.51201,-13.01257],[-38.51221,-13.0126],[-38.51241,-13.01259],[-38.5126,-13.01254],[-38.51278,-13.01245],[-38.51281,-13.01243],[-38.51301,-13.01245],[-38.5135,-13.01243],[-38.51407,-13.01242],[-38.51428,-13.01239],[-38.51448,-13.01232],[-38.51516,-13.012],[-38.51535,-13.01188],[-38.51552,-13.01172],[-38.51577,-13.0114],[-38.51588,-13.01141],[-38.51691,-13.01147],[-38.51695,-13.01147],[-38.51751,-13.01148],[-38.51797,-13.01157],[-38.51817,-13.01159],[-38.51838,-13.01156],[-38.5191,-13.0114],[-38.51928,-13.01134],[-38.51976,-13.01114],[-38.51993,-13.01115],[-38.52046,-13.0113],[-38.5205,-13.01132],[-38.52168,-13.01161],[-38.52201,-13.01169],[-38.52206,-13.01171],[-38.52232,-13.01207],[-38.52248,-13.01225],[-38.52267,-13.01238],[-38.52319,-13.01265],[-38.52337,-13.01272],[-38.52356,-13.01276],[-38.52374,-13.01276],[-38.52393,-13.01273],[-38.52458,-13.01254],[-38.52478,-13.01246],[-38.52495,-13.01234],[-38.5251,-13.01219],[-38.52517,-13.01209],[-38.52535,-13.01186],[-38.52546,-13.01167],[-38.52553,-13.01146],[-38.52555,-13.01124],[-38.52555,-13.01114],[-38.52602,-13.01116],[-38.52603,-13.01116],[-38.52829,-13.01125],[-38.52834,-13.01125],[-38.52981,-13.01136],[-38.5311,-13.01161],[-38.53119,-13.01176],[-38.53132,-13.01195],[-38.53165,-13.01232],[-38.53179,-13.01245],[-38.53194,-13.01255],[-38.53211,-13.01262],[-38.53229,-13.01265],[-38.5327,-13.0127],[-38.53294,-13.01269],[-38.53318,-13.01263],[-38.5336,-13.01246],[-38.53372,-13.0124],[-38.53403,-13.01222],[-38.53421,-13.01209],[-38.53435,-13.01193],[-38.53456,-13.01163],[-38.53459,-13.01158],[-38.53471,-13.0114],[-38.53479,-13.01122],[-38.53482,-13.01111],[-38.53649,-13.01095],[-38.5365,-13.01095],[-38.5403,-13.01058],[-38.54034,-13.01057],[-38.54771,-13.00955],[-38.58486,-13.00828],[-38.58505,-13.00825],[-38.58522,-13.0082],[-38.58539,-13.00811],[-38.58553,-13.00799],[-38.58565,-13.00784],[-38.58567,-13.00781],[-38.54004,-13.00781],[-38.49609,-13.00781],[-38.48511,-13.00781],[-38.47412,-13.00781],[-38.46313,-13.00781],[-38.45215,-13.00781]]],[[[-38.32031,-12.89917],[-38.32002,-12.89917],[-38.31981,-12.8992],[-38.31961,-12.89927],[-38.31942,-12.89938],[-38.31927,-12.89952],[-38.31908,-12.89974],[-38.31906,-12.89977],[-38.31825,-12.9008],[-38.31821,-12.90085],[-38.3179,-12.90129],[-38.31603,-12.90224],[-38.31587,-12.90234],[-38.31572,-12.90247],[-38.31561,-12.90263],[-38.31553,-12.90281],[-38.31549,-12.903],[-38.31535,-12.90405],[-38.3133,-12.90364],[-38.31183,-12.90333],[-38.31181,-12.90333],[-38.30985,-12.90297],[-38.30965,-12.90295],[-38.30945,-12.90298],[-38.30926,-12.90304],[-38.30885,-12.90322],[-38.30871,-12.9033],[-38.30871,-12.9033],[-38.30623,-12.9028],[-38.30603,-12.90278],[-38.30584,-12.9028],[-38.30565,-12.90286],[-38.30548,-12.90295],[-38.30532,-12.90307],[-38.3052,-12.90322],[-38.30511,-12.9034],[-38.30505,-12.90359],[-38.30448,-12.9065],[-38.30446,-12.90669],[-38.30448,-12.90689],[-38.30454,-12.90707],[-38.30463,-12.90724],[-38.30475,-12.9074],[-38.3049,-12.90752],[-38.30508,-12.90761],[-38.30526,-12.90767],[-38.30565,-12.90775],[-38.30555,-12.90791],[-38.30474,-12.90903],[-38.30409,-12.9097],[-38.30278,-12.91078],[-38.30264,-12.91092],[-38.30253,-12.91108],[-38.30246,-12.91126],[-38.30242,-12.91146],[-38.30242,-12.91165],[-38.30246,-12.91185],[-38.30253,-12.91203],[-38.30264,-12.91219],[-38.30415,-12.91401],[-38.30542,-12.916],[-38.30798,-12.92006],[-38.30804,-12.92015],[-38.31091,-12.92382],[-38.31358,-12.92784],[-38.31367,-12.92796],[-38.31378,-12.92807],[-38.31481,-12.9289],[-38.31556,-12.92973],[-38.31563,-12.9298],[-38.31748,-12.93148],[-38.3175,-12.93149],[-38.32031,-12.93392],[-38.32031,-12.89917]]],[[[-38.38573,-12.83203],[-38.38517,-12.83133],[-38.38505,-12.83121],[-38.38492,-12.83111],[-38.38355,-12.83027],[-38.38321,-12.82991],[-38.38308,-12.82976],[-38.38303,-12.82961],[-38.38299,-12.82817],[-38.38295,-12.82794],[-38.38287,-12.82773],[-38.38256,-12.82715],[-38.38247,-12.827],[-38.38235,-12.82687],[-38.3822,-12.82676],[-38.38204,-12.82669],[-38.38062,-12.82614],[-38.38,-12.82419],[-38.37998,-12.82258],[-38.37996,-12.82239],[-38.37991,-12.82221],[-38.37982,-12.82204],[-38.3797,-12.8219],[-38.37956,-12.82177],[-38.37939,-12.82168],[-38.37921,-12.82162],[-38.37903,-12.82159],[-38.37784,-12.82154],[-38.37738,-12.82146],[-38.37715,-12.82145],[-38.37693,-12.82149],[-38.37672,-12.82159],[-38.37376,-12.8233],[-38.37366,-12.82336],[-38.37034,-12.82586],[-38.36745,-12.82526],[-38.36727,-12.82524],[-38.3671,-12.82525],[-38.36692,-12.82529],[-38.36676,-12.82537],[-38.36661,-12.82547],[-38.36508,-12.82672],[-38.36414,-12.82699],[-38.36398,-12.82705],[-38.36384,-12.82713],[-38.36371,-12.82724],[-38.36294,-12.82801],[-38.3619,-12.82869],[-38.3618,-12.82877],[-38.36101,-12.82945],[-38.35828,-12.83072],[-38.35815,-12.8308],[-38.35803,-12.83089],[-38.35677,-12.83203],[-38.38573,-12.83203]]],[[[-38.67188,-12.83203],[-38.67188,-12.84892],[-38.67583,-12.84598],[-38.67594,-12.84588],[-38.6794,-12.84241],[-38.67945,-12.84236],[-38.68669,-12.83405],[-38.68674,-12.83399],[-38.69249,-12.8263],[-38.69263,-12.82605],[-38.69431,-12.82158],[-38.69577,-12.81909],[-38.69584,-12.81893],[-38.6968,-12.81635],[-38.69682,-12.81628],[-38.69899,-12.80872],[-38.69902,-12.80857],[-38.69999,-12.80064],[-38.7,-12.80059],[-38.70043,-12.79459],[-38.70043,-12.7945],[-38.70035,-12.78863],[-38.70037,-12.78274],[-38.70037,-12.78264],[-38.6998,-12.777],[-38.69865,-12.76421],[-38.69863,-12.76409],[-38.69637,-12.75362],[-38.69631,-12.75343],[-38.69621,-12.75326],[-38.69609,-12.75312],[-38.69594,-12.753],[-38.69577,-12.7529],[-38.69559,-12.75285],[-38.6954,-12.75283],[-38.67959,-12.75269],[-38.67958,-12.75269],[-38.66293,-12.75279],[-38.64571,-12.75273],[-38.62683,-12.7526],[-38.62676,-12.7526],[-38.62379,-12.75277],[-38.62046,-12.75249],[-38.62037,-12.75249],[-38.61583,-12.75253],[-38.61578,-12.75253],[-38.60842,-12.75299],[-38.59809,-12.75288],[-38.5888,-12.75257],[-38.5887,-12.74933],[-38.58877,-12.74486],[-38.58877,-12.74486],[-38.58881,-12.7415],[-38.58881,-12.74149],[-38.58881,-12.73864],[-38.58881,-12.73862],[-38.5887,-12.73365],[-38.58868,-12.73346],[-38.58862,-12.73328],[-38.58853,-12.73311],[-38.5884,-12.73296],[-38.58826,-12.73284],[-38.58809,-12.73275],[-38.58791,-12.73269],[-38.58772,-12.73267],[-38.58118,-12.73255],[-38.58117,-12.73255],[-38.57818,-12.73254],[-38.57796,-12.73256],[-38.57558,-12.73308],[-38.57555,-12.73309],[-38.56948,-12.73461],[-38.56497,-12.73563],[-38.5604,-12.73567],[-38.55597,-12.73518],[-38.55593,-12.73517],[-38.55134,-12.73487],[-38.55124,-12.73487],[-38.54798,-12.73496],[-38.5477,-12.73501],[-38.54429,-12.73612],[-38.54419,-12.73616],[-38.54124,-12.73748],[-38.53794,-12.73755],[-38.53565,-12.73715],[-38.53543,-12.73713],[-38.53521,-12.73717],[-38.53435,-12.7374],[-38.53343,-12.73733],[-38.53321,-12.73734],[-38.533,-12.7374],[-38.53281,-12.7375],[-38.52864,-12.74024],[-38.52269,-12.74256],[-38.51916,-12.7426],[-38.51733,-12.74232],[-38.51709,-12.74231],[-38.51498,-12.74249],[-38.51478,-12.74253],[-38.5146,-12.74261],[-38.51134,-12.74434],[-38.51125,-12.7444],[-38.50988,-12.74533],[-38.50968,-12.7455],[-38.50839,-12.74701],[-38.50829,-12.74714],[-38.50822,-12.74729],[-38.50817,-12.74745],[-38.50772,-12.74952],[-38.5077,-12.74974],[-38.50772,-12.75202],[-38.50773,-12.75213],[-38.50815,-12.75587],[-38.50788,-12.76015],[-38.50788,-12.76022],[-38.50789,-12.76165],[-38.50767,-12.76359],[-38.50704,-12.76562],[-38.50701,-12.76578],[-38.50663,-12.76854],[-38.50548,-12.77182],[-38.50546,-12.77188],[-38.50467,-12.77471],[-38.50293,-12.7785],[-38.50052,-12.78204],[-38.49901,-12.7836],[-38.4971,-12.78493],[-38.49701,-12.785],[-38.49495,-12.78678],[-38.49277,-12.7883],[-38.49102,-12.7895],[-38.48912,-12.78963],[-38.48661,-12.78847],[-38.48439,-12.78706],[-38.48243,-12.7853],[-38.481,-12.78368],[-38.48085,-12.78355],[-38.48069,-12.78345],[-38.48051,-12.78338],[-38.47929,-12.78305],[-38.47905,-12.78301],[-38.47881,-12.78303],[-38.47753,-12.78331],[-38.47468,-12.7831],[-38.4745,-12.7831],[-38.47432,-12.78314],[-38.47131,-12.78404],[-38.47122,-12.78407],[-38.46822,-12.78528],[-38.46798,-12.78542],[-38.46537,-12.78744],[-38.46534,-12.78746],[-38.46166,-12.79056],[-38.46152,-12.7907],[-38.46141,-12.79087],[-38.46003,-12.79362],[-38.45997,-12.79379],[-38.45993,-12.79398],[-38.45972,-12.79634],[-38.45972,-12.79656],[-38.46011,-12.79957],[-38.46017,-12.79978],[-38.46027,-12.79998],[-38.46161,-12.80204],[-38.46252,-12.80406],[-38.46353,-12.80745],[-38.46444,-12.81068],[-38.46446,-12.81075],[-38.46522,-12.81283],[-38.46514,-12.81591],[-38.4641,-12.82045],[-38.46331,-12.82319],[-38.46327,-12.82347],[-38.4633,-12.82636],[-38.46268,-12.82825],[-38.46203,-12.82855],[-38.46201,-12.82856],[-38.45999,-12.82956],[-38.45991,-12.8296],[-38.45734,-12.83119],[-38.4572,-12.8313],[-38.45708,-12.83142],[-38.45698,-12.83157],[-38.45691,-12.83173],[-38.45681,-12.83203],[-38.67188,-12.83203]]]]},"properties":{"ghs":"7js","size":183.74,"ghs_len":3,"ghs_area":236.87,"ghs_bytes":1121920,"ghs_items":1396,"size_unit":"km","ghsval_unit":"bytes","ghs_itemsdensity":5.89,"size_unitdensity":0.78}},{"type":"Feature","geometry":{"type":"Polygon","coordinates":[[[-38.45681,-12.83203],[-38.45347,-12.84207],[-38.44977,-12.84478],[-38.44831,-12.84311],[-38.44829,-12.84309],[-38.44445,-12.83896],[-38.4443,-12.83883],[-38.44413,-12.83873],[-38.44394,-12.83866],[-38.44375,-12.83864],[-38.44355,-12.83865],[-38.44098,-12.83907],[-38.44075,-12.83914],[-38.44054,-12.83926],[-38.43386,-12.8443],[-38.43152,-12.84486],[-38.4313,-12.84494],[-38.4311,-12.84507],[-38.42748,-12.84815],[-38.42733,-12.84831],[-38.42722,-12.84849],[-38.42715,-12.8487],[-38.42712,-12.84891],[-38.42715,-12.84912],[-38.428,-12.85316],[-38.42831,-12.85707],[-38.42367,-12.8542],[-38.42349,-12.85412],[-38.4233,-12.85407],[-38.4231,-12.85406],[-38.42291,-12.85408],[-38.42272,-12.85415],[-38.42255,-12.85425],[-38.4224,-12.85438],[-38.42228,-12.85454],[-38.42062,-12.85731],[-38.41639,-12.86436],[-38.4096,-12.86924],[-38.40948,-12.86925],[-38.40926,-12.8693],[-38.40906,-12.8694],[-38.40889,-12.86954],[-38.40802,-12.87042],[-38.40785,-12.87065],[-38.40776,-12.87081],[-38.40704,-12.87125],[-38.40688,-12.87137],[-38.40675,-12.87151],[-38.40666,-12.87168],[-38.40644,-12.87214],[-38.40596,-12.87185],[-38.40578,-12.87176],[-38.40558,-12.87171],[-38.40537,-12.8717],[-38.40517,-12.87174],[-38.40498,-12.87181],[-38.40481,-12.87192],[-38.40477,-12.87196],[-38.40432,-12.87195],[-38.40342,-12.87173],[-38.40341,-12.87159],[-38.40337,-12.87139],[-38.40317,-12.87076],[-38.40308,-12.87056],[-38.40294,-12.87039],[-38.40271,-12.87013],[-38.40265,-12.87008],[-38.40291,-12.86913],[-38.40294,-12.86896],[-38.40298,-12.86892],[-38.40311,-12.86879],[-38.4032,-12.86864],[-38.40327,-12.86847],[-38.40333,-12.86829],[-38.40337,-12.86809],[-38.40336,-12.86788],[-38.40332,-12.86768],[-38.40323,-12.86749],[-38.40311,-12.86733],[-38.40296,-12.86719],[-38.40074,-12.86557],[-38.40059,-12.86519],[-38.40086,-12.86443],[-38.40148,-12.86353],[-38.40159,-12.86332],[-38.40192,-12.86243],[-38.40198,-12.86222],[-38.40198,-12.862],[-38.40194,-12.86179],[-38.40182,-12.8614],[-38.40173,-12.86119],[-38.4016,-12.86101],[-38.40128,-12.86067],[-38.40099,-12.86031],[-38.40082,-12.85973],[-38.40075,-12.85955],[-38.40064,-12.85939],[-38.40051,-12.85925],[-38.40036,-12.85914],[-38.40018,-12.85906],[-38.4,-12.85902],[-38.3998,-12.85901],[-38.39879,-12.85906],[-38.39768,-12.85879],[-38.39747,-12.8587],[-38.39714,-12.85842],[-38.39429,-12.85495],[-38.39416,-12.85481],[-38.394,-12.8547],[-38.39382,-12.85463],[-38.39363,-12.85459],[-38.39344,-12.85459],[-38.39162,-12.85473],[-38.39131,-12.85435],[-38.39116,-12.85359],[-38.39126,-12.85221],[-38.39152,-12.85106],[-38.39265,-12.85015],[-38.39282,-12.84998],[-38.39294,-12.84977],[-38.3939,-12.84755],[-38.39396,-12.84738],[-38.39398,-12.8472],[-38.39409,-12.84473],[-38.39406,-12.84445],[-38.3939,-12.8438],[-38.39384,-12.84361],[-38.39374,-12.84344],[-38.39361,-12.8433],[-38.39345,-12.84318],[-38.39206,-12.84234],[-38.3905,-12.84054],[-38.39059,-12.83959],[-38.39059,-12.83939],[-38.39055,-12.8392],[-38.39047,-12.83902],[-38.38971,-12.83762],[-38.38969,-12.8362],[-38.38968,-12.83604],[-38.38964,-12.83589],[-38.38924,-12.83471],[-38.38915,-12.83451],[-38.38901,-12.83433],[-38.38884,-12.83419],[-38.38684,-12.8329],[-38.38587,-12.83221],[-38.38573,-12.83203],[-38.35677,-12.83203],[-38.35635,-12.83241],[-38.3563,-12.83247],[-38.35464,-12.83422],[-38.35461,-12.83425],[-38.35402,-12.83492],[-38.35392,-12.83506],[-38.35384,-12.83522],[-38.35249,-12.83878],[-38.35245,-12.83893],[-38.35243,-12.83908],[-38.35237,-12.84019],[-38.35211,-12.8421],[-38.35085,-12.84925],[-38.35084,-12.8494],[-38.35079,-12.85186],[-38.35079,-12.85202],[-38.35083,-12.85217],[-38.35351,-12.86129],[-38.35367,-12.8655],[-38.35371,-12.8671],[-38.35371,-12.86711],[-38.35382,-12.87057],[-38.35392,-12.87367],[-38.35412,-12.87972],[-38.35399,-12.88485],[-38.35399,-12.88486],[-38.35389,-12.88942],[-38.35389,-12.88944],[-38.35392,-12.8941],[-38.3527,-12.89486],[-38.35135,-12.89568],[-38.35134,-12.89568],[-38.34818,-12.89765],[-38.34277,-12.901],[-38.34267,-12.90108],[-38.34086,-12.90256],[-38.34072,-12.9027],[-38.34061,-12.90286],[-38.34053,-12.90304],[-38.3405,-12.90324],[-38.3405,-12.90343],[-38.34053,-12.90363],[-38.34061,-12.90381],[-38.34072,-12.90397],[-38.34086,-12.90411],[-38.34102,-12.90422],[-38.3412,-12.90429],[-38.3414,-12.90433],[-38.3415,-12.90434],[-38.34163,-12.90435],[-38.34163,-12.90435],[-38.3417,-12.90438],[-38.34127,-12.90482],[-38.34117,-12.90494],[-38.34083,-12.90542],[-38.34081,-12.90546],[-38.34077,-12.90552],[-38.34032,-12.90524],[-38.33967,-12.90306],[-38.3396,-12.90288],[-38.3395,-12.90273],[-38.33937,-12.90259],[-38.33922,-12.90248],[-38.33905,-12.9024],[-38.33886,-12.90235],[-38.33868,-12.90234],[-38.33767,-12.90238],[-38.33758,-12.90239],[-38.33635,-12.90255],[-38.3357,-12.90242],[-38.33551,-12.9024],[-38.33531,-12.90241],[-38.33513,-12.90247],[-38.33496,-12.90255],[-38.3348,-12.90268],[-38.33447,-12.903],[-38.33438,-12.90297],[-38.33435,-12.90296],[-38.33273,-12.90238],[-38.33256,-12.90204],[-38.33251,-12.90196],[-38.3321,-12.90128],[-38.332,-12.90115],[-38.33088,-12.89986],[-38.33084,-12.89982],[-38.33041,-12.89939],[-38.33039,-12.89937],[-38.32918,-12.89821],[-38.32911,-12.89815],[-38.3286,-12.89775],[-38.32844,-12.89765],[-38.32827,-12.89758],[-38.32808,-12.89754],[-38.32789,-12.89754],[-38.3277,-12.89758],[-38.32753,-12.89765],[-38.32737,-12.89775],[-38.32707,-12.89798],[-38.32697,-12.89804],[-38.32678,-12.8981],[-38.32644,-12.8982],[-38.32628,-12.89826],[-38.32579,-12.89848],[-38.32538,-12.89863],[-38.32517,-12.89874],[-38.3251,-12.89878],[-38.32497,-12.89888],[-38.3249,-12.89895],[-38.3248,-12.89906],[-38.32471,-12.89917],[-38.32461,-12.89934],[-38.32457,-12.89942],[-38.32438,-12.89967],[-38.3236,-12.89943],[-38.32359,-12.89943],[-38.32299,-12.89925],[-38.32287,-12.89922],[-38.32271,-12.89919],[-38.32253,-12.89918],[-38.32229,-12.89918],[-38.32152,-12.89917],[-38.3215,-12.89917],[-38.32031,-12.89917],[-38.32031,-12.93392],[-38.32129,-12.93476],[-38.32133,-12.93479],[-38.32325,-12.93628],[-38.32495,-12.93798],[-38.32843,-12.94152],[-38.32916,-12.94235],[-38.32924,-12.94243],[-38.33021,-12.9433],[-38.33217,-12.94521],[-38.33238,-12.94536],[-38.33434,-12.94645],[-38.33442,-12.94648],[-38.33635,-12.94735],[-38.33727,-12.94801],[-38.33881,-12.94936],[-38.33982,-12.9503],[-38.33984,-12.95032],[-38.34188,-12.95211],[-38.34328,-12.95343],[-38.34347,-12.95358],[-38.3437,-12.95367],[-38.34474,-12.95396],[-38.34552,-12.95427],[-38.34672,-12.955],[-38.34681,-12.95505],[-38.34782,-12.95552],[-38.348,-12.95558],[-38.34818,-12.95561],[-38.34863,-12.95564],[-38.34875,-12.95571],[-38.349,-12.95601],[-38.34913,-12.95615],[-38.34929,-12.95625],[-38.35011,-12.9567],[-38.35015,-12.95672],[-38.3509,-12.95709],[-38.35139,-12.95765],[-38.35153,-12.95778],[-38.35169,-12.95788],[-38.35317,-12.95862],[-38.35337,-12.95869],[-38.35358,-12.95872],[-38.35466,-12.95876],[-38.35493,-12.95884],[-38.35505,-12.95893],[-38.3557,-12.95959],[-38.35584,-12.95971],[-38.35655,-12.9602],[-38.35668,-12.96028],[-38.35683,-12.96033],[-38.35746,-12.96052],[-38.35796,-12.96082],[-38.3586,-12.96143],[-38.35873,-12.96153],[-38.35886,-12.96161],[-38.3594,-12.96186],[-38.35958,-12.96192],[-38.35977,-12.96195],[-38.35996,-12.96195],[-38.36015,-12.9619],[-38.36032,-12.96183],[-38.36047,-12.96172],[-38.36061,-12.96158],[-38.36071,-12.96142],[-38.36099,-12.9609],[-38.36105,-12.96076],[-38.36148,-12.95955],[-38.36151,-12.95947],[-38.36169,-12.95879],[-38.36172,-12.95861],[-38.36171,-12.95842],[-38.36167,-12.95824],[-38.3616,-12.95806],[-38.36124,-12.95739],[-38.3611,-12.95719],[-38.36075,-12.9568],[-38.36095,-12.95656],[-38.36097,-12.95653],[-38.36148,-12.95588],[-38.36151,-12.95584],[-38.36192,-12.95526],[-38.36291,-12.95439],[-38.36407,-12.95351],[-38.36419,-12.9534],[-38.36429,-12.95327],[-38.36483,-12.95248],[-38.36491,-12.95237],[-38.36493,-12.95238],[-38.36564,-12.95269],[-38.36579,-12.95274],[-38.36595,-12.95276],[-38.36674,-12.95283],[-38.36681,-12.95283],[-38.3675,-12.95284],[-38.36771,-12.95283],[-38.36791,-12.95276],[-38.36839,-12.95256],[-38.36842,-12.95255],[-38.3689,-12.95232],[-38.36946,-12.95232],[-38.3698,-12.95245],[-38.37019,-12.95266],[-38.37022,-12.95267],[-38.37086,-12.95299],[-38.37103,-12.95305],[-38.3712,-12.95308],[-38.37197,-12.95316],[-38.37248,-12.95348],[-38.37265,-12.95356],[-38.37283,-12.95362],[-38.3735,-12.95374],[-38.37372,-12.95376],[-38.37429,-12.95374],[-38.37463,-12.95381],[-38.37516,-12.95406],[-38.37558,-12.95432],[-38.37609,-12.95471],[-38.37637,-12.955],[-38.37676,-12.95593],[-38.37682,-12.95603],[-38.37706,-12.95646],[-38.37715,-12.95696],[-38.37719,-12.95711],[-38.37734,-12.95753],[-38.37742,-12.95768],[-38.37752,-12.95783],[-38.37764,-12.95795],[-38.37793,-12.9582],[-38.37812,-12.95833],[-38.37833,-12.95841],[-38.37855,-12.95844],[-38.37884,-12.95845],[-38.37903,-12.95844],[-38.37921,-12.9584],[-38.37938,-12.95832],[-38.37953,-12.95821],[-38.37966,-12.95808],[-38.37991,-12.95777],[-38.38016,-12.95752],[-38.38088,-12.95721],[-38.38213,-12.95706],[-38.38348,-12.9572],[-38.38473,-12.95759],[-38.3874,-12.95857],[-38.38982,-12.95983],[-38.39285,-12.9617],[-38.393,-12.96178],[-38.39414,-12.96223],[-38.39508,-12.96274],[-38.3951,-12.96276],[-38.39716,-12.96379],[-38.39809,-12.96427],[-38.3989,-12.9649],[-38.39893,-12.96491],[-38.40021,-12.96585],[-38.40154,-12.96685],[-38.40224,-12.96757],[-38.40244,-12.96773],[-38.40335,-12.96829],[-38.40337,-12.96829],[-38.40366,-12.96847],[-38.40388,-12.96874],[-38.404,-12.96886],[-38.40499,-12.96973],[-38.40501,-12.96974],[-38.40614,-12.97068],[-38.40628,-12.97078],[-38.40761,-12.97154],[-38.4082,-12.97196],[-38.4082,-12.96387],[-38.4082,-12.91992],[-38.45215,-12.91992],[-38.45215,-12.87598],[-38.49609,-12.87598],[-38.49609,-12.91992],[-38.54004,-12.91992],[-38.54004,-12.96387],[-38.54004,-13.00781],[-38.58567,-13.00781],[-38.58574,-13.00768],[-38.5858,-13.0075],[-38.58583,-13.00732],[-38.58582,-13.00713],[-38.585,-13.0016],[-38.58499,-13.00155],[-38.58293,-12.99151],[-38.58286,-12.9913],[-38.57829,-12.98125],[-38.57439,-12.9727],[-38.57346,-12.9706],[-38.57335,-12.97041],[-38.5732,-12.97024],[-38.57029,-12.96779],[-38.57023,-12.96774],[-38.5601,-12.96041],[-38.55835,-12.95655],[-38.55825,-12.95638],[-38.55812,-12.95623],[-38.55519,-12.95353],[-38.55708,-12.94994],[-38.55961,-12.94564],[-38.5597,-12.94544],[-38.55974,-12.94523],[-38.56023,-12.94023],[-38.56023,-12.9402],[-38.56047,-12.93665],[-38.56101,-12.93323],[-38.56232,-12.93118],[-38.56241,-12.931],[-38.56246,-12.93081],[-38.56248,-12.93061],[-38.5624,-12.92747],[-38.56376,-12.92388],[-38.56454,-12.92233],[-38.56458,-12.92223],[-38.56651,-12.91712],[-38.56916,-12.91337],[-38.57568,-12.90569],[-38.58632,-12.89449],[-38.59496,-12.88926],[-38.60423,-12.88415],[-38.6127,-12.87974],[-38.62228,-12.87561],[-38.62235,-12.87558],[-38.65913,-12.8566],[-38.66261,-12.85497],[-38.66272,-12.85491],[-38.66542,-12.85319],[-38.66543,-12.85319],[-38.67106,-12.84953],[-38.67111,-12.84949],[-38.67188,-12.84892],[-38.67188,-12.83203],[-38.45681,-12.83203]]]},"properties":{"ghs":"7jsw","size":306.69,"ghs_len":4,"ghs_area":320.17,"ghs_bytes":1806617,"ghs_items":1831,"size_unit":"km","ghsval_unit":"bytes","ghs_itemsdensity":5.72,"size_unitdensity":0.96}},{"type":"Feature","geometry":{"type":"Polygon","coordinates":[[[-38.49609,-12.96387],[-38.49609,-12.96936],[-38.49609,-12.97485],[-38.49609,-12.98035],[-38.49609,-12.98584],[-38.50708,-12.98584],[-38.50708,-12.99133],[-38.51807,-12.99133],[-38.51807,-12.99683],[-38.50708,-12.99683],[-38.50708,-13.00232],[-38.49609,-13.00232],[-38.49609,-13.00781],[-38.54004,-13.00781],[-38.54004,-12.96387],[-38.49609,-12.96387]]]},"properties":{"ghs":"7jsw5","size":494.32,"ghs_len":5,"ghs_area":20.28,"ghs_bytes":2719801,"ghs_items":3120,"size_unit":"km","ghsval_unit":"bytes","ghs_itemsdensity":153.83,"size_unitdensity":24.37}},{"type":"Feature","geometry":{"type":"Polygon","coordinates":[[[-38.50708,-12.99683],[-38.49609,-12.99683],[-38.49609,-13.00232],[-38.50708,-13.00232],[-38.50708,-12.99683]]]},"properties":{"ghs":"7jsw5c","size":33.92,"ghs_len":6,"ghs_area":0.72,"ghs_bytes":240807,"ghs_items":318,"size_unit":"km","ghsval_unit":"bytes","ghs_itemsdensity":439.04,"size_unitdensity":46.83}},{"type":"Feature","geometry":{"type":"Polygon","coordinates":[[[-38.51807,-12.99133],[-38.50708,-12.99133],[-38.50708,-12.99683],[-38.51807,-12.99683],[-38.51807,-12.99133]]]},"properties":{"ghs":"7jsw5d","size":36.13,"ghs_len":6,"ghs_area":0.72,"ghs_bytes":223305,"ghs_items":239,"size_unit":"km","ghsval_unit":"bytes","ghs_itemsdensity":329.97,"size_unitdensity":49.88}},{"type":"Feature","geometry":{"type":"Polygon","coordinates":[[[-38.50708,-12.99133],[-38.49609,-12.99133],[-38.49609,-12.99683],[-38.50708,-12.99683],[-38.50708,-12.99133]]]},"properties":{"ghs":"7jsw5f","size":36.31,"ghs_len":6,"ghs_area":0.72,"ghs_bytes":259311,"ghs_items":306,"size_unit":"km","ghsval_unit":"bytes","ghs_itemsdensity":422.47,"size_unitdensity":50.13}},{"type":"Feature","geometry":{"type":"Polygon","coordinates":[[[-38.50708,-12.98584],[-38.49609,-12.98584],[-38.49609,-12.99133],[-38.50708,-12.99133],[-38.50708,-12.98584]]]},"properties":{"ghs":"7jsw5g","size":36.52,"ghs_len":6,"ghs_area":0.72,"ghs_bytes":264234,"ghs_items":408,"size_unit":"km","ghsval_unit":"bytes","ghs_itemsdensity":563.28,"size_unitdensity":50.42}},{"type":"Feature","geometry":{"type":"Polygon","coordinates":[[[-38.49609,-12.91992],[-38.49609,-12.92542],[-38.49609,-12.93091],[-38.49609,-12.9364],[-38.49609,-12.94189],[-38.49609,-12.94739],[-38.49609,-12.95288],[-38.49609,-12.95837],[-38.49609,-12.96387],[-38.54004,-12.96387],[-38.54004,-12.91992],[-38.49609,-12.91992]]]},"properties":{"ghs":"7jsw7","size":310.77,"ghs_len":5,"ghs_area":23.18,"ghs_bytes":1602120,"ghs_items":2465,"size_unit":"km","ghsval_unit":"bytes","ghs_itemsdensity":106.33,"size_unitdensity":13.41}},{"type":"Feature","geometry":{"type":"MultiPolygon","coordinates":[[[[-38.48511,-13.00232],[-38.48511,-13.00781],[-38.49609,-13.00781],[-38.49609,-13.00232],[-38.48511,-13.00232]]],[[[-38.48511,-12.98584],[-38.48511,-12.99133],[-38.49609,-12.99133],[-38.49609,-12.98584],[-38.48511,-12.98584]]],[[[-38.48511,-12.96936],[-38.47412,-12.96936],[-38.47412,-12.97485],[-38.47412,-12.98035],[-38.46313,-12.98035],[-38.46313,-12.97485],[-38.45215,-12.97485],[-38.45215,-13.00781],[-38.46313,-13.00781],[-38.46313,-13.00232],[-38.47412,-13.00232],[-38.47412,-12.99683],[-38.48511,-12.99683],[-38.48511,-12.99133],[-38.47412,-12.99133],[-38.47412,-12.98584],[-38.48511,-12.98584],[-38.48511,-12.98035],[-38.48511,-12.97485],[-38.49609,-12.97485],[-38.49609,-12.96936],[-38.48511,-12.96936]]],[[[-38.45215,-12.96936],[-38.46313,-12.96936],[-38.47412,-12.96936],[-38.47412,-12.96387],[-38.45215,-12.96387],[-38.45215,-12.96936]]]]},"properties":{"ghs":"7jswh","size":504.26,"ghs_len":5,"ghs_area":13.76,"ghs_bytes":2692258,"ghs_items":2836,"size_unit":"km","ghsval_unit":"bytes","ghs_itemsdensity":206.07,"size_unitdensity":36.64}},{"type":"Feature","geometry":{"type":"Polygon","coordinates":[[[-38.49609,-12.99683],[-38.48511,-12.99683],[-38.48511,-13.00232],[-38.49609,-13.00232],[-38.49609,-12.99683]]]},"properties":{"ghs":"7jswh1","size":33.71,"ghs_len":6,"ghs_area":0.72,"ghs_bytes":226433,"ghs_items":245,"size_unit":"km","ghsval_unit":"bytes","ghs_itemsdensity":338.26,"size_unitdensity":46.54}},{"type":"Feature","geometry":{"type":"Polygon","coordinates":[[[-38.48511,-13.00232],[-38.47412,-13.00232],[-38.47412,-13.00781],[-38.48511,-13.00781],[-38.48511,-13.00232]]]},"properties":{"ghs":"7jswh2","size":47.49,"ghs_len":6,"ghs_area":0.72,"ghs_bytes":372868,"ghs_items":521,"size_unit":"km","ghsval_unit":"bytes","ghs_itemsdensity":719.33,"size_unitdensity":65.57}},{"type":"Feature","geometry":{"type":"Polygon","coordinates":[[[-38.48511,-12.99683],[-38.47412,-12.99683],[-38.47412,-13.00232],[-38.48511,-13.00232],[-38.48511,-12.99683]]]},"properties":{"ghs":"7jswh3","size":25.99,"ghs_len":6,"ghs_area":0.72,"ghs_bytes":189934,"ghs_items":173,"size_unit":"km","ghsval_unit":"bytes","ghs_itemsdensity":238.85,"size_unitdensity":35.89}},{"type":"Feature","geometry":{"type":"Polygon","coordinates":[[[-38.49609,-12.99133],[-38.48511,-12.99133],[-38.48511,-12.99683],[-38.49609,-12.99683],[-38.49609,-12.99133]]]},"properties":{"ghs":"7jswh4","size":30.78,"ghs_len":6,"ghs_area":0.72,"ghs_bytes":219006,"ghs_items":246,"size_unit":"km","ghsval_unit":"bytes","ghs_itemsdensity":339.63,"size_unitdensity":42.5}},{"type":"Feature","geometry":{"type":"Polygon","coordinates":[[[-38.48511,-12.98584],[-38.47412,-12.98584],[-38.47412,-12.99133],[-38.48511,-12.99133],[-38.48511,-12.98584]]]},"properties":{"ghs":"7jswh7","size":30.68,"ghs_len":6,"ghs_area":0.72,"ghs_bytes":210349,"ghs_items":280,"size_unit":"km","ghsval_unit":"bytes","ghs_itemsdensity":386.56,"size_unitdensity":42.36}},{"type":"Feature","geometry":{"type":"Polygon","coordinates":[[[-38.47412,-13.00232],[-38.46313,-13.00232],[-38.46313,-13.00781],[-38.47412,-13.00781],[-38.47412,-13.00232]]]},"properties":{"ghs":"7jswh8","size":29.84,"ghs_len":6,"ghs_area":0.72,"ghs_bytes":224633,"ghs_items":291,"size_unit":"km","ghsval_unit":"bytes","ghs_itemsdensity":401.78,"size_unitdensity":41.19}},{"type":"Feature","geometry":{"type":"Polygon","coordinates":[[[-38.49609,-12.98035],[-38.48511,-12.98035],[-38.48511,-12.98584],[-38.49609,-12.98584],[-38.49609,-12.98035]]]},"properties":{"ghs":"7jswhh","size":33.77,"ghs_len":6,"ghs_area":0.72,"ghs_bytes":213265,"ghs_items":301,"size_unit":"km","ghsval_unit":"bytes","ghs_itemsdensity":415.55,"size_unitdensity":46.63}},{"type":"Feature","geometry":{"type":"Polygon","coordinates":[[[-38.49609,-12.97485],[-38.48511,-12.97485],[-38.48511,-12.98035],[-38.49609,-12.98035],[-38.49609,-12.97485]]]},"properties":{"ghs":"7jswhj","size":37.08,"ghs_len":6,"ghs_area":0.72,"ghs_bytes":274319,"ghs_items":426,"size_unit":"km","ghsval_unit":"bytes","ghs_itemsdensity":588.1,"size_unitdensity":51.19}},{"type":"Feature","geometry":{"type":"Polygon","coordinates":[[[-38.49609,-12.96387],[-38.48511,-12.96387],[-38.48511,-12.96936],[-38.49609,-12.96936],[-38.49609,-12.96387]]]},"properties":{"ghs":"7jswhp","size":36.78,"ghs_len":6,"ghs_area":0.72,"ghs_bytes":238853,"ghs_items":248,"size_unit":"km","ghsval_unit":"bytes","ghs_itemsdensity":342.35,"size_unitdensity":50.78}},{"type":"Feature","geometry":{"type":"Polygon","coordinates":[[[-38.48511,-12.96387],[-38.47412,-12.96387],[-38.47412,-12.96936],[-38.48511,-12.96936],[-38.48511,-12.96387]]]},"properties":{"ghs":"7jswhr","size":34.07,"ghs_len":6,"ghs_area":0.72,"ghs_bytes":199487,"ghs_items":246,"size_unit":"km","ghsval_unit":"bytes","ghs_itemsdensity":339.59,"size_unitdensity":47.03}},{"type":"Feature","geometry":{"type":"Polygon","coordinates":[[[-38.47412,-12.97485],[-38.46313,-12.97485],[-38.46313,-12.98035],[-38.47412,-12.98035],[-38.47412,-12.97485]]]},"properties":{"ghs":"7jswht","size":33.81,"ghs_len":6,"ghs_area":0.72,"ghs_bytes":214707,"ghs_items":208,"size_unit":"km","ghsval_unit":"bytes","ghs_itemsdensity":287.15,"size_unitdensity":46.67}},{"type":"Feature","geometry":{"type":"Polygon","coordinates":[[[-38.47412,-12.96936],[-38.46313,-12.96936],[-38.46313,-12.97485],[-38.47412,-12.97485],[-38.47412,-12.96936]]]},"properties":{"ghs":"7jswhw","size":28.29,"ghs_len":6,"ghs_area":0.72,"ghs_bytes":216594,"ghs_items":306,"size_unit":"km","ghsval_unit":"bytes","ghs_itemsdensity":422.43,"size_unitdensity":39.05}},{"type":"Feature","geometry":{"type":"Polygon","coordinates":[[[-38.46313,-12.96936],[-38.45215,-12.96936],[-38.45215,-12.97485],[-38.46313,-12.97485],[-38.46313,-12.96936]]]},"properties":{"ghs":"7jswhy","size":41.79,"ghs_len":6,"ghs_area":0.72,"ghs_bytes":319565,"ghs_items":547,"size_unit":"km","ghsval_unit":"bytes","ghs_itemsdensity":755.13,"size_unitdensity":57.69}},{"type":"Feature","geometry":{"type":"Polygon","coordinates":[[[-38.45215,-12.96936],[-38.45215,-12.96387],[-38.4082,-12.96387],[-38.4082,-12.97196],[-38.40872,-12.97233],[-38.40879,-12.97238],[-38.41036,-12.9733],[-38.41197,-12.97443],[-38.41201,-12.97445],[-38.41573,-12.97682],[-38.41654,-12.97745],[-38.41756,-12.97824],[-38.41841,-12.97894],[-38.41854,-12.97902],[-38.41868,-12.97909],[-38.41972,-12.9795],[-38.4199,-12.97955],[-38.42009,-12.97957],[-38.42088,-12.97956],[-38.42107,-12.97954],[-38.42125,-12.97948],[-38.4215,-12.97938],[-38.42248,-12.98001],[-38.42378,-12.98103],[-38.42379,-12.98104],[-38.42649,-12.98313],[-38.42649,-12.98313],[-38.42925,-12.98525],[-38.43179,-12.98732],[-38.43281,-12.98823],[-38.43365,-12.98926],[-38.43366,-12.98928],[-38.43549,-12.99146],[-38.4355,-12.99147],[-38.43733,-12.99359],[-38.43894,-12.99569],[-38.43914,-12.99624],[-38.43914,-12.99658],[-38.43917,-12.99681],[-38.43925,-12.99702],[-38.43944,-12.99739],[-38.43951,-12.9975],[-38.43986,-12.99802],[-38.4401,-12.99875],[-38.44019,-12.99893],[-38.44031,-12.9991],[-38.44047,-12.99924],[-38.44065,-12.99934],[-38.44084,-12.99941],[-38.44105,-12.99943],[-38.44165,-12.99943],[-38.44215,-12.99962],[-38.4423,-12.99966],[-38.44245,-12.99968],[-38.44372,-12.99975],[-38.44385,-12.99975],[-38.4443,-12.99971],[-38.44469,-12.99987],[-38.44518,-13.00012],[-38.44541,-13.00021],[-38.44597,-13.00034],[-38.44633,-13.0005],[-38.44676,-13.00101],[-38.44678,-13.00103],[-38.44781,-13.00217],[-38.44786,-13.00222],[-38.44839,-13.00273],[-38.44886,-13.00334],[-38.44895,-13.00345],[-38.45007,-13.00456],[-38.45017,-13.00465],[-38.45071,-13.00505],[-38.45109,-13.0056],[-38.45144,-13.00634],[-38.45181,-13.00719],[-38.4519,-13.00781],[-38.45215,-13.00781],[-38.45215,-12.97485],[-38.45215,-12.96936]]]},"properties":{"ghs":"7jswj","size":400.58,"ghs_len":5,"ghs_area":12.66,"ghs_bytes":2089257,"ghs_items":2264,"size_unit":"km","ghsval_unit":"bytes","ghs_itemsdensity":178.77,"size_unitdensity":31.63}},{"type":"Feature","geometry":{"type":"MultiPolygon","coordinates":[[[[-38.48511,-12.93091],[-38.48511,-12.9364],[-38.49609,-12.9364],[-38.49609,-12.93091],[-38.48511,-12.93091]]],[[[-38.48511,-12.91992],[-38.48511,-12.92542],[-38.49609,-12.92542],[-38.49609,-12.91992],[-38.48511,-12.91992]]],[[[-38.45215,-12.94189],[-38.46313,-12.94189],[-38.46313,-12.94739],[-38.46313,-12.95288],[-38.45215,-12.95288],[-38.45215,-12.96387],[-38.47412,-12.96387],[-38.47412,-12.95837],[-38.47412,-12.95288],[-38.48511,-12.95288],[-38.48511,-12.94739],[-38.47412,-12.94739],[-38.47412,-12.94189],[-38.47412,-12.9364],[-38.46313,-12.9364],[-38.46313,-12.93091],[-38.47412,-12.93091],[-38.47412,-12.92542],[-38.47412,-12.91992],[-38.45215,-12.91992],[-38.45215,-12.94189]]]]},"properties":{"ghs":"7jswk","size":463.54,"ghs_len":5,"ghs_area":11.59,"ghs_bytes":2752911,"ghs_items":3306,"size_unit":"km","ghsval_unit":"bytes","ghs_itemsdensity":285.21,"size_unitdensity":39.99}},{"type":"Feature","geometry":{"type":"Polygon","coordinates":[[[-38.49609,-12.95837],[-38.48511,-12.95837],[-38.48511,-12.96387],[-38.49609,-12.96387],[-38.49609,-12.95837]]]},"properties":{"ghs":"7jswk0","size":43.06,"ghs_len":6,"ghs_area":0.72,"ghs_bytes":297655,"ghs_items":474,"size_unit":"km","ghsval_unit":"bytes","ghs_itemsdensity":654.32,"size_unitdensity":59.44}},{"type":"Feature","geometry":{"type":"Polygon","coordinates":[[[-38.49609,-12.95288],[-38.48511,-12.95288],[-38.48511,-12.95837],[-38.49609,-12.95837],[-38.49609,-12.95288]]]},"properties":{"ghs":"7jswk1","size":48.54,"ghs_len":6,"ghs_area":0.72,"ghs_bytes":349534,"ghs_items":540,"size_unit":"km","ghsval_unit":"bytes","ghs_itemsdensity":745.42,"size_unitdensity":67}},{"type":"Feature","geometry":{"type":"Polygon","coordinates":[[[-38.48511,-12.95837],[-38.47412,-12.95837],[-38.47412,-12.96387],[-38.48511,-12.96387],[-38.48511,-12.95837]]]},"properties":{"ghs":"7jswk2","size":32.66,"ghs_len":6,"ghs_area":0.72,"ghs_bytes":207899,"ghs_items":294,"size_unit":"km","ghsval_unit":"bytes","ghs_itemsdensity":405.85,"size_unitdensity":45.09}},{"type":"Feature","geometry":{"type":"Polygon","coordinates":[[[-38.48511,-12.95288],[-38.47412,-12.95288],[-38.47412,-12.95837],[-38.48511,-12.95837],[-38.48511,-12.95288]]]},"properties":{"ghs":"7jswk3","size":33.45,"ghs_len":6,"ghs_area":0.72,"ghs_bytes":240840,"ghs_items":256,"size_unit":"km","ghsval_unit":"bytes","ghs_itemsdensity":353.38,"size_unitdensity":46.18}},{"type":"Feature","geometry":{"type":"Polygon","coordinates":[[[-38.49609,-12.94739],[-38.48511,-12.94739],[-38.48511,-12.95288],[-38.49609,-12.95288],[-38.49609,-12.94739]]]},"properties":{"ghs":"7jswk4","size":48.13,"ghs_len":6,"ghs_area":0.72,"ghs_bytes":353840,"ghs_items":599,"size_unit":"km","ghsval_unit":"bytes","ghs_itemsdensity":826.84,"size_unitdensity":66.44}},{"type":"Feature","geometry":{"type":"Polygon","coordinates":[[[-38.49609,-12.94189],[-38.48511,-12.94189],[-38.48511,-12.94739],[-38.49609,-12.94739],[-38.49609,-12.94189]]]},"properties":{"ghs":"7jswk5","size":45.67,"ghs_len":6,"ghs_area":0.72,"ghs_bytes":336826,"ghs_items":477,"size_unit":"km","ghsval_unit":"bytes","ghs_itemsdensity":658.42,"size_unitdensity":63.03}},{"type":"Feature","geometry":{"type":"Polygon","coordinates":[[[-38.48511,-12.94189],[-38.47412,-12.94189],[-38.47412,-12.94739],[-38.48511,-12.94739],[-38.48511,-12.94189]]]},"properties":{"ghs":"7jswk7","size":45.49,"ghs_len":6,"ghs_area":0.72,"ghs_bytes":314074,"ghs_items":505,"size_unit":"km","ghsval_unit":"bytes","ghs_itemsdensity":697.07,"size_unitdensity":62.79}},{"type":"Feature","geometry":{"type":"Polygon","coordinates":[[[-38.46313,-12.94739],[-38.45215,-12.94739],[-38.45215,-12.95288],[-38.46313,-12.95288],[-38.46313,-12.94739]]]},"properties":{"ghs":"7jswkf","size":36.71,"ghs_len":6,"ghs_area":0.72,"ghs_bytes":261089,"ghs_items":420,"size_unit":"km","ghsval_unit":"bytes","ghs_itemsdensity":579.76,"size_unitdensity":50.67}},{"type":"Feature","geometry":{"type":"Polygon","coordinates":[[[-38.46313,-12.94189],[-38.45215,-12.94189],[-38.45215,-12.94739],[-38.46313,-12.94739],[-38.46313,-12.94189]]]},"properties":{"ghs":"7jswkg","size":39.39,"ghs_len":6,"ghs_area":0.72,"ghs_bytes":281262,"ghs_items":353,"size_unit":"km","ghsval_unit":"bytes","ghs_itemsdensity":487.26,"size_unitdensity":54.37}},{"type":"Feature","geometry":{"type":"Polygon","coordinates":[[[-38.49609,-12.9364],[-38.48511,-12.9364],[-38.48511,-12.94189],[-38.49609,-12.94189],[-38.49609,-12.9364]]]},"properties":{"ghs":"7jswkh","size":40.46,"ghs_len":6,"ghs_area":0.72,"ghs_bytes":271991,"ghs_items":407,"size_unit":"km","ghsval_unit":"bytes","ghs_itemsdensity":561.79,"size_unitdensity":55.85}},{"type":"Feature","geometry":{"type":"Polygon","coordinates":[[[-38.48511,-12.9364],[-38.47412,-12.9364],[-38.47412,-12.94189],[-38.48511,-12.94189],[-38.48511,-12.9364]]]},"properties":{"ghs":"7jswkk","size":46.24,"ghs_len":6,"ghs_area":0.72,"ghs_bytes":331164,"ghs_items":535,"size_unit":"km","ghsval_unit":"bytes","ghs_itemsdensity":738.47,"size_unitdensity":63.82}},{"type":"Feature","geometry":{"type":"Polygon","coordinates":[[[-38.48511,-12.93091],[-38.47412,-12.93091],[-38.47412,-12.9364],[-38.48511,-12.9364],[-38.48511,-12.93091]]]},"properties":{"ghs":"7jswkm","size":38.76,"ghs_len":6,"ghs_area":0.72,"ghs_bytes":244839,"ghs_items":389,"size_unit":"km","ghsval_unit":"bytes","ghs_itemsdensity":536.93,"size_unitdensity":53.5}},{"type":"Feature","geometry":{"type":"Polygon","coordinates":[[[-38.49609,-12.92542],[-38.48511,-12.92542],[-38.48511,-12.93091],[-38.49609,-12.93091],[-38.49609,-12.92542]]]},"properties":{"ghs":"7jswkn","size":44.07,"ghs_len":6,"ghs_area":0.72,"ghs_bytes":302448,"ghs_items":538,"size_unit":"km","ghsval_unit":"bytes","ghs_itemsdensity":742.58,"size_unitdensity":60.83}},{"type":"Feature","geometry":{"type":"Polygon","coordinates":[[[-38.48511,-12.92542],[-38.47412,-12.92542],[-38.47412,-12.93091],[-38.48511,-12.93091],[-38.48511,-12.92542]]]},"properties":{"ghs":"7jswkq","size":49.04,"ghs_len":6,"ghs_area":0.72,"ghs_bytes":321273,"ghs_items":458,"size_unit":"km","ghsval_unit":"bytes","ghs_itemsdensity":632.16,"size_unitdensity":67.68}},{"type":"Feature","geometry":{"type":"Polygon","coordinates":[[[-38.48511,-12.91992],[-38.47412,-12.91992],[-38.47412,-12.92542],[-38.48511,-12.92542],[-38.48511,-12.91992]]]},"properties":{"ghs":"7jswkr","size":40.07,"ghs_len":6,"ghs_area":0.72,"ghs_bytes":262416,"ghs_items":386,"size_unit":"km","ghsval_unit":"bytes","ghs_itemsdensity":532.77,"size_unitdensity":55.3}},{"type":"Feature","geometry":{"type":"Polygon","coordinates":[[[-38.47412,-12.93091],[-38.46313,-12.93091],[-38.46313,-12.9364],[-38.47412,-12.9364],[-38.47412,-12.93091]]]},"properties":{"ghs":"7jswkt","size":43.58,"ghs_len":6,"ghs_area":0.72,"ghs_bytes":343337,"ghs_items":456,"size_unit":"km","ghsval_unit":"bytes","ghs_itemsdensity":629.41,"size_unitdensity":60.15}},{"type":"Feature","geometry":{"type":"Polygon","coordinates":[[[-38.44116,-12.95288],[-38.44116,-12.94739],[-38.45215,-12.94739],[-38.45215,-12.94189],[-38.45215,-12.91992],[-38.4082,-12.91992],[-38.4082,-12.96387],[-38.45215,-12.96387],[-38.45215,-12.95288],[-38.44116,-12.95288]]]},"properties":{"ghs":"7jswm","size":427.58,"ghs_len":5,"ghs_area":22.46,"ghs_bytes":2679752,"ghs_items":3023,"size_unit":"km","ghsval_unit":"bytes","ghs_itemsdensity":134.6,"size_unitdensity":19.04}},{"type":"Feature","geometry":{"type":"Polygon","coordinates":[[[-38.45215,-12.94739],[-38.44116,-12.94739],[-38.44116,-12.95288],[-38.45215,-12.95288],[-38.45215,-12.94739]]]},"properties":{"ghs":"7jswm4","size":46.98,"ghs_len":6,"ghs_area":0.72,"ghs_bytes":363941,"ghs_items":636,"size_unit":"km","ghsval_unit":"bytes","ghs_itemsdensity":877.92,"size_unitdensity":64.86}},{"type":"Feature","geometry":{"type":"Polygon","coordinates":[[[-38.45215,-12.87598],[-38.45215,-12.91992],[-38.47412,-12.91992],[-38.48511,-12.91992],[-38.49609,-12.91992],[-38.49609,-12.87598],[-38.45215,-12.87598]]]},"properties":{"ghs":"7jsws","size":198.17,"ghs_len":5,"ghs_area":23.19,"ghs_bytes":1221895,"ghs_items":1334,"size_unit":"km","ghsval_unit":"bytes","ghs_itemsdensity":57.53,"size_unitdensity":8.55}}]}
