{"type":"FeatureCollection","features":[{"type":"Feature","geometry":{"type":"Polygon","coordinates":[[[-35.46497,-5.80476],[-35.45264,-5.7526],[-35.45197,-5.74977],[-35.45195,-5.74968],[-35.44997,-5.74374],[-35.44759,-5.73155],[-35.44753,-5.73137],[-35.44744,-5.7312],[-35.44732,-5.73105],[-35.44717,-5.73092],[-35.447,-5.73083],[-35.44682,-5.73077],[-35.44674,-5.73076],[-35.44671,-5.73074],[-35.44651,-5.7307],[-35.44631,-5.7307],[-35.44627,-5.73071],[-35.44609,-5.73074],[-35.44593,-5.73081],[-35.44577,-5.7309],[-35.44573,-5.73093],[-35.44559,-5.73106],[-35.44547,-5.73122],[-35.44539,-5.73139],[-35.44538,-5.73144],[-35.44534,-5.73149],[-35.44517,-5.73155],[-35.44499,-5.73165],[-35.44483,-5.73178],[-35.44476,-5.73176],[-35.44465,-5.73175],[-35.44445,-5.73174],[-35.44428,-5.73171],[-35.44408,-5.7317],[-35.44396,-5.73171],[-35.4438,-5.73165],[-35.44361,-5.7316],[-35.44342,-5.73158],[-35.44308,-5.73159],[-35.44286,-5.73162],[-35.44256,-5.7317],[-35.44234,-5.73178],[-35.44215,-5.73191],[-35.44194,-5.7321],[-35.44182,-5.73222],[-35.44178,-5.73222],[-35.44151,-5.73227],[-35.44129,-5.73234],[-35.44097,-5.73248],[-35.44094,-5.73249],[-35.44091,-5.73247],[-35.44087,-5.73243],[-35.44073,-5.73231],[-35.44057,-5.73221],[-35.44039,-5.73215],[-35.4402,-5.73213],[-35.44002,-5.73214],[-35.43983,-5.73218],[-35.43966,-5.73226],[-35.43955,-5.73233],[-35.4395,-5.73233],[-35.4395,-5.73233],[-35.43899,-5.73172],[-35.43884,-5.73158],[-35.43867,-5.73147],[-35.43799,-5.73113],[-35.43773,-5.73104],[-35.43716,-5.73094],[-35.43608,-5.73039],[-35.43607,-5.73038],[-35.43523,-5.72997],[-35.43504,-5.7299],[-35.43363,-5.72953],[-35.43245,-5.72903],[-35.43225,-5.72896],[-35.43204,-5.72894],[-35.43184,-5.72897],[-35.4307,-5.72923],[-35.43052,-5.72928],[-35.43036,-5.72937],[-35.42945,-5.72999],[-35.42929,-5.73013],[-35.42916,-5.73029],[-35.42872,-5.73099],[-35.42833,-5.73131],[-35.42629,-5.73195],[-35.42487,-5.73221],[-35.4247,-5.73225],[-35.42405,-5.7325],[-35.42371,-5.73259],[-35.42369,-5.7326],[-35.42176,-5.7332],[-35.42164,-5.73324],[-35.42017,-5.73393],[-35.42013,-5.73395],[-35.41939,-5.73433],[-35.41831,-5.73464],[-35.41821,-5.73468],[-35.41759,-5.73493],[-35.41732,-5.73495],[-35.41716,-5.73498],[-35.417,-5.73503],[-35.41677,-5.73514],[-35.41674,-5.73515],[-35.41631,-5.73536],[-35.41581,-5.73553],[-35.41504,-5.73573],[-35.41428,-5.73592],[-35.41423,-5.73594],[-35.41374,-5.73609],[-35.41354,-5.73618],[-35.41265,-5.73668],[-35.41207,-5.73677],[-35.41182,-5.73684],[-35.41154,-5.73696],[-35.41149,-5.73694],[-35.41137,-5.73693],[-35.41115,-5.73692],[-35.41092,-5.73696],[-35.41085,-5.73698],[-35.41082,-5.73699],[-35.41066,-5.73704],[-35.41064,-5.73705],[-35.41056,-5.73708],[-35.41003,-5.73721],[-35.41002,-5.73721],[-35.40962,-5.73731],[-35.40937,-5.73737],[-35.40933,-5.73736],[-35.40912,-5.73734],[-35.40844,-5.73735],[-35.40795,-5.73735],[-35.40771,-5.7373],[-35.4077,-5.73729],[-35.4076,-5.7372],[-35.40745,-5.73711],[-35.40725,-5.73701],[-35.40708,-5.73694],[-35.4069,-5.7369],[-35.40672,-5.7369],[-35.40658,-5.73691],[-35.40642,-5.73693],[-35.40627,-5.73698],[-35.40602,-5.73708],[-35.4059,-5.7371],[-35.40526,-5.73699],[-35.40457,-5.73674],[-35.40441,-5.73669],[-35.40352,-5.73652],[-35.40339,-5.7365],[-35.40257,-5.73646],[-35.40231,-5.73648],[-35.40221,-5.7365],[-35.4022,-5.7365],[-35.40172,-5.73622],[-35.40153,-5.73614],[-35.4007,-5.73587],[-35.40058,-5.73584],[-35.39948,-5.73563],[-35.39929,-5.73562],[-35.39875,-5.73562],[-35.39665,-5.73558],[-35.39559,-5.73544],[-35.39559,-5.73544],[-35.39539,-5.73521],[-35.39525,-5.73508],[-35.39509,-5.73498],[-35.39487,-5.73487],[-35.39467,-5.73479],[-35.39445,-5.73476],[-35.39423,-5.73478],[-35.39404,-5.73482],[-35.39384,-5.73488],[-35.39332,-5.73509],[-35.39262,-5.73527],[-35.39253,-5.73522],[-35.39248,-5.73519],[-35.39246,-5.73518],[-35.39227,-5.73506],[-35.39206,-5.73498],[-35.39183,-5.73495],[-35.39158,-5.73495],[-35.39139,-5.73497],[-35.39121,-5.73503],[-35.39105,-5.73511],[-35.39091,-5.73505],[-35.39072,-5.73501],[-35.39038,-5.73497],[-35.39018,-5.73497],[-35.38998,-5.73501],[-35.38983,-5.73505],[-35.3897,-5.73499],[-35.38956,-5.73495],[-35.3894,-5.73491],[-35.38921,-5.73489],[-35.38902,-5.7349],[-35.38873,-5.73494],[-35.38843,-5.73493],[-35.38737,-5.73487],[-35.38673,-5.73466],[-35.38655,-5.73461],[-35.38636,-5.7346],[-35.38607,-5.73462],[-35.38587,-5.73459],[-35.38549,-5.73441],[-35.38535,-5.73436],[-35.3848,-5.73421],[-35.38467,-5.73413],[-35.38438,-5.73372],[-35.38431,-5.73362],[-35.38387,-5.73313],[-35.38372,-5.733],[-35.38322,-5.73262],[-35.3831,-5.73255],[-35.38263,-5.73229],[-35.38238,-5.7322],[-35.38176,-5.73205],[-35.38173,-5.73204],[-35.38114,-5.73192],[-35.38041,-5.73173],[-35.38021,-5.7317],[-35.37931,-5.73165],[-35.37924,-5.73165],[-35.37848,-5.73166],[-35.37773,-5.73132],[-35.37715,-5.73098],[-35.37696,-5.7309],[-35.37621,-5.73065],[-35.37606,-5.73062],[-35.37559,-5.73054],[-35.37514,-5.73035],[-35.37509,-5.73033],[-35.37392,-5.7299],[-35.37317,-5.72963],[-35.37313,-5.72961],[-35.37178,-5.72919],[-35.37164,-5.72915],[-35.37131,-5.72901],[-35.37098,-5.72867],[-35.37087,-5.72858],[-35.37031,-5.72816],[-35.37019,-5.72806],[-35.37001,-5.72796],[-35.36982,-5.72789],[-35.36925,-5.72775],[-35.36901,-5.72773],[-35.36804,-5.72774],[-35.36784,-5.72776],[-35.36729,-5.72788],[-35.36644,-5.72787],[-35.36599,-5.72774],[-35.36508,-5.72739],[-35.36488,-5.72733],[-35.3644,-5.72725],[-35.36415,-5.72712],[-35.36398,-5.72706],[-35.36381,-5.72702],[-35.36356,-5.727],[-35.36338,-5.72699],[-35.3632,-5.72702],[-35.36248,-5.72721],[-35.36175,-5.72729],[-35.3616,-5.72732],[-35.36146,-5.72737],[-35.36092,-5.7276],[-35.36077,-5.72768],[-35.36063,-5.72779],[-35.36051,-5.72793],[-35.36042,-5.72808],[-35.36041,-5.7281],[-35.36041,-5.7281],[-35.36028,-5.72805],[-35.36011,-5.72801],[-35.35994,-5.728],[-35.3596,-5.72801],[-35.35905,-5.72801],[-35.35897,-5.72801],[-35.35781,-5.7281],[-35.35506,-5.72822],[-35.35503,-5.72822],[-35.35288,-5.72839],[-35.35275,-5.7284],[-35.35058,-5.72824],[-35.35031,-5.72825],[-35.34792,-5.72872],[-35.34785,-5.72874],[-35.34573,-5.72932],[-35.3455,-5.72942],[-35.34364,-5.73049],[-35.34345,-5.73062],[-35.34175,-5.7322],[-35.34164,-5.73233],[-35.34155,-5.73246],[-35.3405,-5.73442],[-35.3405,-5.73443],[-35.33964,-5.73608],[-35.33937,-5.7363],[-35.33881,-5.73637],[-35.33794,-5.73631],[-35.33641,-5.73568],[-35.33556,-5.73529],[-35.33468,-5.73489],[-35.33467,-5.73489],[-35.33276,-5.73405],[-35.33251,-5.73398],[-35.32937,-5.73348],[-35.32923,-5.73347],[-35.32174,-5.73334],[-35.32158,-5.73335],[-35.32067,-5.73348],[-35.32051,-5.73351],[-35.32036,-5.73357],[-35.31919,-5.73414],[-35.31904,-5.73423],[-35.31891,-5.73435],[-35.31833,-5.73496],[-35.31612,-5.73651],[-35.31511,-5.73693],[-35.31439,-5.73705],[-35.31349,-5.73699],[-35.31184,-5.73614],[-35.31025,-5.735],[-35.30892,-5.73382],[-35.3077,-5.73209],[-35.30758,-5.73196],[-35.30745,-5.73185],[-35.30484,-5.73005],[-35.30476,-5.73],[-35.30168,-5.72828],[-35.30157,-5.72822],[-35.29862,-5.72703],[-35.29413,-5.72447],[-35.29404,-5.72443],[-35.2904,-5.72279],[-35.28783,-5.72099],[-35.28591,-5.71924],[-35.28575,-5.71808],[-35.28607,-5.71657],[-35.2867,-5.7146],[-35.28674,-5.71443],[-35.28675,-5.71425],[-35.28669,-5.71301],[-35.28668,-5.71291],[-35.28626,-5.71014],[-35.2862,-5.70991],[-35.28608,-5.7097],[-35.28482,-5.70798],[-35.28481,-5.70798],[-35.28268,-5.7051],[-35.28253,-5.70494],[-35.28236,-5.70482],[-35.28216,-5.70474],[-35.28133,-5.70449],[-35.28121,-5.70446],[-35.28065,-5.70437],[-35.28042,-5.70433],[-35.27939,-5.70401],[-35.27829,-5.70366],[-35.27659,-5.70261],[-35.27632,-5.70102],[-35.27636,-5.70072],[-35.27638,-5.70058],[-35.27639,-5.70041],[-35.27637,-5.70025],[-35.27633,-5.7],[-35.27626,-5.6998],[-35.27616,-5.69961],[-35.27601,-5.69945],[-35.27584,-5.69932],[-35.27566,-5.69922],[-35.27544,-5.69912],[-35.2752,-5.69909],[-35.27469,-5.69907],[-35.27457,-5.69907],[-35.27394,-5.69912],[-35.27336,-5.69916],[-35.27317,-5.69919],[-35.27299,-5.69925],[-35.27283,-5.69935],[-35.27235,-5.69971],[-35.27179,-5.69977],[-35.27174,-5.69978],[-35.26909,-5.70022],[-35.26895,-5.70025],[-35.26705,-5.70087],[-35.26701,-5.70088],[-35.26458,-5.7018],[-35.26439,-5.70189],[-35.26423,-5.70202],[-35.2641,-5.70218],[-35.264,-5.70236],[-35.26395,-5.70256],[-35.26393,-5.70277],[-35.26396,-5.70297],[-35.26402,-5.70316],[-35.26407,-5.70326],[-35.26411,-5.70334],[-35.26422,-5.70353],[-35.26432,-5.7037],[-35.2644,-5.70386],[-35.26445,-5.70399],[-35.26446,-5.70401],[-35.26455,-5.70421],[-35.26457,-5.70425],[-35.26481,-5.70473],[-35.26488,-5.70489],[-35.26488,-5.70489],[-35.26537,-5.70594],[-35.26537,-5.70597],[-35.26542,-5.70612],[-35.26548,-5.70629],[-35.26603,-5.70738],[-35.26607,-5.70744],[-35.26658,-5.7083],[-35.26661,-5.70834],[-35.26703,-5.70898],[-35.26705,-5.709],[-35.26725,-5.70929],[-35.26727,-5.70932],[-35.26768,-5.70986],[-35.26771,-5.7099],[-35.2685,-5.71087],[-35.26852,-5.71089],[-35.26897,-5.71142],[-35.26954,-5.71211],[-35.26959,-5.71218],[-35.26961,-5.71221],[-35.27053,-5.7133],[-35.27066,-5.71346],[-35.27127,-5.71427],[-35.27152,-5.71464],[-35.27169,-5.71489],[-35.27209,-5.71553],[-35.27233,-5.71595],[-35.27287,-5.71702],[-35.27365,-5.71874],[-35.27365,-5.71875],[-35.2743,-5.72015],[-35.27432,-5.7202],[-35.27452,-5.72058],[-35.27453,-5.7206],[-35.27475,-5.72099],[-35.2748,-5.72106],[-35.27516,-5.72159],[-35.2752,-5.72165],[-35.27543,-5.72193],[-35.27544,-5.72195],[-35.2758,-5.72238],[-35.27588,-5.72247],[-35.2763,-5.72286],[-35.27636,-5.72291],[-35.27658,-5.72308],[-35.27666,-5.72314],[-35.27678,-5.72322],[-35.27687,-5.72329],[-35.27693,-5.72334],[-35.27707,-5.72344],[-35.27711,-5.72347],[-35.27744,-5.72369],[-35.27754,-5.72375],[-35.27763,-5.72381],[-35.27789,-5.72394],[-35.2782,-5.72411],[-35.27825,-5.72413],[-35.27915,-5.72455],[-35.27929,-5.7246],[-35.27944,-5.72463],[-35.27945,-5.72463],[-35.2823,-5.72601],[-35.28601,-5.72781],[-35.28638,-5.72803],[-35.28795,-5.72931],[-35.2895,-5.73064],[-35.28972,-5.73087],[-35.28987,-5.73106],[-35.28998,-5.73126],[-35.29009,-5.73151],[-35.29015,-5.73171],[-35.2902,-5.73191],[-35.29023,-5.73223],[-35.29021,-5.73261],[-35.28938,-5.73938],[-35.28938,-5.73939],[-35.28885,-5.74405],[-35.28851,-5.74696],[-35.2878,-5.7531],[-35.2878,-5.75325],[-35.2878,-5.75334],[-35.2877,-5.75404],[-35.2877,-5.75406],[-35.28729,-5.75742],[-35.28607,-5.76249],[-35.28355,-5.76349],[-35.28251,-5.76388],[-35.2825,-5.76388],[-35.27946,-5.76502],[-35.27937,-5.76505],[-35.27935,-5.76506],[-35.27935,-5.76506],[-35.27701,-5.76595],[-35.277,-5.76595],[-35.2753,-5.76662],[-35.27404,-5.76712],[-35.27393,-5.76716],[-35.26807,-5.76936],[-35.26804,-5.76937],[-35.26747,-5.7696],[-35.26684,-5.76982],[-35.26636,-5.76998],[-35.26633,-5.76999],[-35.26489,-5.77054],[-35.26086,-5.77203],[-35.2569,-5.77349],[-35.25471,-5.7743],[-35.25307,-5.77481],[-35.25303,-5.77482],[-35.25235,-5.77507],[-35.25232,-5.77508],[-35.25135,-5.77547],[-35.25127,-5.7755],[-35.25051,-5.77588],[-35.24984,-5.77617],[-35.24978,-5.7762],[-35.24944,-5.77637],[-35.2493,-5.77646],[-35.24895,-5.77673],[-35.2488,-5.77686],[-35.24845,-5.77726],[-35.24832,-5.77743],[-35.2483,-5.77748],[-35.24818,-5.7777],[-35.24812,-5.77781],[-35.24802,-5.77807],[-35.24752,-5.77931],[-35.24689,-5.78088],[-35.24658,-5.78167],[-35.24652,-5.78185],[-35.24651,-5.78204],[-35.24652,-5.78223],[-35.24658,-5.78241],[-35.24666,-5.78258],[-35.24678,-5.78273],[-35.24798,-5.784],[-35.24912,-5.78603],[-35.25015,-5.78828],[-35.25026,-5.78878],[-35.25078,-5.79127],[-35.25068,-5.79439],[-35.25069,-5.79458],[-35.2511,-5.79712],[-35.25129,-5.79835],[-35.25135,-5.79856],[-35.25144,-5.79874],[-35.25217,-5.79986],[-35.25298,-5.80245],[-35.25306,-5.80264],[-35.25436,-5.80497],[-35.25467,-5.80552],[-35.25479,-5.80569],[-35.25771,-5.80903],[-35.25782,-5.80914],[-35.25795,-5.80923],[-35.26073,-5.81089],[-35.26095,-5.81099],[-35.26288,-5.81157],[-35.26291,-5.81157],[-35.26491,-5.81211],[-35.26493,-5.81211],[-35.26655,-5.81251],[-35.27021,-5.81433],[-35.27178,-5.8156],[-35.27372,-5.81768],[-35.27387,-5.8178],[-35.27404,-5.8179],[-35.27564,-5.81863],[-35.27581,-5.81869],[-35.27804,-5.81924],[-35.27898,-5.81969],[-35.27939,-5.82034],[-35.27994,-5.8212],[-35.28054,-5.82234],[-35.28083,-5.82549],[-35.28097,-5.82951],[-35.281,-5.8297],[-35.28106,-5.82988],[-35.28115,-5.83005],[-35.28128,-5.83019],[-35.28143,-5.83031],[-35.2816,-5.8304],[-35.28178,-5.83046],[-35.28562,-5.83118],[-35.28833,-5.83212],[-35.29005,-5.8332],[-35.29185,-5.8353],[-35.29207,-5.83548],[-35.29628,-5.83824],[-35.29791,-5.83959],[-35.29806,-5.83968],[-35.29821,-5.83976],[-35.30075,-5.84065],[-35.30089,-5.84069],[-35.30105,-5.8407],[-35.30318,-5.84078],[-35.30338,-5.84077],[-35.30405,-5.84065],[-35.3041,-5.84064],[-35.30472,-5.84051],[-35.30489,-5.84046],[-35.30504,-5.84038],[-35.30776,-5.83867],[-35.3079,-5.83857],[-35.30917,-5.83743],[-35.30928,-5.8373],[-35.30938,-5.83716],[-35.30945,-5.83701],[-35.30994,-5.83557],[-35.30998,-5.83538],[-35.3101,-5.83449],[-35.31852,-5.83561],[-35.32523,-5.83649],[-35.32887,-5.83698],[-35.32917,-5.83702],[-35.34047,-5.83855],[-35.34047,-5.83855],[-35.3472,-5.83941],[-35.34925,-5.83968],[-35.3556,-5.84054],[-35.3556,-5.84054],[-35.36139,-5.84129],[-35.36689,-5.84203],[-35.36689,-5.84203],[-35.37341,-5.84288],[-35.37341,-5.84288],[-35.37938,-5.84365],[-35.38923,-5.84497],[-35.39298,-5.84547],[-35.39298,-5.84547],[-35.39763,-5.84609],[-35.3977,-5.84911],[-35.39773,-5.84932],[-35.39779,-5.84951],[-35.3979,-5.84969],[-35.39804,-5.84984],[-35.39821,-5.84996],[-35.3984,-5.85004],[-35.3986,-5.85008],[-35.3988,-5.85008],[-35.40269,-5.84969],[-35.40287,-5.84965],[-35.40305,-5.84958],[-35.40321,-5.84948],[-35.40334,-5.84935],[-35.40345,-5.8492],[-35.40603,-5.84887],[-35.4075,-5.8487],[-35.40752,-5.8487],[-35.40903,-5.8485],[-35.40903,-5.8485],[-35.43036,-5.84556],[-35.43042,-5.84555],[-35.45431,-5.84072],[-35.45437,-5.8407],[-35.46774,-5.83705],[-35.46847,-5.83685],[-35.46851,-5.83684],[-35.47188,-5.83578],[-35.47206,-5.83571],[-35.47222,-5.8356],[-35.47235,-5.83547],[-35.47246,-5.83531],[-35.47253,-5.83514],[-35.47258,-5.83495],[-35.47258,-5.83477],[-35.47255,-5.83458],[-35.46497,-5.80476]]]},"properties":{"ghs":"7ny","size":56.81,"ghs_len":3,"ghs_area":258.24,"ghs_bytes":20714,"ghs_items":12,"size_unit":"km2","ghsval_unit":"bytes","ghs_itemsdensity":0.05,"size_unitdensity":0.22}}]}
