{"type": "FeatureCollection", "features": [
{"type": "Feature", "geometry": {"type": "Polygon", "coordinates": [[[-35.301659, -5.757889], [-35.300546, -5.758319], [-35.301176, -5.759268], [-35.307634, -5.766338], [-35.309035, -5.767957], [-35.30957, -5.768526], [-35.311066, -5.767985], [-35.311875, -5.768909], [-35.311177, -5.769206], [-35.311309, -5.770366], [-35.312413, -5.770214], [-35.316022, -5.770863], [-35.317674, -5.771956], [-35.31817, -5.772134], [-35.318201, -5.772632], [-35.320095, -5.772473], [-35.321023, -5.772534], [-35.321342, -5.772708], [-35.321683, -5.772814], [-35.321859, -5.772989], [-35.322859, -5.773222], [-35.323506, -5.773752], [-35.323602, -5.773962], [-35.323852, -5.774893], [-35.323926, -5.776536], [-35.326375, -5.77644], [-35.328931, -5.761205], [-35.332572, -5.760784], [-35.332955, -5.76073], [-35.334207, -5.752864], [-35.334242, -5.752642], [-35.334765, -5.749952], [-35.335215, -5.747635], [-35.336255, -5.745067], [-35.336406, -5.744751], [-35.320782, -5.750187], [-35.301659, -5.757889]]]}, "properties": {"info": {"gid": 1}, "nsvia": " "}},
{"type": "Feature", "geometry": {"type": "Polygon", "coordinates": [[[-35.251516, -5.776596], [-35.251351, -5.776629], [-35.249893, -5.777292], [-35.249352, -5.77777], [-35.249247, -5.777917], [-35.250773, -5.77861], [-35.250745, -5.77869], [-35.251048, -5.77932], [-35.250326, -5.781537], [-35.252107, -5.782167], [-35.2521, -5.78218], [-35.252517, -5.781648], [-35.252156, -5.780473], [-35.25291, -5.780384], [-35.253416, -5.780286], [-35.253304, -5.779765], [-35.253844, -5.779677], [-35.254055, -5.780471], [-35.253305, -5.780842], [-35.253621, -5.782361], [-35.252453, -5.782831], [-35.252487, -5.782963], [-35.252581, -5.783333], [-35.252506, -5.783676], [-35.252659, -5.7841], [-35.253358, -5.78505], [-35.253925, -5.786089], [-35.254207, -5.786541], [-35.254842, -5.786951], [-35.255197, -5.786822], [-35.254881, -5.785946], [-35.2554, -5.785794], [-35.25589, -5.78565], [-35.255409, -5.784167], [-35.256526, -5.783694], [-35.256482, -5.783577], [-35.256081, -5.782517], [-35.256247, -5.782454], [-35.257486, -5.781985], [-35.259674, -5.781144], [-35.259051, -5.778639], [-35.259777, -5.778449], [-35.260367, -5.781189], [-35.262937, -5.780611], [-35.262676, -5.778925], [-35.264779, -5.778433], [-35.266104, -5.778034], [-35.265759, -5.777102], [-35.268441, -5.776227], [-35.266865, -5.770848], [-35.251516, -5.776596]]]}, "properties": {"info": {"gid": 1}, "nsvia": " "}},
{"type": "Feature", "geometry": {"type": "Polygon", "coordinates": [[[-35.297213, -5.779654], [-35.292962, -5.777023], [-35.286845, -5.775114], [-35.286846, -5.77511], [-35.286839, -5.775108], [-35.286725, -5.775677], [-35.286678, -5.775891], [-35.286492, -5.776206], [-35.286438, -5.776297], [-35.286312, -5.776623], [-35.286288, -5.776684], [-35.286307, -5.77675], [-35.286274, -5.776808], [-35.286226, -5.776827], [-35.286135, -5.777024], [-35.286165, -5.777136], [-35.28614, -5.777255], [-35.286014, -5.777404], [-35.285974, -5.777495], [-35.285953, -5.777515], [-35.285938, -5.777531], [-35.285916, -5.777572], [-35.285916, -5.777662], [-35.285921, -5.777716], [-35.285934, -5.777753], [-35.285944, -5.777793], [-35.285903, -5.777854], [-35.285809, -5.777916], [-35.285768, -5.777944], [-35.285728, -5.777981], [-35.285693, -5.778054], [-35.285677, -5.778087], [-35.285667, -5.778171], [-35.285652, -5.778221], [-35.285626, -5.778281], [-35.28558, -5.778369], [-35.285526, -5.778414], [-35.285471, -5.778473], [-35.285441, -5.778554], [-35.285419, -5.778586], [-35.285392, -5.778595], [-35.285355, -5.778637], [-35.285342, -5.778709], [-35.28532, -5.778838], [-35.285265, -5.778947], [-35.285114, -5.779089], [-35.28506, -5.779175], [-35.284928, -5.779307], [-35.284908, -5.779388], [-35.28485, -5.77952], [-35.284949, -5.779682], [-35.284905, -5.779821], [-35.284811, -5.779882], [-35.284737, -5.779994], [-35.284477, -5.780071], [-35.284302, -5.780115], [-35.284201, -5.780137], [-35.284101, -5.780143], [-35.284033, -5.780266], [-35.283957, -5.780331], [-35.283914, -5.780377], [-35.283831, -5.780466], [-35.283799, -5.780525], [-35.283754, -5.78059], [-35.283747, -5.780654], [-35.283724, -5.780681], [-35.283681, -5.780705], [-35.283654, -5.780721], [-35.283605, -5.780748], [-35.283525, -5.780778], [-35.283422, -5.78081], [-35.283359, -5.780856], [-35.283319, -5.780875], [-35.283246, -5.780882], [-35.283171, -5.780906], [-35.28313, -5.780994], [-35.283146, -5.781091], [-35.28312, -5.781163], [-35.283005, -5.781414], [-35.282848, -5.781492], [-35.282729, -5.781528], [-35.28263, -5.78158], [-35.282532, -5.781623], [-35.282384, -5.781594], [-35.282253, -5.781631], [-35.282091, -5.781644], [-35.281932, -5.781683], [-35.281767, -5.781735], [-35.281614, -5.781786], [-35.281178, -5.781967], [-35.281022, -5.782032], [-35.280895, -5.782072], [-35.280793, -5.782103], [-35.280624, -5.782243], [-35.280568, -5.782308], [-35.280502, -5.782383], [-35.28037, -5.782489], [-35.280247, -5.782502], [-35.280095, -5.782552], [-35.27993, -5.782657], [-35.27985, -5.782689], [-35.279733, -5.782707], [-35.279634, -5.782809], [-35.279583, -5.78293], [-35.279593, -5.782935], [-35.280271, -5.783176], [-35.283512, -5.783425], [-35.284388, -5.783584], [-35.290836, -5.786668], [-35.296627, -5.78819], [-35.297524, -5.788325], [-35.297552, -5.788329], [-35.299084, -5.78856], [-35.298905, -5.779955], [-35.298782, -5.774107], [-35.296998, -5.774838], [-35.297279, -5.779654], [-35.297216, -5.779655], [-35.297215, -5.779654], [-35.297213, -5.779654]]]}, "properties": {"info": {"gid": 1}, "nsvia": " "}},
{"type": "Feature", "geometry": {"type": "MultiPolygon", "coordinates": [[[[-35.276327, -5.79597], [-35.276467, -5.795837], [-35.278327, -5.795807], [-35.278828, -5.796845], [-35.279093, -5.797136], [-35.272293, -5.801604], [-35.271991, -5.801803], [-35.271993, -5.802412], [-35.271996, -5.803152], [-35.271851, -5.803687], [-35.271967, -5.804182], [-35.272253, -5.804593], [-35.272749, -5.804921], [-35.273519, -5.804918], [-35.274379, -5.80475], [-35.275531, -5.803902], [-35.276487, -5.803006], [-35.27762, -5.801666], [-35.278404, -5.800948], [-35.279751, -5.800672], [-35.281154, -5.800666], [-35.281789, -5.800664], [-35.283041, -5.800976], [-35.283845, -5.801245], [-35.284366, -5.801787], [-35.2846, -5.80226], [-35.284751, -5.803113], [-35.284752, -5.803438], [-35.284754, -5.803955], [-35.284968, -5.804424], [-35.28526, -5.804705], [-35.285815, -5.804881], [-35.286585, -5.80469], [-35.287906, -5.803736], [-35.288286, -5.802945], [-35.288281, -5.801797], [-35.288275, -5.800186], [-35.288419, -5.798887], [-35.289126, -5.798246], [-35.290433, -5.797509], [-35.291744, -5.797246], [-35.292863, -5.797241], [-35.29445, -5.797571], [-35.295656, -5.797821], [-35.296637, -5.79791], [-35.297949, -5.79802], [-35.297614, -5.790255], [-35.297527, -5.788387], [-35.297524, -5.788325], [-35.296627, -5.78819], [-35.290836, -5.786668], [-35.284388, -5.783584], [-35.283512, -5.783425], [-35.280271, -5.783176], [-35.279593, -5.782935], [-35.279583, -5.78293], [-35.279498, -5.783136], [-35.278957, -5.782766], [-35.278232, -5.782087], [-35.277974, -5.78139], [-35.277876, -5.781146], [-35.277843, -5.781069], [-35.277743, -5.780844], [-35.277514, -5.780325], [-35.277293, -5.779794], [-35.277083, -5.779291], [-35.276942, -5.778953], [-35.276804, -5.778623], [-35.276665, -5.778289], [-35.276525, -5.777953], [-35.276505, -5.777907], [-35.276208, -5.778007], [-35.277083, -5.781629], [-35.276347, -5.78168], [-35.275851, -5.781672], [-35.275335, -5.781713], [-35.273579, -5.782121], [-35.273494, -5.782248], [-35.273351, -5.782383], [-35.272583, -5.782592], [-35.270512, -5.782997], [-35.270428, -5.782988], [-35.270297, -5.782974], [-35.270081, -5.782827], [-35.269794, -5.782718], [-35.269546, -5.7827], [-35.269331, -5.782715], [-35.269409, -5.783198], [-35.270802, -5.787455], [-35.27057, -5.787745], [-35.27039, -5.788258], [-35.269837, -5.789825], [-35.269328, -5.791206], [-35.269089, -5.791228], [-35.269007, -5.791289], [-35.269136, -5.7915], [-35.268613, -5.792026], [-35.267978, -5.792572], [-35.267243, -5.791161], [-35.267023, -5.79074], [-35.266862, -5.79062], [-35.266569, -5.790804], [-35.265888, -5.792026], [-35.265806, -5.792469], [-35.265709, -5.793388], [-35.266145, -5.794194], [-35.267076, -5.794953], [-35.26727, -5.795225], [-35.26768, -5.795406], [-35.26844, -5.795446], [-35.268877, -5.79546], [-35.268958, -5.795536], [-35.268921, -5.795876], [-35.271756, -5.796545], [-35.272142, -5.796559], [-35.272221, -5.797042], [-35.272336, -5.797076], [-35.272936, -5.796351], [-35.273605, -5.796124], [-35.27417, -5.795916], [-35.274278, -5.795859], [-35.275223, -5.795692], [-35.276179, -5.795688], [-35.276206, -5.79598], [-35.276327, -5.79597]]], [[[-35.276184, -5.795982], [-35.276206, -5.795982], [-35.276206, -5.79598], [-35.276184, -5.795982]]]]}, "properties": {"info": {"gid": 1}, "nsvia": " "}},
{"type": "Feature", "geometry": {"type": "Polygon", "coordinates": [[[-35.328437, -5.787603], [-35.327878, -5.787415], [-35.32138, -5.788871], [-35.319254, -5.789298], [-35.318985, -5.789352], [-35.318679, -5.789413], [-35.319043, -5.791994], [-35.319241, -5.793396], [-35.319241, -5.793397], [-35.319746, -5.796973], [-35.31975, -5.797018], [-35.319812, -5.797706], [-35.322219, -5.797874], [-35.322907, -5.797921], [-35.324234, -5.798156], [-35.325359, -5.79848], [-35.326665, -5.799563], [-35.327779, -5.800254], [-35.328541, -5.801212], [-35.328917, -5.801499], [-35.328921, -5.801502], [-35.329071, -5.801551], [-35.329072, -5.801552], [-35.329244, -5.800381], [-35.329279, -5.800138], [-35.329319, -5.799865], [-35.32938, -5.799451], [-35.32935, -5.799167], [-35.32929, -5.798581], [-35.329261, -5.7983], [-35.32926, -5.798293], [-35.32923, -5.798069], [-35.329187, -5.797752], [-35.329136, -5.797378], [-35.329102, -5.797123], [-35.329047, -5.79672], [-35.329008, -5.796431], [-35.328955, -5.796037], [-35.328868, -5.795399], [-35.328845, -5.795224], [-35.328834, -5.795148], [-35.329042, -5.794823], [-35.329951, -5.794704], [-35.33007, -5.794346], [-35.331368, -5.794171], [-35.332966, -5.79462], [-35.33389, -5.795224], [-35.334928, -5.795585], [-35.336263, -5.795744], [-35.338344, -5.796615], [-35.340968, -5.797199], [-35.340687, -5.795705], [-35.343326, -5.794441], [-35.344358, -5.794171], [-35.344115, -5.792903], [-35.344646, -5.792237], [-35.343887, -5.788873], [-35.342966, -5.788813], [-35.342304, -5.788713], [-35.342232, -5.788708], [-35.342218, -5.788707], [-35.341931, -5.788689], [-35.341086, -5.788836], [-35.340725, -5.788878], [-35.338528, -5.788937], [-35.336661, -5.789207], [-35.336735, -5.788338], [-35.32858, -5.787011], [-35.328437, -5.787603]], [[-35.328854, -5.788125], [-35.328834, -5.788098], [-35.328853, -5.788118], [-35.328854, -5.788125]]]}, "properties": {"info": {"gid": 1}, "nsvia": " "}},
{"type": "Feature", "geometry": {"type": "Polygon", "coordinates": [[[-35.284181, -5.769461], [-35.282596, -5.768136], [-35.282146, -5.76776], [-35.281755, -5.767469], [-35.279767, -5.765986], [-35.275738, -5.767552], [-35.279147, -5.772075], [-35.281053, -5.774558], [-35.281722, -5.77543], [-35.282358, -5.776237], [-35.281602, -5.776106], [-35.282555, -5.777627], [-35.284101, -5.780143], [-35.284201, -5.780137], [-35.284302, -5.780115], [-35.284477, -5.780071], [-35.284737, -5.779994], [-35.284811, -5.779882], [-35.284905, -5.779821], [-35.284949, -5.779682], [-35.28485, -5.77952], [-35.284908, -5.779388], [-35.284928, -5.779307], [-35.28506, -5.779175], [-35.285114, -5.779089], [-35.285265, -5.778947], [-35.28532, -5.778838], [-35.285342, -5.778709], [-35.285355, -5.778637], [-35.285392, -5.778595], [-35.285419, -5.778586], [-35.285441, -5.778554], [-35.285471, -5.778473], [-35.285526, -5.778414], [-35.28558, -5.778369], [-35.285626, -5.778281], [-35.285652, -5.778221], [-35.285667, -5.778171], [-35.285677, -5.778087], [-35.285693, -5.778054], [-35.285728, -5.777981], [-35.285768, -5.777944], [-35.285809, -5.777916], [-35.285903, -5.777854], [-35.285944, -5.777793], [-35.285934, -5.777753], [-35.285921, -5.777716], [-35.285916, -5.777662], [-35.285916, -5.777572], [-35.285938, -5.777531], [-35.285953, -5.777515], [-35.285974, -5.777495], [-35.286014, -5.777404], [-35.28614, -5.777255], [-35.286165, -5.777136], [-35.286135, -5.777024], [-35.286226, -5.776827], [-35.286274, -5.776808], [-35.286307, -5.77675], [-35.286288, -5.776684], [-35.286312, -5.776623], [-35.286438, -5.776297], [-35.286492, -5.776206], [-35.286678, -5.775891], [-35.286725, -5.775677], [-35.286839, -5.775108], [-35.287047, -5.774385], [-35.287418, -5.773667], [-35.287617, -5.773382], [-35.287665, -5.773313], [-35.28782, -5.773149], [-35.287832, -5.77309], [-35.287816, -5.773022], [-35.287825, -5.772958], [-35.28785, -5.772895], [-35.287875, -5.772833], [-35.28794, -5.772824], [-35.287999, -5.772871], [-35.288037, -5.772874], [-35.288111, -5.772861], [-35.288138, -5.772866], [-35.288164, -5.772882], [-35.288183, -5.772918], [-35.288202, -5.772931], [-35.288224, -5.772934], [-35.288249, -5.772921], [-35.288265, -5.772887], [-35.288267, -5.77284], [-35.288279, -5.772809], [-35.28604, -5.770981], [-35.284181, -5.769461]]]}, "properties": {"info": {"gid": 1}, "nsvia": " "}},
{"type": "Feature", "geometry": {"type": "Polygon", "coordinates": [[[-35.290378, -5.740516], [-35.290215, -5.74238], [-35.289331, -5.749643], [-35.288896, -5.753311], [-35.29019, -5.75317], [-35.293747, -5.757932], [-35.29379, -5.757991], [-35.294648, -5.759161], [-35.29547, -5.760281], [-35.300546, -5.758319], [-35.301659, -5.757889], [-35.320671, -5.750226], [-35.320782, -5.750187], [-35.336406, -5.744751], [-35.342601, -5.742483], [-35.34681, -5.740941], [-35.352379, -5.73893], [-35.353062, -5.73827], [-35.35526, -5.73551], [-35.358377, -5.731432], [-35.361035, -5.728511], [-35.360495, -5.728587], [-35.358389, -5.728883], [-35.357084, -5.729025], [-35.355105, -5.729214], [-35.353224, -5.72963], [-35.351492, -5.730013], [-35.350733, -5.730144], [-35.346331, -5.730901], [-35.344469, -5.731791], [-35.342908, -5.733048], [-35.341822, -5.734938], [-35.341199, -5.736737], [-35.341132, -5.736929], [-35.340661, -5.73779], [-35.339825, -5.738229], [-35.338855, -5.738352], [-35.337551, -5.738159], [-35.336609, -5.737701], [-35.334943, -5.736496], [-35.334269, -5.735805], [-35.332355, -5.734964], [-35.329211, -5.73447], [-35.321718, -5.734342], [-35.320803, -5.734468], [-35.319635, -5.735041], [-35.318989, -5.735718], [-35.316603, -5.73739], [-35.315384, -5.737901], [-35.31444, -5.738052], [-35.313213, -5.73797], [-35.311323, -5.736992], [-35.309628, -5.735789], [-35.308166, -5.734497], [-35.306879, -5.732671], [-35.304275, -5.730872], [-35.301191, -5.729151], [-35.298188, -5.727933], [-35.293631, -5.725344], [-35.289632, -5.723655], [-35.28699, -5.721941], [-35.286494, -5.720894], [-35.285607, -5.71798], [-35.285407, -5.711025], [-35.285156, -5.71016], [-35.284051, -5.708603], [-35.282103, -5.706376], [-35.281439, -5.705933], [-35.280632, -5.705231], [-35.277211, -5.704414], [-35.276439, -5.703223], [-35.276241, -5.701319], [-35.276015, -5.700912], [-35.27544, -5.700621], [-35.274982, -5.70065], [-35.274127, -5.700702], [-35.272337, -5.701139], [-35.269439, -5.701847], [-35.265536, -5.704049], [-35.266355, -5.705839], [-35.267082, -5.707183], [-35.267937, -5.708508], [-35.26891, -5.709787], [-35.270986, -5.712278], [-35.272358, -5.714067], [-35.273273, -5.715565], [-35.275188, -5.719586], [-35.2765, -5.721654], [-35.277062, -5.722216], [-35.27743, -5.722474], [-35.277549, -5.722507], [-35.278444, -5.723124], [-35.279663, -5.723595], [-35.283263, -5.725286], [-35.285947, -5.726541], [-35.28895, -5.728727], [-35.290175, -5.729791], [-35.291067, -5.730946], [-35.291342, -5.732498], [-35.291165, -5.734109], [-35.290917, -5.736106], [-35.290378, -5.740516]]]}, "properties": {"info": {"gid": 1}, "nsvia": " "}},
{"type": "Feature", "geometry": {"type": "Polygon", "coordinates": [[[-35.276434, -5.774565], [-35.274806, -5.774281], [-35.274544, -5.774317], [-35.274682, -5.774424], [-35.274847, -5.77455], [-35.274866, -5.774572], [-35.274927, -5.774639], [-35.275022, -5.774744], [-35.275163, -5.774901], [-35.275367, -5.775265], [-35.275485, -5.775535], [-35.275679, -5.775985], [-35.275971, -5.776663], [-35.276131, -5.777033], [-35.276268, -5.777352], [-35.276417, -5.777697], [-35.276505, -5.777907], [-35.276525, -5.777953], [-35.276665, -5.778289], [-35.276804, -5.778623], [-35.276942, -5.778953], [-35.277083, -5.779291], [-35.277293, -5.779794], [-35.277514, -5.780325], [-35.277743, -5.780844], [-35.277843, -5.781069], [-35.277859, -5.781104], [-35.277876, -5.781146], [-35.277974, -5.78139], [-35.278232, -5.782087], [-35.278957, -5.782766], [-35.279498, -5.783136], [-35.279583, -5.78293], [-35.279634, -5.782809], [-35.279733, -5.782707], [-35.27985, -5.782689], [-35.27993, -5.782657], [-35.280095, -5.782552], [-35.280247, -5.782502], [-35.28037, -5.782489], [-35.280502, -5.782383], [-35.280568, -5.782308], [-35.280624, -5.782243], [-35.280793, -5.782103], [-35.280895, -5.782072], [-35.281022, -5.782032], [-35.281178, -5.781967], [-35.281614, -5.781786], [-35.281767, -5.781735], [-35.281932, -5.781683], [-35.282091, -5.781644], [-35.282253, -5.781631], [-35.282384, -5.781594], [-35.282532, -5.781623], [-35.28263, -5.78158], [-35.282729, -5.781528], [-35.282848, -5.781492], [-35.283005, -5.781414], [-35.28312, -5.781163], [-35.283146, -5.781091], [-35.28313, -5.780994], [-35.283171, -5.780906], [-35.283246, -5.780882], [-35.283319, -5.780875], [-35.283359, -5.780856], [-35.283422, -5.78081], [-35.283525, -5.780778], [-35.283605, -5.780748], [-35.283654, -5.780721], [-35.283681, -5.780705], [-35.283724, -5.780681], [-35.283747, -5.780654], [-35.283754, -5.78059], [-35.283799, -5.780525], [-35.283831, -5.780466], [-35.283914, -5.780377], [-35.283957, -5.780331], [-35.284033, -5.780266], [-35.284101, -5.780143], [-35.282555, -5.777627], [-35.282294, -5.777211], [-35.28197, -5.776696], [-35.281773, -5.776382], [-35.281602, -5.776106], [-35.282358, -5.776237], [-35.281722, -5.77543], [-35.281053, -5.774558], [-35.280969, -5.774451], [-35.279065, -5.771971], [-35.27744, -5.769812], [-35.275738, -5.767552], [-35.27511, -5.767805], [-35.274331, -5.768081], [-35.274988, -5.769828], [-35.275409, -5.77119], [-35.276434, -5.774565]]]}, "properties": {"info": {"gid": 1}, "nsvia": " "}},
{"type": "Feature", "geometry": {"type": "Polygon", "coordinates": [[[-35.286087, -5.771019], [-35.288159, -5.772705], [-35.288221, -5.772758], [-35.288279, -5.772809], [-35.288267, -5.77284], [-35.288265, -5.772887], [-35.288249, -5.772921], [-35.288224, -5.772934], [-35.288202, -5.772931], [-35.288183, -5.772918], [-35.288164, -5.772882], [-35.288138, -5.772866], [-35.288111, -5.772861], [-35.288037, -5.772874], [-35.287999, -5.772871], [-35.28794, -5.772824], [-35.287875, -5.772833], [-35.287868, -5.772851], [-35.28785, -5.772895], [-35.287825, -5.772958], [-35.287816, -5.773022], [-35.287832, -5.77309], [-35.28782, -5.773149], [-35.287665, -5.773313], [-35.287617, -5.773382], [-35.287418, -5.773667], [-35.287047, -5.774385], [-35.286839, -5.775108], [-35.286846, -5.77511], [-35.289416, -5.775913], [-35.292956, -5.777019], [-35.292962, -5.777023], [-35.297213, -5.779654], [-35.297275, -5.779654], [-35.296995, -5.774837], [-35.300362, -5.773444], [-35.301482, -5.772981], [-35.303208, -5.77167], [-35.303551, -5.772238], [-35.304988, -5.771655], [-35.304004, -5.770257], [-35.307476, -5.769034], [-35.307122, -5.768638], [-35.309035, -5.767957], [-35.301176, -5.759268], [-35.300546, -5.758319], [-35.29547, -5.760281], [-35.294648, -5.759161], [-35.29379, -5.757991], [-35.293747, -5.757932], [-35.29019, -5.75317], [-35.288896, -5.753311], [-35.288342, -5.757827], [-35.288126, -5.758787], [-35.28729, -5.761993], [-35.287089, -5.762633], [-35.286816, -5.763152], [-35.286574, -5.7635], [-35.285625, -5.763813], [-35.279767, -5.765986], [-35.281755, -5.767469], [-35.282146, -5.76776], [-35.282596, -5.768136], [-35.284181, -5.769461], [-35.28604, -5.770981], [-35.286087, -5.771019]]]}, "properties": {"info": {"gid": 1}, "nsvia": " "}},
{"type": "Feature", "geometry": {"type": "Polygon", "coordinates": [[[-35.307122, -5.768638], [-35.307476, -5.769034], [-35.304004, -5.770257], [-35.304988, -5.771655], [-35.303551, -5.772238], [-35.303208, -5.77167], [-35.301482, -5.772981], [-35.300362, -5.773444], [-35.298782, -5.774107], [-35.298905, -5.779955], [-35.299084, -5.78856], [-35.297552, -5.788329], [-35.297524, -5.788325], [-35.297527, -5.788387], [-35.297614, -5.790255], [-35.29795, -5.798043], [-35.297956, -5.798043], [-35.297974, -5.798022], [-35.29965, -5.798093], [-35.302683, -5.796933], [-35.306006, -5.796575], [-35.308517, -5.798459], [-35.311542, -5.800379], [-35.313697, -5.799471], [-35.314859, -5.798663], [-35.317205, -5.797735], [-35.318789, -5.797384], [-35.319812, -5.797706], [-35.31975, -5.797018], [-35.319241, -5.793397], [-35.319241, -5.793396], [-35.319043, -5.791994], [-35.318679, -5.789413], [-35.318985, -5.789352], [-35.319254, -5.789298], [-35.318201, -5.772632], [-35.31817, -5.772134], [-35.317674, -5.771956], [-35.316022, -5.770863], [-35.312413, -5.770214], [-35.311309, -5.770366], [-35.311177, -5.769206], [-35.311875, -5.768909], [-35.311066, -5.767985], [-35.30957, -5.768526], [-35.309035, -5.767957], [-35.307122, -5.768638]]]}, "properties": {"info": {"gid": 1}, "nsvia": " "}},
{"type": "Feature", "geometry": {"type": "Polygon", "coordinates": [[[-35.270428, -5.782988], [-35.270512, -5.782997], [-35.272583, -5.782592], [-35.273351, -5.782383], [-35.273494, -5.782248], [-35.273579, -5.782121], [-35.275335, -5.781713], [-35.275851, -5.781672], [-35.276347, -5.78168], [-35.277083, -5.781629], [-35.276208, -5.778007], [-35.276505, -5.777907], [-35.275367, -5.775265], [-35.275163, -5.774901], [-35.275022, -5.774744], [-35.274927, -5.774639], [-35.274866, -5.774572], [-35.274544, -5.774317], [-35.274806, -5.774281], [-35.276434, -5.774565], [-35.274988, -5.769828], [-35.274331, -5.768081], [-35.266865, -5.770848], [-35.270428, -5.782988]]]}, "properties": {"info": {"gid": 1}, "nsvia": " "}},
{"type": "Feature", "geometry": {"type": "Polygon", "coordinates": [[[-35.323926, -5.776536], [-35.323852, -5.774893], [-35.323602, -5.773962], [-35.323506, -5.773752], [-35.322859, -5.773222], [-35.322243, -5.773081], [-35.321859, -5.772989], [-35.321683, -5.772814], [-35.321342, -5.772708], [-35.321023, -5.772534], [-35.320095, -5.772473], [-35.318201, -5.772632], [-35.319254, -5.789298], [-35.327878, -5.787415], [-35.328437, -5.787603], [-35.32858, -5.787011], [-35.336735, -5.788338], [-35.336668, -5.789199], [-35.338528, -5.788937], [-35.340725, -5.788878], [-35.341086, -5.788836], [-35.341931, -5.788689], [-35.342218, -5.788707], [-35.342232, -5.788708], [-35.3429, -5.788423], [-35.343635, -5.787781], [-35.343993, -5.787658], [-35.344437, -5.787613], [-35.344788, -5.787633], [-35.345111, -5.787732], [-35.345377, -5.787903], [-35.345589, -5.788039], [-35.345743, -5.788139], [-35.348938, -5.788276], [-35.348917, -5.788398], [-35.352952, -5.788733], [-35.354004, -5.783247], [-35.339463, -5.771645], [-35.337389, -5.771082], [-35.339315, -5.768993], [-35.340674, -5.768629], [-35.342542, -5.75903], [-35.338257, -5.759995], [-35.332955, -5.76073], [-35.332572, -5.760784], [-35.328931, -5.761205], [-35.326979, -5.772871], [-35.326375, -5.77644], [-35.323926, -5.776536]]]}, "properties": {"info": {"gid": 1}, "nsvia": " "}}]}
