{"type": "FeatureCollection", "features": [
{"type": "Feature", "geometry": {"type": "LineString", "coordinates": [[-60.037391, -2.855782], [-60.037289, -2.855495], [-60.036792, -2.854427], [-60.035971, -2.85281], [-60.035383, -2.851592], [-60.034677, -2.850304], [-60.034383, -2.849705], [-60.033959, -2.848874], [-60.033173, -2.847382], [-60.032992, -2.847033], [-60.032932, -2.846897], [-60.032901, -2.846828], [-60.032848, -2.846693], [-60.032741, -2.846347], [-60.032621, -2.84586], [-60.032591, -2.845717], [-60.032561, -2.845319], [-60.03254, -2.844935], [-60.032554, -2.844413], [-60.032687, -2.843159], [-60.032758, -2.842449], [-60.032904, -2.841325], [-60.033022, -2.840363], [-60.033135, -2.839359], [-60.033222, -2.838625], [-60.033284, -2.838178], [-60.033354, -2.837537], [-60.033443, -2.836819], [-60.033539, -2.835954], [-60.033633, -2.835203], [-60.033749, -2.834244], [-60.033853, -2.83338], [-60.033966, -2.832426], [-60.034049, -2.831749], [-60.034184, -2.830706], [-60.034311, -2.82965], [-60.034391, -2.828912], [-60.034543, -2.827753], [-60.034647, -2.82687], [-60.034767, -2.825868], [-60.034879, -2.824906], [-60.035021, -2.823778], [-60.035159, -2.822613], [-60.035293, -2.821492], [-60.035435, -2.820398], [-60.035576, -2.81926], [-60.035692, -2.818236], [-60.03583, -2.817125], [-60.035944, -2.816193], [-60.036107, -2.814964], [-60.0362, -2.814018], [-60.036317, -2.812979], [-60.036387, -2.812344], [-60.036502, -2.811499], [-60.036654, -2.810293], [-60.036769, -2.809226], [-60.036919, -2.808017], [-60.037056, -2.80694], [-60.037095, -2.806505], [-60.037108, -2.80626], [-60.037115, -2.806], [-60.037085, -2.804853], [-60.037066, -2.803691], [-60.037049, -2.802569], [-60.03702, -2.801624], [-60.036983, -2.800559], [-60.036968, -2.79959], [-60.036963, -2.798557], [-60.036939, -2.797601], [-60.036898, -2.796503], [-60.036872, -2.795475], [-60.036816, -2.794472], [-60.036782, -2.793386], [-60.036754, -2.792254], [-60.036693, -2.791077], [-60.036674, -2.790419], [-60.036649, -2.789596], [-60.036631, -2.788509], [-60.036592, -2.787607], [-60.036576, -2.78694], [-60.036569, -2.785947], [-60.036582, -2.784415], [-60.036593, -2.783106], [-60.036574, -2.781513], [-60.036567, -2.779797], [-60.03655, -2.777773], [-60.036548, -2.776019], [-60.036534, -2.774368], [-60.036519, -2.772549], [-60.036507, -2.770937], [-60.036512, -2.769946], [-60.036519, -2.76952], [-60.036543, -2.769149], [-60.036631, -2.76801], [-60.036698, -2.767185], [-60.036836, -2.765503], [-60.036891, -2.764711], [-60.037104, -2.762052], [-60.037177, -2.761128], [-60.037218, -2.760546], [-60.037324, -2.759296], [-60.037415, -2.758827], [-60.037507, -2.758533], [-60.037648, -2.758205], [-60.037824, -2.757839], [-60.038135, -2.757388], [-60.039105, -2.756197], [-60.039617, -2.755567], [-60.040168, -2.754913], [-60.040462, -2.754558], [-60.041131, -2.753705], [-60.041392, -2.75336], [-60.041826, -2.75282], [-60.04194, -2.752649], [-60.042066, -2.752425], [-60.042257, -2.752024], [-60.042356, -2.751734], [-60.042401, -2.751518], [-60.042491, -2.750978], [-60.042616, -2.750131], [-60.042888, -2.748487], [-60.043109, -2.747107], [-60.043364, -2.745493], [-60.043564, -2.744343], [-60.043817, -2.742754], [-60.044056, -2.741195], [-60.044383, -2.73923], [-60.044576, -2.737979], [-60.044868, -2.736224], [-60.045191, -2.734], [-60.045585, -2.731761], [-60.046003, -2.729212], [-60.046265, -2.727094], [-60.046453, -2.725697], [-60.046689, -2.723903], [-60.046836, -2.722684], [-60.047119, -2.72058], [-60.0473, -2.719161], [-60.047438, -2.718063], [-60.047578, -2.716995], [-60.047678, -2.716222], [-60.047797, -2.715284], [-60.047916, -2.71433], [-60.048113, -2.712858], [-60.048327, -2.71119], [-60.048607, -2.709013], [-60.048901, -2.706683], [-60.049199, -2.704206], [-60.049451, -2.702274], [-60.049529, -2.70164], [-60.049544, -2.701404], [-60.049561, -2.700973], [-60.049579, -2.699944], [-60.049585, -2.699206], [-60.049579, -2.698778], [-60.049535, -2.698036], [-60.04938, -2.69643], [-60.049104, -2.694221], [-60.048997, -2.693417], [-60.04893, -2.692972], [-60.048808, -2.692307], [-60.048532, -2.690895], [-60.048404, -2.690242], [-60.048201, -2.689268], [-60.047659, -2.686169], [-60.047493, -2.685152], [-60.047415, -2.684488], [-60.047356, -2.683944], [-60.047302, -2.683253], [-60.047264, -2.682671], [-60.047216, -2.681972], [-60.047138, -2.681034], [-60.047069, -2.680037], [-60.046935, -2.6788], [-60.046818, -2.677931], [-60.046592, -2.676564], [-60.046372, -2.67517], [-60.046217, -2.674135], [-60.046012, -2.672831], [-60.045783, -2.671399], [-60.045634, -2.670515], [-60.045565, -2.670087], [-60.045472, -2.669623], [-60.045324, -2.668943], [-60.045086, -2.66784], [-60.044941, -2.667173], [-60.044677, -2.665938], [-60.044563, -2.665433], [-60.044475, -2.665], [-60.044399, -2.664667], [-60.044313, -2.664306], [-60.044215, -2.663804], [-60.044061, -2.663029], [-60.043939, -2.662333], [-60.04377, -2.661451], [-60.043645, -2.660742], [-60.043454, -2.659701], [-60.043306, -2.658887], [-60.043213, -2.658367], [-60.043062, -2.657595], [-60.042972, -2.657132], [-60.042877, -2.65645], [-60.042782, -2.6556], [-60.042694, -2.654856], [-60.042599, -2.654282], [-60.042465, -2.653657], [-60.042254, -2.652679], [-60.04198, -2.651354], [-60.041674, -2.6499], [-60.041296, -2.648097], [-60.041052, -2.646915], [-60.040746, -2.645495], [-60.040514, -2.64443], [-60.040335, -2.643569], [-60.040252, -2.643111], [-60.040196, -2.642713], [-60.040166, -2.642327], [-60.040127, -2.640975], [-60.040076, -2.638971], [-60.040014, -2.636423], [-60.03999, -2.635179], [-60.040011, -2.633498], [-60.040035, -2.632128], [-60.04007, -2.630178], [-60.040097, -2.628171], [-60.040139, -2.626652], [-60.040135, -2.625629], [-60.039996, -2.623356], [-60.039877, -2.621196], [-60.039764, -2.619312], [-60.039624, -2.617024], [-60.039525, -2.615346], [-60.039454, -2.614314], [-60.039353, -2.61278], [-60.039261, -2.611167], [-60.039192, -2.6101], [-60.039162, -2.609672], [-60.039136, -2.609328], [-60.039094, -2.609035], [-60.038981, -2.608505], [-60.038859, -2.608096], [-60.038493, -2.606905], [-60.038237, -2.605951], [-60.037931, -2.604809], [-60.03747, -2.602969], [-60.036961, -2.600974], [-60.036572, -2.599467], [-60.035938, -2.597014], [-60.035492, -2.595259], [-60.034939, -2.593338], [-60.034466, -2.591711], [-60.033904, -2.589803], [-60.033273, -2.587775], [-60.032964, -2.586914], [-60.03283, -2.586615], [-60.032595, -2.586136], [-60.032339, -2.585676], [-60.031221, -2.583896], [-60.030564, -2.582804], [-60.02993, -2.581781], [-60.029383, -2.580884], [-60.028396, -2.57923], [-60.027771, -2.578249], [-60.027631, -2.577959], [-60.02748, -2.577669], [-60.027292, -2.577172], [-60.027158, -2.576748], [-60.027039, -2.57632], [-60.026965, -2.575949], [-60.026891, -2.575452], [-60.026653, -2.573559], [-60.026308, -2.571172], [-60.026263, -2.57067], [-60.026239, -2.570215], [-60.026242, -2.5698], [-60.026296, -2.569061], [-60.026343, -2.568367], [-60.026456, -2.567565], [-60.026662, -2.566656], [-60.026777, -2.566186], [-60.027079, -2.56537], [-60.027411, -2.564519], [-60.027804, -2.563672], [-60.028307, -2.562678], [-60.028863, -2.561659], [-60.029378, -2.560798], [-60.029767, -2.560197], [-60.03002, -2.559745], [-60.030502, -2.558872], [-60.031268, -2.557465], [-60.031916, -2.556269], [-60.032725, -2.554817], [-60.033282, -2.553812], [-60.033622, -2.553247], [-60.03431, -2.551981], [-60.034654, -2.551343], [-60.034832, -2.550957], [-60.035016, -2.550473], [-60.035218, -2.549783], [-60.035394, -2.548905], [-60.035574, -2.548039], [-60.03589, -2.546449], [-60.036175, -2.544985], [-60.03644, -2.543686], [-60.036897, -2.541301], [-60.037079, -2.54039], [-60.0371, -2.540063], [-60.037097, -2.539622], [-60.037047, -2.538602], [-60.036918, -2.53698], [-60.036743, -2.534759], [-60.036634, -2.533503], [-60.036497, -2.531577], [-60.036491, -2.531009], [-60.036512, -2.530559], [-60.03661, -2.529692], [-60.036797, -2.527882], [-60.036988, -2.526079], [-60.037166, -2.524242], [-60.037365, -2.522193], [-60.037556, -2.520494], [-60.037603, -2.519953], [-60.037618, -2.519519], [-60.037606, -2.518951], [-60.037469, -2.517596], [-60.037252, -2.515508], [-60.037035, -2.513277], [-60.03683, -2.51133], [-60.036627, -2.509479], [-60.036395, -2.507346], [-60.036357, -2.50685], [-60.03633, -2.506347], [-60.036279, -2.505211], [-60.036232, -2.50402], [-60.036205, -2.503383], [-60.036086, -2.502528], [-60.03589, -2.501394], [-60.035598, -2.499767], [-60.03547, -2.499016], [-60.035372, -2.498457], [-60.035096, -2.496935], [-60.034914, -2.495918], [-60.034602, -2.494566], [-60.034322, -2.493256], [-60.034099, -2.49217], [-60.033647, -2.49013], [-60.033216, -2.488069], [-60.032731, -2.485823], [-60.032404, -2.484396], [-60.032258, -2.483705], [-60.031964, -2.482386], [-60.031675, -2.48105], [-60.031351, -2.479575], [-60.030931, -2.477613], [-60.03046, -2.475492], [-60.030148, -2.474043], [-60.029785, -2.472353], [-60.029388, -2.470434], [-60.028995, -2.468709], [-60.028591, -2.466878], [-60.028327, -2.465627], [-60.027939, -2.463906], [-60.027589, -2.46232], [-60.02727, -2.460834], [-60.026904, -2.459164], [-60.026557, -2.45758], [-60.026202, -2.455991], [-60.025769, -2.454029], [-60.025398, -2.452328], [-60.025086, -2.450906], [-60.024991, -2.45044], [-60.024943, -2.450009], [-60.024922, -2.449703], [-60.024917, -2.449504], [-60.02492, -2.449023], [-60.024958, -2.448652], [-60.025027, -2.448155], [-60.025245, -2.447157], [-60.025431, -2.446298], [-60.025807, -2.444565], [-60.026173, -2.44295], [-60.026518, -2.441393], [-60.026961, -2.43943], [-60.027325, -2.437784], [-60.027762, -2.435837], [-60.028205, -2.433827], [-60.028619, -2.432018], [-60.029018, -2.430199], [-60.029492, -2.428089], [-60.029939, -2.4261], [-60.0304, -2.424026], [-60.030814, -2.422145], [-60.03123, -2.420154], [-60.031578, -2.41869], [-60.032369, -2.415063], [-60.033228, -2.411181], [-60.034541, -2.40518], [-60.035825, -2.399422], [-60.036731, -2.395288], [-60.037802, -2.390363], [-60.038929, -2.385245], [-60.039943, -2.380701], [-60.040314, -2.379021], [-60.040499, -2.378167], [-60.04067, -2.377306], [-60.040806, -2.376653], [-60.040991, -2.375727], [-60.041056, -2.375253], [-60.041098, -2.374707], [-60.041419, -2.370608], [-60.041705, -2.366732], [-60.041978, -2.363753], [-60.042016, -2.363188], [-60.042169, -2.362308], [-60.042682, -2.359628], [-60.044271, -2.351521], [-60.045182, -2.346821], [-60.045406, -2.345765], [-60.045438, -2.345572], [-60.045499, -2.345051], [-60.045528, -2.344753], [-60.045693, -2.343175], [-60.045697, -2.343143], [-60.045989, -2.340541], [-60.046053, -2.339905], [-60.046305, -2.337778], [-60.046438, -2.336564], [-60.046497, -2.336002], [-60.046854, -2.333893], [-60.047276, -2.331587], [-60.047499, -2.330349], [-60.047544, -2.330044], [-60.047565, -2.329816], [-60.047585, -2.32949], [-60.047588, -2.329173], [-60.047573, -2.328844], [-60.047532, -2.328434], [-60.047413, -2.327411], [-60.047077, -2.324719], [-60.046787, -2.322296], [-60.046507, -2.320017], [-60.04621, -2.31766], [-60.045927, -2.315327], [-60.04535, -2.31058], [-60.045035, -2.308115], [-60.044886, -2.306856], [-60.0448, -2.306106], [-60.04453, -2.303791], [-60.044262, -2.301479], [-60.044078, -2.299971], [-60.043822, -2.297874], [-60.043563, -2.295664], [-60.043313, -2.293645], [-60.04301, -2.29116], [-60.042706, -2.288707], [-60.042418, -2.286314], [-60.042118, -2.28385], [-60.041808, -2.281394], [-60.041514, -2.279043], [-60.041243, -2.276869], [-60.040922, -2.274273], [-60.040628, -2.271811], [-60.040324, -2.269403], [-60.040015, -2.266864], [-60.039765, -2.264824], [-60.039536, -2.262976], [-60.03948, -2.262647], [-60.039355, -2.262096], [-60.039206, -2.261609], [-60.038977, -2.261035], [-60.038516, -2.260155], [-60.038029, -2.259318], [-60.036851, -2.257317], [-60.035837, -2.255522], [-60.034829, -2.253814], [-60.034532, -2.253321], [-60.034297, -2.252917], [-60.033482, -2.251517], [-60.032656, -2.250091], [-60.031571, -2.248241], [-60.03067, -2.246702], [-60.029811, -2.245219], [-60.028833, -2.243516], [-60.028622, -2.243146], [-60.028476, -2.242798], [-60.028369, -2.242532], [-60.028269, -2.242206], [-60.028012, -2.241255], [-60.027263, -2.238566], [-60.026574, -2.236111], [-60.025825, -2.233438], [-60.025033, -2.230645], [-60.024316, -2.228136], [-60.023492, -2.22524], [-60.003678, -2.160422], [-59.996595, -2.130754]]}, "properties": {"via_name": "RODOVIA BR 174"}}]}
