{"type":"FeatureCollection","features":[{"type":"Feature","geometry":{"type":"MultiPolygon","coordinates":[[[[-53.4375,-23.73047],[-53.4375,-23.84439],[-53.44129,-23.84674],[-53.44517,-23.85255],[-53.44529,-23.8527],[-53.44543,-23.85282],[-53.4456,-23.85292],[-53.4616,-23.85992],[-53.46178,-23.85998],[-53.46197,-23.86],[-53.46216,-23.85999],[-53.46235,-23.85994],[-53.46252,-23.85985],[-53.47356,-23.85308],[-53.47373,-23.85295],[-53.47387,-23.85278],[-53.47397,-23.85259],[-53.47407,-23.85232],[-53.47452,-23.85209],[-53.47607,-23.85132],[-53.47781,-23.85045],[-53.478,-23.85033],[-53.47923,-23.84932],[-53.4806,-23.84891],[-53.48079,-23.84883],[-53.48097,-23.84871],[-53.48397,-23.84607],[-53.48403,-23.84602],[-53.48665,-23.8433],[-53.49019,-23.84395],[-53.49039,-23.84396],[-53.49059,-23.84394],[-53.49571,-23.84277],[-53.49592,-23.84269],[-53.49611,-23.84257],[-53.49627,-23.84241],[-53.49774,-23.84054],[-53.49935,-23.83994],[-53.49948,-23.83988],[-53.50283,-23.83806],[-53.50566,-23.83814],[-53.50584,-23.83813],[-53.50602,-23.83809],[-53.50619,-23.83801],[-53.50634,-23.8379],[-53.50647,-23.83777],[-53.50657,-23.83761],[-53.50664,-23.83744],[-53.50699,-23.83631],[-53.50843,-23.83594],[-53.50846,-23.83593],[-53.51207,-23.83486],[-53.51224,-23.8348],[-53.51457,-23.83362],[-53.51465,-23.83358],[-53.51546,-23.83307],[-53.51559,-23.83298],[-53.51569,-23.83288],[-53.51587,-23.83267],[-53.51642,-23.8327],[-53.51662,-23.83269],[-53.51681,-23.83265],[-53.51875,-23.83195],[-53.51925,-23.83202],[-53.51945,-23.83203],[-53.52005,-23.832],[-53.52024,-23.83197],[-53.52042,-23.83191],[-53.52058,-23.83181],[-53.53684,-23.8201],[-53.53699,-23.81997],[-53.53711,-23.8198],[-53.5372,-23.81962],[-53.53736,-23.81915],[-53.53741,-23.81897],[-53.53742,-23.81879],[-53.5374,-23.81861],[-53.53735,-23.81844],[-53.53726,-23.81828],[-53.53715,-23.81814],[-53.53697,-23.81794],[-53.53687,-23.81786],[-53.53691,-23.81773],[-53.53694,-23.81754],[-53.53693,-23.81735],[-53.53691,-23.81728],[-53.53693,-23.8172],[-53.53692,-23.81699],[-53.53687,-23.8168],[-53.53676,-23.81649],[-53.53667,-23.8163],[-53.53659,-23.81619],[-53.53662,-23.81609],[-53.53665,-23.81593],[-53.53667,-23.81546],[-53.53667,-23.81529],[-53.53663,-23.81512],[-53.53649,-23.81465],[-53.53641,-23.81445],[-53.53629,-23.81428],[-53.53613,-23.81414],[-53.53595,-23.81403],[-53.53567,-23.8139],[-53.53562,-23.81366],[-53.53565,-23.81348],[-53.53566,-23.81328],[-53.53563,-23.81308],[-53.53557,-23.81289],[-53.53547,-23.81272],[-53.53534,-23.81255],[-53.53521,-23.8124],[-53.53505,-23.81229],[-53.53488,-23.8122],[-53.53469,-23.81215],[-53.53453,-23.81214],[-53.53452,-23.81204],[-53.53449,-23.81184],[-53.53441,-23.81165],[-53.5343,-23.81148],[-53.53415,-23.81134],[-53.53398,-23.81122],[-53.53379,-23.81115],[-53.53354,-23.81108],[-53.53344,-23.81098],[-53.53331,-23.81087],[-53.53317,-23.81077],[-53.53311,-23.81068],[-53.53299,-23.81053],[-53.53284,-23.8104],[-53.53266,-23.8103],[-53.53247,-23.81025],[-53.53014,-23.80977],[-53.52957,-23.8095],[-53.5295,-23.80947],[-53.52902,-23.80929],[-53.52899,-23.80928],[-53.52845,-23.80909],[-53.52841,-23.80908],[-53.52753,-23.80882],[-53.52751,-23.80877],[-53.52727,-23.8083],[-53.52716,-23.80813],[-53.52701,-23.80798],[-53.52684,-23.80787],[-53.52682,-23.80786],[-53.52681,-23.80778],[-53.52676,-23.80758],[-53.52666,-23.8074],[-53.52663,-23.80735],[-53.52663,-23.80728],[-53.52662,-23.807],[-53.52659,-23.80681],[-53.52653,-23.80663],[-53.52652,-23.80661],[-53.52652,-23.80651],[-53.52653,-23.80648],[-53.52657,-23.8063],[-53.52657,-23.80611],[-53.52651,-23.80533],[-53.52648,-23.80515],[-53.52642,-23.80499],[-53.52615,-23.80442],[-53.52622,-23.80428],[-53.52627,-23.80408],[-53.52627,-23.80387],[-53.52624,-23.80367],[-53.52616,-23.80347],[-53.52604,-23.8033],[-53.52586,-23.80309],[-53.52574,-23.80297],[-53.52559,-23.80287],[-53.52544,-23.8028],[-53.52539,-23.80279],[-53.52539,-23.80278],[-53.52543,-23.80271],[-53.52555,-23.80245],[-53.52561,-23.80226],[-53.52564,-23.80206],[-53.52562,-23.80186],[-53.52557,-23.80167],[-53.52547,-23.80149],[-53.52535,-23.80134],[-53.5246,-23.80059],[-53.52441,-23.80044],[-53.52435,-23.80041],[-53.52434,-23.8004],[-53.52425,-23.80024],[-53.52403,-23.79992],[-53.52392,-23.79978],[-53.52378,-23.79967],[-53.52356,-23.79952],[-53.52339,-23.79943],[-53.5232,-23.79937],[-53.52301,-23.79933],[-53.52291,-23.79931],[-53.52262,-23.79928],[-53.52214,-23.79913],[-53.52215,-23.79907],[-53.52214,-23.79888],[-53.5221,-23.7987],[-53.52202,-23.79852],[-53.52194,-23.79841],[-53.52194,-23.79832],[-53.52191,-23.79816],[-53.52188,-23.79805],[-53.52191,-23.79796],[-53.52192,-23.79777],[-53.5219,-23.79758],[-53.52184,-23.79729],[-53.52178,-23.79708],[-53.52168,-23.7969],[-53.52155,-23.79672],[-53.52143,-23.79658],[-53.52128,-23.79647],[-53.52112,-23.79638],[-53.52023,-23.796],[-53.52004,-23.79595],[-53.51985,-23.79592],[-53.51966,-23.79594],[-53.51948,-23.79599],[-53.51901,-23.79617],[-53.519,-23.79613],[-53.51846,-23.79328],[-53.51841,-23.7931],[-53.51833,-23.79293],[-53.51821,-23.79278],[-53.51807,-23.79266],[-53.51767,-23.79236],[-53.51748,-23.79225],[-53.51727,-23.79219],[-53.51705,-23.79217],[-53.51667,-23.79218],[-53.51391,-23.79156],[-53.51307,-23.79114],[-53.51286,-23.79106],[-53.51269,-23.79104],[-53.51267,-23.791],[-53.51257,-23.79085],[-53.51188,-23.79005],[-53.51174,-23.78991],[-53.51157,-23.7898],[-53.51139,-23.78973],[-53.51119,-23.7897],[-53.51091,-23.78968],[-53.51097,-23.78951],[-53.51101,-23.7893],[-53.51101,-23.78909],[-53.51097,-23.78889],[-53.51088,-23.7887],[-53.51076,-23.78853],[-53.51058,-23.78833],[-53.5104,-23.78807],[-53.51028,-23.78774],[-53.51021,-23.78758],[-53.51011,-23.78744],[-53.50991,-23.78719],[-53.50977,-23.78705],[-53.5096,-23.78694],[-53.50942,-23.78687],[-53.50938,-23.78686],[-53.50936,-23.78684],[-53.50935,-23.78682],[-53.5093,-23.78665],[-53.50928,-23.78661],[-53.50929,-23.78657],[-53.50933,-23.78638],[-53.50937,-23.78609],[-53.50937,-23.78587],[-53.50932,-23.78565],[-53.50925,-23.78544],[-53.50916,-23.78526],[-53.50905,-23.7851],[-53.5089,-23.78497],[-53.50874,-23.78487],[-53.50862,-23.78481],[-53.5086,-23.78471],[-53.50853,-23.78454],[-53.50843,-23.78439],[-53.50784,-23.78364],[-53.50723,-23.78253],[-53.50707,-23.78231],[-53.5068,-23.78203],[-53.50658,-23.78174],[-53.50645,-23.78159],[-53.5058,-23.78101],[-53.50563,-23.78089],[-53.50553,-23.78084],[-53.50553,-23.78083],[-53.50544,-23.78067],[-53.50532,-23.78053],[-53.50517,-23.78041],[-53.50501,-23.78032],[-53.50499,-23.78032],[-53.50492,-23.78019],[-53.50488,-23.78014],[-53.50489,-23.78012],[-53.50492,-23.77991],[-53.5049,-23.7797],[-53.50484,-23.7795],[-53.50475,-23.77932],[-53.50461,-23.77916],[-53.50444,-23.77903],[-53.50426,-23.77894],[-53.50398,-23.77884],[-53.50388,-23.77881],[-53.50375,-23.77872],[-53.50358,-23.77862],[-53.5034,-23.77856],[-53.5034,-23.77856],[-53.50337,-23.7785],[-53.50325,-23.77835],[-53.5031,-23.77822],[-53.50293,-23.7781],[-53.50284,-23.77788],[-53.50273,-23.7777],[-53.50259,-23.77754],[-53.50242,-23.77741],[-53.50223,-23.77732],[-53.50217,-23.7773],[-53.50203,-23.77721],[-53.50207,-23.77702],[-53.50206,-23.77682],[-53.50202,-23.77663],[-53.50193,-23.77645],[-53.50182,-23.77629],[-53.50021,-23.77446],[-53.50009,-23.77434],[-53.49995,-23.77424],[-53.49927,-23.77386],[-53.49907,-23.77361],[-53.49893,-23.77346],[-53.49879,-23.77337],[-53.49876,-23.77328],[-53.49831,-23.7723],[-53.49819,-23.77211],[-53.49803,-23.77195],[-53.49809,-23.77176],[-53.49811,-23.77155],[-53.49808,-23.77134],[-53.49785,-23.77033],[-53.49778,-23.77015],[-53.49769,-23.76998],[-53.49756,-23.76983],[-53.4974,-23.76971],[-53.49723,-23.76962],[-53.49704,-23.76957],[-53.49689,-23.76955],[-53.49679,-23.76939],[-53.49666,-23.76925],[-53.4965,-23.76913],[-53.49631,-23.76905],[-53.49533,-23.76873],[-53.49514,-23.76868],[-53.49494,-23.76868],[-53.49474,-23.76871],[-53.49468,-23.76874],[-53.49462,-23.76871],[-53.49442,-23.76861],[-53.4942,-23.76857],[-53.49397,-23.76858],[-53.49394,-23.76858],[-53.4939,-23.76847],[-53.49377,-23.76831],[-53.49362,-23.76817],[-53.49344,-23.76806],[-53.49324,-23.768],[-53.49303,-23.76798],[-53.49268,-23.76798],[-53.49248,-23.768],[-53.49238,-23.76803],[-53.49225,-23.76792],[-53.4921,-23.76782],[-53.49192,-23.76775],[-53.49123,-23.76753],[-53.49105,-23.76749],[-53.49087,-23.76749],[-53.48979,-23.76756],[-53.48958,-23.76759],[-53.48938,-23.76768],[-53.48874,-23.76802],[-53.48725,-23.76761],[-53.48697,-23.76758],[-53.48619,-23.76758],[-53.48605,-23.76737],[-53.48592,-23.76721],[-53.48576,-23.76708],[-53.48557,-23.76699],[-53.48537,-23.76694],[-53.48482,-23.76686],[-53.48428,-23.76634],[-53.4838,-23.76555],[-53.4837,-23.76542],[-53.48358,-23.7653],[-53.48344,-23.7652],[-53.48302,-23.76496],[-53.48284,-23.76489],[-53.48271,-23.76486],[-53.48247,-23.76427],[-53.48237,-23.76408],[-53.48223,-23.76392],[-53.48194,-23.76365],[-53.48179,-23.76353],[-53.48117,-23.76313],[-53.48039,-23.76178],[-53.48023,-23.76158],[-53.47935,-23.76069],[-53.47921,-23.76057],[-53.47905,-23.76048],[-53.47888,-23.76042],[-53.47869,-23.7604],[-53.47789,-23.76036],[-53.47776,-23.76022],[-53.47767,-23.76013],[-53.47568,-23.75844],[-53.47548,-23.75831],[-53.47525,-23.75823],[-53.47387,-23.75791],[-53.47268,-23.75735],[-53.47266,-23.75725],[-53.47261,-23.75706],[-53.47252,-23.75689],[-53.4724,-23.75674],[-53.47225,-23.75662],[-53.47208,-23.75652],[-53.4719,-23.75646],[-53.4716,-23.7564],[-53.47154,-23.75635],[-53.47144,-23.75629],[-53.47141,-23.75624],[-53.4712,-23.75591],[-53.47109,-23.75577],[-53.47096,-23.75565],[-53.47081,-23.75556],[-53.47065,-23.75549],[-53.47047,-23.75546],[-53.46853,-23.75525],[-53.46828,-23.7551],[-53.46806,-23.75468],[-53.46798,-23.75456],[-53.46788,-23.75444],[-53.46729,-23.75386],[-53.46716,-23.75374],[-53.46701,-23.75366],[-53.46684,-23.7536],[-53.46667,-23.75357],[-53.46618,-23.75352],[-53.46605,-23.75346],[-53.46604,-23.75345],[-53.46581,-23.75334],[-53.46493,-23.75245],[-53.46471,-23.75228],[-53.46401,-23.75189],[-53.46392,-23.75175],[-53.46367,-23.7512],[-53.46369,-23.75113],[-53.46369,-23.75095],[-53.46366,-23.75077],[-53.46355,-23.75036],[-53.46348,-23.75017],[-53.46337,-23.75],[-53.46324,-23.74986],[-53.46307,-23.74974],[-53.46289,-23.74966],[-53.46269,-23.74962],[-53.46178,-23.74952],[-53.46161,-23.74952],[-53.46144,-23.74955],[-53.46127,-23.7496],[-53.46112,-23.74968],[-53.461,-23.74976],[-53.46099,-23.74976],[-53.46089,-23.74938],[-53.46093,-23.74922],[-53.46095,-23.74899],[-53.46092,-23.74877],[-53.46085,-23.74847],[-53.46079,-23.74829],[-53.46069,-23.74811],[-53.46056,-23.74797],[-53.4604,-23.74785],[-53.46003,-23.74762],[-53.46,-23.74753],[-53.45991,-23.74737],[-53.45979,-23.74723],[-53.45964,-23.74711],[-53.45948,-23.74703],[-53.4588,-23.74673],[-53.45873,-23.74671],[-53.45863,-23.74655],[-53.45849,-23.74641],[-53.45833,-23.74627],[-53.45809,-23.7457],[-53.45802,-23.74556],[-53.45792,-23.74544],[-53.45779,-23.74528],[-53.4578,-23.74518],[-53.45778,-23.74498],[-53.45772,-23.74478],[-53.45763,-23.74459],[-53.45759,-23.74455],[-53.45761,-23.74449],[-53.45766,-23.74427],[-53.45767,-23.74405],[-53.45758,-23.7431],[-53.45753,-23.74286],[-53.45713,-23.74172],[-53.45707,-23.74156],[-53.45671,-23.7409],[-53.45557,-23.7387],[-53.45518,-23.73621],[-53.45588,-23.73511],[-53.45596,-23.73495],[-53.4566,-23.73334],[-53.45666,-23.73316],[-53.45667,-23.73297],[-53.45667,-23.73147],[-53.45692,-23.73069],[-53.4573,-23.7297],[-53.45819,-23.72858],[-53.45829,-23.72843],[-53.45836,-23.72827],[-53.4584,-23.72809],[-53.45841,-23.72791],[-53.45839,-23.72773],[-53.45822,-23.72701],[-53.45852,-23.72534],[-53.46115,-23.72027],[-53.46121,-23.72013],[-53.46125,-23.71998],[-53.46175,-23.7172],[-53.46177,-23.71695],[-53.46162,-23.71497],[-53.46968,-23.71068],[-53.4731,-23.70931],[-53.47331,-23.70919],[-53.47348,-23.70903],[-53.47431,-23.70806],[-53.47757,-23.70582],[-53.47771,-23.7057],[-53.47783,-23.70555],[-53.47792,-23.70539],[-53.47798,-23.70521],[-53.48194,-23.68639],[-53.48949,-23.67507],[-53.51886,-23.67899],[-53.53885,-23.68199],[-53.53904,-23.682],[-53.53923,-23.68197],[-53.53942,-23.68191],[-53.53958,-23.68181],[-53.54882,-23.67519],[-53.54976,-23.67492],[-53.55111,-23.67493],[-53.55278,-23.67526],[-53.55354,-23.67557],[-53.55439,-23.67599],[-53.55459,-23.67606],[-53.5557,-23.67634],[-53.55677,-23.67665],[-53.55682,-23.67666],[-53.55765,-23.67686],[-53.55766,-23.67686],[-53.55839,-23.67702],[-53.55856,-23.67705],[-53.55873,-23.67704],[-53.5589,-23.677],[-53.55892,-23.677],[-53.56072,-23.67731],[-53.56089,-23.67732],[-53.56107,-23.67731],[-53.56124,-23.67726],[-53.56211,-23.67693],[-53.56286,-23.67684],[-53.56345,-23.67684],[-53.56468,-23.67685],[-53.565,-23.67695],[-53.56521,-23.677],[-53.56645,-23.67713],[-53.56654,-23.67714],[-53.56726,-23.67715],[-53.56751,-23.67712],[-53.56824,-23.67694],[-53.5695,-23.67665],[-53.57065,-23.67649],[-53.57393,-23.6762],[-53.57476,-23.67623],[-53.57491,-23.67633],[-53.57513,-23.67657],[-53.57528,-23.6767],[-53.57544,-23.6768],[-53.57563,-23.67687],[-53.57582,-23.6769],[-53.57602,-23.67689],[-53.57626,-23.67685],[-53.57652,-23.67678],[-53.57706,-23.67654],[-53.57717,-23.67649],[-53.57788,-23.67607],[-53.57846,-23.67591],[-53.57908,-23.67611],[-53.57929,-23.67616],[-53.5795,-23.67615],[-53.57971,-23.67611],[-53.57991,-23.67602],[-53.58035,-23.67575],[-53.58037,-23.67573],[-53.58044,-23.67569],[-53.58079,-23.67571],[-53.58098,-23.6757],[-53.58115,-23.67566],[-53.58183,-23.67543],[-53.58199,-23.67536],[-53.58213,-23.67527],[-53.58226,-23.67515],[-53.58282,-23.67452],[-53.58289,-23.67443],[-53.58331,-23.67383],[-53.58436,-23.673],[-53.58444,-23.67293],[-53.58507,-23.67232],[-53.58518,-23.6722],[-53.58527,-23.67205],[-53.58559,-23.67142],[-53.58595,-23.67101],[-53.58636,-23.67074],[-53.58649,-23.67065],[-53.58659,-23.67053],[-53.58677,-23.67032],[-53.58708,-23.67016],[-53.58725,-23.67005],[-53.58796,-23.66949],[-53.58855,-23.6691],[-53.5887,-23.66898],[-53.58882,-23.66883],[-53.58916,-23.66833],[-53.58921,-23.66826],[-53.5894,-23.66792],[-53.58969,-23.66768],[-53.58979,-23.6676],[-53.59019,-23.66719],[-53.5906,-23.66691],[-53.59063,-23.66689],[-53.59112,-23.66654],[-53.5912,-23.66647],[-53.59162,-23.6661],[-53.59167,-23.66605],[-53.59203,-23.66568],[-53.5922,-23.66545],[-53.59248,-23.66493],[-53.59275,-23.66455],[-53.59277,-23.66452],[-53.59305,-23.6641],[-53.59311,-23.66403],[-53.59353,-23.66416],[-53.59363,-23.66419],[-53.59415,-23.6643],[-53.59445,-23.66438],[-53.59464,-23.6644],[-53.59484,-23.66439],[-53.59503,-23.66434],[-53.59532,-23.66424],[-53.59551,-23.66414],[-53.59568,-23.664],[-53.59579,-23.66387],[-53.59594,-23.66389],[-53.59615,-23.66389],[-53.59636,-23.66385],[-53.59667,-23.66376],[-53.59692,-23.66364],[-53.59711,-23.66352],[-53.59712,-23.66352],[-53.59767,-23.66357],[-53.59771,-23.66357],[-53.59827,-23.66359],[-53.5985,-23.66357],[-53.59872,-23.6635],[-53.59899,-23.6636],[-53.59913,-23.66363],[-53.59953,-23.66371],[-53.59969,-23.66373],[-53.60005,-23.66374],[-53.60022,-23.66373],[-53.6004,-23.66369],[-53.60056,-23.66361],[-53.60071,-23.66351],[-53.60097,-23.66329],[-53.60113,-23.66314],[-53.60124,-23.66295],[-53.60131,-23.66275],[-53.60132,-23.66269],[-53.60151,-23.66261],[-53.60239,-23.66236],[-53.60294,-23.66235],[-53.60346,-23.66235],[-53.60367,-23.66233],[-53.60388,-23.66225],[-53.6041,-23.66215],[-53.60475,-23.66228],[-53.60495,-23.6623],[-53.60516,-23.66228],[-53.60558,-23.66218],[-53.60559,-23.66219],[-53.60574,-23.66229],[-53.60592,-23.66239],[-53.60612,-23.66245],[-53.60632,-23.66247],[-53.60673,-23.66246],[-53.60694,-23.66244],[-53.60734,-23.66234],[-53.60738,-23.66233],[-53.60827,-23.66208],[-53.60916,-23.66187],[-53.60988,-23.66179],[-53.61037,-23.66182],[-53.61056,-23.66181],[-53.61075,-23.66177],[-53.61093,-23.66169],[-53.61124,-23.66151],[-53.6114,-23.66139],[-53.61154,-23.66124],[-53.61154,-23.66124],[-53.61154,-23.66124],[-53.61172,-23.66116],[-53.61188,-23.66105],[-53.61195,-23.66098],[-53.61199,-23.66098],[-53.61218,-23.66096],[-53.61236,-23.6609],[-53.6129,-23.66068],[-53.61308,-23.66058],[-53.61402,-23.65995],[-53.61495,-23.65946],[-53.61508,-23.65937],[-53.61638,-23.65841],[-53.61725,-23.65804],[-53.61808,-23.65778],[-53.61824,-23.65772],[-53.61839,-23.65762],[-53.61852,-23.6575],[-53.61863,-23.65736],[-53.61885,-23.657],[-53.6189,-23.65698],[-53.61913,-23.65702],[-53.6193,-23.65704],[-53.61947,-23.65703],[-53.61963,-23.65699],[-53.61994,-23.65689],[-53.62042,-23.65681],[-53.6208,-23.65692],[-53.62096,-23.65695],[-53.62111,-23.65696],[-53.62179,-23.65695],[-53.62205,-23.6569],[-53.62266,-23.65672],[-53.62274,-23.65673],[-53.62296,-23.65673],[-53.62361,-23.65667],[-53.62429,-23.65673],[-53.62446,-23.65673],[-53.62507,-23.65669],[-53.62521,-23.65666],[-53.62535,-23.65662],[-53.62608,-23.65634],[-53.62619,-23.65628],[-53.62692,-23.65589],[-53.62834,-23.65535],[-53.62848,-23.65528],[-53.6286,-23.6552],[-53.6294,-23.65457],[-53.62957,-23.65441],[-53.62981,-23.6541],[-53.62999,-23.65389],[-53.63046,-23.65362],[-53.63113,-23.65342],[-53.6316,-23.65336],[-53.63175,-23.65334],[-53.63189,-23.65328],[-53.63229,-23.6531],[-53.63292,-23.65303],[-53.63309,-23.65299],[-53.63325,-23.65293],[-53.6334,-23.65283],[-53.63386,-23.65249],[-53.63441,-23.6524],[-53.63511,-23.65246],[-53.63593,-23.65253],[-53.63671,-23.6526],[-53.63736,-23.65269],[-53.63792,-23.65291],[-53.63819,-23.65297],[-53.63903,-23.65305],[-53.63908,-23.65306],[-53.63919,-23.65308],[-53.64046,-23.65328],[-53.64049,-23.65329],[-53.6412,-23.65338],[-53.64129,-23.65339],[-53.64246,-23.65343],[-53.64292,-23.65367],[-53.64313,-23.65375],[-53.644,-23.65397],[-53.64421,-23.654],[-53.64511,-23.65404],[-53.64528,-23.65403],[-53.64544,-23.654],[-53.64579,-23.65389],[-53.64642,-23.65406],[-53.64658,-23.65409],[-53.64673,-23.6541],[-53.64751,-23.65406],[-53.64774,-23.65402],[-53.64894,-23.65367],[-53.64906,-23.65362],[-53.64962,-23.65338],[-53.64987,-23.65336],[-53.65014,-23.65345],[-53.65105,-23.65391],[-53.65137,-23.65416],[-53.65156,-23.65427],[-53.65177,-23.65434],[-53.65243,-23.65448],[-53.65264,-23.65451],[-53.65317,-23.65451],[-53.6532,-23.65456],[-53.65332,-23.6547],[-53.65345,-23.65482],[-53.65361,-23.65492],[-53.65378,-23.65498],[-53.65396,-23.65501],[-53.65414,-23.65501],[-53.65474,-23.65495],[-53.65489,-23.65492],[-53.65503,-23.65487],[-53.65512,-23.65483],[-53.65525,-23.65496],[-53.65541,-23.6551],[-53.6556,-23.6552],[-53.656,-23.65536],[-53.65618,-23.65541],[-53.65637,-23.65543],[-53.65656,-23.65541],[-53.65674,-23.65535],[-53.65691,-23.65527],[-53.65706,-23.65515],[-53.65718,-23.655],[-53.65728,-23.65484],[-53.65734,-23.65466],[-53.65736,-23.65447],[-53.65735,-23.65428],[-53.65202,-23.61809],[-53.65795,-23.60032],[-53.65799,-23.60013],[-53.658,-23.59994],[-53.65797,-23.59976],[-53.65611,-23.59231],[-53.66371,-23.58471],[-53.66382,-23.58457],[-53.66391,-23.58441],[-53.66397,-23.58424],[-53.664,-23.58406],[-53.66399,-23.58388],[-53.662,-23.56693],[-53.661,-23.51998],[-53.66099,-23.51988],[-53.65506,-23.4724],[-53.66366,-23.46475],[-53.66381,-23.46459],[-53.66391,-23.46441],[-53.66398,-23.46421],[-53.664,-23.464],[-53.66402,-23.45572],[-53.664,-23.45553],[-53.66395,-23.45535],[-53.66387,-23.45518],[-53.66375,-23.45503],[-53.66361,-23.45491],[-53.66345,-23.45481],[-53.66327,-23.45475],[-53.66308,-23.45472],[-53.66289,-23.45472],[-53.66271,-23.45476],[-53.66254,-23.45484],[-53.66232,-23.45496],[-53.66167,-23.45524],[-53.66166,-23.45524],[-53.66124,-23.45542],[-53.6608,-23.45561],[-53.66061,-23.45572],[-53.66045,-23.45587],[-53.66037,-23.45599],[-53.65989,-23.45588],[-53.65977,-23.45586],[-53.6595,-23.45584],[-53.65931,-23.45584],[-53.65913,-23.45587],[-53.65895,-23.45594],[-53.65872,-23.45606],[-53.65857,-23.45615],[-53.65851,-23.45621],[-53.65831,-23.45619],[-53.6581,-23.4562],[-53.65789,-23.45625],[-53.65769,-23.45635],[-53.65744,-23.45651],[-53.6573,-23.4566],[-53.65713,-23.45671],[-53.657,-23.45686],[-53.657,-23.45686],[-53.65677,-23.45688],[-53.65675,-23.45688],[-53.65631,-23.45691],[-53.6561,-23.45695],[-53.65591,-23.45703],[-53.65568,-23.45715],[-53.65556,-23.45723],[-53.65533,-23.4574],[-53.6552,-23.45751],[-53.6546,-23.45814],[-53.65394,-23.45878],[-53.65369,-23.45897],[-53.65336,-23.45912],[-53.65308,-23.45923],[-53.65261,-23.45921],[-53.65244,-23.45922],[-53.65228,-23.45926],[-53.65174,-23.45942],[-53.65113,-23.45948],[-53.65056,-23.45946],[-53.65035,-23.45947],[-53.65015,-23.45953],[-53.64996,-23.45962],[-53.6496,-23.45986],[-53.64944,-23.46],[-53.64931,-23.46016],[-53.64922,-23.46035],[-53.6492,-23.46043],[-53.64901,-23.46048],[-53.64881,-23.46058],[-53.64864,-23.46067],[-53.6485,-23.4608],[-53.64838,-23.46095],[-53.64829,-23.46112],[-53.64819,-23.46136],[-53.64807,-23.46151],[-53.64797,-23.46166],[-53.64789,-23.46183],[-53.64785,-23.462],[-53.64784,-23.46218],[-53.64785,-23.46247],[-53.64785,-23.46249],[-53.64786,-23.46262],[-53.64766,-23.4627],[-53.64734,-23.46279],[-53.64716,-23.46285],[-53.647,-23.46295],[-53.64686,-23.46308],[-53.64659,-23.46338],[-53.64643,-23.46361],[-53.64636,-23.46374],[-53.64622,-23.4638],[-53.64597,-23.46393],[-53.64577,-23.46409],[-53.64562,-23.46422],[-53.6455,-23.46439],[-53.64549,-23.4644],[-53.64535,-23.46443],[-53.64513,-23.4645],[-53.64503,-23.46457],[-53.6449,-23.46452],[-53.64471,-23.4645],[-53.64453,-23.46451],[-53.6443,-23.46455],[-53.64411,-23.4646],[-53.64393,-23.46469],[-53.64377,-23.46481],[-53.64364,-23.46496],[-53.64354,-23.46513],[-53.64354,-23.46514],[-53.64325,-23.46521],[-53.64307,-23.46527],[-53.6429,-23.46536],[-53.64219,-23.46586],[-53.64214,-23.46587],[-53.64193,-23.46584],[-53.64171,-23.46583],[-53.6414,-23.46585],[-53.64122,-23.46588],[-53.64105,-23.46594],[-53.64089,-23.46604],[-53.64075,-23.46616],[-53.64063,-23.4663],[-53.64031,-23.4668],[-53.64027,-23.46686],[-53.63998,-23.46738],[-53.6399,-23.46758],[-53.63975,-23.46807],[-53.63942,-23.46825],[-53.63926,-23.46837],[-53.63911,-23.46852],[-53.63901,-23.46869],[-53.63894,-23.46889],[-53.63886,-23.46921],[-53.63882,-23.46927],[-53.63873,-23.46941],[-53.63845,-23.46959],[-53.63828,-23.46974],[-53.63791,-23.47014],[-53.63779,-23.47029],[-53.63771,-23.47046],[-53.63766,-23.47065],[-53.63756,-23.4712],[-53.63756,-23.47124],[-53.63729,-23.47134],[-53.63723,-23.47136],[-53.6371,-23.47142],[-53.63691,-23.47154],[-53.63675,-23.4717],[-53.63655,-23.47194],[-53.6364,-23.47198],[-53.63623,-23.47206],[-53.63608,-23.47216],[-53.63595,-23.4723],[-53.63595,-23.4723],[-53.63584,-23.47229],[-53.63563,-23.47231],[-53.63544,-23.47238],[-53.63526,-23.47249],[-53.63511,-23.47263],[-53.63502,-23.47273],[-53.6349,-23.4729],[-53.63482,-23.47308],[-53.63472,-23.4731],[-53.63454,-23.47318],[-53.63438,-23.4733],[-53.63425,-23.47344],[-53.63415,-23.47361],[-53.63408,-23.4738],[-53.63402,-23.47404],[-53.63399,-23.47421],[-53.63399,-23.47438],[-53.63403,-23.47455],[-53.63404,-23.47459],[-53.63392,-23.47463],[-53.63324,-23.4748],[-53.63312,-23.47473],[-53.63283,-23.4746],[-53.63267,-23.47454],[-53.63222,-23.47443],[-53.63171,-23.47427],[-53.6315,-23.47423],[-53.63128,-23.47423],[-53.63107,-23.47428],[-53.63084,-23.47437],[-53.6304,-23.47428],[-53.63023,-23.47427],[-53.62973,-23.47426],[-53.62955,-23.47427],[-53.62939,-23.47431],[-53.62919,-23.47438],[-53.62884,-23.47429],[-53.62867,-23.47427],[-53.62851,-23.47426],[-53.6283,-23.47427],[-53.6281,-23.47433],[-53.62791,-23.47442],[-53.62774,-23.47456],[-53.62768,-23.47462],[-53.62755,-23.47479],[-53.62745,-23.47497],[-53.6274,-23.47518],[-53.62739,-23.47539],[-53.62742,-23.47557],[-53.62733,-23.47573],[-53.62726,-23.47589],[-53.62723,-23.476],[-53.62709,-23.47611],[-53.62697,-23.47626],[-53.62688,-23.47642],[-53.62679,-23.47663],[-53.62674,-23.4768],[-53.62662,-23.47688],[-53.62619,-23.47719],[-53.62603,-23.47734],[-53.62591,-23.47752],[-53.62581,-23.4777],[-53.62569,-23.47774],[-53.62554,-23.47784],[-53.62541,-23.47795],[-53.62502,-23.47837],[-53.62502,-23.47837],[-53.62485,-23.47838],[-53.62468,-23.4784],[-53.62461,-23.47841],[-53.62443,-23.47838],[-53.62421,-23.4784],[-53.62401,-23.47846],[-53.62382,-23.47856],[-53.62364,-23.47869],[-53.6235,-23.4788],[-53.62338,-23.47894],[-53.62337,-23.47895],[-53.62276,-23.47893],[-53.62258,-23.47894],[-53.62241,-23.47898],[-53.62224,-23.47905],[-53.6221,-23.47915],[-53.62197,-23.47927],[-53.62177,-23.4795],[-53.62168,-23.47963],[-53.62161,-23.47977],[-53.6215,-23.48002],[-53.62142,-23.48019],[-53.62136,-23.48037],[-53.62133,-23.48056],[-53.62134,-23.48076],[-53.62138,-23.48095],[-53.62146,-23.48112],[-53.62158,-23.48128],[-53.62166,-23.48137],[-53.62182,-23.48151],[-53.622,-23.48162],[-53.6222,-23.48169],[-53.6224,-23.48171],[-53.62245,-23.4817],[-53.62247,-23.48173],[-53.62196,-23.48213],[-53.62193,-23.48216],[-53.62178,-23.48228],[-53.6217,-23.48232],[-53.62155,-23.48231],[-53.62137,-23.48232],[-53.62119,-23.48237],[-53.62102,-23.48244],[-53.62083,-23.48255],[-53.62071,-23.48257],[-53.62051,-23.48263],[-53.61961,-23.48297],[-53.61939,-23.48309],[-53.61893,-23.48341],[-53.61877,-23.48355],[-53.6183,-23.48405],[-53.61807,-23.48402],[-53.61781,-23.48391],[-53.61762,-23.48385],[-53.61743,-23.48382],[-53.6169,-23.48381],[-53.61678,-23.48376],[-53.61661,-23.4837],[-53.61642,-23.48368],[-53.61623,-23.48369],[-53.61605,-23.48374],[-53.61588,-23.48381],[-53.61573,-23.48392],[-53.61545,-23.48416],[-53.61531,-23.48432],[-53.6152,-23.4845],[-53.61503,-23.48485],[-53.61497,-23.48503],[-53.6149,-23.48529],[-53.61464,-23.48524],[-53.61438,-23.48522],[-53.61404,-23.48524],[-53.61385,-23.48528],[-53.61366,-23.48535],[-53.61349,-23.48546],[-53.61335,-23.4856],[-53.61323,-23.48577],[-53.61315,-23.48595],[-53.61304,-23.48632],[-53.6129,-23.48654],[-53.61225,-23.48753],[-53.61211,-23.48754],[-53.61192,-23.48757],[-53.61189,-23.48749],[-53.61179,-23.48734],[-53.6117,-23.48721],[-53.61159,-23.48709],[-53.61147,-23.48699],[-53.61132,-23.4869],[-53.61097,-23.48674],[-53.61077,-23.48667],[-53.61057,-23.48664],[-53.61038,-23.48664],[-53.61018,-23.48665],[-53.60998,-23.48671],[-53.6098,-23.48681],[-53.60964,-23.48694],[-53.60951,-23.4871],[-53.60942,-23.48728],[-53.60937,-23.4874],[-53.60932,-23.4876],[-53.60925,-23.48804],[-53.60925,-23.48805],[-53.60914,-23.48879],[-53.60899,-23.4895],[-53.60898,-23.48956],[-53.6089,-23.49003],[-53.60889,-23.49005],[-53.60864,-23.49026],[-53.60861,-23.49028],[-53.60821,-23.49064],[-53.608,-23.49082],[-53.60788,-23.49081],[-53.60769,-23.4908],[-53.60751,-23.49083],[-53.60733,-23.49089],[-53.60717,-23.49099],[-53.60703,-23.49111],[-53.60692,-23.49125],[-53.60684,-23.49137],[-53.60676,-23.49153],[-53.60663,-23.4916],[-53.60651,-23.49169],[-53.60622,-23.49159],[-53.60601,-23.49155],[-53.60579,-23.49155],[-53.60558,-23.49159],[-53.60539,-23.49166],[-53.60519,-23.49175],[-53.60502,-23.49189],[-53.605,-23.4919],[-53.60499,-23.49189],[-53.60482,-23.4918],[-53.60464,-23.49174],[-53.60445,-23.49172],[-53.60428,-23.49172],[-53.604,-23.49175],[-53.60369,-23.49184],[-53.60367,-23.49185],[-53.60306,-23.49203],[-53.60286,-23.49211],[-53.60268,-23.49223],[-53.6023,-23.49256],[-53.6019,-23.49268],[-53.60166,-23.49266],[-53.60146,-23.49266],[-53.60127,-23.4927],[-53.6007,-23.49288],[-53.60055,-23.49294],[-53.60041,-23.49303],[-53.60009,-23.49326],[-53.59997,-23.49336],[-53.59988,-23.49347],[-53.59965,-23.49378],[-53.59961,-23.49383],[-53.59951,-23.49399],[-53.59943,-23.49415],[-53.59937,-23.49432],[-53.59914,-23.49538],[-53.59914,-23.49539],[-53.59906,-23.49582],[-53.59904,-23.49602],[-53.59904,-23.49623],[-53.59886,-23.49627],[-53.59868,-23.49635],[-53.59852,-23.49647],[-53.59839,-23.49661],[-53.59801,-23.49712],[-53.59787,-23.49737],[-53.59775,-23.49771],[-53.5977,-23.49772],[-53.59751,-23.49778],[-53.59712,-23.49796],[-53.59697,-23.49805],[-53.59684,-23.49816],[-53.59681,-23.49819],[-53.59674,-23.49819],[-53.59621,-23.49818],[-53.596,-23.4982],[-53.5958,-23.49826],[-53.59577,-23.49827],[-53.59563,-23.49823],[-53.59545,-23.4982],[-53.59526,-23.49822],[-53.59508,-23.49826],[-53.59492,-23.49834],[-53.59475,-23.49844],[-53.59459,-23.49856],[-53.59445,-23.4987],[-53.59438,-23.49882],[-53.59423,-23.49897],[-53.59409,-23.49915],[-53.59403,-23.49925],[-53.59382,-23.4996],[-53.59372,-23.49961],[-53.5937,-23.49962],[-53.59356,-23.49958],[-53.59336,-23.49954],[-53.59316,-23.49954],[-53.59296,-23.49958],[-53.59277,-23.49966],[-53.59261,-23.49978],[-53.59249,-23.49988],[-53.59238,-23.5],[-53.59213,-23.5003],[-53.59203,-23.50044],[-53.59196,-23.5006],[-53.59185,-23.50092],[-53.59183,-23.50097],[-53.5918,-23.50109],[-53.59177,-23.50111],[-53.59168,-23.50118],[-53.59156,-23.50129],[-53.5912,-23.50139],[-53.59103,-23.50145],[-53.59078,-23.50157],[-53.5906,-23.50168],[-53.59045,-23.50183],[-53.59033,-23.502],[-53.59029,-23.50212],[-53.59019,-23.50217],[-53.59006,-23.50225],[-53.58995,-23.50235],[-53.58985,-23.50245],[-53.58957,-23.50252],[-53.58938,-23.50259],[-53.58921,-23.50269],[-53.58866,-23.50311],[-53.5882,-23.50345],[-53.58807,-23.50356],[-53.58796,-23.50369],[-53.58782,-23.50391],[-53.58751,-23.50407],[-53.58733,-23.50419],[-53.58705,-23.50443],[-53.58693,-23.50455],[-53.58683,-23.50469],[-53.58675,-23.50484],[-53.5867,-23.50497],[-53.58665,-23.50517],[-53.58664,-23.50537],[-53.58666,-23.50549],[-53.5866,-23.50565],[-53.58652,-23.50595],[-53.58649,-23.50618],[-53.58651,-23.50642],[-53.58658,-23.50676],[-53.5865,-23.50673],[-53.58632,-23.50667],[-53.58614,-23.50664],[-53.58595,-23.50666],[-53.58577,-23.5067],[-53.5856,-23.50678],[-53.58544,-23.50689],[-53.58527,-23.50704],[-53.58501,-23.50721],[-53.58488,-23.50731],[-53.58478,-23.50742],[-53.58453,-23.50772],[-53.58442,-23.50788],[-53.58436,-23.50802],[-53.58434,-23.50802],[-53.58417,-23.50809],[-53.58402,-23.50819],[-53.58388,-23.50831],[-53.58377,-23.50845],[-53.58366,-23.50865],[-53.5836,-23.50876],[-53.58357,-23.50876],[-53.58336,-23.50887],[-53.58322,-23.50896],[-53.58304,-23.50911],[-53.5829,-23.5093],[-53.5828,-23.50947],[-53.58272,-23.50966],[-53.58268,-23.50985],[-53.58268,-23.51006],[-53.58272,-23.51053],[-53.58272,-23.51062],[-53.5825,-23.51116],[-53.58245,-23.51135],[-53.58229,-23.51217],[-53.58216,-23.51264],[-53.58216,-23.51268],[-53.5821,-23.51293],[-53.58196,-23.51316],[-53.58187,-23.51336],[-53.58185,-23.51348],[-53.58183,-23.51348],[-53.58163,-23.51342],[-53.58143,-23.51341],[-53.58123,-23.51344],[-53.58109,-23.51347],[-53.58092,-23.51353],[-53.58076,-23.51362],[-53.58063,-23.51374],[-53.58051,-23.51388],[-53.58042,-23.51403],[-53.58036,-23.5142],[-53.58034,-23.5143],[-53.58023,-23.51447],[-53.58017,-23.51456],[-53.57989,-23.51509],[-53.5798,-23.51534],[-53.57966,-23.51597],[-53.57964,-23.51619],[-53.57964,-23.51628],[-53.57962,-23.51629],[-53.57948,-23.51642],[-53.57937,-23.51657],[-53.57929,-23.51675],[-53.57922,-23.51696],[-53.57921,-23.51699],[-53.57914,-23.51702],[-53.57897,-23.51714],[-53.57883,-23.51729],[-53.57873,-23.51747],[-53.57869,-23.51756],[-53.57856,-23.51759],[-53.57839,-23.51766],[-53.57828,-23.51771],[-53.57811,-23.51782],[-53.578,-23.51768],[-53.57787,-23.51757],[-53.57771,-23.51747],[-53.57754,-23.51741],[-53.57736,-23.51738],[-53.57718,-23.51738],[-53.57698,-23.5174],[-53.57677,-23.51745],[-53.57659,-23.51753],[-53.57642,-23.51765],[-53.57628,-23.5178],[-53.57617,-23.51795],[-53.57605,-23.51816],[-53.57595,-23.5184],[-53.57588,-23.51867],[-53.57584,-23.51896],[-53.57584,-23.51897],[-53.57575,-23.519],[-53.57557,-23.51906],[-53.5754,-23.51917],[-53.57536,-23.5192],[-53.57511,-23.51915],[-53.57474,-23.51898],[-53.57456,-23.51892],[-53.57437,-23.51889],[-53.57418,-23.5189],[-53.574,-23.51895],[-53.57358,-23.51909],[-53.5735,-23.5191],[-53.57346,-23.51906],[-53.57328,-23.51896],[-53.57308,-23.51889],[-53.57287,-23.51887],[-53.57267,-23.51889],[-53.57247,-23.51896],[-53.57216,-23.5191],[-53.57198,-23.5192],[-53.57183,-23.51933],[-53.57171,-23.51949],[-53.57163,-23.51962],[-53.57139,-23.51977],[-53.5712,-23.51992],[-53.57087,-23.52025],[-53.57077,-23.52037],[-53.57049,-23.52075],[-53.57039,-23.52091],[-53.57037,-23.52096],[-53.56997,-23.52082],[-53.56978,-23.52078],[-53.56958,-23.52077],[-53.56938,-23.52081],[-53.56919,-23.52088],[-53.56903,-23.52099],[-53.56876,-23.5212],[-53.56861,-23.52124],[-53.56789,-23.52127],[-53.56771,-23.5213],[-53.56755,-23.52135],[-53.56699,-23.52159],[-53.56697,-23.5216],[-53.5662,-23.52194],[-53.56615,-23.52196],[-53.5655,-23.5223],[-53.56533,-23.52241],[-53.56518,-23.52255],[-53.56497,-23.5228],[-53.56488,-23.5229],[-53.56476,-23.52297],[-53.56424,-23.52314],[-53.56373,-23.52324],[-53.56347,-23.52325],[-53.56293,-23.52303],[-53.56271,-23.52294],[-53.56253,-23.52289],[-53.56235,-23.52287],[-53.56225,-23.52287],[-53.56203,-23.52286],[-53.56159,-23.52286],[-53.56138,-23.52288],[-53.56117,-23.52294],[-53.56053,-23.52322],[-53.5604,-23.52329],[-53.56038,-23.5233],[-53.56024,-23.52329],[-53.56016,-23.5233],[-53.56014,-23.52329],[-53.55995,-23.52329],[-53.55978,-23.52331],[-53.55978,-23.52331],[-53.55973,-23.52328],[-53.55863,-23.52278],[-53.55845,-23.52272],[-53.55826,-23.52269],[-53.55806,-23.5227],[-53.55726,-23.52283],[-53.55708,-23.52288],[-53.55691,-23.52295],[-53.55676,-23.52306],[-53.55663,-23.52319],[-53.55627,-23.52364],[-53.55616,-23.5238],[-53.55613,-23.5239],[-53.55609,-23.52389],[-53.55537,-23.52385],[-53.55509,-23.52388],[-53.55472,-23.52397],[-53.55445,-23.52407],[-53.55424,-23.52419],[-53.55397,-23.52424],[-53.5535,-23.52423],[-53.55334,-23.52424],[-53.55272,-23.52433],[-53.55249,-23.52439],[-53.55245,-23.52441],[-53.55231,-23.52435],[-53.55169,-23.52399],[-53.55149,-23.5239],[-53.55128,-23.52386],[-53.55107,-23.52386],[-53.55045,-23.52393],[-53.55027,-23.52396],[-53.54954,-23.52418],[-53.54937,-23.52424],[-53.5487,-23.52459],[-53.54859,-23.52465],[-53.54788,-23.52513],[-53.54769,-23.52529],[-53.54742,-23.52559],[-53.54726,-23.52563],[-53.54648,-23.52567],[-53.54631,-23.5257],[-53.54615,-23.52575],[-53.54544,-23.52604],[-53.54468,-23.52631],[-53.54454,-23.52637],[-53.54441,-23.52645],[-53.54384,-23.52688],[-53.54337,-23.52703],[-53.5431,-23.52715],[-53.54299,-23.52723],[-53.54273,-23.5274],[-53.54256,-23.52756],[-53.54243,-23.52774],[-53.54237,-23.52777],[-53.54223,-23.52789],[-53.54212,-23.52801],[-53.542,-23.52818],[-53.54191,-23.52836],[-53.54187,-23.52856],[-53.54186,-23.52874],[-53.54182,-23.52877],[-53.54169,-23.52891],[-53.54144,-23.52923],[-53.54133,-23.52941],[-53.54131,-23.52947],[-53.54093,-23.52954],[-53.54069,-23.52962],[-53.53931,-23.53028],[-53.53917,-23.53036],[-53.53905,-23.53045],[-53.5387,-23.53078],[-53.53827,-23.53083],[-53.53804,-23.53088],[-53.53725,-23.53116],[-53.5371,-23.53123],[-53.53696,-23.53132],[-53.53684,-23.53144],[-53.53614,-23.53223],[-53.53522,-23.53308],[-53.53466,-23.53338],[-53.53452,-23.53347],[-53.53439,-23.53359],[-53.53396,-23.53407],[-53.53327,-23.53442],[-53.53247,-23.53465],[-53.53195,-23.53478],[-53.51189,-23.51745],[-53.50397,-23.48576],[-53.5039,-23.48557],[-53.5038,-23.4854],[-53.50367,-23.48526],[-53.50351,-23.48514],[-53.49851,-23.48214],[-53.4983,-23.48204],[-53.49806,-23.482],[-53.46538,-23.48002],[-53.45504,-23.47175],[-53.45488,-23.47164],[-53.45469,-23.47156],[-53.45449,-23.47153],[-53.4543,-23.47153],[-53.4541,-23.47158],[-53.45392,-23.47166],[-53.45376,-23.47178],[-53.45312,-23.47234],[-53.45301,-23.47245],[-53.45293,-23.47257],[-53.45251,-23.47325],[-53.45214,-23.4738],[-53.45205,-23.47396],[-53.45199,-23.47413],[-53.4519,-23.47452],[-53.45187,-23.47475],[-53.4519,-23.47499],[-53.45207,-23.47568],[-53.45188,-23.47671],[-53.45126,-23.47832],[-53.45064,-23.47973],[-53.45058,-23.47991],[-53.45056,-23.4801],[-53.45057,-23.48029],[-53.45061,-23.48047],[-53.4507,-23.48065],[-53.45082,-23.48085],[-53.45085,-23.48106],[-53.4508,-23.48111],[-53.45067,-23.48124],[-53.45056,-23.4814],[-53.45049,-23.48158],[-53.45045,-23.48177],[-53.45032,-23.48298],[-53.45032,-23.48318],[-53.45036,-23.48337],[-53.45044,-23.48356],[-53.45055,-23.48372],[-53.45069,-23.48386],[-53.45085,-23.48397],[-53.45104,-23.48405],[-53.45123,-23.48408],[-53.4515,-23.48411],[-53.45154,-23.48483],[-53.45155,-23.48493],[-53.45227,-23.4896],[-53.45214,-23.49018],[-53.45153,-23.49042],[-53.45136,-23.49051],[-53.45122,-23.49062],[-53.45109,-23.49076],[-53.451,-23.49092],[-53.45093,-23.49109],[-53.4509,-23.49128],[-53.4509,-23.49146],[-53.45134,-23.49531],[-53.45083,-23.49581],[-53.45071,-23.49596],[-53.45061,-23.49614],[-53.45055,-23.49632],[-53.44883,-23.50465],[-53.44814,-23.50467],[-53.44791,-23.50471],[-53.44659,-23.50508],[-53.44637,-23.50517],[-53.4444,-23.50626],[-53.44425,-23.50637],[-53.44412,-23.5065],[-53.44402,-23.50665],[-53.44394,-23.50682],[-53.44345,-23.50827],[-53.44341,-23.50844],[-53.44318,-23.50998],[-53.4429,-23.51123],[-53.44212,-23.51231],[-53.44204,-23.51244],[-53.44198,-23.51257],[-53.44153,-23.51389],[-53.44149,-23.51407],[-53.44148,-23.51425],[-53.4415,-23.51492],[-53.4375,-23.51507],[-53.4375,-23.73047]]],[[[-53.2084,-23.90625],[-53.20908,-23.92066],[-53.20911,-23.92085],[-53.20917,-23.92103],[-53.20927,-23.92119],[-53.20928,-23.92121],[-53.20908,-23.92146],[-53.20899,-23.9216],[-53.20891,-23.92176],[-53.20887,-23.92193],[-53.20875,-23.92266],[-53.20874,-23.92285],[-53.20877,-23.92304],[-53.20883,-23.92322],[-53.20892,-23.92339],[-53.20917,-23.92376],[-53.20929,-23.92389],[-53.20943,-23.92401],[-53.20958,-23.9241],[-53.20975,-23.92416],[-53.20993,-23.92418],[-53.21011,-23.92418],[-53.2104,-23.92414],[-53.21058,-23.92411],[-53.21075,-23.92404],[-53.2109,-23.92394],[-53.21104,-23.92382],[-53.21104,-23.92381],[-53.21104,-23.92395],[-53.21108,-23.92413],[-53.21114,-23.9243],[-53.21124,-23.92446],[-53.21143,-23.9247],[-53.21156,-23.92484],[-53.21171,-23.92495],[-53.21188,-23.92503],[-53.21207,-23.92508],[-53.21226,-23.92509],[-53.21329,-23.92504],[-53.21351,-23.92501],[-53.21372,-23.92493],[-53.21466,-23.92443],[-53.21484,-23.92431],[-53.21499,-23.92415],[-53.2151,-23.92396],[-53.21514,-23.92388],[-53.21552,-23.92455],[-53.21526,-23.92776],[-53.21429,-23.92973],[-53.21385,-23.92993],[-53.21337,-23.93002],[-53.21319,-23.93008],[-53.21302,-23.93016],[-53.21287,-23.93028],[-53.21275,-23.93043],[-53.21265,-23.93059],[-53.21255,-23.93083],[-53.21251,-23.93091],[-53.21245,-23.9311],[-53.21242,-23.9313],[-53.21244,-23.9315],[-53.2125,-23.93169],[-53.21259,-23.93187],[-53.21272,-23.93203],[-53.21297,-23.93227],[-53.2131,-23.93238],[-53.21325,-23.93247],[-53.21342,-23.93253],[-53.21359,-23.93256],[-53.21386,-23.93258],[-53.21497,-23.93325],[-53.21517,-23.93334],[-53.21533,-23.93338],[-53.21523,-23.93359],[-53.21473,-23.93431],[-53.21434,-23.93467],[-53.21416,-23.93488],[-53.21388,-23.93532],[-53.21379,-23.93549],[-53.21374,-23.93566],[-53.21372,-23.93584],[-53.21374,-23.93603],[-53.21378,-23.9362],[-53.21386,-23.93637],[-53.21402,-23.93662],[-53.21413,-23.93678],[-53.21427,-23.93691],[-53.21443,-23.93701],[-53.21473,-23.93716],[-53.2149,-23.93722],[-53.21507,-23.93726],[-53.21526,-23.93726],[-53.21543,-23.93723],[-53.21632,-23.93699],[-53.2163,-23.93721],[-53.21624,-23.93752],[-53.21596,-23.93803],[-53.21589,-23.9382],[-53.21585,-23.93838],[-53.21585,-23.93856],[-53.21587,-23.93898],[-53.21589,-23.93913],[-53.21533,-23.9392],[-53.21514,-23.93924],[-53.21495,-23.93932],[-53.21479,-23.93944],[-53.21465,-23.93958],[-53.21455,-23.93975],[-53.21435,-23.94016],[-53.21428,-23.94036],[-53.21425,-23.94057],[-53.21426,-23.94078],[-53.21438,-23.94143],[-53.21443,-23.9416],[-53.2145,-23.94176],[-53.21461,-23.94191],[-53.21474,-23.94203],[-53.21565,-23.94278],[-53.21645,-23.94367],[-53.21667,-23.94385],[-53.21746,-23.94435],[-53.21771,-23.94471],[-53.21818,-23.94599],[-53.21818,-23.94599],[-53.21838,-23.94653],[-53.21844,-23.94666],[-53.21852,-23.94679],[-53.21884,-23.94721],[-53.21898,-23.94736],[-53.21914,-23.94748],[-53.21984,-23.94788],[-53.2201,-23.94798],[-53.22067,-23.94812],[-53.22075,-23.94817],[-53.22068,-23.94888],[-53.22068,-23.94906],[-53.22071,-23.94924],[-53.22078,-23.94941],[-53.22088,-23.94957],[-53.221,-23.94971],[-53.22129,-23.94997],[-53.22141,-23.95007],[-53.22155,-23.95015],[-53.22182,-23.95027],[-53.22197,-23.95032],[-53.22214,-23.95035],[-53.22228,-23.95037],[-53.22275,-23.95244],[-53.22298,-23.95344],[-53.22302,-23.95427],[-53.22282,-23.95513],[-53.22253,-23.95569],[-53.22248,-23.95578],[-53.22231,-23.95621],[-53.22225,-23.95641],[-53.22217,-23.95684],[-53.22216,-23.95706],[-53.22219,-23.95727],[-53.22227,-23.95748],[-53.22238,-23.95766],[-53.22373,-23.95929],[-53.22383,-23.95965],[-53.22372,-23.96038],[-53.22371,-23.96057],[-53.22374,-23.96076],[-53.2238,-23.96094],[-53.22389,-23.96111],[-53.22431,-23.96172],[-53.22432,-23.96173],[-53.22426,-23.96176],[-53.22411,-23.96188],[-53.22399,-23.96202],[-53.2239,-23.96218],[-53.22383,-23.96236],[-53.22374,-23.96272],[-53.22371,-23.96294],[-53.22372,-23.96308],[-53.22352,-23.96309],[-53.22331,-23.96312],[-53.22311,-23.96319],[-53.22293,-23.96331],[-53.22278,-23.96346],[-53.22268,-23.96359],[-53.22259,-23.96372],[-53.22252,-23.96387],[-53.22248,-23.96403],[-53.22244,-23.96421],[-53.22243,-23.96439],[-53.22244,-23.96457],[-53.22249,-23.96474],[-53.22256,-23.9649],[-53.22271,-23.96516],[-53.22282,-23.9653],[-53.22294,-23.96542],[-53.22308,-23.96552],[-53.22324,-23.96559],[-53.22376,-23.96578],[-53.22404,-23.96584],[-53.22467,-23.96587],[-53.22598,-23.966],[-53.2261,-23.966],[-53.22689,-23.96598],[-53.22706,-23.96596],[-53.22793,-23.96579],[-53.22794,-23.96579],[-53.22963,-23.96543],[-53.22975,-23.9654],[-53.23149,-23.96481],[-53.2333,-23.96435],[-53.2335,-23.96427],[-53.23368,-23.96415],[-53.23411,-23.9638],[-53.23414,-23.96379],[-53.23442,-23.9637],[-53.23578,-23.96385],[-53.23724,-23.96429],[-53.23745,-23.96433],[-53.23767,-23.96432],[-53.23789,-23.96426],[-53.23808,-23.96416],[-53.23843,-23.96393],[-53.23859,-23.9638],[-53.23871,-23.96365],[-53.2388,-23.96347],[-53.23886,-23.96328],[-53.23888,-23.96308],[-53.23887,-23.96229],[-53.23918,-23.96139],[-53.23922,-23.96119],[-53.23923,-23.96099],[-53.23919,-23.9608],[-53.23899,-23.96007],[-53.23892,-23.95989],[-53.23882,-23.95972],[-53.23837,-23.95916],[-53.23824,-23.95902],[-53.23809,-23.95891],[-53.23792,-23.95883],[-53.23774,-23.95879],[-53.23755,-23.95877],[-53.23737,-23.9588],[-53.23719,-23.95885],[-53.23703,-23.95894],[-53.23672,-23.95915],[-53.23644,-23.95911],[-53.23582,-23.9586],[-53.23539,-23.95799],[-53.23564,-23.95713],[-53.23568,-23.9569],[-53.23566,-23.95667],[-53.23545,-23.95553],[-53.2354,-23.95535],[-53.23532,-23.95519],[-53.23329,-23.95192],[-53.23482,-23.93915],[-53.23548,-23.9385],[-53.23592,-23.93845],[-53.2361,-23.93841],[-53.23627,-23.93834],[-53.23643,-23.93824],[-53.23656,-23.93811],[-53.23667,-23.93796],[-53.23675,-23.93779],[-53.2368,-23.93761],[-53.23681,-23.93743],[-53.23677,-23.93623],[-53.23747,-23.93467],[-53.23875,-23.93383],[-53.23891,-23.9337],[-53.23905,-23.93353],[-53.23999,-23.93204],[-53.24123,-23.93105],[-53.24138,-23.93091],[-53.24149,-23.93073],[-53.24157,-23.93054],[-53.24205,-23.92885],[-53.24279,-23.92749],[-53.24336,-23.92734],[-53.24354,-23.92728],[-53.2437,-23.92719],[-53.24384,-23.92707],[-53.24395,-23.92692],[-53.24452,-23.92605],[-53.24462,-23.92585],[-53.24467,-23.92564],[-53.24468,-23.92542],[-53.24464,-23.9252],[-53.24456,-23.92496],[-53.2446,-23.92482],[-53.24657,-23.92289],[-53.24716,-23.92248],[-53.2473,-23.92235],[-53.24742,-23.9222],[-53.24751,-23.92204],[-53.24756,-23.92185],[-53.24758,-23.92167],[-53.24756,-23.92148],[-53.24751,-23.92129],[-53.24743,-23.92112],[-53.2474,-23.92109],[-53.2485,-23.92067],[-53.24867,-23.92059],[-53.24882,-23.92048],[-53.24984,-23.91956],[-53.25269,-23.91819],[-53.25288,-23.91807],[-53.25426,-23.91696],[-53.25444,-23.91678],[-53.25456,-23.91657],[-53.2549,-23.91577],[-53.25645,-23.91435],[-53.2566,-23.91417],[-53.25671,-23.91396],[-53.25787,-23.91081],[-53.2628,-23.90625],[-53.2084,-23.90625]]]]},"properties":{"ghs":"6g","size":0.73,"ghs_len":2,"ghs_area":560.2,"ghs_bytes":124258,"ghs_items":733,"size_unit":"km2","ghsval_unit":"bytes","ghs_itemsdensity":1.31,"size_unitdensity":0}},{"type":"Feature","geometry":{"type":"Polygon","coordinates":[[[-53.26172,-23.73047],[-53.30566,-23.73047],[-53.34961,-23.73047],[-53.4375,-23.73047],[-53.4375,-23.51507],[-53.41296,-23.516],[-53.41276,-23.51603],[-53.41256,-23.5161],[-53.41239,-23.51621],[-53.41224,-23.51635],[-53.41212,-23.51652],[-53.41204,-23.51671],[-53.412,-23.51692],[-53.40812,-23.5625],[-53.39549,-23.55674],[-53.39526,-23.55667],[-53.39501,-23.55665],[-53.39156,-23.55686],[-53.38638,-23.55413],[-53.38622,-23.55406],[-53.38605,-23.55403],[-53.38587,-23.55402],[-53.37658,-23.55444],[-53.37148,-23.55009],[-53.37128,-23.54995],[-53.37105,-23.54987],[-53.36797,-23.54919],[-53.367,-23.52296],[-53.36699,-23.52283],[-53.36419,-23.50658],[-53.36659,-23.5048],[-53.36673,-23.50469],[-53.36684,-23.50454],[-53.36692,-23.50438],[-53.37192,-23.49238],[-53.37199,-23.49216],[-53.3728,-23.4872],[-53.3731,-23.48658],[-53.37316,-23.48642],[-53.37319,-23.48625],[-53.3732,-23.48609],[-53.37316,-23.48533],[-53.37356,-23.47639],[-53.37359,-23.47635],[-53.37373,-23.4763],[-53.37393,-23.47621],[-53.3741,-23.47607],[-53.37424,-23.47591],[-53.37434,-23.47571],[-53.37464,-23.47492],[-53.37469,-23.47473],[-53.3747,-23.47453],[-53.37467,-23.47433],[-53.3746,-23.47414],[-53.3745,-23.47397],[-53.37443,-23.47387],[-53.37416,-23.4734],[-53.37411,-23.47285],[-53.37423,-23.47241],[-53.37457,-23.47239],[-53.37476,-23.47235],[-53.37493,-23.47228],[-53.3751,-23.47218],[-53.3757,-23.47172],[-53.37578,-23.47166],[-53.37718,-23.47037],[-53.37732,-23.47042],[-53.3775,-23.47044],[-53.37769,-23.47044],[-53.37787,-23.4704],[-53.37804,-23.47033],[-53.3782,-23.47022],[-53.37833,-23.47009],[-53.37894,-23.46937],[-53.37904,-23.46922],[-53.37912,-23.46905],[-53.37916,-23.46887],[-53.37917,-23.46868],[-53.37915,-23.4685],[-53.37909,-23.46832],[-53.379,-23.46816],[-53.37888,-23.468],[-53.37871,-23.46781],[-53.37823,-23.4674],[-53.37828,-23.46734],[-53.37839,-23.46715],[-53.37846,-23.46694],[-53.37908,-23.46667],[-53.3796,-23.46677],[-53.37974,-23.46679],[-53.38058,-23.46683],[-53.38078,-23.46682],[-53.38097,-23.46677],[-53.38115,-23.46668],[-53.38139,-23.46653],[-53.38153,-23.46651],[-53.38172,-23.46643],[-53.38189,-23.46632],[-53.38198,-23.46623],[-53.38211,-23.46617],[-53.38226,-23.46604],[-53.38239,-23.46588],[-53.38248,-23.4657],[-53.38254,-23.46551],[-53.38255,-23.46531],[-53.38253,-23.46511],[-53.38246,-23.46492],[-53.38243,-23.46486],[-53.38244,-23.46478],[-53.38243,-23.46456],[-53.38238,-23.46435],[-53.38238,-23.46435],[-53.38248,-23.46399],[-53.38251,-23.46383],[-53.38251,-23.46366],[-53.38249,-23.46349],[-53.38237,-23.46298],[-53.3824,-23.46281],[-53.38251,-23.46275],[-53.38296,-23.46248],[-53.38311,-23.46237],[-53.38324,-23.46223],[-53.38334,-23.46207],[-53.3834,-23.46189],[-53.38344,-23.4617],[-53.38343,-23.46151],[-53.38339,-23.46132],[-53.38334,-23.46115],[-53.38334,-23.46115],[-53.38339,-23.461],[-53.38343,-23.46082],[-53.38343,-23.46064],[-53.38341,-23.46045],[-53.38339,-23.46041],[-53.38341,-23.4603],[-53.3834,-23.46011],[-53.38335,-23.45972],[-53.38375,-23.45918],[-53.38379,-23.45912],[-53.38395,-23.45887],[-53.38405,-23.45869],[-53.3841,-23.45849],[-53.38411,-23.45828],[-53.3841,-23.45821],[-53.38421,-23.45813],[-53.38434,-23.45797],[-53.38444,-23.4578],[-53.38451,-23.4576],[-53.38453,-23.4574],[-53.38451,-23.4572],[-53.38445,-23.457],[-53.38443,-23.45694],[-53.38444,-23.45685],[-53.38444,-23.45666],[-53.3844,-23.45646],[-53.38432,-23.45628],[-53.38425,-23.45615],[-53.38428,-23.45604],[-53.38429,-23.45585],[-53.38427,-23.45565],[-53.38421,-23.45547],[-53.38412,-23.4553],[-53.38399,-23.45515],[-53.38384,-23.45503],[-53.38369,-23.45493],[-53.38354,-23.45485],[-53.38339,-23.45479],[-53.37002,-23.45127],[-53.36843,-23.45063],[-53.36823,-23.45058],[-53.36803,-23.45056],[-53.3659,-23.45063],[-53.3641,-23.44855],[-53.36395,-23.44841],[-53.36377,-23.4483],[-53.36297,-23.44792],[-53.36278,-23.44785],[-53.36258,-23.44783],[-53.36239,-23.44784],[-53.36219,-23.44789],[-53.36201,-23.44797],[-53.36186,-23.44809],[-53.36173,-23.44824],[-53.36163,-23.44842],[-53.36156,-23.4486],[-53.36154,-23.4488],[-53.36102,-23.47118],[-53.3518,-23.47302],[-53.35162,-23.47308],[-53.35145,-23.47317],[-53.3513,-23.47329],[-53.35118,-23.47343],[-53.35108,-23.4736],[-53.35102,-23.47379],[-53.351,-23.47398],[-53.35078,-23.48401],[-53.34101,-23.50163],[-53.34093,-23.50181],[-53.34089,-23.502],[-53.34089,-23.50219],[-53.34092,-23.50238],[-53.34098,-23.50256],[-53.34108,-23.50272],[-53.34121,-23.50286],[-53.34953,-23.51032],[-53.34347,-23.51908],[-53.33088,-23.53558],[-53.32837,-23.53653],[-53.32821,-23.53661],[-53.32806,-23.53672],[-53.32793,-23.53685],[-53.32181,-23.54479],[-53.3217,-23.54495],[-53.32163,-23.54514],[-53.32136,-23.54615],[-53.32133,-23.5463],[-53.32133,-23.54646],[-53.32136,-23.54703],[-53.32097,-23.55024],[-53.31853,-23.5639],[-53.31852,-23.56392],[-53.31806,-23.56683],[-53.31806,-23.56688],[-53.31764,-23.57086],[-53.31764,-23.57107],[-53.31837,-23.57777],[-53.30907,-23.60164],[-53.30902,-23.60182],[-53.309,-23.60201],[-53.30902,-23.60219],[-53.30907,-23.60237],[-53.30916,-23.60254],[-53.30928,-23.60269],[-53.32379,-23.6179],[-53.3317,-23.62857],[-53.33186,-23.62874],[-53.34252,-23.63771],[-53.33534,-23.65167],[-53.31379,-23.66033],[-53.2966,-23.66716],[-53.29152,-23.66918],[-53.27598,-23.67449],[-53.26627,-23.67634],[-53.26623,-23.67635],[-53.26217,-23.6773],[-53.26204,-23.67734],[-53.23873,-23.68632],[-53.23861,-23.68637],[-53.23654,-23.68749],[-53.23571,-23.68744],[-53.23267,-23.68586],[-53.2325,-23.68579],[-53.23232,-23.68575],[-53.23214,-23.68575],[-53.23196,-23.68577],[-53.23179,-23.68583],[-53.23163,-23.68592],[-53.22956,-23.68737],[-53.22939,-23.68752],[-53.22926,-23.6877],[-53.22776,-23.69036],[-53.2145,-23.69567],[-53.20904,-23.69246],[-53.20887,-23.69238],[-53.2087,-23.69234],[-53.20851,-23.69233],[-53.20833,-23.69235],[-53.20815,-23.6924],[-53.20799,-23.69249],[-53.20361,-23.69535],[-53.20346,-23.69547],[-53.20334,-23.69562],[-53.19932,-23.70142],[-53.19874,-23.70206],[-53.19386,-23.7041],[-53.19367,-23.7042],[-53.19352,-23.70433],[-53.19339,-23.7045],[-53.19272,-23.70558],[-53.1892,-23.70785],[-53.18376,-23.70808],[-53.18351,-23.70812],[-53.18124,-23.70883],[-53.17832,-23.70888],[-53.17811,-23.70891],[-53.17791,-23.70898],[-53.17558,-23.71009],[-53.17541,-23.71018],[-53.17527,-23.71031],[-53.17515,-23.71047],[-53.17507,-23.71064],[-53.17502,-23.71083],[-53.17501,-23.71102],[-53.17559,-23.73047],[-53.26172,-23.73047]]]},"properties":{"ghs":"6gf","size":1.69,"ghs_len":3,"ghs_area":350.26,"ghs_bytes":370331,"ghs_items":2216,"size_unit":"km2","ghsval_unit":"bytes","ghs_itemsdensity":6.33,"size_unitdensity":0}},{"type":"Feature","geometry":{"type":"Polygon","coordinates":[[[-53.34961,-23.73047],[-53.34961,-23.77441],[-53.34961,-23.81836],[-53.30566,-23.81836],[-53.30566,-23.77441],[-53.26172,-23.77441],[-53.26172,-23.73047],[-53.17559,-23.73047],[-53.17662,-23.76529],[-53.17665,-23.7655],[-53.17672,-23.7657],[-53.17683,-23.76587],[-53.19409,-23.78846],[-53.19604,-23.79527],[-53.19613,-23.79549],[-53.19626,-23.79568],[-53.20703,-23.80742],[-53.208,-23.82207],[-53.20804,-23.82226],[-53.20811,-23.82245],[-53.20821,-23.82262],[-53.20835,-23.82276],[-53.22079,-23.83329],[-53.21808,-23.83961],[-53.21802,-23.83978],[-53.218,-23.83996],[-53.21801,-23.84014],[-53.21805,-23.84032],[-53.221,-23.84916],[-53.221,-23.85356],[-53.21033,-23.86326],[-53.21019,-23.86341],[-53.21009,-23.86358],[-53.21003,-23.86378],[-53.20703,-23.87678],[-53.207,-23.87705],[-53.2084,-23.90625],[-53.2628,-23.90625],[-53.26768,-23.90173],[-53.26782,-23.90158],[-53.26792,-23.9014],[-53.26798,-23.9012],[-53.26959,-23.89341],[-53.2727,-23.88927],[-53.2728,-23.8891],[-53.27287,-23.88891],[-53.27395,-23.88452],[-53.27398,-23.88428],[-53.27398,-23.88201],[-53.2741,-23.8802],[-53.27428,-23.88005],[-53.27438,-23.87996],[-53.27477,-23.87955],[-53.27507,-23.87927],[-53.27518,-23.87922],[-53.27535,-23.87912],[-53.2755,-23.87899],[-53.27551,-23.87898],[-53.27564,-23.87896],[-53.27582,-23.87888],[-53.27598,-23.87877],[-53.27612,-23.87863],[-53.27652,-23.87813],[-53.27666,-23.87806],[-53.27682,-23.87795],[-53.27696,-23.87781],[-53.27706,-23.87765],[-53.27713,-23.87751],[-53.27723,-23.87745],[-53.27737,-23.87732],[-53.27748,-23.87717],[-53.27757,-23.877],[-53.27762,-23.87682],[-53.27763,-23.87663],[-53.27763,-23.87659],[-53.27794,-23.87614],[-53.27803,-23.87597],[-53.27809,-23.87578],[-53.27811,-23.87558],[-53.27809,-23.87538],[-53.27804,-23.87519],[-53.27794,-23.87494],[-53.27815,-23.87454],[-53.27897,-23.87342],[-53.27906,-23.87327],[-53.28037,-23.87058],[-53.28101,-23.87004],[-53.28117,-23.86987],[-53.28129,-23.86966],[-53.28135,-23.86952],[-53.28172,-23.8696],[-53.28188,-23.86962],[-53.28205,-23.86961],[-53.28221,-23.86958],[-53.28307,-23.86932],[-53.28319,-23.86928],[-53.28596,-23.86806],[-53.28635,-23.86798],[-53.28652,-23.86793],[-53.28667,-23.86785],[-53.28682,-23.86775],[-53.28782,-23.86685],[-53.28946,-23.86544],[-53.28947,-23.86543],[-53.29069,-23.86434],[-53.29226,-23.86357],[-53.29243,-23.86347],[-53.29258,-23.86333],[-53.29269,-23.86317],[-53.29314,-23.86238],[-53.29367,-23.86198],[-53.2938,-23.86186],[-53.29391,-23.86172],[-53.29399,-23.86156],[-53.29404,-23.86139],[-53.29419,-23.86069],[-53.29425,-23.86053],[-53.29435,-23.8604],[-53.29446,-23.86023],[-53.29453,-23.86004],[-53.29456,-23.85984],[-53.29455,-23.85964],[-53.29451,-23.85945],[-53.29446,-23.85935],[-53.29446,-23.85931],[-53.29551,-23.85717],[-53.29556,-23.85704],[-53.29575,-23.85643],[-53.29589,-23.85621],[-53.29618,-23.85615],[-53.29643,-23.85605],[-53.29714,-23.85568],[-53.29732,-23.85555],[-53.29748,-23.85538],[-53.29776,-23.85499],[-53.29784,-23.85486],[-53.2979,-23.85472],[-53.29815,-23.85398],[-53.29849,-23.8537],[-53.29916,-23.85343],[-53.30026,-23.85303],[-53.30346,-23.85244],[-53.30365,-23.85239],[-53.30383,-23.85229],[-53.30399,-23.85216],[-53.30412,-23.852],[-53.30421,-23.85181],[-53.30537,-23.84876],[-53.30633,-23.84657],[-53.30893,-23.84366],[-53.31074,-23.84263],[-53.31087,-23.84255],[-53.31169,-23.8419],[-53.31184,-23.84175],[-53.31196,-23.84158],[-53.31234,-23.84085],[-53.31241,-23.84069],[-53.31258,-23.84015],[-53.3129,-23.83955],[-53.31296,-23.8394],[-53.313,-23.83924],[-53.31321,-23.83785],[-53.31322,-23.83776],[-53.31327,-23.83707],[-53.31326,-23.83693],[-53.31326,-23.83684],[-53.31414,-23.83574],[-53.31523,-23.83465],[-53.32507,-23.83007],[-53.34315,-23.83578],[-53.34603,-23.84822],[-53.34609,-23.84841],[-53.34618,-23.84858],[-53.34631,-23.84872],[-53.34646,-23.84884],[-53.34663,-23.84893],[-53.34682,-23.84898],[-53.34701,-23.849],[-53.3472,-23.84898],[-53.34738,-23.84892],[-53.34755,-23.84883],[-53.35346,-23.8449],[-53.36251,-23.84155],[-53.37252,-23.83909],[-53.37276,-23.839],[-53.37955,-23.8353],[-53.37955,-23.8353],[-53.38687,-23.83129],[-53.39227,-23.83103],[-53.39245,-23.831],[-53.39262,-23.83095],[-53.39277,-23.83087],[-53.39291,-23.83076],[-53.39791,-23.82602],[-53.40703,-23.82674],[-53.40724,-23.82674],[-53.40745,-23.82669],[-53.41397,-23.8243],[-53.41807,-23.82428],[-53.41828,-23.82432],[-53.42092,-23.82563],[-53.42001,-23.83288],[-53.42,-23.83307],[-53.42003,-23.83325],[-53.4201,-23.83343],[-53.4202,-23.83359],[-53.42032,-23.83374],[-53.42047,-23.83385],[-53.4375,-23.84439],[-53.4375,-23.73047],[-53.34961,-23.73047]]]},"properties":{"ghs":"6gf0","size":6.99,"ghs_len":4,"ghs_area":284.38,"ghs_bytes":1043754,"ghs_items":5982,"size_unit":"km2","ghsval_unit":"bytes","ghs_itemsdensity":21.04,"size_unitdensity":0.02}},{"type":"Feature","geometry":{"type":"Polygon","coordinates":[[[-53.34961,-23.77441],[-53.30566,-23.77441],[-53.30566,-23.81836],[-53.34961,-23.81836],[-53.34961,-23.77441]]]},"properties":{"ghs":"6gf0d","size":12.42,"ghs_len":5,"ghs_area":21.8,"ghs_bytes":3000756,"ghs_items":17708,"size_unit":"km2","ghsval_unit":"bytes","ghs_itemsdensity":812.38,"size_unitdensity":0.57}},{"type":"Feature","geometry":{"type":"Polygon","coordinates":[[[-53.34961,-23.73047],[-53.30566,-23.73047],[-53.30566,-23.77441],[-53.34961,-23.77441],[-53.34961,-23.73047]]]},"properties":{"ghs":"6gf0f","size":8.21,"ghs_len":5,"ghs_area":21.8,"ghs_bytes":2868698,"ghs_items":17073,"size_unit":"km2","ghsval_unit":"bytes","ghs_itemsdensity":782.99,"size_unitdensity":0.38}},{"type":"Feature","geometry":{"type":"Polygon","coordinates":[[[-53.30566,-23.73047],[-53.26172,-23.73047],[-53.26172,-23.77441],[-53.30566,-23.77441],[-53.30566,-23.73047]]]},"properties":{"ghs":"6gf0g","size":10.16,"ghs_len":5,"ghs_area":21.8,"ghs_bytes":2876623,"ghs_items":16836,"size_unit":"km2","ghsval_unit":"bytes","ghs_itemsdensity":772.12,"size_unitdensity":0.47}}]}
