{"type":"FeatureCollection","features":[{"type":"Feature","geometry":{"type":"MultiPolygon","coordinates":[[[[-47.02148,-23.20312],[-46.97754,-23.20312],[-46.93359,-23.20312],[-46.90063,-23.20312],[-46.88965,-23.20312],[-46.88965,-23.20862],[-46.88965,-23.21411],[-46.88965,-23.2251],[-46.88965,-23.23059],[-46.88965,-23.24707],[-46.8457,-23.24707],[-46.8457,-23.24159],[-46.83941,-23.24503],[-46.83926,-23.24513],[-46.83913,-23.24526],[-46.83903,-23.24541],[-46.83895,-23.24557],[-46.83891,-23.24569],[-46.83875,-23.24576],[-46.83752,-23.24603],[-46.83732,-23.24602],[-46.83691,-23.24583],[-46.83687,-23.24581],[-46.83625,-23.24555],[-46.83607,-23.24496],[-46.83599,-23.24478],[-46.83588,-23.24462],[-46.83574,-23.24448],[-46.83557,-23.24437],[-46.83539,-23.2443],[-46.83519,-23.24426],[-46.83499,-23.24427],[-46.8348,-23.24431],[-46.83462,-23.24439],[-46.83264,-23.24551],[-46.8325,-23.24561],[-46.83238,-23.24573],[-46.83228,-23.24588],[-46.83166,-23.24692],[-46.83157,-23.24714],[-46.83115,-23.24854],[-46.831,-23.24881],[-46.83083,-23.24893],[-46.83028,-23.24907],[-46.82803,-23.249],[-46.82783,-23.24902],[-46.82763,-23.24907],[-46.82745,-23.24916],[-46.82729,-23.24929],[-46.82529,-23.25129],[-46.82519,-23.25142],[-46.82036,-23.25818],[-46.81624,-23.25983],[-46.81471,-23.25829],[-46.8145,-23.25813],[-46.8075,-23.25413],[-46.8073,-23.25405],[-46.8071,-23.254],[-46.80688,-23.25401],[-46.80668,-23.25405],[-46.80649,-23.25414],[-46.80149,-23.25714],[-46.80132,-23.25726],[-46.80119,-23.25741],[-46.80109,-23.25759],[-46.80102,-23.25778],[-46.801,-23.25798],[-46.80102,-23.25818],[-46.80402,-23.27418],[-46.80407,-23.27437],[-46.80416,-23.27455],[-46.80429,-23.2747],[-46.80444,-23.27483],[-46.80461,-23.27492],[-46.8048,-23.27498],[-46.80947,-23.27591],[-46.81524,-23.28265],[-46.81539,-23.28279],[-46.81556,-23.2829],[-46.81576,-23.28297],[-46.81596,-23.283],[-46.81616,-23.28299],[-46.83345,-23.28011],[-46.83381,-23.28082],[-46.83409,-23.28154],[-46.83381,-23.28236],[-46.8338,-23.2824],[-46.83366,-23.28289],[-46.83362,-23.28308],[-46.83346,-23.28472],[-46.83346,-23.28487],[-46.83353,-23.28603],[-46.83356,-23.28623],[-46.83364,-23.28642],[-46.83375,-23.2866],[-46.83419,-23.28714],[-46.83433,-23.28728],[-46.8345,-23.2874],[-46.83469,-23.28747],[-46.835,-23.28757],[-46.83516,-23.2876],[-46.83617,-23.28773],[-46.8369,-23.28804],[-46.83738,-23.28831],[-46.83763,-23.28862],[-46.83778,-23.28877],[-46.83795,-23.28889],[-46.83815,-23.28896],[-46.83835,-23.289],[-46.83856,-23.28899],[-46.83876,-23.28894],[-46.83944,-23.28869],[-46.83962,-23.2886],[-46.84014,-23.28829],[-46.84026,-23.2882],[-46.84069,-23.28784],[-46.84082,-23.28771],[-46.84221,-23.28605],[-46.84389,-23.28539],[-46.84404,-23.28531],[-46.84418,-23.28521],[-46.8443,-23.28509],[-46.84473,-23.28455],[-46.84484,-23.28439],[-46.84491,-23.28422],[-46.84495,-23.28403],[-46.84495,-23.28384],[-46.84492,-23.28365],[-46.84485,-23.28348],[-46.845,-23.28339],[-46.84515,-23.28338],[-46.84603,-23.28358],[-46.84631,-23.28378],[-46.84692,-23.28442],[-46.84712,-23.28458],[-46.84725,-23.28466],[-46.8476,-23.28487],[-46.84853,-23.28544],[-46.84876,-23.28554],[-46.85031,-23.28601],[-46.85048,-23.28604],[-46.85066,-23.28605],[-46.85084,-23.28602],[-46.85101,-23.28596],[-46.8513,-23.28583],[-46.85268,-23.28583],[-46.85287,-23.28581],[-46.85305,-23.28576],[-46.85339,-23.28562],[-46.85354,-23.28555],[-46.85367,-23.28545],[-46.85422,-23.28499],[-46.85448,-23.28482],[-46.8559,-23.28455],[-46.85609,-23.2845],[-46.85776,-23.28383],[-46.85929,-23.28345],[-46.86053,-23.28349],[-46.86074,-23.28347],[-46.86094,-23.28341],[-46.86113,-23.28331],[-46.86128,-23.28318],[-46.86141,-23.28301],[-46.8615,-23.28283],[-46.86155,-23.28262],[-46.86156,-23.28258],[-46.86197,-23.28229],[-46.86213,-23.28216],[-46.86225,-23.28199],[-46.86234,-23.28181],[-46.86239,-23.28161],[-46.8624,-23.2814],[-46.86239,-23.28127],[-46.86242,-23.28118],[-46.86244,-23.28106],[-46.86247,-23.2809],[-46.8626,-23.28074],[-46.86271,-23.28059],[-46.86279,-23.28042],[-46.86283,-23.28024],[-46.86285,-23.28011],[-46.86307,-23.2799],[-46.8632,-23.28],[-46.86336,-23.28008],[-46.86374,-23.28024],[-46.86393,-23.28029],[-46.86428,-23.28036],[-46.86495,-23.28087],[-46.86513,-23.28098],[-46.86533,-23.28105],[-46.86554,-23.28107],[-46.866,-23.28108],[-46.86618,-23.28107],[-46.86635,-23.28103],[-46.86651,-23.28096],[-46.86666,-23.28086],[-46.86678,-23.28073],[-46.86736,-23.28005],[-46.86743,-23.27996],[-46.86776,-23.27947],[-46.86785,-23.2793],[-46.86788,-23.27922],[-46.86801,-23.27926],[-46.86804,-23.27928],[-46.86851,-23.28061],[-46.86867,-23.28145],[-46.86874,-23.282],[-46.86877,-23.28217],[-46.86884,-23.28233],[-46.86893,-23.28248],[-46.86962,-23.28339],[-46.8698,-23.28358],[-46.87005,-23.28377],[-46.87021,-23.28387],[-46.87038,-23.28394],[-46.87057,-23.28397],[-46.87084,-23.284],[-46.87106,-23.28399],[-46.87128,-23.28394],[-46.87147,-23.28384],[-46.87226,-23.28333],[-46.87239,-23.28332],[-46.87248,-23.28335],[-46.87284,-23.28347],[-46.87299,-23.28351],[-46.87307,-23.28352],[-46.87377,-23.2849],[-46.87454,-23.28642],[-46.8749,-23.28712],[-46.8772,-23.29166],[-46.87731,-23.29183],[-46.87744,-23.29197],[-46.8776,-23.29208],[-46.87778,-23.29216],[-46.87797,-23.2922],[-46.87816,-23.29221],[-46.87835,-23.29218],[-46.87853,-23.29211],[-46.8787,-23.29201],[-46.881,-23.29025],[-46.8836,-23.2922],[-46.88376,-23.29232],[-46.8844,-23.2928],[-46.88458,-23.29291],[-46.88479,-23.29298],[-46.885,-23.293],[-46.88542,-23.293],[-46.88913,-23.2995],[-46.88927,-23.29968],[-46.88945,-23.29983],[-46.90145,-23.30783],[-46.9016,-23.30792],[-46.90177,-23.30797],[-46.90195,-23.308],[-46.9083,-23.3083],[-46.90849,-23.30851],[-46.90865,-23.30864],[-46.90883,-23.30874],[-46.90922,-23.3089],[-46.90923,-23.30891],[-46.91112,-23.30968],[-46.91128,-23.30973],[-46.91145,-23.30975],[-46.91162,-23.30975],[-46.916,-23.3092],[-46.9168,-23.3094],[-46.91703,-23.3097],[-46.91701,-23.30987],[-46.917,-23.31005],[-46.91703,-23.31024],[-46.91709,-23.31041],[-46.91718,-23.31057],[-46.9173,-23.31072],[-46.91745,-23.31083],[-46.91761,-23.31092],[-46.91779,-23.31098],[-46.91797,-23.311],[-46.91867,-23.31102],[-46.91885,-23.31101],[-46.91902,-23.31097],[-46.91918,-23.3109],[-46.91998,-23.31046],[-46.92015,-23.31034],[-46.9203,-23.31019],[-46.92041,-23.31],[-46.92094,-23.30882],[-46.92269,-23.30798],[-46.92319,-23.30885],[-46.92318,-23.30889],[-46.92315,-23.30909],[-46.92317,-23.30928],[-46.92322,-23.30947],[-46.92331,-23.30965],[-46.92343,-23.3098],[-46.92357,-23.30993],[-46.92504,-23.31097],[-46.92527,-23.3111],[-46.92766,-23.31198],[-46.92786,-23.31203],[-46.92996,-23.31234],[-46.92996,-23.3125],[-46.92998,-23.31269],[-46.93005,-23.31288],[-46.93015,-23.31305],[-46.93029,-23.3132],[-46.93139,-23.31419],[-46.93138,-23.31438],[-46.9314,-23.31459],[-46.93147,-23.31478],[-46.93158,-23.31496],[-46.93172,-23.31511],[-46.93232,-23.31564],[-46.93222,-23.31613],[-46.9322,-23.31631],[-46.93221,-23.31648],[-46.93226,-23.31665],[-46.93239,-23.31704],[-46.93246,-23.31719],[-46.93255,-23.31733],[-46.93278,-23.31763],[-46.93291,-23.31777],[-46.93306,-23.31788],[-46.93324,-23.31796],[-46.93342,-23.31801],[-46.93361,-23.31802],[-46.93434,-23.31799],[-46.93451,-23.31796],[-46.93502,-23.31868],[-46.935,-23.31882],[-46.935,-23.31904],[-46.93504,-23.31925],[-46.93527,-23.31996],[-46.93535,-23.32013],[-46.93545,-23.32028],[-46.93546,-23.3203],[-46.93547,-23.32032],[-46.93549,-23.32037],[-46.93557,-23.32058],[-46.9357,-23.32075],[-46.93586,-23.3209],[-46.93606,-23.321],[-46.93608,-23.32101],[-46.93622,-23.32115],[-46.93638,-23.32126],[-46.93644,-23.32135],[-46.93656,-23.3215],[-46.93663,-23.32155],[-46.93669,-23.32169],[-46.93696,-23.32219],[-46.93707,-23.32235],[-46.9372,-23.32248],[-46.93736,-23.32259],[-46.93766,-23.32275],[-46.93774,-23.32302],[-46.93784,-23.32322],[-46.93798,-23.3234],[-46.93853,-23.32398],[-46.93868,-23.3241],[-46.93885,-23.3242],[-46.93903,-23.32426],[-46.93922,-23.32428],[-46.93941,-23.32427],[-46.93972,-23.32422],[-46.9399,-23.32417],[-46.94007,-23.3241],[-46.94023,-23.32399],[-46.94035,-23.32385],[-46.94046,-23.3237],[-46.94058,-23.32346],[-46.94142,-23.32195],[-46.94153,-23.32203],[-46.94436,-23.32371],[-46.94449,-23.32412],[-46.94421,-23.3247],[-46.94414,-23.32488],[-46.94411,-23.32508],[-46.94412,-23.32528],[-46.94417,-23.32547],[-46.94426,-23.32565],[-46.94438,-23.32581],[-46.94452,-23.32594],[-46.9447,-23.32604],[-46.94488,-23.32611],[-46.94508,-23.32613],[-46.94528,-23.32612],[-46.94547,-23.32607],[-46.94618,-23.3258],[-46.94618,-23.3258],[-46.94619,-23.326],[-46.94624,-23.32619],[-46.94633,-23.32638],[-46.94645,-23.32654],[-46.9466,-23.32667],[-46.94678,-23.32677],[-46.94697,-23.32683],[-46.94717,-23.32685],[-46.94931,-23.32686],[-46.94951,-23.32684],[-46.94971,-23.32678],[-46.94989,-23.32668],[-46.95004,-23.32654],[-46.95017,-23.32638],[-46.95025,-23.32619],[-46.9503,-23.32599],[-46.9504,-23.32525],[-46.95052,-23.32493],[-46.95062,-23.32495],[-46.95101,-23.32544],[-46.95118,-23.32561],[-46.95139,-23.32574],[-46.95214,-23.32607],[-46.95231,-23.32613],[-46.95249,-23.32615],[-46.95267,-23.32615],[-46.95285,-23.32611],[-46.95388,-23.32577],[-46.95441,-23.32613],[-46.95456,-23.32621],[-46.95473,-23.32627],[-46.95491,-23.3263],[-46.95509,-23.32629],[-46.95547,-23.32624],[-46.95552,-23.32633],[-46.95564,-23.32646],[-46.95579,-23.32657],[-46.95619,-23.32683],[-46.95633,-23.3269],[-46.95647,-23.32695],[-46.95746,-23.32721],[-46.95771,-23.32725],[-46.95864,-23.32726],[-46.95879,-23.32733],[-46.95895,-23.3274],[-46.95928,-23.3275],[-46.95942,-23.32753],[-46.95957,-23.32754],[-46.95986,-23.32754],[-46.96007,-23.32752],[-46.96026,-23.32746],[-46.96044,-23.32736],[-46.96077,-23.32713],[-46.96092,-23.327],[-46.96104,-23.32685],[-46.96113,-23.32667],[-46.96119,-23.32649],[-46.9612,-23.32629],[-46.9612,-23.32593],[-46.96117,-23.32573],[-46.96111,-23.32553],[-46.96106,-23.32542],[-46.96119,-23.32466],[-46.9612,-23.32457],[-46.96126,-23.32372],[-46.96535,-23.32177],[-46.96735,-23.32165],[-46.96757,-23.32161],[-46.96777,-23.32153],[-46.96795,-23.3214],[-46.96905,-23.32044],[-46.96916,-23.32033],[-46.96924,-23.3202],[-46.97086,-23.31751],[-46.97094,-23.31735],[-46.97099,-23.31716],[-46.971,-23.31698],[-46.97098,-23.31679],[-46.97092,-23.31661],[-46.96963,-23.31354],[-46.96931,-23.31044],[-46.96926,-23.31024],[-46.96918,-23.31005],[-46.96906,-23.30988],[-46.96891,-23.30974],[-46.96873,-23.30964],[-46.9667,-23.30869],[-46.97312,-23.30211],[-46.97324,-23.30195],[-46.97333,-23.30178],[-46.97338,-23.30159],[-46.9734,-23.30139],[-46.97338,-23.3012],[-46.97332,-23.30101],[-46.97322,-23.30084],[-46.97309,-23.30069],[-46.97293,-23.30057],[-46.96785,-23.29735],[-46.96407,-23.28509],[-46.96789,-23.27745],[-46.96796,-23.27727],[-46.968,-23.27709],[-46.968,-23.27691],[-46.96796,-23.27673],[-46.96789,-23.27655],[-46.96537,-23.2715],[-46.97139,-23.26892],[-46.97157,-23.26882],[-46.97172,-23.26869],[-46.97185,-23.26853],[-46.97194,-23.26835],[-46.97199,-23.26816],[-46.972,-23.26796],[-46.97197,-23.26776],[-46.97027,-23.26094],[-46.98261,-23.26032],[-46.98873,-23.26001],[-47.00246,-23.26884],[-47.00264,-23.26893],[-47.00284,-23.26899],[-47.00304,-23.269],[-47.00325,-23.26897],[-47.0132,-23.26644],[-47.0134,-23.26637],[-47.01358,-23.26625],[-47.01373,-23.2661],[-47.01385,-23.26592],[-47.01392,-23.26572],[-47.01779,-23.25072],[-47.01814,-23.25057],[-47.01819,-23.25054],[-47.01987,-23.24969],[-47.02038,-23.24986],[-47.02064,-23.24992],[-47.02167,-23.24997],[-47.02191,-23.24996],[-47.02218,-23.24991],[-47.02241,-23.24984],[-47.02262,-23.24972],[-47.02297,-23.24945],[-47.0231,-23.24932],[-47.02347,-23.24891],[-47.02356,-23.24879],[-47.02364,-23.24865],[-47.02381,-23.24826],[-47.02444,-23.24849],[-47.02454,-23.24852],[-47.02481,-23.24859],[-47.02496,-23.24862],[-47.02512,-23.24862],[-47.02532,-23.24861],[-47.02538,-23.2486],[-47.02575,-23.24856],[-47.02599,-23.2485],[-47.02638,-23.24835],[-47.02653,-23.24827],[-47.02667,-23.24818],[-47.02682,-23.24805],[-47.02693,-23.24793],[-47.02703,-23.2478],[-47.0276,-23.24687],[-47.0277,-23.24666],[-47.02777,-23.24644],[-47.02782,-23.24618],[-47.02783,-23.24596],[-47.02783,-23.24578],[-47.02779,-23.24561],[-47.02762,-23.24504],[-47.02775,-23.24475],[-47.02782,-23.24457],[-47.02785,-23.24438],[-47.02788,-23.24366],[-47.02822,-23.24255],[-47.02878,-23.24132],[-47.02886,-23.24106],[-47.02887,-23.24096],[-47.02888,-23.24066],[-47.02883,-23.24036],[-47.02885,-23.24029],[-47.02884,-23.24007],[-47.02884,-23.24007],[-47.02887,-23.24004],[-47.02897,-23.23986],[-47.02901,-23.23976],[-47.02907,-23.23959],[-47.0291,-23.23941],[-47.02909,-23.23923],[-47.02909,-23.23919],[-47.02906,-23.23907],[-47.0286,-23.23723],[-47.02861,-23.23709],[-47.02861,-23.23698],[-47.02859,-23.23634],[-47.0289,-23.23538],[-47.02894,-23.23523],[-47.02895,-23.23508],[-47.02896,-23.23466],[-47.02894,-23.23447],[-47.02889,-23.23428],[-47.0288,-23.23411],[-47.0285,-23.23365],[-47.02825,-23.23295],[-47.02821,-23.23285],[-47.02784,-23.2321],[-47.02783,-23.23188],[-47.02803,-23.23175],[-47.02823,-23.23157],[-47.02837,-23.23141],[-47.02852,-23.23119],[-47.02864,-23.23095],[-47.0287,-23.23077],[-47.02874,-23.23059],[-47.02873,-23.2304],[-47.02869,-23.23004],[-47.02864,-23.22982],[-47.02854,-23.22961],[-47.0284,-23.22944],[-47.02821,-23.22925],[-47.02807,-23.229],[-47.02795,-23.22882],[-47.02779,-23.22867],[-47.0276,-23.22856],[-47.02739,-23.2285],[-47.02723,-23.22846],[-47.02705,-23.22838],[-47.02698,-23.22829],[-47.0266,-23.22758],[-47.02651,-23.22744],[-47.0264,-23.22731],[-47.02627,-23.22721],[-47.02614,-23.22713],[-47.02614,-23.22706],[-47.02611,-23.22686],[-47.02604,-23.22667],[-47.02594,-23.2265],[-47.0258,-23.22636],[-47.02563,-23.22624],[-47.02547,-23.22615],[-47.02535,-23.22609],[-47.02511,-23.226],[-47.0251,-23.22599],[-47.02486,-23.22551],[-47.02473,-23.22533],[-47.02457,-23.22517],[-47.02438,-23.22505],[-47.02394,-23.22485],[-47.02381,-23.2247],[-47.02363,-23.22457],[-47.02334,-23.22441],[-47.02322,-23.22435],[-47.02314,-23.22422],[-47.02299,-23.22406],[-47.02219,-23.22337],[-47.02229,-23.22327],[-47.02239,-23.22311],[-47.02246,-23.22294],[-47.0225,-23.22275],[-47.02253,-23.22244],[-47.0226,-23.22238],[-47.02272,-23.22221],[-47.02282,-23.22203],[-47.02287,-23.22182],[-47.0229,-23.22159],[-47.02292,-23.22151],[-47.02301,-23.22141],[-47.02312,-23.22122],[-47.02349,-23.22037],[-47.02374,-23.22015],[-47.02401,-23.21998],[-47.02417,-23.21986],[-47.0243,-23.21971],[-47.0244,-23.21954],[-47.02447,-23.21935],[-47.02449,-23.21916],[-47.02448,-23.21896],[-47.02446,-23.21884],[-47.02489,-23.21813],[-47.02496,-23.218],[-47.025,-23.21786],[-47.02507,-23.2176],[-47.02509,-23.21743],[-47.02509,-23.21726],[-47.02506,-23.21709],[-47.02483,-23.21629],[-47.02483,-23.21629],[-47.02487,-23.21624],[-47.02497,-23.21612],[-47.02511,-23.2159],[-47.02521,-23.2157],[-47.02525,-23.21559],[-47.02528,-23.21554],[-47.02535,-23.2154],[-47.02547,-23.21512],[-47.02553,-23.21494],[-47.02555,-23.21475],[-47.02556,-23.21449],[-47.02554,-23.21427],[-47.02547,-23.21406],[-47.02536,-23.21388],[-47.02524,-23.2137],[-47.0255,-23.21194],[-47.02551,-23.21169],[-47.02544,-23.21106],[-47.0254,-23.21086],[-47.02526,-23.21042],[-47.02535,-23.21022],[-47.02607,-23.20915],[-47.02616,-23.20899],[-47.02621,-23.20882],[-47.02624,-23.20864],[-47.02625,-23.20836],[-47.0268,-23.20862],[-47.02701,-23.20869],[-47.02724,-23.20872],[-47.02746,-23.20869],[-47.02771,-23.20863],[-47.02789,-23.20857],[-47.02805,-23.20848],[-47.0288,-23.20795],[-47.02893,-23.20783],[-47.02905,-23.20769],[-47.02914,-23.20753],[-47.02919,-23.20736],[-47.0293,-23.2069],[-47.02932,-23.2068],[-47.02939,-23.20624],[-47.02948,-23.20575],[-47.02949,-23.20555],[-47.02947,-23.20535],[-47.0294,-23.20516],[-47.0293,-23.20493],[-47.02942,-23.20483],[-47.02962,-23.20461],[-47.02973,-23.20446],[-47.02981,-23.2043],[-47.02985,-23.20412],[-47.02987,-23.20394],[-47.02987,-23.20358],[-47.02986,-23.20341],[-47.02981,-23.20324],[-47.02977,-23.20316],[-47.02978,-23.20312],[-47.02148,-23.20312]]],[[[-46.8457,-23.20312],[-46.84037,-23.20312],[-46.8404,-23.20321],[-46.84049,-23.20339],[-46.84062,-23.20355],[-46.84078,-23.20368],[-46.84096,-23.20377],[-46.84115,-23.20383],[-46.84135,-23.20384],[-46.84408,-23.20376],[-46.84502,-23.20374],[-46.8457,-23.20447],[-46.8457,-23.20312]]]]},"properties":{"ghs":"6gye","size":37.6,"ghs_len":4,"ghs_area":173.33,"ghs_bytes":2324237,"ghs_items":5880,"size_unit":"km2","ghsval_unit":"bytes","ghs_itemsdensity":33.92,"size_unitdensity":0.22}},{"type":"Feature","geometry":{"type":"Polygon","coordinates":[[[-46.87866,-23.23059],[-46.87866,-23.2251],[-46.88965,-23.2251],[-46.88965,-23.21411],[-46.87866,-23.21411],[-46.86768,-23.21411],[-46.86768,-23.2196],[-46.86768,-23.2251],[-46.85669,-23.2251],[-46.85669,-23.2196],[-46.85669,-23.21411],[-46.85669,-23.20862],[-46.85669,-23.20312],[-46.8457,-23.20312],[-46.8457,-23.20447],[-46.84689,-23.20574],[-46.84757,-23.20655],[-46.84798,-23.20705],[-46.84819,-23.2073],[-46.84925,-23.20858],[-46.8494,-23.20873],[-46.84958,-23.20884],[-46.84978,-23.20891],[-46.84999,-23.20894],[-46.8502,-23.20893],[-46.85312,-23.20841],[-46.8529,-23.21026],[-46.85289,-23.21037],[-46.85289,-23.21065],[-46.85291,-23.21086],[-46.85297,-23.21106],[-46.85307,-23.21124],[-46.8531,-23.21127],[-46.8531,-23.21128],[-46.85309,-23.21135],[-46.85309,-23.21159],[-46.85311,-23.21177],[-46.85319,-23.21219],[-46.85319,-23.21262],[-46.8532,-23.21278],[-46.85324,-23.21295],[-46.85349,-23.21367],[-46.85361,-23.21391],[-46.85372,-23.21407],[-46.85378,-23.21415],[-46.85385,-23.21423],[-46.85386,-23.21426],[-46.85389,-23.21433],[-46.85394,-23.21454],[-46.85398,-23.21475],[-46.85399,-23.21487],[-46.85401,-23.21502],[-46.85404,-23.21511],[-46.85411,-23.21531],[-46.85414,-23.21536],[-46.85414,-23.21552],[-46.85427,-23.21647],[-46.85429,-23.21656],[-46.85434,-23.21679],[-46.8544,-23.21704],[-46.85442,-23.21714],[-46.85444,-23.21725],[-46.85445,-23.2173],[-46.85446,-23.21737],[-46.85418,-23.21744],[-46.85401,-23.2175],[-46.85385,-23.21759],[-46.85372,-23.21771],[-46.8536,-23.21785],[-46.85351,-23.21801],[-46.8534,-23.21826],[-46.85332,-23.21831],[-46.85316,-23.21845],[-46.85303,-23.21863],[-46.85297,-23.21873],[-46.85266,-23.21892],[-46.85244,-23.2191],[-46.85218,-23.21938],[-46.85215,-23.2194],[-46.85208,-23.21946],[-46.85195,-23.21959],[-46.85179,-23.2198],[-46.85166,-23.22001],[-46.85158,-23.22018],[-46.85154,-23.22037],[-46.85153,-23.22055],[-46.85155,-23.2207],[-46.85152,-23.22081],[-46.8515,-23.22091],[-46.85147,-23.22105],[-46.85147,-23.22116],[-46.85144,-23.22123],[-46.85141,-23.22135],[-46.85137,-23.22141],[-46.8513,-23.22159],[-46.85128,-23.22166],[-46.85125,-23.22183],[-46.85122,-23.22207],[-46.85121,-23.22216],[-46.85121,-23.22218],[-46.8512,-23.22229],[-46.8512,-23.22245],[-46.85122,-23.22273],[-46.85122,-23.22276],[-46.8512,-23.22293],[-46.8512,-23.22294],[-46.85118,-23.22316],[-46.85113,-23.22331],[-46.85109,-23.22349],[-46.85108,-23.22368],[-46.85109,-23.22383],[-46.85112,-23.22403],[-46.85114,-23.2241],[-46.85122,-23.22429],[-46.85133,-23.22447],[-46.85136,-23.2245],[-46.85145,-23.2246],[-46.85145,-23.22461],[-46.85145,-23.22462],[-46.85141,-23.22485],[-46.85142,-23.22507],[-46.85148,-23.22529],[-46.85151,-23.22537],[-46.85161,-23.22556],[-46.85164,-23.22577],[-46.85169,-23.22592],[-46.85169,-23.22604],[-46.85169,-23.22615],[-46.85172,-23.22652],[-46.85172,-23.22653],[-46.85169,-23.2266],[-46.85163,-23.2267],[-46.85039,-23.22833],[-46.85033,-23.22841],[-46.84941,-23.22987],[-46.84934,-23.23001],[-46.84929,-23.23017],[-46.84774,-23.23661],[-46.84771,-23.23678],[-46.84772,-23.23696],[-46.84775,-23.23713],[-46.84806,-23.23817],[-46.84806,-23.23841],[-46.84797,-23.2386],[-46.84791,-23.23879],[-46.84789,-23.23899],[-46.84787,-23.24007],[-46.84782,-23.24043],[-46.8457,-23.24159],[-46.8457,-23.24707],[-46.88965,-23.24707],[-46.88965,-23.23059],[-46.87866,-23.23059]]]},"properties":{"ghs":"6gyev","size":9.99,"ghs_len":5,"ghs_area":13.73,"ghs_bytes":2883897,"ghs_items":8036,"size_unit":"km2","ghsval_unit":"bytes","ghs_itemsdensity":585.13,"size_unitdensity":0.73}},{"type":"Feature","geometry":{"type":"Polygon","coordinates":[[[-46.88965,-23.2251],[-46.87866,-23.2251],[-46.87866,-23.23059],[-46.88965,-23.23059],[-46.88965,-23.2251]]]},"properties":{"ghs":"6gyev5","size":0.35,"ghs_len":6,"ghs_area":0.68,"ghs_bytes":386250,"ghs_items":972,"size_unit":"km2","ghsval_unit":"bytes","ghs_itemsdensity":1420.93,"size_unitdensity":0.51}},{"type":"Feature","geometry":{"type":"Polygon","coordinates":[[[-46.88965,-23.20862],[-46.87866,-23.20862],[-46.87866,-23.21411],[-46.88965,-23.21411],[-46.88965,-23.20862]]]},"properties":{"ghs":"6gyevn","size":0.49,"ghs_len":6,"ghs_area":0.68,"ghs_bytes":432289,"ghs_items":1407,"size_unit":"km2","ghsval_unit":"bytes","ghs_itemsdensity":2056.59,"size_unitdensity":0.71}},{"type":"Feature","geometry":{"type":"Polygon","coordinates":[[[-46.88965,-23.20312],[-46.87866,-23.20312],[-46.87866,-23.20862],[-46.88965,-23.20862],[-46.88965,-23.20312]]]},"properties":{"ghs":"6gyevp","size":0.46,"ghs_len":6,"ghs_area":0.68,"ghs_bytes":571722,"ghs_items":1324,"size_unit":"km2","ghsval_unit":"bytes","ghs_itemsdensity":1935.19,"size_unitdensity":0.67}},{"type":"Feature","geometry":{"type":"Polygon","coordinates":[[[-46.87866,-23.20862],[-46.86768,-23.20862],[-46.86768,-23.21411],[-46.87866,-23.21411],[-46.87866,-23.20862]]]},"properties":{"ghs":"6gyevq","size":0.46,"ghs_len":6,"ghs_area":0.68,"ghs_bytes":486004,"ghs_items":1468,"size_unit":"km2","ghsval_unit":"bytes","ghs_itemsdensity":2145.75,"size_unitdensity":0.68}},{"type":"Feature","geometry":{"type":"Polygon","coordinates":[[[-46.87866,-23.20312],[-46.86768,-23.20312],[-46.86768,-23.20862],[-46.87866,-23.20862],[-46.87866,-23.20312]]]},"properties":{"ghs":"6gyevr","size":0.47,"ghs_len":6,"ghs_area":0.68,"ghs_bytes":709929,"ghs_items":1696,"size_unit":"km2","ghsval_unit":"bytes","ghs_itemsdensity":2478.92,"size_unitdensity":0.68}},{"type":"Feature","geometry":{"type":"Polygon","coordinates":[[[-46.86768,-23.2196],[-46.85669,-23.2196],[-46.85669,-23.2251],[-46.86768,-23.2251],[-46.86768,-23.2196]]]},"properties":{"ghs":"6gyevs","size":0.48,"ghs_len":6,"ghs_area":0.68,"ghs_bytes":413628,"ghs_items":1072,"size_unit":"km2","ghsval_unit":"bytes","ghs_itemsdensity":1567.05,"size_unitdensity":0.7}},{"type":"Feature","geometry":{"type":"Polygon","coordinates":[[[-46.86768,-23.21411],[-46.85669,-23.21411],[-46.85669,-23.2196],[-46.86768,-23.2196],[-46.86768,-23.21411]]]},"properties":{"ghs":"6gyevt","size":0.5,"ghs_len":6,"ghs_area":0.68,"ghs_bytes":539505,"ghs_items":1289,"size_unit":"km2","ghsval_unit":"bytes","ghs_itemsdensity":1884.19,"size_unitdensity":0.73}},{"type":"Feature","geometry":{"type":"Polygon","coordinates":[[[-46.86768,-23.20862],[-46.85669,-23.20862],[-46.85669,-23.21411],[-46.86768,-23.21411],[-46.86768,-23.20862]]]},"properties":{"ghs":"6gyevw","size":0.46,"ghs_len":6,"ghs_area":0.68,"ghs_bytes":737022,"ghs_items":1665,"size_unit":"km2","ghsval_unit":"bytes","ghs_itemsdensity":2433.7,"size_unitdensity":0.67}},{"type":"Feature","geometry":{"type":"Polygon","coordinates":[[[-46.86768,-23.20312],[-46.85669,-23.20312],[-46.85669,-23.20862],[-46.86768,-23.20862],[-46.86768,-23.20312]]]},"properties":{"ghs":"6gyevx","size":0.42,"ghs_len":6,"ghs_area":0.68,"ghs_bytes":633723,"ghs_items":1583,"size_unit":"km2","ghsval_unit":"bytes","ghs_itemsdensity":2313.75,"size_unitdensity":0.62}},{"type":"Feature","geometry":{"type":"MultiPolygon","coordinates":[[[[-46.8457,-23.20312],[-46.8457,-23.20076],[-46.84558,-23.20075],[-46.84535,-23.20074],[-46.84513,-23.20076],[-46.84506,-23.20077],[-46.8448,-23.20073],[-46.8447,-23.20071],[-46.84455,-23.20064],[-46.84434,-23.20058],[-46.84395,-23.20051],[-46.84386,-23.2005],[-46.84346,-23.20046],[-46.84303,-23.2004],[-46.8429,-23.20039],[-46.84264,-23.20038],[-46.84251,-23.20038],[-46.8423,-23.20041],[-46.84213,-23.20044],[-46.84196,-23.2005],[-46.84171,-23.20062],[-46.84168,-23.20064],[-46.8414,-23.20079],[-46.84125,-23.20089],[-46.84108,-23.20102],[-46.84097,-23.20112],[-46.84076,-23.20135],[-46.84062,-23.20154],[-46.84058,-23.20161],[-46.84052,-23.20174],[-46.84044,-23.20194],[-46.84038,-23.20215],[-46.84034,-23.20241],[-46.84033,-23.20253],[-46.84033,-23.20281],[-46.84034,-23.20302],[-46.84037,-23.20312],[-46.8457,-23.20312]]],[[[-46.8457,-23.19214],[-46.8457,-23.18665],[-46.8457,-23.15918],[-46.8457,-23.11523],[-46.88965,-23.11523],[-46.93359,-23.11523],[-46.97671,-23.11523],[-46.97658,-23.11469],[-46.97652,-23.1145],[-46.97642,-23.11434],[-46.9763,-23.11419],[-46.97614,-23.11407],[-46.97572,-23.1138],[-46.97508,-23.11201],[-46.97499,-23.11183],[-46.97486,-23.11166],[-46.97471,-23.11153],[-46.97415,-23.11114],[-46.97396,-23.11104],[-46.97375,-23.11098],[-46.97353,-23.11096],[-46.97331,-23.111],[-46.97272,-23.11116],[-46.97238,-23.11105],[-46.97217,-23.11036],[-46.97208,-23.11017],[-46.97196,-23.11],[-46.97181,-23.10986],[-46.97162,-23.10975],[-46.97143,-23.10969],[-46.97122,-23.10966],[-46.9707,-23.10966],[-46.97067,-23.10965],[-46.97063,-23.10949],[-46.97058,-23.10931],[-46.9705,-23.10915],[-46.97039,-23.109],[-46.97025,-23.10888],[-46.97009,-23.10879],[-46.96992,-23.10872],[-46.96974,-23.10869],[-46.96955,-23.10869],[-46.96923,-23.10872],[-46.96883,-23.10843],[-46.96865,-23.10834],[-46.96846,-23.10827],[-46.96826,-23.10825],[-46.96806,-23.10827],[-46.96787,-23.10832],[-46.96699,-23.10868],[-46.96678,-23.1088],[-46.96659,-23.10893],[-46.96639,-23.10886],[-46.96623,-23.10881],[-46.96606,-23.10879],[-46.96434,-23.10874],[-46.96365,-23.10868],[-46.96295,-23.10853],[-46.9629,-23.10852],[-46.96237,-23.10843],[-46.96162,-23.10823],[-46.96141,-23.1082],[-46.9612,-23.10821],[-46.961,-23.10826],[-46.96046,-23.10847],[-46.95935,-23.10862],[-46.95739,-23.10771],[-46.95717,-23.10764],[-46.95694,-23.10762],[-46.95669,-23.10763],[-46.95661,-23.10755],[-46.95642,-23.10725],[-46.9563,-23.1071],[-46.95616,-23.10697],[-46.95599,-23.10687],[-46.95581,-23.10681],[-46.95566,-23.10677],[-46.95547,-23.10675],[-46.95528,-23.10676],[-46.95515,-23.10678],[-46.95495,-23.10683],[-46.95476,-23.10692],[-46.9546,-23.10705],[-46.95406,-23.10757],[-46.95368,-23.10778],[-46.95249,-23.10805],[-46.95231,-23.10811],[-46.95214,-23.1082],[-46.952,-23.10833],[-46.95188,-23.10848],[-46.95135,-23.10928],[-46.95073,-23.10997],[-46.9506,-23.11014],[-46.95052,-23.11033],[-46.95047,-23.11053],[-46.95047,-23.11074],[-46.95047,-23.11075],[-46.95038,-23.11069],[-46.95019,-23.11059],[-46.94999,-23.11054],[-46.94977,-23.11054],[-46.94926,-23.11058],[-46.94886,-23.11031],[-46.94872,-23.11022],[-46.94857,-23.11017],[-46.94841,-23.11014],[-46.94703,-23.10998],[-46.94682,-23.10998],[-46.94661,-23.11003],[-46.94568,-23.11033],[-46.94556,-23.10967],[-46.94547,-23.10941],[-46.94479,-23.10802],[-46.94466,-23.10781],[-46.94387,-23.10687],[-46.94312,-23.10553],[-46.94274,-23.10368],[-46.94268,-23.10348],[-46.94258,-23.1033],[-46.94139,-23.10163],[-46.9414,-23.10143],[-46.94152,-23.10134],[-46.94165,-23.10119],[-46.94181,-23.10097],[-46.94192,-23.1008],[-46.94199,-23.1006],[-46.94201,-23.1004],[-46.942,-23.1002],[-46.94194,-23.1],[-46.94184,-23.09982],[-46.94173,-23.09965],[-46.94163,-23.09952],[-46.9415,-23.09941],[-46.94136,-23.09932],[-46.94099,-23.09913],[-46.94096,-23.09909],[-46.94099,-23.09889],[-46.94099,-23.09872],[-46.94097,-23.09856],[-46.94089,-23.0982],[-46.94079,-23.09794],[-46.93986,-23.09627],[-46.93983,-23.09622],[-46.93925,-23.09533],[-46.93914,-23.09518],[-46.939,-23.09506],[-46.93884,-23.09497],[-46.93867,-23.0949],[-46.93849,-23.09487],[-46.93716,-23.09476],[-46.9369,-23.09478],[-46.93434,-23.09525],[-46.93417,-23.0953],[-46.93401,-23.09538],[-46.93194,-23.09661],[-46.93096,-23.09695],[-46.93095,-23.09692],[-46.93083,-23.09678],[-46.9307,-23.09666],[-46.93054,-23.09657],[-46.93037,-23.09651],[-46.92983,-23.09637],[-46.92961,-23.09634],[-46.92911,-23.09632],[-46.92893,-23.09634],[-46.92875,-23.09638],[-46.92823,-23.09656],[-46.92803,-23.09665],[-46.92786,-23.09679],[-46.92772,-23.09696],[-46.92759,-23.09715],[-46.92724,-23.09728],[-46.92539,-23.09722],[-46.9234,-23.09669],[-46.92319,-23.09666],[-46.92299,-23.09667],[-46.92279,-23.09672],[-46.92261,-23.09681],[-46.92245,-23.09694],[-46.92184,-23.09752],[-46.9217,-23.09769],[-46.92146,-23.09806],[-46.92127,-23.09801],[-46.92079,-23.09789],[-46.92059,-23.09786],[-46.92038,-23.09788],[-46.92003,-23.09794],[-46.91983,-23.09799],[-46.91965,-23.09809],[-46.91946,-23.09821],[-46.91935,-23.09829],[-46.91846,-23.09907],[-46.91732,-23.10004],[-46.91717,-23.10021],[-46.91706,-23.1004],[-46.91688,-23.10081],[-46.91674,-23.10078],[-46.91656,-23.10078],[-46.91535,-23.10084],[-46.91505,-23.10076],[-46.91448,-23.10053],[-46.91342,-23.1],[-46.91314,-23.09964],[-46.91297,-23.09947],[-46.91276,-23.09934],[-46.91236,-23.09916],[-46.91221,-23.09911],[-46.91204,-23.09908],[-46.91188,-23.09908],[-46.91135,-23.09912],[-46.91096,-23.09903],[-46.91082,-23.09894],[-46.91095,-23.09855],[-46.91126,-23.09803],[-46.91134,-23.09788],[-46.91139,-23.09772],[-46.91149,-23.09722],[-46.91151,-23.09706],[-46.91151,-23.0969],[-46.91148,-23.09674],[-46.91133,-23.09623],[-46.91127,-23.09608],[-46.91119,-23.09594],[-46.91065,-23.09516],[-46.9105,-23.09499],[-46.91032,-23.09486],[-46.91009,-23.09473],[-46.90989,-23.09465],[-46.90967,-23.09461],[-46.90945,-23.09462],[-46.90924,-23.09467],[-46.90885,-23.09482],[-46.90838,-23.09483],[-46.90757,-23.09484],[-46.90653,-23.09453],[-46.90632,-23.09449],[-46.90504,-23.09439],[-46.90484,-23.09439],[-46.90465,-23.09444],[-46.90446,-23.09452],[-46.9043,-23.09463],[-46.90407,-23.09484],[-46.9038,-23.09488],[-46.90237,-23.09457],[-46.90235,-23.09456],[-46.90156,-23.0944],[-46.90128,-23.09439],[-46.90045,-23.09446],[-46.90023,-23.0945],[-46.90002,-23.09459],[-46.8997,-23.09478],[-46.89954,-23.09489],[-46.89941,-23.09504],[-46.89931,-23.0952],[-46.89924,-23.09539],[-46.89921,-23.09548],[-46.89875,-23.09587],[-46.89861,-23.09602],[-46.8985,-23.09619],[-46.89842,-23.09638],[-46.89839,-23.09658],[-46.89836,-23.09715],[-46.89799,-23.09814],[-46.89794,-23.09837],[-46.89786,-23.09899],[-46.89776,-23.09896],[-46.89747,-23.0989],[-46.89729,-23.09888],[-46.89711,-23.09889],[-46.89668,-23.09896],[-46.8966,-23.09896],[-46.89631,-23.09885],[-46.8961,-23.09879],[-46.89588,-23.09878],[-46.89567,-23.09882],[-46.89544,-23.09888],[-46.89538,-23.09884],[-46.89537,-23.09879],[-46.8953,-23.09859],[-46.89519,-23.0984],[-46.89504,-23.09824],[-46.89487,-23.09809],[-46.89472,-23.09798],[-46.89454,-23.0979],[-46.89436,-23.09786],[-46.89417,-23.09785],[-46.89398,-23.09788],[-46.8938,-23.09794],[-46.8935,-23.09808],[-46.89343,-23.09806],[-46.89343,-23.09805],[-46.89343,-23.09803],[-46.89345,-23.09768],[-46.89345,-23.0976],[-46.89339,-23.09635],[-46.89336,-23.09613],[-46.89328,-23.09593],[-46.89313,-23.09564],[-46.89296,-23.09532],[-46.89278,-23.09442],[-46.89273,-23.09425],[-46.89265,-23.09409],[-46.89255,-23.09395],[-46.89242,-23.09383],[-46.89227,-23.09373],[-46.8921,-23.09364],[-46.89183,-23.09355],[-46.89138,-23.09346],[-46.89098,-23.09322],[-46.88995,-23.09256],[-46.88976,-23.09246],[-46.88956,-23.09241],[-46.88934,-23.0924],[-46.88913,-23.09244],[-46.88878,-23.09254],[-46.88863,-23.0926],[-46.88849,-23.09268],[-46.88798,-23.09303],[-46.88786,-23.09313],[-46.88778,-23.09322],[-46.88767,-23.09314],[-46.88739,-23.09297],[-46.88724,-23.0929],[-46.88707,-23.09285],[-46.88691,-23.09283],[-46.88608,-23.09281],[-46.88606,-23.09281],[-46.88602,-23.09262],[-46.88596,-23.09243],[-46.88585,-23.09225],[-46.88573,-23.09208],[-46.88558,-23.09192],[-46.88541,-23.0918],[-46.88521,-23.09171],[-46.88476,-23.09158],[-46.88466,-23.09155],[-46.88415,-23.09145],[-46.88358,-23.0912],[-46.88343,-23.09115],[-46.88326,-23.09113],[-46.88271,-23.09108],[-46.88262,-23.09108],[-46.88172,-23.09109],[-46.88153,-23.09112],[-46.88135,-23.09117],[-46.88118,-23.09127],[-46.88109,-23.09134],[-46.87857,-23.09106],[-46.87553,-23.08649],[-46.87445,-23.08488],[-46.87339,-23.08329],[-46.87083,-23.07945],[-46.87071,-23.07929],[-46.86871,-23.07729],[-46.86855,-23.07717],[-46.86555,-23.07517],[-46.8654,-23.07508],[-46.86522,-23.07503],[-46.86504,-23.075],[-46.86486,-23.07501],[-46.86469,-23.07505],[-46.86452,-23.07512],[-46.85352,-23.08112],[-46.85336,-23.08123],[-46.85323,-23.08137],[-46.85312,-23.08153],[-46.8495,-23.08824],[-46.84719,-23.09253],[-46.84711,-23.09268],[-46.84612,-23.09453],[-46.84605,-23.09468],[-46.84548,-23.0964],[-46.84528,-23.097],[-46.845,-23.097],[-46.8448,-23.09702],[-46.84464,-23.09705],[-46.84152,-23.09768],[-46.84012,-23.09796],[-46.83999,-23.09798],[-46.83732,-23.09852],[-46.83684,-23.09861],[-46.83567,-23.09885],[-46.83495,-23.09668],[-46.83487,-23.09651],[-46.83477,-23.09636],[-46.83463,-23.09623],[-46.83448,-23.09612],[-46.83431,-23.09605],[-46.83412,-23.09601],[-46.82612,-23.09501],[-46.82595,-23.095],[-46.82577,-23.09503],[-46.82561,-23.09508],[-46.81861,-23.09808],[-46.81844,-23.09817],[-46.81829,-23.0983],[-46.81817,-23.09845],[-46.81807,-23.09862],[-46.81802,-23.09881],[-46.818,-23.099],[-46.818,-23.10142],[-46.81207,-23.10481],[-46.8046,-23.0992],[-46.80442,-23.09909],[-46.80421,-23.09902],[-46.804,-23.099],[-46.795,-23.099],[-46.79481,-23.09902],[-46.79462,-23.09908],[-46.79445,-23.09917],[-46.79145,-23.10117],[-46.79129,-23.10129],[-46.79116,-23.10145],[-46.79107,-23.10163],[-46.79102,-23.10182],[-46.791,-23.10202],[-46.79102,-23.10222],[-46.79109,-23.10241],[-46.79139,-23.10308],[-46.79179,-23.10399],[-46.79411,-23.10921],[-46.7941,-23.11019],[-46.79149,-23.11173],[-46.79063,-23.11207],[-46.79045,-23.11216],[-46.7903,-23.11229],[-46.79017,-23.11244],[-46.79008,-23.11261],[-46.79002,-23.1128],[-46.79,-23.113],[-46.79002,-23.1132],[-46.79102,-23.1182],[-46.79107,-23.11836],[-46.79114,-23.1185],[-46.79123,-23.11864],[-46.793,-23.12077],[-46.7961,-23.12448],[-46.79615,-23.12468],[-46.79804,-23.13127],[-46.79812,-23.13147],[-46.79823,-23.13164],[-46.79839,-23.13179],[-46.80683,-23.13835],[-46.80505,-23.14368],[-46.80501,-23.14384],[-46.805,-23.144],[-46.805,-23.14576],[-46.80491,-23.14594],[-46.80455,-23.14666],[-46.80145,-23.14511],[-46.80127,-23.14504],[-46.80108,-23.145],[-46.80089,-23.14501],[-46.80071,-23.14504],[-46.80053,-23.14512],[-46.80037,-23.14522],[-46.80024,-23.14535],[-46.80013,-23.14551],[-46.80005,-23.14568],[-46.80001,-23.14587],[-46.8,-23.14606],[-46.80003,-23.14624],[-46.80051,-23.14815],[-46.80079,-23.1493],[-46.80079,-23.1493],[-46.80086,-23.14956],[-46.79745,-23.15183],[-46.79693,-23.15218],[-46.79621,-23.15266],[-46.79364,-23.14945],[-46.79278,-23.14838],[-46.79264,-23.14823],[-46.79247,-23.14812],[-46.79228,-23.14804],[-46.79208,-23.148],[-46.79187,-23.14801],[-46.79167,-23.14806],[-46.79149,-23.14814],[-46.79071,-23.14861],[-46.78994,-23.14907],[-46.78649,-23.15114],[-46.78636,-23.15123],[-46.78626,-23.15133],[-46.78532,-23.15236],[-46.78521,-23.15252],[-46.78513,-23.15269],[-46.78508,-23.15288],[-46.78507,-23.15307],[-46.78509,-23.15326],[-46.78515,-23.15344],[-46.78525,-23.15361],[-46.78537,-23.15376],[-46.78552,-23.15387],[-46.7857,-23.15396],[-46.78986,-23.15562],[-46.7898,-23.1559],[-46.78972,-23.15632],[-46.78955,-23.15715],[-46.78939,-23.15796],[-46.78924,-23.15871],[-46.78902,-23.1598],[-46.789,-23.16005],[-46.78904,-23.16029],[-46.7891,-23.16047],[-46.78915,-23.16065],[-46.79008,-23.16375],[-46.79039,-23.16478],[-46.79196,-23.17002],[-46.78915,-23.1813],[-46.78909,-23.18153],[-46.78908,-23.18156],[-46.78903,-23.18175],[-46.789,-23.18194],[-46.78901,-23.18214],[-46.78906,-23.18234],[-46.78914,-23.18252],[-46.78991,-23.18378],[-46.79102,-23.18563],[-46.79146,-23.18636],[-46.79189,-23.18708],[-46.79209,-23.18741],[-46.7922,-23.18756],[-46.79234,-23.18769],[-46.7925,-23.18779],[-46.79267,-23.18785],[-46.79286,-23.18789],[-46.79446,-23.18803],[-46.79472,-23.18805],[-46.79477,-23.18805],[-46.79594,-23.18809],[-46.79612,-23.18808],[-46.79629,-23.18804],[-46.79657,-23.18794],[-46.79663,-23.18795],[-46.79735,-23.18824],[-46.79743,-23.18829],[-46.79759,-23.18849],[-46.79775,-23.18864],[-46.79794,-23.18875],[-46.79814,-23.18882],[-46.79882,-23.18897],[-46.79899,-23.18899],[-46.79917,-23.18898],[-46.79935,-23.18894],[-46.79951,-23.18887],[-46.79966,-23.18877],[-46.79998,-23.18851],[-46.80015,-23.18835],[-46.80075,-23.18757],[-46.80099,-23.18734],[-46.80111,-23.18727],[-46.80135,-23.18733],[-46.80164,-23.18737],[-46.8022,-23.18735],[-46.80222,-23.18735],[-46.80244,-23.18778],[-46.80258,-23.18798],[-46.80297,-23.18841],[-46.8032,-23.18866],[-46.80342,-23.18884],[-46.8036,-23.18895],[-46.80367,-23.18899],[-46.8036,-23.18942],[-46.80359,-23.18962],[-46.80361,-23.18982],[-46.80368,-23.19001],[-46.80378,-23.19018],[-46.80418,-23.19072],[-46.80433,-23.19088],[-46.8045,-23.19101],[-46.8047,-23.19109],[-46.8052,-23.19124],[-46.80537,-23.19128],[-46.80555,-23.19128],[-46.806,-23.19126],[-46.80624,-23.19124],[-46.80681,-23.19121],[-46.80758,-23.19127],[-46.80777,-23.19127],[-46.80796,-23.19123],[-46.80814,-23.19116],[-46.80829,-23.19105],[-46.8088,-23.19064],[-46.80892,-23.19053],[-46.80902,-23.1904],[-46.81046,-23.18814],[-46.81063,-23.18819],[-46.8108,-23.18823],[-46.81095,-23.18827],[-46.81205,-23.18854],[-46.8128,-23.18873],[-46.81376,-23.18897],[-46.81396,-23.189],[-46.81417,-23.18899],[-46.81436,-23.18893],[-46.81455,-23.18884],[-46.81471,-23.18871],[-46.81501,-23.1884],[-46.81634,-23.18707],[-46.81659,-23.18682],[-46.81879,-23.18463],[-46.81896,-23.18446],[-46.82123,-23.18219],[-46.82305,-23.18297],[-46.82361,-23.18321],[-46.82363,-23.18321],[-46.82369,-23.18324],[-46.82441,-23.18354],[-46.82456,-23.18359],[-46.82512,-23.18383],[-46.82616,-23.18428],[-46.8276,-23.18492],[-46.82779,-23.18498],[-46.828,-23.185],[-46.83165,-23.185],[-46.83417,-23.18704],[-46.83446,-23.18784],[-46.83495,-23.18934],[-46.83504,-23.18954],[-46.83517,-23.18971],[-46.83533,-23.18985],[-46.83552,-23.18995],[-46.83629,-23.19027],[-46.83636,-23.19044],[-46.83637,-23.19047],[-46.83639,-23.1905],[-46.83643,-23.19116],[-46.83647,-23.19134],[-46.83653,-23.19152],[-46.83663,-23.19168],[-46.83675,-23.19182],[-46.8369,-23.19193],[-46.83707,-23.19202],[-46.83724,-23.19207],[-46.83751,-23.19212],[-46.83753,-23.19212],[-46.8382,-23.19224],[-46.83848,-23.19237],[-46.83851,-23.19238],[-46.83881,-23.19251],[-46.83897,-23.19258],[-46.83914,-23.19267],[-46.83921,-23.19271],[-46.83976,-23.193],[-46.84061,-23.19344],[-46.84085,-23.19357],[-46.84148,-23.1939],[-46.84181,-23.19407],[-46.84202,-23.19415],[-46.84224,-23.19418],[-46.84246,-23.19416],[-46.84391,-23.19388],[-46.84408,-23.19383],[-46.84432,-23.19374],[-46.84451,-23.19364],[-46.84458,-23.19359],[-46.84472,-23.19348],[-46.84483,-23.19335],[-46.8449,-23.19325],[-46.84508,-23.19311],[-46.84522,-23.19307],[-46.84557,-23.19297],[-46.8457,-23.19306],[-46.8457,-23.19214]]],[[[-47.02148,-23.14254],[-47.02181,-23.14186],[-47.02199,-23.1416],[-47.02209,-23.14142],[-47.02215,-23.14123],[-47.02217,-23.14103],[-47.02217,-23.14059],[-47.02213,-23.1403],[-47.02201,-23.13989],[-47.02193,-23.1397],[-47.02181,-23.13953],[-47.02166,-23.13939],[-47.02149,-23.13928],[-47.02148,-23.13928],[-47.02148,-23.14254]]],[[[-47.02148,-23.15918],[-47.02148,-23.1608],[-47.02151,-23.16077],[-47.0216,-23.16065],[-47.02167,-23.16051],[-47.02183,-23.16015],[-47.02208,-23.15982],[-47.02219,-23.15963],[-47.02248,-23.15902],[-47.02261,-23.15895],[-47.02269,-23.15891],[-47.02284,-23.1588],[-47.02297,-23.15866],[-47.02307,-23.1585],[-47.02307,-23.1585],[-47.02312,-23.15845],[-47.02313,-23.15843],[-47.02314,-23.15843],[-47.02334,-23.15836],[-47.02353,-23.15825],[-47.02367,-23.15814],[-47.0238,-23.15802],[-47.0239,-23.15788],[-47.02399,-23.15772],[-47.02413,-23.15737],[-47.02418,-23.15719],[-47.0242,-23.157],[-47.0242,-23.15667],[-47.02427,-23.15598],[-47.02434,-23.15533],[-47.02434,-23.1551],[-47.02427,-23.15449],[-47.0243,-23.15427],[-47.02431,-23.15406],[-47.02429,-23.15379],[-47.02435,-23.15367],[-47.0244,-23.1535],[-47.02444,-23.15336],[-47.02446,-23.15317],[-47.02445,-23.15297],[-47.02439,-23.15266],[-47.02443,-23.15174],[-47.02451,-23.15114],[-47.02451,-23.15089],[-47.0245,-23.15084],[-47.02462,-23.15019],[-47.02463,-23.15004],[-47.02465,-23.14895],[-47.02465,-23.14882],[-47.0246,-23.14842],[-47.02456,-23.14824],[-47.0245,-23.14803],[-47.02441,-23.14784],[-47.02429,-23.14767],[-47.02417,-23.14753],[-47.02413,-23.14748],[-47.02397,-23.14733],[-47.02335,-23.14664],[-47.02316,-23.14648],[-47.02269,-23.14617],[-47.02251,-23.14603],[-47.02246,-23.14598],[-47.02224,-23.14557],[-47.02219,-23.14549],[-47.02188,-23.14503],[-47.02182,-23.14496],[-47.02148,-23.14455],[-47.02148,-23.15918]]],[[[-47.02148,-23.20312],[-47.02978,-23.20312],[-47.02982,-23.20289],[-47.02982,-23.20278],[-47.0298,-23.20259],[-47.02975,-23.20241],[-47.02967,-23.20225],[-47.02956,-23.2021],[-47.0292,-23.20171],[-47.02909,-23.20161],[-47.02906,-23.20151],[-47.02895,-23.20133],[-47.0288,-23.20117],[-47.02868,-23.20108],[-47.02852,-23.20097],[-47.02847,-23.20094],[-47.02845,-23.20092],[-47.02821,-23.20064],[-47.02803,-23.20046],[-47.02741,-23.20002],[-47.02724,-23.19992],[-47.02706,-23.19986],[-47.02651,-23.19973],[-47.02653,-23.19967],[-47.02657,-23.19948],[-47.02657,-23.19928],[-47.0265,-23.19872],[-47.02647,-23.19856],[-47.02642,-23.19842],[-47.02611,-23.19773],[-47.02602,-23.19757],[-47.0259,-23.19743],[-47.02576,-23.19732],[-47.02478,-23.19664],[-47.02471,-23.19657],[-47.02475,-23.19639],[-47.02477,-23.19619],[-47.02475,-23.19599],[-47.02472,-23.19579],[-47.02465,-23.19557],[-47.02453,-23.19537],[-47.0244,-23.19519],[-47.02405,-23.1943],[-47.02395,-23.19411],[-47.02345,-23.19337],[-47.02339,-23.19329],[-47.02334,-23.19323],[-47.02336,-23.19308],[-47.02336,-23.19296],[-47.02335,-23.19277],[-47.02331,-23.19258],[-47.02323,-23.19241],[-47.02311,-23.19225],[-47.02297,-23.19212],[-47.02239,-23.19167],[-47.02234,-23.19151],[-47.02216,-23.19107],[-47.02207,-23.1909],[-47.02194,-23.19074],[-47.02182,-23.19062],[-47.02167,-23.1905],[-47.02149,-23.1904],[-47.02148,-23.1904],[-47.02148,-23.20312]]]]},"properties":{"ghs":"6gys","size":26.01,"ghs_len":4,"ghs_area":82.68,"ghs_bytes":2066352,"ghs_items":5689,"size_unit":"km2","ghsval_unit":"bytes","ghs_itemsdensity":68.81,"size_unitdensity":0.31}},{"type":"Feature","geometry":{"type":"Polygon","coordinates":[[[-46.97754,-23.15918],[-46.97754,-23.20312],[-47.02148,-23.20312],[-47.02148,-23.1904],[-47.0213,-23.19035],[-47.02091,-23.19027],[-47.02066,-23.19026],[-47.02006,-23.1903],[-47.01986,-23.19033],[-47.01973,-23.19037],[-47.01953,-23.19044],[-47.01935,-23.19056],[-47.0192,-23.19072],[-47.01901,-23.19096],[-47.01846,-23.19108],[-47.01842,-23.19104],[-47.0183,-23.19096],[-47.01815,-23.19086],[-47.01798,-23.19079],[-47.0178,-23.19076],[-47.01736,-23.19072],[-47.01724,-23.19071],[-47.01688,-23.19072],[-47.01656,-23.19071],[-47.01655,-23.1907],[-47.01637,-23.19059],[-47.01617,-23.19053],[-47.01597,-23.1905],[-47.01585,-23.1905],[-47.01562,-23.19052],[-47.01541,-23.19059],[-47.01503,-23.19077],[-47.01499,-23.19074],[-47.01495,-23.19066],[-47.01485,-23.1905],[-47.01473,-23.19036],[-47.01458,-23.19025],[-47.01441,-23.19017],[-47.01423,-23.19012],[-47.01408,-23.1901],[-47.01391,-23.19008],[-47.01375,-23.19009],[-47.01359,-23.19013],[-47.01296,-23.19034],[-47.01279,-23.19042],[-47.0127,-23.19047],[-47.01266,-23.19048],[-47.01227,-23.18992],[-47.01214,-23.18977],[-47.01198,-23.18965],[-47.01179,-23.18956],[-47.0116,-23.18951],[-47.01149,-23.18939],[-47.01134,-23.18927],[-47.01118,-23.18917],[-47.011,-23.18911],[-47.01025,-23.18893],[-47.01019,-23.18887],[-47.01002,-23.18875],[-47.00982,-23.18866],[-47.00981,-23.18866],[-47.00981,-23.18864],[-47.00977,-23.18845],[-47.0097,-23.18827],[-47.00957,-23.18802],[-47.00946,-23.18785],[-47.00931,-23.18771],[-47.00923,-23.18765],[-47.00922,-23.18749],[-47.00925,-23.18744],[-47.00945,-23.18704],[-47.00948,-23.18697],[-47.00955,-23.18701],[-47.00961,-23.18704],[-47.00978,-23.18711],[-47.00995,-23.18714],[-47.01013,-23.18714],[-47.0103,-23.18712],[-47.01047,-23.18706],[-47.0106,-23.187],[-47.01074,-23.18692],[-47.01086,-23.18683],[-47.01107,-23.18664],[-47.01109,-23.18664],[-47.01118,-23.18663],[-47.01136,-23.18659],[-47.01153,-23.18651],[-47.01155,-23.1865],[-47.01164,-23.18653],[-47.01179,-23.18655],[-47.01194,-23.18657],[-47.01209,-23.18656],[-47.01223,-23.18654],[-47.01244,-23.18649],[-47.01263,-23.1864],[-47.01292,-23.18622],[-47.0131,-23.18607],[-47.01325,-23.18589],[-47.01333,-23.18574],[-47.01334,-23.18572],[-47.0135,-23.18569],[-47.01359,-23.18567],[-47.01378,-23.18559],[-47.01396,-23.18546],[-47.0141,-23.18532],[-47.0141,-23.18531],[-47.01429,-23.1852],[-47.01446,-23.18505],[-47.01458,-23.18487],[-47.01469,-23.18467],[-47.01477,-23.18448],[-47.0148,-23.18428],[-47.0148,-23.18408],[-47.01479,-23.18396],[-47.01483,-23.18394],[-47.015,-23.18383],[-47.01504,-23.1838],[-47.01506,-23.18379],[-47.01541,-23.18365],[-47.01558,-23.18356],[-47.01573,-23.18344],[-47.01586,-23.1833],[-47.01595,-23.18313],[-47.01605,-23.18292],[-47.01613,-23.18289],[-47.0163,-23.1828],[-47.01645,-23.18267],[-47.01657,-23.18252],[-47.01665,-23.18235],[-47.01669,-23.18226],[-47.01674,-23.18209],[-47.01676,-23.18191],[-47.01675,-23.18173],[-47.01671,-23.18156],[-47.01669,-23.18152],[-47.01677,-23.18132],[-47.01682,-23.18112],[-47.01683,-23.18092],[-47.01681,-23.18072],[-47.01674,-23.18053],[-47.01663,-23.18036],[-47.01652,-23.18021],[-47.0164,-23.18008],[-47.01625,-23.17997],[-47.01609,-23.17989],[-47.01591,-23.17984],[-47.01573,-23.17982],[-47.01571,-23.17982],[-47.01559,-23.17975],[-47.0156,-23.17967],[-47.01559,-23.17948],[-47.01553,-23.1793],[-47.01545,-23.17913],[-47.01533,-23.17898],[-47.01532,-23.17897],[-47.01532,-23.17896],[-47.01534,-23.17877],[-47.01531,-23.17859],[-47.01525,-23.17841],[-47.01516,-23.17824],[-47.01509,-23.17814],[-47.01498,-23.178],[-47.01496,-23.17792],[-47.01493,-23.17781],[-47.01498,-23.17761],[-47.01501,-23.17744],[-47.01501,-23.17727],[-47.01498,-23.17711],[-47.01492,-23.17688],[-47.01495,-23.1767],[-47.01494,-23.17651],[-47.01493,-23.17639],[-47.01488,-23.1762],[-47.01481,-23.17603],[-47.01471,-23.1759],[-47.01474,-23.17581],[-47.01475,-23.17562],[-47.01475,-23.17546],[-47.01473,-23.17527],[-47.01468,-23.1751],[-47.0146,-23.17493],[-47.01456,-23.17487],[-47.01444,-23.17472],[-47.0143,-23.17459],[-47.01413,-23.17449],[-47.01411,-23.17448],[-47.01413,-23.17429],[-47.01413,-23.17419],[-47.01412,-23.174],[-47.01407,-23.17381],[-47.01404,-23.17376],[-47.01405,-23.17374],[-47.01414,-23.17357],[-47.01419,-23.17339],[-47.01421,-23.1732],[-47.01419,-23.17301],[-47.01413,-23.17282],[-47.01404,-23.17266],[-47.01409,-23.17257],[-47.01414,-23.17246],[-47.0142,-23.17226],[-47.01422,-23.17206],[-47.0142,-23.17186],[-47.01414,-23.17167],[-47.01414,-23.17166],[-47.01424,-23.17153],[-47.01432,-23.17133],[-47.01436,-23.17112],[-47.01436,-23.17091],[-47.01431,-23.1707],[-47.0141,-23.17008],[-47.01407,-23.1696],[-47.01408,-23.16947],[-47.01495,-23.1675],[-47.01498,-23.16743],[-47.01517,-23.16691],[-47.01536,-23.16647],[-47.01595,-23.16567],[-47.01611,-23.16554],[-47.01624,-23.1654],[-47.01634,-23.16524],[-47.01634,-23.16522],[-47.01637,-23.16522],[-47.01675,-23.16512],[-47.01692,-23.16506],[-47.01707,-23.16497],[-47.01799,-23.16431],[-47.01872,-23.1641],[-47.01872,-23.16409],[-47.01978,-23.16377],[-47.02,-23.16367],[-47.02022,-23.16354],[-47.02042,-23.16343],[-47.02057,-23.16333],[-47.0207,-23.1632],[-47.0208,-23.16305],[-47.02088,-23.16288],[-47.02095,-23.16268],[-47.021,-23.16247],[-47.02106,-23.16194],[-47.02113,-23.16155],[-47.02126,-23.16105],[-47.02148,-23.1608],[-47.02148,-23.15918],[-46.97754,-23.15918]]]},"properties":{"ghs":"6gys4","size":15.6,"ghs_len":5,"ghs_area":19.76,"ghs_bytes":1232248,"ghs_items":3187,"size_unit":"km2","ghsval_unit":"bytes","ghs_itemsdensity":161.32,"size_unitdensity":0.79}},{"type":"Feature","geometry":{"type":"Polygon","coordinates":[[[-46.93359,-23.15918],[-46.93359,-23.20312],[-46.97754,-23.20312],[-46.97754,-23.15918],[-46.93359,-23.15918]]]},"properties":{"ghs":"6gys5","size":15.3,"ghs_len":5,"ghs_area":21.9,"ghs_bytes":2245756,"ghs_items":6204,"size_unit":"km2","ghsval_unit":"bytes","ghs_itemsdensity":283.32,"size_unitdensity":0.7}},{"type":"Feature","geometry":{"type":"Polygon","coordinates":[[[-46.92261,-23.15918],[-46.91162,-23.15918],[-46.91162,-23.16467],[-46.92261,-23.16467],[-46.92261,-23.15918]]]},"properties":{"ghs":"6gyshr","size":0.46,"ghs_len":6,"ghs_area":0.68,"ghs_bytes":378054,"ghs_items":928,"size_unit":"km2","ghsval_unit":"bytes","ghs_itemsdensity":1355.95,"size_unitdensity":0.67}},{"type":"Feature","geometry":{"type":"Polygon","coordinates":[[[-46.91162,-23.17566],[-46.90063,-23.17566],[-46.90063,-23.18115],[-46.91162,-23.18115],[-46.91162,-23.17566]]]},"properties":{"ghs":"6gyshs","size":0.45,"ghs_len":6,"ghs_area":0.68,"ghs_bytes":397635,"ghs_items":913,"size_unit":"km2","ghsval_unit":"bytes","ghs_itemsdensity":1334.2,"size_unitdensity":0.66}},{"type":"Feature","geometry":{"type":"Polygon","coordinates":[[[-46.91162,-23.17017],[-46.90063,-23.17017],[-46.90063,-23.17566],[-46.91162,-23.17566],[-46.91162,-23.17017]]]},"properties":{"ghs":"6gysht","size":0.48,"ghs_len":6,"ghs_area":0.68,"ghs_bytes":413247,"ghs_items":1039,"size_unit":"km2","ghsval_unit":"bytes","ghs_itemsdensity":1518.26,"size_unitdensity":0.7}},{"type":"Feature","geometry":{"type":"Polygon","coordinates":[[[-46.97754,-23.15918],[-47.02148,-23.15918],[-47.02148,-23.14455],[-47.02133,-23.14436],[-47.02133,-23.14434],[-47.02133,-23.14424],[-47.0213,-23.14407],[-47.02122,-23.14372],[-47.02115,-23.14352],[-47.02105,-23.14336],[-47.02112,-23.14326],[-47.02122,-23.1431],[-47.02148,-23.14254],[-47.02148,-23.13928],[-47.021,-23.13904],[-47.02085,-23.13898],[-47.0207,-23.13895],[-47.02025,-23.13889],[-47.02025,-23.13887],[-47.02025,-23.13868],[-47.02021,-23.13849],[-47.02013,-23.13831],[-47.02001,-23.13809],[-47.01991,-23.13794],[-47.01978,-23.13781],[-47.01952,-23.13758],[-47.01935,-23.13746],[-47.01906,-23.1373],[-47.0189,-23.13723],[-47.01872,-23.13719],[-47.01854,-23.13718],[-47.01825,-23.13719],[-47.01812,-23.1372],[-47.01783,-23.13725],[-47.01781,-23.13724],[-47.01773,-23.1372],[-47.01751,-23.13692],[-47.0174,-23.1368],[-47.01714,-23.13656],[-47.017,-23.13645],[-47.01683,-23.13637],[-47.01666,-23.13632],[-47.0163,-23.13624],[-47.01606,-23.13618],[-47.01597,-23.13582],[-47.01597,-23.13538],[-47.01604,-23.13486],[-47.01604,-23.13468],[-47.01602,-23.1345],[-47.01591,-23.13402],[-47.01582,-23.13378],[-47.0148,-23.13183],[-47.01465,-23.13161],[-47.01435,-23.13129],[-47.01418,-23.13114],[-47.01385,-23.13092],[-47.01371,-23.13084],[-47.01357,-23.13079],[-47.01282,-23.13057],[-47.01262,-23.13053],[-47.01242,-23.13054],[-47.01222,-23.13058],[-47.0118,-23.13073],[-47.01161,-23.13081],[-47.01145,-23.13093],[-47.01083,-23.1315],[-47.01068,-23.13158],[-47.01057,-23.13162],[-47.01045,-23.13162],[-47.01041,-23.13155],[-47.00995,-23.1305],[-47.0099,-23.1304],[-47.00965,-23.12998],[-47.00957,-23.12982],[-47.00947,-23.12941],[-47.00937,-23.12896],[-47.00931,-23.12879],[-47.00921,-23.12854],[-47.00914,-23.12841],[-47.00905,-23.12828],[-47.00859,-23.12773],[-47.0084,-23.12755],[-47.00788,-23.12718],[-47.00772,-23.12709],[-47.00755,-23.12702],[-47.00736,-23.127],[-47.00672,-23.12695],[-47.0065,-23.12696],[-47.00553,-23.12711],[-47.00532,-23.12711],[-47.00535,-23.12705],[-47.0054,-23.12685],[-47.00547,-23.12649],[-47.00556,-23.12596],[-47.00557,-23.12582],[-47.0056,-23.12487],[-47.00561,-23.12444],[-47.00563,-23.12438],[-47.00575,-23.12422],[-47.00611,-23.1239],[-47.00629,-23.12382],[-47.0065,-23.12378],[-47.00681,-23.12384],[-47.00686,-23.12384],[-47.00731,-23.1239],[-47.00758,-23.1239],[-47.00784,-23.12386],[-47.00804,-23.12381],[-47.00823,-23.12372],[-47.00839,-23.1236],[-47.00861,-23.12339],[-47.00872,-23.12326],[-47.00881,-23.12311],[-47.00888,-23.12295],[-47.00891,-23.12278],[-47.00895,-23.12243],[-47.00895,-23.12224],[-47.00892,-23.12205],[-47.00848,-23.12051],[-47.0084,-23.12024],[-47.00833,-23.12006],[-47.00823,-23.1199],[-47.00799,-23.11959],[-47.00781,-23.1194],[-47.00712,-23.11887],[-47.00682,-23.11846],[-47.00658,-23.11767],[-47.00649,-23.11746],[-47.00635,-23.11727],[-47.00598,-23.11687],[-47.00582,-23.11673],[-47.00563,-23.11663],[-47.00451,-23.11616],[-47.00435,-23.11611],[-47.00388,-23.11601],[-47.00367,-23.11598],[-47.00346,-23.116],[-47.00326,-23.11607],[-47.00265,-23.11634],[-47.00231,-23.11643],[-47.00159,-23.11646],[-47.00013,-23.11602],[-46.99995,-23.11599],[-46.99976,-23.11599],[-46.99882,-23.11607],[-46.99823,-23.1159],[-46.99802,-23.11587],[-46.99781,-23.11587],[-46.99762,-23.1159],[-46.99758,-23.11588],[-46.99738,-23.11582],[-46.99717,-23.11579],[-46.99695,-23.11582],[-46.99675,-23.11589],[-46.99629,-23.1161],[-46.99618,-23.11613],[-46.99574,-23.1161],[-46.9953,-23.11606],[-46.99521,-23.11606],[-46.99473,-23.11605],[-46.99456,-23.11606],[-46.9944,-23.1161],[-46.99424,-23.11617],[-46.99401,-23.11629],[-46.99384,-23.11641],[-46.99338,-23.11679],[-46.9932,-23.117],[-46.99308,-23.11718],[-46.99299,-23.11733],[-46.99294,-23.1175],[-46.99286,-23.11779],[-46.9927,-23.11776],[-46.99218,-23.11773],[-46.99196,-23.11774],[-46.99176,-23.1178],[-46.99107,-23.11807],[-46.98777,-23.11838],[-46.98759,-23.11841],[-46.98742,-23.11848],[-46.98726,-23.11858],[-46.98712,-23.11871],[-46.98702,-23.11882],[-46.98694,-23.11886],[-46.98642,-23.11885],[-46.98626,-23.11886],[-46.98611,-23.11889],[-46.98519,-23.11915],[-46.98488,-23.11924],[-46.98471,-23.11931],[-46.98455,-23.11941],[-46.98442,-23.11953],[-46.9843,-23.11968],[-46.98422,-23.11985],[-46.98411,-23.12015],[-46.98399,-23.12037],[-46.98363,-23.1203],[-46.98349,-23.12028],[-46.98295,-23.12025],[-46.98168,-23.11954],[-46.98152,-23.11946],[-46.9801,-23.11898],[-46.97956,-23.11864],[-46.97938,-23.11856],[-46.9792,-23.11851],[-46.9789,-23.11846],[-46.97868,-23.11845],[-46.97847,-23.11848],[-46.97811,-23.11858],[-46.97804,-23.11861],[-46.97781,-23.11869],[-46.97754,-23.11857],[-46.97754,-23.15918]]]},"properties":{"ghs":"6gys6","size":7.43,"ghs_len":5,"ghs_area":18.22,"ghs_bytes":2063589,"ghs_items":6188,"size_unit":"km2","ghsval_unit":"bytes","ghs_itemsdensity":339.72,"size_unitdensity":0.41}},{"type":"Feature","geometry":{"type":"Polygon","coordinates":[[[-46.93359,-23.11523],[-46.93359,-23.15918],[-46.97754,-23.15918],[-46.97754,-23.11857],[-46.97719,-23.11842],[-46.97704,-23.11837],[-46.97689,-23.11835],[-46.97655,-23.11832],[-46.97656,-23.11768],[-46.97689,-23.11674],[-46.97694,-23.11655],[-46.97695,-23.11637],[-46.97693,-23.11618],[-46.97671,-23.11523],[-46.93359,-23.11523]]]},"properties":{"ghs":"6gys7","size":14.24,"ghs_len":5,"ghs_area":21.88,"ghs_bytes":1518082,"ghs_items":4254,"size_unit":"km2","ghsval_unit":"bytes","ghs_itemsdensity":194.46,"size_unitdensity":0.65}},{"type":"Feature","geometry":{"type":"MultiPolygon","coordinates":[[[[-46.92261,-23.15918],[-46.92261,-23.16467],[-46.91162,-23.16467],[-46.91162,-23.17017],[-46.91162,-23.17566],[-46.92261,-23.17566],[-46.92261,-23.18115],[-46.92261,-23.18665],[-46.91162,-23.18665],[-46.91162,-23.18115],[-46.90063,-23.18115],[-46.90063,-23.18665],[-46.90063,-23.19214],[-46.90063,-23.19763],[-46.90063,-23.20312],[-46.93359,-23.20312],[-46.93359,-23.15918],[-46.92261,-23.15918]]],[[[-46.88965,-23.17017],[-46.88965,-23.17566],[-46.90063,-23.17566],[-46.90063,-23.17017],[-46.90063,-23.16467],[-46.91162,-23.16467],[-46.91162,-23.15918],[-46.88965,-23.15918],[-46.88965,-23.17017]]]]},"properties":{"ghs":"6gysh","size":9.78,"ghs_len":5,"ghs_area":14.37,"ghs_bytes":2962068,"ghs_items":7751,"size_unit":"km2","ghsval_unit":"bytes","ghs_itemsdensity":539.38,"size_unitdensity":0.68}},{"type":"Feature","geometry":{"type":"Polygon","coordinates":[[[-46.92261,-23.18115],[-46.91162,-23.18115],[-46.91162,-23.18665],[-46.92261,-23.18665],[-46.92261,-23.18115]]]},"properties":{"ghs":"6gysh7","size":0.52,"ghs_len":6,"ghs_area":0.68,"ghs_bytes":433287,"ghs_items":1042,"size_unit":"km2","ghsval_unit":"bytes","ghs_itemsdensity":1522.77,"size_unitdensity":0.76}},{"type":"Feature","geometry":{"type":"Polygon","coordinates":[[[-46.90063,-23.19763],[-46.88965,-23.19763],[-46.88965,-23.20312],[-46.90063,-23.20312],[-46.90063,-23.19763]]]},"properties":{"ghs":"6gyshb","size":0.45,"ghs_len":6,"ghs_area":0.68,"ghs_bytes":352498,"ghs_items":916,"size_unit":"km2","ghsval_unit":"bytes","ghs_itemsdensity":1338.79,"size_unitdensity":0.65}},{"type":"Feature","geometry":{"type":"Polygon","coordinates":[[[-46.90063,-23.19214],[-46.88965,-23.19214],[-46.88965,-23.19763],[-46.90063,-23.19763],[-46.90063,-23.19214]]]},"properties":{"ghs":"6gyshc","size":0.51,"ghs_len":6,"ghs_area":0.68,"ghs_bytes":344720,"ghs_items":856,"size_unit":"km2","ghsval_unit":"bytes","ghs_itemsdensity":1251.05,"size_unitdensity":0.75}},{"type":"Feature","geometry":{"type":"Polygon","coordinates":[[[-46.90063,-23.18665],[-46.88965,-23.18665],[-46.88965,-23.19214],[-46.90063,-23.19214],[-46.90063,-23.18665]]]},"properties":{"ghs":"6gyshf","size":0.45,"ghs_len":6,"ghs_area":0.68,"ghs_bytes":418766,"ghs_items":970,"size_unit":"km2","ghsval_unit":"bytes","ghs_itemsdensity":1417.61,"size_unitdensity":0.65}},{"type":"Feature","geometry":{"type":"Polygon","coordinates":[[[-46.90063,-23.18115],[-46.88965,-23.18115],[-46.88965,-23.18665],[-46.90063,-23.18665],[-46.90063,-23.18115]]]},"properties":{"ghs":"6gyshg","size":0.45,"ghs_len":6,"ghs_area":0.68,"ghs_bytes":395229,"ghs_items":941,"size_unit":"km2","ghsval_unit":"bytes","ghs_itemsdensity":1375.17,"size_unitdensity":0.65}},{"type":"Feature","geometry":{"type":"Polygon","coordinates":[[[-46.92261,-23.17566],[-46.91162,-23.17566],[-46.91162,-23.18115],[-46.92261,-23.18115],[-46.92261,-23.17566]]]},"properties":{"ghs":"6gyshk","size":0.44,"ghs_len":6,"ghs_area":0.68,"ghs_bytes":381743,"ghs_items":882,"size_unit":"km2","ghsval_unit":"bytes","ghs_itemsdensity":1288.89,"size_unitdensity":0.65}},{"type":"Feature","geometry":{"type":"Polygon","coordinates":[[[-46.90063,-23.17566],[-46.88965,-23.17566],[-46.88965,-23.18115],[-46.90063,-23.18115],[-46.90063,-23.17566]]]},"properties":{"ghs":"6gyshu","size":0.45,"ghs_len":6,"ghs_area":0.68,"ghs_bytes":425887,"ghs_items":1045,"size_unit":"km2","ghsval_unit":"bytes","ghs_itemsdensity":1527.09,"size_unitdensity":0.65}},{"type":"Feature","geometry":{"type":"Polygon","coordinates":[[[-46.91162,-23.16467],[-46.90063,-23.16467],[-46.90063,-23.17017],[-46.91162,-23.17017],[-46.91162,-23.16467]]]},"properties":{"ghs":"6gyshw","size":0.44,"ghs_len":6,"ghs_area":0.68,"ghs_bytes":507968,"ghs_items":1097,"size_unit":"km2","ghsval_unit":"bytes","ghs_itemsdensity":1602.95,"size_unitdensity":0.64}},{"type":"Feature","geometry":{"type":"MultiPolygon","coordinates":[[[[-46.8457,-23.15918],[-46.8457,-23.18665],[-46.85669,-23.18665],[-46.85669,-23.18115],[-46.85669,-23.17566],[-46.86768,-23.17566],[-46.87866,-23.17566],[-46.87866,-23.17017],[-46.88965,-23.17017],[-46.88965,-23.15918],[-46.8457,-23.15918]]],[[[-46.85669,-23.20312],[-46.86768,-23.20312],[-46.86768,-23.19763],[-46.87866,-23.19763],[-46.87866,-23.19214],[-46.87866,-23.18665],[-46.86768,-23.18665],[-46.86768,-23.19214],[-46.85669,-23.19214],[-46.8457,-23.19214],[-46.8457,-23.19306],[-46.84591,-23.1932],[-46.84605,-23.19346],[-46.84663,-23.1945],[-46.8468,-23.19472],[-46.847,-23.19492],[-46.84736,-23.19529],[-46.84845,-23.19637],[-46.84911,-23.19719],[-46.84924,-23.19732],[-46.84939,-23.19743],[-46.84958,-23.19754],[-46.85089,-23.19921],[-46.85118,-23.19963],[-46.85133,-23.19979],[-46.85189,-23.20029],[-46.85184,-23.20032],[-46.8516,-23.20052],[-46.85154,-23.20057],[-46.85138,-23.20072],[-46.85124,-23.20088],[-46.85114,-23.20106],[-46.85104,-23.20111],[-46.8509,-23.2012],[-46.85084,-23.20125],[-46.85072,-23.20134],[-46.85062,-23.20144],[-46.85059,-23.20144],[-46.85047,-23.20145],[-46.85032,-23.20148],[-46.85016,-23.20152],[-46.85005,-23.20151],[-46.84973,-23.20147],[-46.84914,-23.20139],[-46.84879,-23.20133],[-46.84846,-23.20124],[-46.84803,-23.20113],[-46.84792,-23.2011],[-46.84747,-23.20104],[-46.84745,-23.20103],[-46.84698,-23.20097],[-46.84674,-23.20092],[-46.84664,-23.2009],[-46.84643,-23.20086],[-46.84631,-23.20087],[-46.84605,-23.20083],[-46.84575,-23.20077],[-46.8457,-23.20076],[-46.8457,-23.20312],[-46.85669,-23.20312]]]]},"properties":{"ghs":"6gysj","size":10.39,"ghs_len":5,"ghs_area":12.7,"ghs_bytes":2865672,"ghs_items":7270,"size_unit":"km2","ghsval_unit":"bytes","ghs_itemsdensity":572.47,"size_unitdensity":0.82}},{"type":"Feature","geometry":{"type":"Polygon","coordinates":[[[-46.88965,-23.19763],[-46.87866,-23.19763],[-46.87866,-23.20312],[-46.88965,-23.20312],[-46.88965,-23.19763]]]},"properties":{"ghs":"6gysj0","size":0.52,"ghs_len":6,"ghs_area":0.68,"ghs_bytes":541868,"ghs_items":1399,"size_unit":"km2","ghsval_unit":"bytes","ghs_itemsdensity":2044.73,"size_unitdensity":0.76}},{"type":"Feature","geometry":{"type":"Polygon","coordinates":[[[-46.88965,-23.19214],[-46.87866,-23.19214],[-46.87866,-23.19763],[-46.88965,-23.19763],[-46.88965,-23.19214]]]},"properties":{"ghs":"6gysj1","size":0.48,"ghs_len":6,"ghs_area":0.68,"ghs_bytes":649025,"ghs_items":1626,"size_unit":"km2","ghsval_unit":"bytes","ghs_itemsdensity":2376.41,"size_unitdensity":0.71}},{"type":"Feature","geometry":{"type":"Polygon","coordinates":[[[-46.87866,-23.19763],[-46.86768,-23.19763],[-46.86768,-23.20312],[-46.87866,-23.20312],[-46.87866,-23.19763]]]},"properties":{"ghs":"6gysj2","size":0.46,"ghs_len":6,"ghs_area":0.68,"ghs_bytes":445517,"ghs_items":1104,"size_unit":"km2","ghsval_unit":"bytes","ghs_itemsdensity":1613.57,"size_unitdensity":0.67}},{"type":"Feature","geometry":{"type":"Polygon","coordinates":[[[-46.88965,-23.18665],[-46.87866,-23.18665],[-46.87866,-23.19214],[-46.88965,-23.19214],[-46.88965,-23.18665]]]},"properties":{"ghs":"6gysj4","size":0.53,"ghs_len":6,"ghs_area":0.68,"ghs_bytes":657214,"ghs_items":1597,"size_unit":"km2","ghsval_unit":"bytes","ghs_itemsdensity":2333.93,"size_unitdensity":0.78}},{"type":"Feature","geometry":{"type":"Polygon","coordinates":[[[-46.88965,-23.18115],[-46.87866,-23.18115],[-46.87866,-23.18665],[-46.88965,-23.18665],[-46.88965,-23.18115]]]},"properties":{"ghs":"6gysj5","size":0.5,"ghs_len":6,"ghs_area":0.68,"ghs_bytes":452870,"ghs_items":1247,"size_unit":"km2","ghsval_unit":"bytes","ghs_itemsdensity":1822.35,"size_unitdensity":0.74}},{"type":"Feature","geometry":{"type":"Polygon","coordinates":[[[-46.87866,-23.18115],[-46.86768,-23.18115],[-46.86768,-23.18665],[-46.87866,-23.18665],[-46.87866,-23.18115]]]},"properties":{"ghs":"6gysj7","size":0.49,"ghs_len":6,"ghs_area":0.68,"ghs_bytes":553703,"ghs_items":1562,"size_unit":"km2","ghsval_unit":"bytes","ghs_itemsdensity":2282.69,"size_unitdensity":0.71}},{"type":"Feature","geometry":{"type":"Polygon","coordinates":[[[-46.86768,-23.18665],[-46.85669,-23.18665],[-46.85669,-23.19214],[-46.86768,-23.19214],[-46.86768,-23.18665]]]},"properties":{"ghs":"6gysjd","size":0.43,"ghs_len":6,"ghs_area":0.68,"ghs_bytes":539986,"ghs_items":1254,"size_unit":"km2","ghsval_unit":"bytes","ghs_itemsdensity":1832.66,"size_unitdensity":0.63}},{"type":"Feature","geometry":{"type":"Polygon","coordinates":[[[-46.86768,-23.18115],[-46.85669,-23.18115],[-46.85669,-23.18665],[-46.86768,-23.18665],[-46.86768,-23.18115]]]},"properties":{"ghs":"6gysje","size":0.49,"ghs_len":6,"ghs_area":0.68,"ghs_bytes":625886,"ghs_items":1473,"size_unit":"km2","ghsval_unit":"bytes","ghs_itemsdensity":2152.63,"size_unitdensity":0.72}},{"type":"Feature","geometry":{"type":"Polygon","coordinates":[[[-46.85669,-23.18665],[-46.8457,-23.18665],[-46.8457,-23.19214],[-46.85669,-23.19214],[-46.85669,-23.18665]]]},"properties":{"ghs":"6gysjf","size":0.47,"ghs_len":6,"ghs_area":0.68,"ghs_bytes":433160,"ghs_items":1138,"size_unit":"km2","ghsval_unit":"bytes","ghs_itemsdensity":1663.13,"size_unitdensity":0.69}},{"type":"Feature","geometry":{"type":"Polygon","coordinates":[[[-46.88965,-23.17566],[-46.87866,-23.17566],[-46.87866,-23.18115],[-46.88965,-23.18115],[-46.88965,-23.17566]]]},"properties":{"ghs":"6gysjh","size":0.44,"ghs_len":6,"ghs_area":0.68,"ghs_bytes":467105,"ghs_items":1097,"size_unit":"km2","ghsval_unit":"bytes","ghs_itemsdensity":1603.08,"size_unitdensity":0.64}},{"type":"Feature","geometry":{"type":"Polygon","coordinates":[[[-46.88965,-23.17017],[-46.87866,-23.17017],[-46.87866,-23.17566],[-46.88965,-23.17566],[-46.88965,-23.17017]]]},"properties":{"ghs":"6gysjj","size":0.42,"ghs_len":6,"ghs_area":0.68,"ghs_bytes":606181,"ghs_items":1453,"size_unit":"km2","ghsval_unit":"bytes","ghs_itemsdensity":2123.23,"size_unitdensity":0.62}},{"type":"Feature","geometry":{"type":"Polygon","coordinates":[[[-46.87866,-23.17566],[-46.86768,-23.17566],[-46.86768,-23.18115],[-46.87866,-23.18115],[-46.87866,-23.17566]]]},"properties":{"ghs":"6gysjk","size":0.56,"ghs_len":6,"ghs_area":0.68,"ghs_bytes":434032,"ghs_items":1113,"size_unit":"km2","ghsval_unit":"bytes","ghs_itemsdensity":1626.46,"size_unitdensity":0.81}},{"type":"Feature","geometry":{"type":"Polygon","coordinates":[[[-46.86768,-23.17566],[-46.85669,-23.17566],[-46.85669,-23.18115],[-46.86768,-23.18115],[-46.86768,-23.17566]]]},"properties":{"ghs":"6gysjs","size":0.53,"ghs_len":6,"ghs_area":0.68,"ghs_bytes":429475,"ghs_items":1055,"size_unit":"km2","ghsval_unit":"bytes","ghs_itemsdensity":1541.7,"size_unitdensity":0.77}},{"type":"Feature","geometry":{"type":"Polygon","coordinates":[[[-46.88965,-23.11523],[-46.88965,-23.15918],[-46.91162,-23.15918],[-46.92261,-23.15918],[-46.93359,-23.15918],[-46.93359,-23.11523],[-46.88965,-23.11523]]]},"properties":{"ghs":"6gysk","size":13.22,"ghs_len":5,"ghs_area":21.9,"ghs_bytes":2173782,"ghs_items":5929,"size_unit":"km2","ghsval_unit":"bytes","ghs_itemsdensity":270.68,"size_unitdensity":0.6}},{"type":"Feature","geometry":{"type":"Polygon","coordinates":[[[-46.8457,-23.11523],[-46.8457,-23.15918],[-46.88965,-23.15918],[-46.88965,-23.11523],[-46.8457,-23.11523]]]},"properties":{"ghs":"6gysm","size":10.83,"ghs_len":5,"ghs_area":21.9,"ghs_bytes":1447143,"ghs_items":3439,"size_unit":"km2","ghsval_unit":"bytes","ghs_itemsdensity":157,"size_unitdensity":0.49}}]}
