{"type":"FeatureCollection","features":[{"type":"Feature","geometry":{"type":"MultiPolygon","coordinates":[[[[-49.14052,-16.875],[-49.14056,-16.87532],[-49.14056,-16.87579],[-49.14048,-16.87597],[-49.14032,-16.87614],[-49.14023,-16.87612],[-49.14003,-16.87609],[-49.13982,-16.8761],[-49.13954,-16.87615],[-49.13933,-16.87622],[-49.13913,-16.87632],[-49.13897,-16.87647],[-49.13879,-16.87668],[-49.13867,-16.87684],[-49.13859,-16.87701],[-49.13854,-16.8772],[-49.13851,-16.87745],[-49.13835,-16.87767],[-49.13791,-16.87817],[-49.13727,-16.87886],[-49.13656,-16.87955],[-49.13642,-16.87971],[-49.13605,-16.88026],[-49.13596,-16.88042],[-49.1359,-16.88061],[-49.13588,-16.8808],[-49.13587,-16.88142],[-49.13589,-16.88167],[-49.13605,-16.88237],[-49.13611,-16.88254],[-49.13639,-16.88319],[-49.13645,-16.88354],[-49.13637,-16.88365],[-49.13628,-16.88382],[-49.13623,-16.88401],[-49.13612,-16.88474],[-49.13611,-16.8848],[-49.13604,-16.88541],[-49.13604,-16.88559],[-49.13607,-16.88576],[-49.13622,-16.88635],[-49.13626,-16.88673],[-49.13629,-16.88686],[-49.13635,-16.88711],[-49.13643,-16.8873],[-49.13654,-16.88748],[-49.13669,-16.88763],[-49.13687,-16.88775],[-49.1371,-16.88786],[-49.13729,-16.88793],[-49.1375,-16.88796],[-49.13773,-16.88797],[-49.13785,-16.88806],[-49.13818,-16.88845],[-49.13862,-16.88914],[-49.13875,-16.8893],[-49.1389,-16.88943],[-49.13908,-16.88953],[-49.13927,-16.88959],[-49.13947,-16.88961],[-49.13968,-16.88959],[-49.13987,-16.88953],[-49.14004,-16.88943],[-49.1402,-16.88932],[-49.14023,-16.88931],[-49.14056,-16.8893],[-49.14072,-16.88931],[-49.14079,-16.88934],[-49.14105,-16.88942],[-49.14126,-16.88945],[-49.14143,-16.88946],[-49.1416,-16.88944],[-49.14177,-16.88939],[-49.14193,-16.88932],[-49.14201,-16.88927],[-49.14219,-16.88913],[-49.14233,-16.88896],[-49.14243,-16.88877],[-49.14251,-16.88855],[-49.14254,-16.88848],[-49.14269,-16.888],[-49.14274,-16.88784],[-49.14279,-16.88777],[-49.14286,-16.88759],[-49.1429,-16.88739],[-49.1429,-16.88719],[-49.14288,-16.88705],[-49.14284,-16.88685],[-49.14276,-16.88666],[-49.14264,-16.8865],[-49.14248,-16.88636],[-49.14244,-16.88633],[-49.14244,-16.88629],[-49.14241,-16.88609],[-49.14236,-16.88588],[-49.14235,-16.88586],[-49.14237,-16.88586],[-49.14255,-16.88577],[-49.14272,-16.88565],[-49.14295,-16.88543],[-49.14302,-16.88535],[-49.14322,-16.88512],[-49.14339,-16.88501],[-49.14344,-16.88498],[-49.14361,-16.88487],[-49.14375,-16.88475],[-49.14386,-16.8846],[-49.14395,-16.88444],[-49.144,-16.88428],[-49.14406,-16.88429],[-49.14425,-16.88429],[-49.14445,-16.88425],[-49.14461,-16.8842],[-49.14476,-16.88413],[-49.14491,-16.88405],[-49.14503,-16.88394],[-49.1452,-16.88377],[-49.14531,-16.88363],[-49.1454,-16.88348],[-49.14545,-16.88331],[-49.1455,-16.88311],[-49.14555,-16.88317],[-49.14568,-16.88329],[-49.14569,-16.88336],[-49.14574,-16.88355],[-49.14581,-16.88373],[-49.14588,-16.88382],[-49.14588,-16.88382],[-49.14588,-16.88391],[-49.1459,-16.88411],[-49.14596,-16.88429],[-49.14606,-16.88447],[-49.14618,-16.88461],[-49.14633,-16.88474],[-49.14641,-16.88478],[-49.14658,-16.88487],[-49.14661,-16.88497],[-49.14671,-16.88516],[-49.14685,-16.88532],[-49.14691,-16.88538],[-49.14692,-16.88543],[-49.14695,-16.88559],[-49.14702,-16.88574],[-49.1471,-16.88588],[-49.14717,-16.88597],[-49.14729,-16.88611],[-49.14745,-16.88623],[-49.14762,-16.88631],[-49.1478,-16.88636],[-49.14799,-16.88637],[-49.14827,-16.88637],[-49.14848,-16.88634],[-49.14868,-16.88627],[-49.14887,-16.88616],[-49.149,-16.88605],[-49.14913,-16.88601],[-49.14938,-16.88596],[-49.14943,-16.88596],[-49.14948,-16.886],[-49.14967,-16.88613],[-49.14988,-16.88621],[-49.15,-16.88624],[-49.1502,-16.88627],[-49.15041,-16.88625],[-49.1506,-16.8862],[-49.15079,-16.8861],[-49.15095,-16.88598],[-49.15109,-16.88584],[-49.1512,-16.88571],[-49.1513,-16.88556],[-49.15141,-16.88544],[-49.15147,-16.88536],[-49.15155,-16.88544],[-49.15168,-16.88556],[-49.15172,-16.88571],[-49.1518,-16.88588],[-49.1519,-16.88603],[-49.15198,-16.88612],[-49.1521,-16.88624],[-49.15219,-16.8863],[-49.15222,-16.88636],[-49.15234,-16.88649],[-49.15248,-16.8866],[-49.15264,-16.88671],[-49.15285,-16.88682],[-49.15307,-16.88687],[-49.15335,-16.88691],[-49.15347,-16.88695],[-49.15365,-16.887],[-49.15384,-16.88701],[-49.15388,-16.887],[-49.15387,-16.88703],[-49.15388,-16.8872],[-49.15392,-16.88737],[-49.15398,-16.88753],[-49.15406,-16.88771],[-49.15417,-16.88788],[-49.15431,-16.88801],[-49.15448,-16.88812],[-49.15461,-16.88818],[-49.15485,-16.88827],[-49.15497,-16.88829],[-49.1552,-16.88842],[-49.15523,-16.88844],[-49.15567,-16.88865],[-49.15589,-16.88874],[-49.15622,-16.88881],[-49.15638,-16.88884],[-49.15655,-16.88883],[-49.15689,-16.8888],[-49.15703,-16.88878],[-49.15728,-16.88871],[-49.15743,-16.88867],[-49.15757,-16.8886],[-49.15784,-16.88843],[-49.15801,-16.8883],[-49.15815,-16.88814],[-49.15835,-16.88786],[-49.15843,-16.8877],[-49.15856,-16.88743],[-49.15865,-16.88732],[-49.15871,-16.88728],[-49.16006,-16.88686],[-49.16017,-16.88682],[-49.16043,-16.8867],[-49.1605,-16.88666],[-49.16052,-16.88668],[-49.16064,-16.88682],[-49.16079,-16.88692],[-49.1611,-16.88711],[-49.16116,-16.88714],[-49.16116,-16.88714],[-49.16132,-16.88745],[-49.16136,-16.88753],[-49.16149,-16.88773],[-49.1616,-16.88788],[-49.16175,-16.88801],[-49.16187,-16.88807],[-49.16189,-16.88812],[-49.16199,-16.88827],[-49.16212,-16.88839],[-49.16227,-16.88849],[-49.1624,-16.88856],[-49.16256,-16.88863],[-49.16274,-16.88867],[-49.16292,-16.88868],[-49.16326,-16.88866],[-49.16349,-16.88863],[-49.1638,-16.88854],[-49.16398,-16.88847],[-49.16414,-16.88837],[-49.16423,-16.88829],[-49.16439,-16.88824],[-49.16457,-16.88815],[-49.16467,-16.88808],[-49.16468,-16.88807],[-49.16477,-16.88815],[-49.16506,-16.88837],[-49.16524,-16.88848],[-49.16544,-16.88855],[-49.16565,-16.88857],[-49.16582,-16.88857],[-49.16585,-16.88865],[-49.16597,-16.88879],[-49.16587,-16.88896],[-49.16578,-16.88915],[-49.16573,-16.88935],[-49.16572,-16.88956],[-49.16576,-16.88976],[-49.16583,-16.88995],[-49.16595,-16.89013],[-49.1661,-16.89027],[-49.16627,-16.89038],[-49.16641,-16.89045],[-49.16655,-16.89051],[-49.1667,-16.89054],[-49.16682,-16.89056],[-49.16689,-16.89061],[-49.16704,-16.89069],[-49.1672,-16.89073],[-49.16733,-16.89076],[-49.16751,-16.89078],[-49.16768,-16.89077],[-49.16785,-16.89073],[-49.16801,-16.89066],[-49.16809,-16.89061],[-49.16825,-16.89051],[-49.16838,-16.89038],[-49.16849,-16.89022],[-49.16856,-16.89005],[-49.16861,-16.88987],[-49.16862,-16.88976],[-49.16872,-16.88953],[-49.16875,-16.88942],[-49.16884,-16.88939],[-49.16901,-16.88931],[-49.16919,-16.88919],[-49.16933,-16.88928],[-49.16951,-16.88937],[-49.16969,-16.88942],[-49.16989,-16.88943],[-49.17008,-16.8894],[-49.17022,-16.88937],[-49.17041,-16.88931],[-49.1706,-16.8892],[-49.17075,-16.88905],[-49.17092,-16.88885],[-49.17105,-16.88866],[-49.17113,-16.88845],[-49.17121,-16.88814],[-49.17124,-16.88795],[-49.17123,-16.88775],[-49.17119,-16.88756],[-49.17116,-16.88751],[-49.17118,-16.88739],[-49.17122,-16.88738],[-49.17139,-16.88729],[-49.17154,-16.88717],[-49.17166,-16.88702],[-49.17175,-16.88686],[-49.17188,-16.88656],[-49.17207,-16.88621],[-49.17235,-16.88595],[-49.17243,-16.88586],[-49.17243,-16.88586],[-49.17263,-16.88587],[-49.17274,-16.88587],[-49.17294,-16.88584],[-49.17313,-16.88577],[-49.1733,-16.88567],[-49.17345,-16.88554],[-49.17357,-16.88538],[-49.17365,-16.8852],[-49.17369,-16.88507],[-49.17374,-16.88486],[-49.17374,-16.88468],[-49.1739,-16.8846],[-49.17394,-16.88458],[-49.17413,-16.8846],[-49.17431,-16.88459],[-49.17448,-16.88456],[-49.17476,-16.88448],[-49.17486,-16.88443],[-49.17489,-16.88449],[-49.17504,-16.88476],[-49.17508,-16.88485],[-49.17516,-16.88501],[-49.17528,-16.88516],[-49.17542,-16.88528],[-49.17557,-16.88537],[-49.17571,-16.88543],[-49.17591,-16.8855],[-49.17601,-16.88552],[-49.17601,-16.88552],[-49.17611,-16.88557],[-49.17631,-16.88565],[-49.17651,-16.88569],[-49.17672,-16.88568],[-49.17693,-16.88563],[-49.17704,-16.88559],[-49.17719,-16.88552],[-49.17728,-16.88546],[-49.17749,-16.8854],[-49.1777,-16.88528],[-49.17781,-16.8852],[-49.17795,-16.88508],[-49.17807,-16.88493],[-49.17815,-16.88477],[-49.1782,-16.88459],[-49.17823,-16.88448],[-49.17825,-16.88429],[-49.17823,-16.8841],[-49.17817,-16.88391],[-49.17809,-16.88375],[-49.17814,-16.88369],[-49.17825,-16.8835],[-49.1783,-16.88338],[-49.1784,-16.88334],[-49.17857,-16.88323],[-49.17872,-16.88308],[-49.17885,-16.88291],[-49.17896,-16.88274],[-49.17902,-16.88259],[-49.17908,-16.88252],[-49.17919,-16.88235],[-49.17925,-16.88217],[-49.17928,-16.88197],[-49.1793,-16.88177],[-49.17929,-16.88157],[-49.17924,-16.88138],[-49.17915,-16.8812],[-49.17903,-16.88104],[-49.17892,-16.88092],[-49.17888,-16.88089],[-49.17889,-16.88086],[-49.17888,-16.88068],[-49.17885,-16.88052],[-49.17888,-16.8804],[-49.1789,-16.88022],[-49.1789,-16.88004],[-49.17889,-16.87988],[-49.17885,-16.87972],[-49.17882,-16.87962],[-49.17874,-16.87945],[-49.17863,-16.8793],[-49.1785,-16.87916],[-49.17842,-16.8791],[-49.17847,-16.87896],[-49.17852,-16.8788],[-49.17853,-16.87863],[-49.17853,-16.87847],[-49.1785,-16.87832],[-49.17848,-16.87821],[-49.17848,-16.8782],[-49.17857,-16.87803],[-49.17862,-16.87789],[-49.17868,-16.87768],[-49.17869,-16.87747],[-49.17865,-16.87726],[-49.17858,-16.87706],[-49.17855,-16.87701],[-49.17841,-16.87659],[-49.17837,-16.87649],[-49.1782,-16.87611],[-49.17817,-16.87605],[-49.17814,-16.876],[-49.17818,-16.876],[-49.17838,-16.87598],[-49.17858,-16.87592],[-49.17877,-16.87584],[-49.17888,-16.87578],[-49.17909,-16.87565],[-49.17943,-16.8755],[-49.17959,-16.87541],[-49.18003,-16.87512],[-49.18017,-16.875],[-49.18017,-16.875],[-49.14052,-16.875]]],[[[-49.35059,-16.875],[-49.32313,-16.875],[-49.32009,-16.88158],[-49.32003,-16.88177],[-49.32,-16.88196],[-49.32001,-16.88216],[-49.32006,-16.88235],[-49.32015,-16.88252],[-49.32027,-16.88268],[-49.32041,-16.88281],[-49.32058,-16.88291],[-49.32077,-16.88297],[-49.33777,-16.88697],[-49.33801,-16.887],[-49.33824,-16.88697],[-49.35779,-16.88208],[-49.36388,-16.88643],[-49.36263,-16.89213],[-49.36261,-16.89233],[-49.36262,-16.89253],[-49.36268,-16.89272],[-49.36277,-16.8929],[-49.3629,-16.89305],[-49.36305,-16.89318],[-49.36323,-16.89327],[-49.36342,-16.89333],[-49.36362,-16.89335],[-49.36365,-16.89334],[-49.36366,-16.89335],[-49.36384,-16.89341],[-49.36402,-16.89344],[-49.36434,-16.89346],[-49.3646,-16.89345],[-49.36494,-16.89338],[-49.36509,-16.89334],[-49.36538,-16.89323],[-49.3654,-16.89323],[-49.36558,-16.89322],[-49.3658,-16.89317],[-49.366,-16.89312],[-49.36619,-16.89302],[-49.36634,-16.89288],[-49.36672,-16.89249],[-49.36689,-16.89234],[-49.36698,-16.89237],[-49.3672,-16.89237],[-49.36746,-16.89236],[-49.36767,-16.89232],[-49.36787,-16.89224],[-49.36804,-16.89212],[-49.36819,-16.89197],[-49.36834,-16.89178],[-49.36844,-16.89162],[-49.36851,-16.89144],[-49.36854,-16.89125],[-49.36854,-16.89106],[-49.3685,-16.89073],[-49.36847,-16.89057],[-49.36842,-16.89044],[-49.3687,-16.89015],[-49.36882,-16.89001],[-49.3689,-16.88985],[-49.36896,-16.88968],[-49.36897,-16.88959],[-49.36914,-16.88949],[-49.36931,-16.88931],[-49.36953,-16.88903],[-49.36963,-16.88887],[-49.36969,-16.8887],[-49.36976,-16.88849],[-49.36983,-16.8884],[-49.36993,-16.88823],[-49.37,-16.88805],[-49.37004,-16.8879],[-49.37012,-16.88786],[-49.37027,-16.88777],[-49.37041,-16.88766],[-49.37052,-16.88753],[-49.37061,-16.88738],[-49.37072,-16.88715],[-49.37076,-16.88704],[-49.37083,-16.88683],[-49.37087,-16.88665],[-49.37088,-16.88647],[-49.37087,-16.88636],[-49.37092,-16.88635],[-49.3711,-16.88631],[-49.37127,-16.88624],[-49.37143,-16.88614],[-49.37156,-16.88601],[-49.37166,-16.88586],[-49.37174,-16.88572],[-49.37182,-16.88555],[-49.37187,-16.88537],[-49.37188,-16.88519],[-49.37186,-16.885],[-49.3718,-16.88483],[-49.37174,-16.88471],[-49.37176,-16.88463],[-49.37179,-16.88444],[-49.37178,-16.88425],[-49.37173,-16.88406],[-49.37165,-16.88388],[-49.37157,-16.88377],[-49.37163,-16.88376],[-49.37181,-16.88372],[-49.37198,-16.88364],[-49.37217,-16.88353],[-49.37234,-16.88341],[-49.37248,-16.88325],[-49.37259,-16.88307],[-49.37265,-16.88287],[-49.37267,-16.88267],[-49.37267,-16.88258],[-49.37269,-16.88253],[-49.373,-16.8823],[-49.37303,-16.88227],[-49.37319,-16.8823],[-49.37352,-16.88233],[-49.37368,-16.88233],[-49.37385,-16.8823],[-49.37401,-16.88224],[-49.37421,-16.88215],[-49.37438,-16.88205],[-49.37452,-16.88192],[-49.37464,-16.88176],[-49.37473,-16.88159],[-49.37478,-16.8814],[-49.37479,-16.8812],[-49.37477,-16.88101],[-49.37472,-16.8808],[-49.3747,-16.88076],[-49.37487,-16.88068],[-49.37504,-16.88057],[-49.37519,-16.88042],[-49.37531,-16.88025],[-49.37538,-16.88005],[-49.37542,-16.87985],[-49.37543,-16.87959],[-49.37542,-16.87935],[-49.37535,-16.87913],[-49.37513,-16.87861],[-49.37507,-16.87853],[-49.37521,-16.87842],[-49.37533,-16.87828],[-49.37542,-16.87811],[-49.37548,-16.87793],[-49.37554,-16.87768],[-49.37557,-16.87745],[-49.37554,-16.87721],[-49.37539,-16.87661],[-49.37534,-16.87646],[-49.37514,-16.87601],[-49.37514,-16.876],[-49.3752,-16.87588],[-49.37526,-16.87565],[-49.37527,-16.87543],[-49.37524,-16.87512],[-49.37525,-16.875],[-49.35059,-16.875]]]]},"properties":{"ghs":"6","size":0.17,"ghs_len":1,"ghs_area":12.75,"ghs_bytes":3356,"ghs_items":2,"size_unit":"km2","ghsval_unit":"bytes","ghs_itemsdensity":0.16,"size_unitdensity":0.01}},{"type":"Feature","geometry":{"type":"MultiPolygon","coordinates":[[[[-49.21875,-16.74316],[-49.25171,-16.74316],[-49.2627,-16.74316],[-49.28085,-16.74316],[-49.27947,-16.74242],[-49.27938,-16.74237],[-49.27992,-16.7413],[-49.27999,-16.74111],[-49.28003,-16.74091],[-49.28002,-16.74071],[-49.27997,-16.74052],[-49.27989,-16.74034],[-49.27977,-16.74018],[-49.27962,-16.74004],[-49.27945,-16.73994],[-49.27852,-16.73951],[-49.27684,-16.73873],[-49.27368,-16.73725],[-49.2735,-16.73718],[-49.27331,-16.73715],[-49.27311,-16.73716],[-49.27293,-16.73721],[-49.27275,-16.73729],[-49.27259,-16.7374],[-49.27246,-16.73754],[-49.27236,-16.7377],[-49.27202,-16.73838],[-49.26986,-16.73721],[-49.26983,-16.73719],[-49.26957,-16.73705],[-49.26831,-16.73636],[-49.26739,-16.73586],[-49.26734,-16.73583],[-49.26712,-16.73534],[-49.26606,-16.73306],[-49.2657,-16.73226],[-49.26564,-16.73215],[-49.2654,-16.73163],[-49.26455,-16.72978],[-49.26389,-16.72835],[-49.26357,-16.72766],[-49.26336,-16.72709],[-49.26334,-16.72704],[-49.26296,-16.72616],[-49.26295,-16.72615],[-49.26252,-16.72519],[-49.26242,-16.72501],[-49.26229,-16.72486],[-49.26213,-16.72474],[-49.26195,-16.72465],[-49.26175,-16.72461],[-49.26155,-16.7246],[-49.26136,-16.72463],[-49.26117,-16.7247],[-49.261,-16.7248],[-49.26085,-16.72494],[-49.26074,-16.72511],[-49.25985,-16.72668],[-49.25985,-16.72669],[-49.25926,-16.72774],[-49.25882,-16.72843],[-49.25817,-16.72881],[-49.25695,-16.72945],[-49.25582,-16.73003],[-49.25532,-16.73027],[-49.25479,-16.73047],[-49.25426,-16.7306],[-49.24255,-16.73271],[-49.22907,-16.73511],[-49.22905,-16.73511],[-49.22816,-16.73528],[-49.22258,-16.73637],[-49.22242,-16.73642],[-49.22134,-16.73682],[-49.22049,-16.73706],[-49.22031,-16.73713],[-49.22014,-16.73724],[-49.22,-16.73738],[-49.21943,-16.73805],[-49.21875,-16.73871],[-49.21875,-16.74316]]],[[[-49.35059,-16.76463],[-49.35062,-16.76457],[-49.35068,-16.76438],[-49.35069,-16.76418],[-49.35067,-16.76398],[-49.35061,-16.76379],[-49.35059,-16.76375],[-49.35059,-16.76463]]],[[[-49.35059,-16.76514],[-49.35059,-16.77063],[-49.35059,-16.77612],[-49.35059,-16.78711],[-49.35555,-16.78711],[-49.35185,-16.76869],[-49.35171,-16.7675],[-49.3517,-16.76742],[-49.3516,-16.76692],[-49.35157,-16.76682],[-49.35148,-16.76653],[-49.35147,-16.76649],[-49.35131,-16.76603],[-49.35127,-16.76592],[-49.35106,-16.7655],[-49.35102,-16.76542],[-49.35074,-16.76497],[-49.35068,-16.76488],[-49.35059,-16.76476],[-49.35059,-16.76514]]],[[[-49.35059,-16.83105],[-49.30664,-16.83105],[-49.29565,-16.83105],[-49.28467,-16.83105],[-49.27368,-16.83105],[-49.2627,-16.83105],[-49.2627,-16.84762],[-49.27961,-16.85193],[-49.30449,-16.86686],[-49.30465,-16.86694],[-49.30482,-16.86698],[-49.30501,-16.867],[-49.30519,-16.86698],[-49.32516,-16.86318],[-49.32533,-16.86437],[-49.32597,-16.86885],[-49.32313,-16.875],[-49.35059,-16.875],[-49.35059,-16.83105]]]]},"properties":{"ghs":"6vhb","size":15.2,"ghs_len":4,"ghs_area":41.15,"ghs_bytes":2907362,"ghs_items":16072,"size_unit":"km2","ghsval_unit":"bytes","ghs_itemsdensity":390.58,"size_unitdensity":0.37}},{"type":"Feature","geometry":{"type":"Polygon","coordinates":[[[-49.35059,-16.82007],[-49.3396,-16.82007],[-49.3396,-16.82556],[-49.35059,-16.82556],[-49.35059,-16.82007]]]},"properties":{"ghs":"6vhbm1","size":0.51,"ghs_len":6,"ghs_area":0.71,"ghs_bytes":206532,"ghs_items":1132,"size_unit":"km2","ghsval_unit":"bytes","ghs_itemsdensity":1590.21,"size_unitdensity":0.71}},{"type":"Feature","geometry":{"type":"Polygon","coordinates":[[[-49.35059,-16.83105],[-49.35059,-16.875],[-49.37525,-16.875],[-49.37526,-16.8749],[-49.37526,-16.87468],[-49.37522,-16.87446],[-49.37512,-16.87426],[-49.37498,-16.87404],[-49.3749,-16.87374],[-49.37482,-16.87354],[-49.37482,-16.87353],[-49.37509,-16.87344],[-49.37532,-16.87334],[-49.3755,-16.87323],[-49.37576,-16.87318],[-49.37592,-16.87313],[-49.37629,-16.873],[-49.37672,-16.87299],[-49.37698,-16.87296],[-49.37724,-16.87289],[-49.37739,-16.87283],[-49.37747,-16.8728],[-49.37754,-16.87281],[-49.37776,-16.87282],[-49.37798,-16.87278],[-49.37818,-16.87269],[-49.37852,-16.8725],[-49.37884,-16.87239],[-49.37899,-16.87233],[-49.37913,-16.87224],[-49.37936,-16.87206],[-49.37952,-16.87191],[-49.37965,-16.87173],[-49.37972,-16.87152],[-49.37977,-16.87137],[-49.3798,-16.87114],[-49.37978,-16.8709],[-49.37976,-16.87079],[-49.3797,-16.8706],[-49.3796,-16.87043],[-49.37947,-16.87027],[-49.37932,-16.87015],[-49.37915,-16.87007],[-49.37908,-16.86992],[-49.379,-16.86977],[-49.37889,-16.86964],[-49.37876,-16.86953],[-49.37862,-16.86943],[-49.37846,-16.86934],[-49.37829,-16.86927],[-49.37821,-16.86925],[-49.37807,-16.86909],[-49.37798,-16.869],[-49.37778,-16.86882],[-49.3776,-16.8687],[-49.37729,-16.86853],[-49.37727,-16.86852],[-49.37695,-16.86835],[-49.37671,-16.86827],[-49.37664,-16.86825],[-49.37666,-16.86824],[-49.37687,-16.86809],[-49.37706,-16.86791],[-49.3771,-16.86791],[-49.37731,-16.86788],[-49.37752,-16.86781],[-49.3777,-16.86769],[-49.37785,-16.86754],[-49.37798,-16.86739],[-49.3781,-16.8672],[-49.37817,-16.86699],[-49.3782,-16.86677],[-49.3782,-16.86658],[-49.37819,-16.8664],[-49.37818,-16.86637],[-49.37821,-16.86638],[-49.37842,-16.86639],[-49.37861,-16.86639],[-49.37879,-16.86635],[-49.37896,-16.86628],[-49.37912,-16.86617],[-49.37927,-16.86606],[-49.3794,-16.86593],[-49.37948,-16.86582],[-49.37981,-16.86572],[-49.38029,-16.8656],[-49.38034,-16.86564],[-49.38049,-16.86574],[-49.38065,-16.86581],[-49.38082,-16.86584],[-49.381,-16.86585],[-49.38113,-16.86584],[-49.38131,-16.86582],[-49.38149,-16.86576],[-49.38165,-16.86566],[-49.3818,-16.86554],[-49.38193,-16.8654],[-49.38205,-16.86526],[-49.38213,-16.86509],[-49.38219,-16.86491],[-49.38221,-16.86472],[-49.38221,-16.86444],[-49.38221,-16.86438],[-49.3822,-16.86411],[-49.38228,-16.86388],[-49.38231,-16.86378],[-49.38232,-16.86375],[-49.38236,-16.86374],[-49.38247,-16.8637],[-49.3828,-16.86357],[-49.38295,-16.86349],[-49.3831,-16.8634],[-49.38327,-16.86326],[-49.3833,-16.86323],[-49.38343,-16.86319],[-49.3836,-16.8631],[-49.38366,-16.86307],[-49.38381,-16.86302],[-49.38401,-16.86294],[-49.38418,-16.86281],[-49.38432,-16.8627],[-49.38444,-16.86257],[-49.38453,-16.86244],[-49.38463,-16.86227],[-49.3847,-16.86211],[-49.38474,-16.86195],[-49.38475,-16.86178],[-49.38476,-16.86158],[-49.38472,-16.86131],[-49.38466,-16.86111],[-49.38457,-16.86089],[-49.38443,-16.8607],[-49.38438,-16.86064],[-49.38434,-16.86059],[-49.38418,-16.86043],[-49.38403,-16.86035],[-49.38392,-16.86024],[-49.38377,-16.86015],[-49.38366,-16.8601],[-49.38351,-16.86004],[-49.38338,-16.86001],[-49.3834,-16.85983],[-49.3834,-16.85964],[-49.38337,-16.85943],[-49.3833,-16.85922],[-49.38318,-16.85904],[-49.38312,-16.85896],[-49.38299,-16.85882],[-49.3829,-16.85875],[-49.38289,-16.85874],[-49.38289,-16.85874],[-49.38289,-16.85873],[-49.38289,-16.85873],[-49.383,-16.8586],[-49.38309,-16.85848],[-49.38318,-16.85835],[-49.38325,-16.8582],[-49.38328,-16.85804],[-49.38331,-16.85786],[-49.38332,-16.85764],[-49.38328,-16.85742],[-49.38323,-16.8573],[-49.38324,-16.85715],[-49.38324,-16.85703],[-49.38321,-16.85683],[-49.38314,-16.85665],[-49.38304,-16.85648],[-49.38295,-16.85635],[-49.38277,-16.85616],[-49.3827,-16.85611],[-49.3827,-16.85611],[-49.38266,-16.85601],[-49.38264,-16.85595],[-49.38262,-16.85578],[-49.3826,-16.85568],[-49.3826,-16.85566],[-49.38259,-16.8555],[-49.38255,-16.85534],[-49.38255,-16.85534],[-49.38257,-16.85531],[-49.38266,-16.85514],[-49.38271,-16.85496],[-49.38273,-16.85477],[-49.38271,-16.85459],[-49.38266,-16.85441],[-49.38259,-16.85421],[-49.38249,-16.85403],[-49.38236,-16.85387],[-49.3822,-16.85374],[-49.3821,-16.85367],[-49.38206,-16.85365],[-49.38193,-16.85357],[-49.38174,-16.85349],[-49.38154,-16.85344],[-49.3814,-16.85343],[-49.38129,-16.85342],[-49.38113,-16.85342],[-49.38103,-16.85342],[-49.38097,-16.85343],[-49.3809,-16.85342],[-49.3808,-16.85339],[-49.38077,-16.85318],[-49.38074,-16.85304],[-49.38068,-16.8529],[-49.38065,-16.85284],[-49.38065,-16.85282],[-49.38061,-16.85264],[-49.38061,-16.85262],[-49.38057,-16.85245],[-49.38057,-16.85244],[-49.38056,-16.85243],[-49.38057,-16.85225],[-49.38056,-16.85214],[-49.38059,-16.85177],[-49.38059,-16.8516],[-49.38056,-16.85124],[-49.38052,-16.85104],[-49.38044,-16.85085],[-49.38032,-16.85068],[-49.38018,-16.85052],[-49.38015,-16.85049],[-49.37999,-16.85031],[-49.37997,-16.85029],[-49.37987,-16.85019],[-49.37987,-16.85006],[-49.37991,-16.84978],[-49.37992,-16.84961],[-49.3799,-16.84943],[-49.37985,-16.84926],[-49.37976,-16.84911],[-49.37966,-16.84897],[-49.37958,-16.84889],[-49.37945,-16.84876],[-49.37929,-16.84867],[-49.37912,-16.8486],[-49.37895,-16.84856],[-49.3787,-16.84854],[-49.3787,-16.84854],[-49.37873,-16.84834],[-49.37874,-16.84826],[-49.37874,-16.84822],[-49.37895,-16.8482],[-49.3792,-16.84814],[-49.37943,-16.84805],[-49.37963,-16.84792],[-49.37977,-16.8478],[-49.37989,-16.84773],[-49.37994,-16.84771],[-49.38013,-16.84759],[-49.38033,-16.84744],[-49.38049,-16.84727],[-49.38065,-16.84707],[-49.3808,-16.8468],[-49.3809,-16.84656],[-49.38096,-16.84632],[-49.38099,-16.84615],[-49.38099,-16.84598],[-49.38097,-16.84581],[-49.38092,-16.84564],[-49.38084,-16.84543],[-49.38072,-16.84525],[-49.38055,-16.84509],[-49.38043,-16.845],[-49.38033,-16.84494],[-49.38031,-16.84481],[-49.38028,-16.84468],[-49.38022,-16.84449],[-49.38013,-16.84432],[-49.38004,-16.84422],[-49.38009,-16.84411],[-49.38014,-16.8439],[-49.38016,-16.8437],[-49.38016,-16.84352],[-49.38015,-16.84331],[-49.38015,-16.84323],[-49.38015,-16.84306],[-49.38012,-16.84283],[-49.38018,-16.84279],[-49.38033,-16.84267],[-49.38055,-16.84245],[-49.3807,-16.84226],[-49.38089,-16.84194],[-49.38098,-16.84177],[-49.38103,-16.84158],[-49.38104,-16.84138],[-49.38102,-16.84107],[-49.381,-16.8409],[-49.38095,-16.84073],[-49.38087,-16.84058],[-49.38077,-16.84044],[-49.38065,-16.84031],[-49.38051,-16.84018],[-49.38035,-16.84008],[-49.38016,-16.84002],[-49.38002,-16.83998],[-49.37982,-16.83991],[-49.3797,-16.83987],[-49.3799,-16.83822],[-49.37994,-16.83796],[-49.38,-16.83799],[-49.38017,-16.83805],[-49.38035,-16.83807],[-49.38084,-16.83809],[-49.38099,-16.83827],[-49.38115,-16.83842],[-49.38133,-16.83853],[-49.38154,-16.8386],[-49.38175,-16.83863],[-49.3823,-16.83863],[-49.38251,-16.83861],[-49.38271,-16.83855],[-49.38289,-16.83845],[-49.38304,-16.83831],[-49.38317,-16.83814],[-49.38339,-16.83778],[-49.38347,-16.83759],[-49.38352,-16.83739],[-49.38354,-16.83725],[-49.38383,-16.83728],[-49.38404,-16.83727],[-49.38426,-16.83722],[-49.38483,-16.83702],[-49.38498,-16.83695],[-49.38511,-16.83686],[-49.38628,-16.83592],[-49.38642,-16.83578],[-49.38653,-16.83561],[-49.38661,-16.83542],[-49.38665,-16.83521],[-49.38664,-16.83501],[-49.38659,-16.83481],[-49.38632,-16.83405],[-49.38628,-16.83334],[-49.38627,-16.83323],[-49.38625,-16.83311],[-49.38625,-16.83311],[-49.38626,-16.83293],[-49.38623,-16.83275],[-49.38617,-16.83258],[-49.38608,-16.83242],[-49.38597,-16.83228],[-49.38591,-16.83222],[-49.38578,-16.83211],[-49.38564,-16.83203],[-49.38548,-16.83195],[-49.38529,-16.83188],[-49.38517,-16.83186],[-49.38497,-16.83141],[-49.38486,-16.83124],[-49.38473,-16.83109],[-49.38468,-16.83105],[-49.35059,-16.83105]]]},"properties":{"ghs":"6vhbh","size":7.46,"ghs_len":5,"ghs_area":16.01,"ghs_bytes":2628543,"ghs_items":13966,"size_unit":"km2","ghsval_unit":"bytes","ghs_itemsdensity":872.45,"size_unitdensity":0.47}},{"type":"Feature","geometry":{"type":"Polygon","coordinates":[[[-49.35059,-16.78711],[-49.35059,-16.7926],[-49.35059,-16.7981],[-49.35059,-16.80908],[-49.35059,-16.81458],[-49.35059,-16.82007],[-49.35059,-16.82556],[-49.35059,-16.83105],[-49.38468,-16.83105],[-49.38457,-16.83097],[-49.38439,-16.83089],[-49.38419,-16.83084],[-49.38365,-16.83077],[-49.38326,-16.83069],[-49.38324,-16.83069],[-49.3832,-16.83068],[-49.38265,-16.83059],[-49.38217,-16.8305],[-49.38188,-16.83042],[-49.38157,-16.8303],[-49.38136,-16.8302],[-49.38118,-16.83009],[-49.38073,-16.82973],[-49.37387,-16.82388],[-49.37387,-16.82388],[-49.37305,-16.82319],[-49.3706,-16.8211],[-49.36753,-16.81842],[-49.36695,-16.8179],[-49.36662,-16.81756],[-49.36628,-16.8171],[-49.36609,-16.81679],[-49.3659,-16.81642],[-49.36578,-16.81608],[-49.3654,-16.8147],[-49.36312,-16.80605],[-49.36264,-16.80412],[-49.36264,-16.8041],[-49.36143,-16.79953],[-49.3614,-16.79945],[-49.36118,-16.79881],[-49.3611,-16.79864],[-49.36053,-16.79765],[-49.36038,-16.79745],[-49.35823,-16.79527],[-49.35821,-16.79525],[-49.35781,-16.79485],[-49.35754,-16.79455],[-49.35733,-16.79425],[-49.35714,-16.79394],[-49.35698,-16.79364],[-49.35684,-16.79331],[-49.35674,-16.79296],[-49.35666,-16.7926],[-49.35555,-16.78711],[-49.35059,-16.78711]]]},"properties":{"ghs":"6vhbk","size":4.27,"ghs_len":5,"ghs_area":7.66,"ghs_bytes":1739880,"ghs_items":9519,"size_unit":"km2","ghsval_unit":"bytes","ghs_itemsdensity":1243.15,"size_unitdensity":0.56}},{"type":"Feature","geometry":{"type":"MultiPolygon","coordinates":[[[[-49.3396,-16.82556],[-49.3396,-16.82007],[-49.3396,-16.81458],[-49.3396,-16.80908],[-49.35059,-16.80908],[-49.35059,-16.7981],[-49.3396,-16.7981],[-49.3396,-16.7926],[-49.3396,-16.78711],[-49.30664,-16.78711],[-49.30664,-16.7926],[-49.30664,-16.7981],[-49.31763,-16.7981],[-49.32861,-16.7981],[-49.32861,-16.80359],[-49.32861,-16.80908],[-49.32861,-16.81458],[-49.31763,-16.81458],[-49.31763,-16.82007],[-49.30664,-16.82007],[-49.30664,-16.82556],[-49.30664,-16.83105],[-49.35059,-16.83105],[-49.35059,-16.82556],[-49.3396,-16.82556]]],[[[-49.31763,-16.80908],[-49.31763,-16.80359],[-49.30664,-16.80359],[-49.30664,-16.80908],[-49.31763,-16.80908]]]]},"properties":{"ghs":"6vhbm","size":10.45,"ghs_len":5,"ghs_area":14.95,"ghs_bytes":2991842,"ghs_items":17060,"size_unit":"km2","ghsval_unit":"bytes","ghs_itemsdensity":1141.12,"size_unitdensity":0.7}},{"type":"Feature","geometry":{"type":"Polygon","coordinates":[[[-49.35059,-16.81458],[-49.3396,-16.81458],[-49.3396,-16.82007],[-49.35059,-16.82007],[-49.35059,-16.81458]]]},"properties":{"ghs":"6vhbm4","size":0.5,"ghs_len":6,"ghs_area":0.71,"ghs_bytes":213366,"ghs_items":1227,"size_unit":"km2","ghsval_unit":"bytes","ghs_itemsdensity":1723.61,"size_unitdensity":0.7}},{"type":"Feature","geometry":{"type":"Polygon","coordinates":[[[-49.35059,-16.80908],[-49.3396,-16.80908],[-49.3396,-16.81458],[-49.35059,-16.81458],[-49.35059,-16.80908]]]},"properties":{"ghs":"6vhbm5","size":0.49,"ghs_len":6,"ghs_area":0.71,"ghs_bytes":212366,"ghs_items":1224,"size_unit":"km2","ghsval_unit":"bytes","ghs_itemsdensity":1719.35,"size_unitdensity":0.69}},{"type":"Feature","geometry":{"type":"Polygon","coordinates":[[[-49.32861,-16.80908],[-49.31763,-16.80908],[-49.31763,-16.81458],[-49.32861,-16.81458],[-49.32861,-16.80908]]]},"properties":{"ghs":"6vhbme","size":0.37,"ghs_len":6,"ghs_area":0.71,"ghs_bytes":223077,"ghs_items":1369,"size_unit":"km2","ghsval_unit":"bytes","ghs_itemsdensity":1923.03,"size_unitdensity":0.52}},{"type":"Feature","geometry":{"type":"Polygon","coordinates":[[[-49.31763,-16.81458],[-49.30664,-16.81458],[-49.30664,-16.82007],[-49.31763,-16.82007],[-49.31763,-16.81458]]]},"properties":{"ghs":"6vhbmf","size":0.47,"ghs_len":6,"ghs_area":0.71,"ghs_bytes":278412,"ghs_items":1671,"size_unit":"km2","ghsval_unit":"bytes","ghs_itemsdensity":2347.32,"size_unitdensity":0.66}},{"type":"Feature","geometry":{"type":"Polygon","coordinates":[[[-49.31763,-16.80908],[-49.30664,-16.80908],[-49.30664,-16.81458],[-49.31763,-16.81458],[-49.31763,-16.80908]]]},"properties":{"ghs":"6vhbmg","size":0.5,"ghs_len":6,"ghs_area":0.71,"ghs_bytes":219309,"ghs_items":1240,"size_unit":"km2","ghsval_unit":"bytes","ghs_itemsdensity":1741.83,"size_unitdensity":0.7}},{"type":"Feature","geometry":{"type":"Polygon","coordinates":[[[-49.35059,-16.7926],[-49.3396,-16.7926],[-49.3396,-16.7981],[-49.35059,-16.7981],[-49.35059,-16.7926]]]},"properties":{"ghs":"6vhbmn","size":0.48,"ghs_len":6,"ghs_area":0.71,"ghs_bytes":213630,"ghs_items":1261,"size_unit":"km2","ghsval_unit":"bytes","ghs_itemsdensity":1771.17,"size_unitdensity":0.68}},{"type":"Feature","geometry":{"type":"Polygon","coordinates":[[[-49.35059,-16.78711],[-49.3396,-16.78711],[-49.3396,-16.7926],[-49.35059,-16.7926],[-49.35059,-16.78711]]]},"properties":{"ghs":"6vhbmp","size":0.48,"ghs_len":6,"ghs_area":0.71,"ghs_bytes":247341,"ghs_items":1261,"size_unit":"km2","ghsval_unit":"bytes","ghs_itemsdensity":1771.12,"size_unitdensity":0.67}},{"type":"Feature","geometry":{"type":"Polygon","coordinates":[[[-49.32861,-16.80359],[-49.31763,-16.80359],[-49.31763,-16.80908],[-49.32861,-16.80908],[-49.32861,-16.80359]]]},"properties":{"ghs":"6vhbms","size":0.52,"ghs_len":6,"ghs_area":0.71,"ghs_bytes":278817,"ghs_items":1683,"size_unit":"km2","ghsval_unit":"bytes","ghs_itemsdensity":2364.04,"size_unitdensity":0.73}},{"type":"Feature","geometry":{"type":"Polygon","coordinates":[[[-49.32861,-16.7981],[-49.31763,-16.7981],[-49.31763,-16.80359],[-49.32861,-16.80359],[-49.32861,-16.7981]]]},"properties":{"ghs":"6vhbmt","size":0.49,"ghs_len":6,"ghs_area":0.71,"ghs_bytes":206153,"ghs_items":1212,"size_unit":"km2","ghsval_unit":"bytes","ghs_itemsdensity":1702.4,"size_unitdensity":0.69}},{"type":"Feature","geometry":{"type":"Polygon","coordinates":[[[-49.31763,-16.7981],[-49.30664,-16.7981],[-49.30664,-16.80359],[-49.31763,-16.80359],[-49.31763,-16.7981]]]},"properties":{"ghs":"6vhbmv","size":0.45,"ghs_len":6,"ghs_area":0.71,"ghs_bytes":209105,"ghs_items":1186,"size_unit":"km2","ghsval_unit":"bytes","ghs_itemsdensity":1665.88,"size_unitdensity":0.64}},{"type":"Feature","geometry":{"type":"Polygon","coordinates":[[[-49.28467,-16.82556],[-49.27368,-16.82556],[-49.27368,-16.83105],[-49.28467,-16.83105],[-49.28467,-16.82556]]]},"properties":{"ghs":"6vhbq8","size":0.52,"ghs_len":6,"ghs_area":0.71,"ghs_bytes":231757,"ghs_items":1381,"size_unit":"km2","ghsval_unit":"bytes","ghs_itemsdensity":1940.05,"size_unitdensity":0.73}},{"type":"Feature","geometry":{"type":"Polygon","coordinates":[[[-49.28467,-16.82007],[-49.27368,-16.82007],[-49.27368,-16.82556],[-49.28467,-16.82556],[-49.28467,-16.82007]]]},"properties":{"ghs":"6vhbq9","size":0.48,"ghs_len":6,"ghs_area":0.71,"ghs_bytes":194140,"ghs_items":1133,"size_unit":"km2","ghsval_unit":"bytes","ghs_itemsdensity":1591.61,"size_unitdensity":0.68}},{"type":"Feature","geometry":{"type":"Polygon","coordinates":[[[-49.27368,-16.82007],[-49.2627,-16.82007],[-49.2627,-16.82556],[-49.27368,-16.82556],[-49.27368,-16.82007]]]},"properties":{"ghs":"6vhbqc","size":0.49,"ghs_len":6,"ghs_area":0.71,"ghs_bytes":212064,"ghs_items":1272,"size_unit":"km2","ghsval_unit":"bytes","ghs_itemsdensity":1786.88,"size_unitdensity":0.69}},{"type":"Feature","geometry":{"type":"Polygon","coordinates":[[[-49.28467,-16.80908],[-49.27368,-16.80908],[-49.27368,-16.81458],[-49.28467,-16.81458],[-49.28467,-16.80908]]]},"properties":{"ghs":"6vhbqe","size":0.44,"ghs_len":6,"ghs_area":0.71,"ghs_bytes":203739,"ghs_items":850,"size_unit":"km2","ghsval_unit":"bytes","ghs_itemsdensity":1193.99,"size_unitdensity":0.62}},{"type":"Feature","geometry":{"type":"Polygon","coordinates":[[[-49.29565,-16.80359],[-49.28467,-16.80359],[-49.28467,-16.80908],[-49.29565,-16.80908],[-49.29565,-16.80359]]]},"properties":{"ghs":"6vhbqk","size":0.49,"ghs_len":6,"ghs_area":0.71,"ghs_bytes":192138,"ghs_items":1141,"size_unit":"km2","ghsval_unit":"bytes","ghs_itemsdensity":1602.72,"size_unitdensity":0.69}},{"type":"Feature","geometry":{"type":"Polygon","coordinates":[[[-49.30664,-16.78711],[-49.29565,-16.78711],[-49.29565,-16.7926],[-49.30664,-16.7926],[-49.30664,-16.78711]]]},"properties":{"ghs":"6vhbqp","size":0.52,"ghs_len":6,"ghs_area":0.71,"ghs_bytes":231820,"ghs_items":919,"size_unit":"km2","ghsval_unit":"bytes","ghs_itemsdensity":1290.77,"size_unitdensity":0.74}},{"type":"Feature","geometry":{"type":"Polygon","coordinates":[[[-49.24072,-16.83105],[-49.22974,-16.83105],[-49.21875,-16.83105],[-49.21875,-16.86234],[-49.21955,-16.86198],[-49.21965,-16.86198],[-49.21982,-16.86196],[-49.21998,-16.8619],[-49.22018,-16.86182],[-49.22035,-16.86172],[-49.2205,-16.8616],[-49.22062,-16.86145],[-49.22075,-16.86125],[-49.22083,-16.8611],[-49.22086,-16.86103],[-49.22088,-16.861],[-49.22108,-16.86098],[-49.22128,-16.86092],[-49.22147,-16.86081],[-49.22156,-16.86074],[-49.22169,-16.86062],[-49.22171,-16.8606],[-49.22185,-16.86055],[-49.22201,-16.86048],[-49.22216,-16.86038],[-49.22228,-16.86026],[-49.22229,-16.86025],[-49.22237,-16.86028],[-49.22237,-16.86029],[-49.22299,-16.86056],[-49.22313,-16.86061],[-49.22343,-16.8607],[-49.22367,-16.86074],[-49.22391,-16.86072],[-49.224,-16.8607],[-49.22419,-16.86064],[-49.22436,-16.86054],[-49.22451,-16.86041],[-49.22463,-16.86026],[-49.2247,-16.86016],[-49.22479,-16.85996],[-49.22485,-16.85974],[-49.22485,-16.85961],[-49.22487,-16.85961],[-49.22507,-16.85954],[-49.2255,-16.85934],[-49.22558,-16.8593],[-49.22568,-16.85925],[-49.22571,-16.85924],[-49.22574,-16.85924],[-49.22609,-16.85919],[-49.22626,-16.85916],[-49.22642,-16.85909],[-49.22656,-16.859],[-49.22658,-16.859],[-49.22662,-16.85901],[-49.22674,-16.85906],[-49.2269,-16.85912],[-49.22707,-16.85914],[-49.22708,-16.85914],[-49.22705,-16.85925],[-49.22705,-16.85943],[-49.22705,-16.85949],[-49.22708,-16.85969],[-49.22715,-16.85988],[-49.22726,-16.86005],[-49.2274,-16.8602],[-49.22757,-16.86031],[-49.22765,-16.86036],[-49.22783,-16.86044],[-49.22801,-16.86048],[-49.2282,-16.86048],[-49.22823,-16.86048],[-49.22837,-16.86055],[-49.22854,-16.86061],[-49.22874,-16.86066],[-49.22894,-16.86067],[-49.22902,-16.86067],[-49.22911,-16.86076],[-49.22926,-16.86089],[-49.22941,-16.86099],[-49.22957,-16.86106],[-49.22974,-16.8611],[-49.23,-16.86114],[-49.23028,-16.86115],[-49.23038,-16.86114],[-49.23065,-16.8611],[-49.23082,-16.86107],[-49.23098,-16.861],[-49.23148,-16.86074],[-49.23169,-16.8606],[-49.2321,-16.86023],[-49.23214,-16.8602],[-49.23223,-16.86011],[-49.23241,-16.86002],[-49.23267,-16.8599],[-49.23285,-16.8598],[-49.233,-16.85967],[-49.23312,-16.85951],[-49.23321,-16.85933],[-49.23326,-16.85913],[-49.23329,-16.85888],[-49.2334,-16.85838],[-49.2334,-16.85837],[-49.23343,-16.85819],[-49.2335,-16.85819],[-49.23368,-16.85813],[-49.23385,-16.85804],[-49.23394,-16.85798],[-49.23406,-16.85788],[-49.23417,-16.85777],[-49.23428,-16.85763],[-49.23442,-16.85751],[-49.23453,-16.85757],[-49.23471,-16.85766],[-49.23485,-16.85771],[-49.235,-16.85775],[-49.23516,-16.85777],[-49.23518,-16.85791],[-49.23525,-16.85811],[-49.23535,-16.85829],[-49.23557,-16.85857],[-49.23569,-16.85871],[-49.23583,-16.85882],[-49.23611,-16.859],[-49.23653,-16.85933],[-49.2367,-16.8595],[-49.23671,-16.85966],[-49.23676,-16.85983],[-49.23684,-16.86007],[-49.23692,-16.86024],[-49.23703,-16.8604],[-49.2372,-16.86061],[-49.23734,-16.86074],[-49.23751,-16.86085],[-49.2377,-16.86094],[-49.23785,-16.861],[-49.23789,-16.86108],[-49.23801,-16.86123],[-49.23815,-16.86139],[-49.23831,-16.86154],[-49.2385,-16.86165],[-49.23864,-16.86171],[-49.23882,-16.86177],[-49.23901,-16.86179],[-49.2392,-16.86178],[-49.23946,-16.86174],[-49.23964,-16.8617],[-49.2398,-16.86163],[-49.23995,-16.86152],[-49.24008,-16.8614],[-49.24018,-16.86125],[-49.24026,-16.86108],[-49.24037,-16.86077],[-49.24041,-16.8606],[-49.24047,-16.86023],[-49.24058,-16.85952],[-49.24063,-16.85926],[-49.24064,-16.85905],[-49.2406,-16.85885],[-49.24055,-16.85865],[-49.24077,-16.85845],[-49.24084,-16.85839],[-49.24099,-16.85847],[-49.24117,-16.85852],[-49.24135,-16.85854],[-49.24154,-16.85853],[-49.24169,-16.8585],[-49.24183,-16.85852],[-49.24197,-16.85855],[-49.24226,-16.85855],[-49.24242,-16.85853],[-49.24243,-16.85854],[-49.24257,-16.85866],[-49.24277,-16.85878],[-49.243,-16.85886],[-49.2432,-16.8589],[-49.24338,-16.85892],[-49.24356,-16.85891],[-49.24391,-16.85885],[-49.24408,-16.85881],[-49.24436,-16.85871],[-49.24452,-16.85864],[-49.24467,-16.85854],[-49.2448,-16.85841],[-49.2449,-16.85825],[-49.24498,-16.85809],[-49.2451,-16.85773],[-49.24515,-16.85749],[-49.24514,-16.85726],[-49.24507,-16.85683],[-49.24504,-16.85667],[-49.24504,-16.85658],[-49.24504,-16.85652],[-49.24507,-16.85641],[-49.24511,-16.8564],[-49.24513,-16.85639],[-49.2455,-16.85626],[-49.2457,-16.85616],[-49.24588,-16.85602],[-49.24602,-16.85584],[-49.24621,-16.85552],[-49.24639,-16.85525],[-49.24649,-16.85506],[-49.24655,-16.85485],[-49.24655,-16.85463],[-49.24652,-16.85417],[-49.2465,-16.85401],[-49.24648,-16.85396],[-49.24653,-16.85393],[-49.24667,-16.85379],[-49.24679,-16.85363],[-49.24688,-16.85344],[-49.24692,-16.85325],[-49.24692,-16.85305],[-49.24697,-16.85302],[-49.2471,-16.85291],[-49.24726,-16.85275],[-49.24739,-16.85259],[-49.24748,-16.85241],[-49.24758,-16.85215],[-49.24763,-16.85194],[-49.24764,-16.85172],[-49.24761,-16.85151],[-49.24757,-16.85138],[-49.24769,-16.85143],[-49.24795,-16.85148],[-49.24817,-16.8515],[-49.24838,-16.85148],[-49.24859,-16.8514],[-49.24879,-16.85131],[-49.24896,-16.85121],[-49.24911,-16.85107],[-49.24922,-16.85092],[-49.24935,-16.8507],[-49.24943,-16.85054],[-49.24948,-16.85035],[-49.24949,-16.85017],[-49.24947,-16.84998],[-49.24944,-16.84991],[-49.24951,-16.84979],[-49.24958,-16.84961],[-49.24959,-16.84958],[-49.24964,-16.8496],[-49.24984,-16.84963],[-49.25004,-16.84963],[-49.25046,-16.84958],[-49.25067,-16.84953],[-49.25095,-16.84943],[-49.2512,-16.8493],[-49.25141,-16.84915],[-49.25155,-16.84904],[-49.25166,-16.8489],[-49.25174,-16.84875],[-49.25177,-16.84867],[-49.25189,-16.84875],[-49.2521,-16.84883],[-49.25232,-16.84886],[-49.25257,-16.84886],[-49.25264,-16.84886],[-49.25301,-16.84885],[-49.25329,-16.84879],[-49.2535,-16.84872],[-49.2536,-16.84872],[-49.25378,-16.84878],[-49.25397,-16.84881],[-49.25417,-16.8488],[-49.25436,-16.84875],[-49.25453,-16.84866],[-49.25469,-16.84854],[-49.25482,-16.8484],[-49.25492,-16.84823],[-49.25498,-16.84804],[-49.25501,-16.84785],[-49.25504,-16.84699],[-49.25895,-16.84667],[-49.2627,-16.84762],[-49.2627,-16.83105],[-49.24072,-16.83105]]]},"properties":{"ghs":"6vhbp","size":7.61,"ghs_len":5,"ghs_area":12.77,"ghs_bytes":2059071,"ghs_items":11330,"size_unit":"km2","ghsval_unit":"bytes","ghs_itemsdensity":887.55,"size_unitdensity":0.6}},{"type":"Feature","geometry":{"type":"MultiPolygon","coordinates":[[[[-49.30664,-16.81458],[-49.30664,-16.80908],[-49.30664,-16.80359],[-49.30664,-16.7981],[-49.30664,-16.7926],[-49.29565,-16.7926],[-49.29565,-16.78711],[-49.28467,-16.78711],[-49.2627,-16.78711],[-49.2627,-16.80359],[-49.2627,-16.80908],[-49.2627,-16.82007],[-49.27368,-16.82007],[-49.28467,-16.82007],[-49.28467,-16.81458],[-49.27368,-16.81458],[-49.27368,-16.80908],[-49.28467,-16.80908],[-49.28467,-16.80359],[-49.29565,-16.80359],[-49.29565,-16.80908],[-49.29565,-16.81458],[-49.29565,-16.82007],[-49.29565,-16.82556],[-49.30664,-16.82556],[-49.30664,-16.82007],[-49.30664,-16.81458]]],[[[-49.27368,-16.83105],[-49.27368,-16.82556],[-49.2627,-16.82556],[-49.2627,-16.83105],[-49.27368,-16.83105]]]]},"properties":{"ghs":"6vhbq","size":10.76,"ghs_len":5,"ghs_area":14.95,"ghs_bytes":2941271,"ghs_items":15449,"size_unit":"km2","ghsval_unit":"bytes","ghs_itemsdensity":1033.36,"size_unitdensity":0.72}},{"type":"Feature","geometry":{"type":"Polygon","coordinates":[[[-49.30664,-16.82556],[-49.29565,-16.82556],[-49.29565,-16.83105],[-49.30664,-16.83105],[-49.30664,-16.82556]]]},"properties":{"ghs":"6vhbq0","size":0.46,"ghs_len":6,"ghs_area":0.71,"ghs_bytes":198832,"ghs_items":1136,"size_unit":"km2","ghsval_unit":"bytes","ghs_itemsdensity":1595.87,"size_unitdensity":0.65}},{"type":"Feature","geometry":{"type":"Polygon","coordinates":[[[-49.29565,-16.82556],[-49.28467,-16.82556],[-49.28467,-16.83105],[-49.29565,-16.83105],[-49.29565,-16.82556]]]},"properties":{"ghs":"6vhbq2","size":0.51,"ghs_len":6,"ghs_area":0.71,"ghs_bytes":216632,"ghs_items":1168,"size_unit":"km2","ghsval_unit":"bytes","ghs_itemsdensity":1640.83,"size_unitdensity":0.72}},{"type":"Feature","geometry":{"type":"Polygon","coordinates":[[[-49.29565,-16.82007],[-49.28467,-16.82007],[-49.28467,-16.82556],[-49.29565,-16.82556],[-49.29565,-16.82007]]]},"properties":{"ghs":"6vhbq3","size":0.51,"ghs_len":6,"ghs_area":0.71,"ghs_bytes":242978,"ghs_items":1280,"size_unit":"km2","ghsval_unit":"bytes","ghs_itemsdensity":1798.12,"size_unitdensity":0.71}},{"type":"Feature","geometry":{"type":"Polygon","coordinates":[[[-49.29565,-16.81458],[-49.28467,-16.81458],[-49.28467,-16.82007],[-49.29565,-16.82007],[-49.29565,-16.81458]]]},"properties":{"ghs":"6vhbq6","size":0.48,"ghs_len":6,"ghs_area":0.71,"ghs_bytes":193724,"ghs_items":1139,"size_unit":"km2","ghsval_unit":"bytes","ghs_itemsdensity":1600,"size_unitdensity":0.68}},{"type":"Feature","geometry":{"type":"Polygon","coordinates":[[[-49.29565,-16.80908],[-49.28467,-16.80908],[-49.28467,-16.81458],[-49.29565,-16.81458],[-49.29565,-16.80908]]]},"properties":{"ghs":"6vhbq7","size":0.48,"ghs_len":6,"ghs_area":0.71,"ghs_bytes":190050,"ghs_items":1075,"size_unit":"km2","ghsval_unit":"bytes","ghs_itemsdensity":1510.05,"size_unitdensity":0.68}},{"type":"Feature","geometry":{"type":"Polygon","coordinates":[[[-49.25171,-16.82556],[-49.25171,-16.82007],[-49.2627,-16.82007],[-49.2627,-16.80908],[-49.25171,-16.80908],[-49.24072,-16.80908],[-49.24072,-16.80359],[-49.25171,-16.80359],[-49.2627,-16.80359],[-49.2627,-16.78711],[-49.21875,-16.78711],[-49.21875,-16.83105],[-49.22974,-16.83105],[-49.22974,-16.82556],[-49.24072,-16.82556],[-49.24072,-16.83105],[-49.2627,-16.83105],[-49.2627,-16.82556],[-49.25171,-16.82556]]]},"properties":{"ghs":"6vhbr","size":13.51,"ghs_len":5,"ghs_area":19.93,"ghs_bytes":2928346,"ghs_items":15096,"size_unit":"km2","ghsval_unit":"bytes","ghs_itemsdensity":757.33,"size_unitdensity":0.68}},{"type":"Feature","geometry":{"type":"Polygon","coordinates":[[[-49.2627,-16.82007],[-49.25171,-16.82007],[-49.25171,-16.82556],[-49.2627,-16.82556],[-49.2627,-16.82007]]]},"properties":{"ghs":"6vhbr1","size":0.44,"ghs_len":6,"ghs_area":0.71,"ghs_bytes":190794,"ghs_items":1100,"size_unit":"km2","ghsval_unit":"bytes","ghs_itemsdensity":1545.26,"size_unitdensity":0.62}},{"type":"Feature","geometry":{"type":"Polygon","coordinates":[[[-49.24072,-16.82556],[-49.22974,-16.82556],[-49.22974,-16.83105],[-49.24072,-16.83105],[-49.24072,-16.82556]]]},"properties":{"ghs":"6vhbr8","size":0.5,"ghs_len":6,"ghs_area":0.71,"ghs_bytes":186914,"ghs_items":1087,"size_unit":"km2","ghsval_unit":"bytes","ghs_itemsdensity":1527.04,"size_unitdensity":0.7}},{"type":"Feature","geometry":{"type":"Polygon","coordinates":[[[-49.2627,-16.80359],[-49.25171,-16.80359],[-49.25171,-16.80908],[-49.2627,-16.80908],[-49.2627,-16.80359]]]},"properties":{"ghs":"6vhbrh","size":0.47,"ghs_len":6,"ghs_area":0.71,"ghs_bytes":309509,"ghs_items":1030,"size_unit":"km2","ghsval_unit":"bytes","ghs_itemsdensity":1446.8,"size_unitdensity":0.66}},{"type":"Feature","geometry":{"type":"Polygon","coordinates":[[[-49.25171,-16.80359],[-49.24072,-16.80359],[-49.24072,-16.80908],[-49.25171,-16.80908],[-49.25171,-16.80359]]]},"properties":{"ghs":"6vhbrk","size":0.51,"ghs_len":6,"ghs_area":0.71,"ghs_bytes":171594,"ghs_items":665,"size_unit":"km2","ghsval_unit":"bytes","ghs_itemsdensity":934.1,"size_unitdensity":0.72}},{"type":"Feature","geometry":{"type":"Polygon","coordinates":[[[-49.3396,-16.77612],[-49.3396,-16.78162],[-49.32861,-16.78162],[-49.32861,-16.77612],[-49.32861,-16.77063],[-49.32861,-16.76514],[-49.3396,-16.76514],[-49.35059,-16.76514],[-49.35059,-16.76476],[-49.35055,-16.76471],[-49.35059,-16.76463],[-49.35059,-16.76375],[-49.35051,-16.76361],[-49.35038,-16.76346],[-49.34842,-16.76164],[-49.34842,-16.76164],[-49.3454,-16.75886],[-49.3454,-16.75885],[-49.34105,-16.75487],[-49.33907,-16.75305],[-49.33906,-16.75305],[-49.33719,-16.75133],[-49.33549,-16.74977],[-49.33534,-16.74965],[-49.33516,-16.74956],[-49.33497,-16.74951],[-49.33478,-16.7495],[-49.33459,-16.74953],[-49.3344,-16.74959],[-49.33425,-16.74968],[-49.33353,-16.74905],[-49.33347,-16.749],[-49.33286,-16.74855],[-49.33271,-16.74846],[-49.33254,-16.7484],[-49.33237,-16.74836],[-49.3322,-16.74836],[-49.3208,-16.74913],[-49.3208,-16.74913],[-49.31739,-16.74939],[-49.31263,-16.74966],[-49.30664,-16.7471],[-49.30664,-16.75415],[-49.30664,-16.75964],[-49.31763,-16.75964],[-49.31763,-16.76514],[-49.30664,-16.76514],[-49.30664,-16.78711],[-49.3396,-16.78711],[-49.35059,-16.78711],[-49.35059,-16.77612],[-49.3396,-16.77612]],[[-49.3396,-16.75964],[-49.32861,-16.75964],[-49.32861,-16.75415],[-49.3396,-16.75415],[-49.3396,-16.75964]]]},"properties":{"ghs":"6vhbt","size":8.82,"ghs_len":5,"ghs_area":13.44,"ghs_bytes":2918547,"ghs_items":15869,"size_unit":"km2","ghsval_unit":"bytes","ghs_itemsdensity":1180.96,"size_unitdensity":0.66}},{"type":"Feature","geometry":{"type":"Polygon","coordinates":[[[-49.3396,-16.77612],[-49.32861,-16.77612],[-49.32861,-16.78162],[-49.3396,-16.78162],[-49.3396,-16.77612]]]},"properties":{"ghs":"6vhbt3","size":0.51,"ghs_len":6,"ghs_area":0.71,"ghs_bytes":226384,"ghs_items":1315,"size_unit":"km2","ghsval_unit":"bytes","ghs_itemsdensity":1846.87,"size_unitdensity":0.71}},{"type":"Feature","geometry":{"type":"Polygon","coordinates":[[[-49.35059,-16.77063],[-49.3396,-16.77063],[-49.3396,-16.77612],[-49.35059,-16.77612],[-49.35059,-16.77063]]]},"properties":{"ghs":"6vhbt4","size":0.51,"ghs_len":6,"ghs_area":0.71,"ghs_bytes":205283,"ghs_items":1229,"size_unit":"km2","ghsval_unit":"bytes","ghs_itemsdensity":1726.03,"size_unitdensity":0.71}},{"type":"Feature","geometry":{"type":"Polygon","coordinates":[[[-49.35059,-16.76514],[-49.3396,-16.76514],[-49.3396,-16.77063],[-49.35059,-16.77063],[-49.35059,-16.76514]]]},"properties":{"ghs":"6vhbt5","size":0.5,"ghs_len":6,"ghs_area":0.71,"ghs_bytes":219224,"ghs_items":1285,"size_unit":"km2","ghsval_unit":"bytes","ghs_itemsdensity":1804.63,"size_unitdensity":0.7}},{"type":"Feature","geometry":{"type":"Polygon","coordinates":[[[-49.3396,-16.77063],[-49.32861,-16.77063],[-49.32861,-16.77612],[-49.3396,-16.77612],[-49.3396,-16.77063]]]},"properties":{"ghs":"6vhbt6","size":0.5,"ghs_len":6,"ghs_area":0.71,"ghs_bytes":226241,"ghs_items":1345,"size_unit":"km2","ghsval_unit":"bytes","ghs_itemsdensity":1888.95,"size_unitdensity":0.7}},{"type":"Feature","geometry":{"type":"Polygon","coordinates":[[[-49.3396,-16.76514],[-49.32861,-16.76514],[-49.32861,-16.77063],[-49.3396,-16.77063],[-49.3396,-16.76514]]]},"properties":{"ghs":"6vhbt7","size":0.53,"ghs_len":6,"ghs_area":0.71,"ghs_bytes":207467,"ghs_items":1211,"size_unit":"km2","ghsval_unit":"bytes","ghs_itemsdensity":1700.71,"size_unitdensity":0.75}},{"type":"Feature","geometry":{"type":"Polygon","coordinates":[[[-49.3396,-16.75415],[-49.32861,-16.75415],[-49.32861,-16.75964],[-49.3396,-16.75964],[-49.3396,-16.75415]]]},"properties":{"ghs":"6vhbtm","size":0.49,"ghs_len":6,"ghs_area":0.71,"ghs_bytes":207310,"ghs_items":1255,"size_unit":"km2","ghsval_unit":"bytes","ghs_itemsdensity":1762.4,"size_unitdensity":0.69}},{"type":"Feature","geometry":{"type":"Polygon","coordinates":[[[-49.31763,-16.75964],[-49.30664,-16.75964],[-49.30664,-16.76514],[-49.31763,-16.76514],[-49.31763,-16.75964]]]},"properties":{"ghs":"6vhbtu","size":0.49,"ghs_len":6,"ghs_area":0.71,"ghs_bytes":211049,"ghs_items":750,"size_unit":"km2","ghsval_unit":"bytes","ghs_itemsdensity":1053.26,"size_unitdensity":0.68}},{"type":"Feature","geometry":{"type":"MultiPolygon","coordinates":[[[[-49.29565,-16.76514],[-49.29565,-16.77063],[-49.28467,-16.77063],[-49.27368,-16.77063],[-49.27368,-16.77612],[-49.28467,-16.77612],[-49.28467,-16.78162],[-49.29565,-16.78162],[-49.29565,-16.78711],[-49.30664,-16.78711],[-49.30664,-16.76514],[-49.29565,-16.76514]]],[[[-49.2627,-16.74316],[-49.2627,-16.74866],[-49.2627,-16.75415],[-49.27368,-16.75415],[-49.28467,-16.75415],[-49.29565,-16.75415],[-49.30664,-16.75415],[-49.30664,-16.7471],[-49.30565,-16.74668],[-49.30419,-16.74604],[-49.30407,-16.746],[-49.3038,-16.74592],[-49.30362,-16.74588],[-49.2971,-16.74524],[-49.29693,-16.74524],[-49.29675,-16.74527],[-49.28887,-16.74729],[-49.28866,-16.74731],[-49.28853,-16.74728],[-49.28265,-16.74413],[-49.28085,-16.74316],[-49.2627,-16.74316]]],[[[-49.27368,-16.76514],[-49.27368,-16.75964],[-49.2627,-16.75964],[-49.2627,-16.76514],[-49.27368,-16.76514]]],[[[-49.28467,-16.78711],[-49.28467,-16.78162],[-49.27368,-16.78162],[-49.27368,-16.77612],[-49.2627,-16.77612],[-49.2627,-16.78711],[-49.28467,-16.78711]]]]},"properties":{"ghs":"6vhbw","size":8.4,"ghs_len":5,"ghs_area":12.73,"ghs_bytes":2909935,"ghs_items":15606,"size_unit":"km2","ghsval_unit":"bytes","ghs_itemsdensity":1226.3,"size_unitdensity":0.66}},{"type":"Feature","geometry":{"type":"Polygon","coordinates":[[[-49.29565,-16.78162],[-49.28467,-16.78162],[-49.28467,-16.78711],[-49.29565,-16.78711],[-49.29565,-16.78162]]]},"properties":{"ghs":"6vhbw2","size":0.51,"ghs_len":6,"ghs_area":0.71,"ghs_bytes":185655,"ghs_items":1012,"size_unit":"km2","ghsval_unit":"bytes","ghs_itemsdensity":1421.35,"size_unitdensity":0.72}},{"type":"Feature","geometry":{"type":"Polygon","coordinates":[[[-49.29565,-16.76514],[-49.28467,-16.76514],[-49.28467,-16.77063],[-49.29565,-16.77063],[-49.29565,-16.76514]]]},"properties":{"ghs":"6vhbw7","size":0.47,"ghs_len":6,"ghs_area":0.71,"ghs_bytes":201639,"ghs_items":1150,"size_unit":"km2","ghsval_unit":"bytes","ghs_itemsdensity":1615.04,"size_unitdensity":0.66}},{"type":"Feature","geometry":{"type":"Polygon","coordinates":[[[-49.28467,-16.77612],[-49.27368,-16.77612],[-49.27368,-16.78162],[-49.28467,-16.78162],[-49.28467,-16.77612]]]},"properties":{"ghs":"6vhbw9","size":0.47,"ghs_len":6,"ghs_area":0.71,"ghs_bytes":197698,"ghs_items":1143,"size_unit":"km2","ghsval_unit":"bytes","ghs_itemsdensity":1605.3,"size_unitdensity":0.66}},{"type":"Feature","geometry":{"type":"Polygon","coordinates":[[[-49.28467,-16.76514],[-49.27368,-16.76514],[-49.27368,-16.77063],[-49.28467,-16.77063],[-49.28467,-16.76514]]]},"properties":{"ghs":"6vhbwe","size":0.51,"ghs_len":6,"ghs_area":0.71,"ghs_bytes":214209,"ghs_items":1170,"size_unit":"km2","ghsval_unit":"bytes","ghs_itemsdensity":1643.13,"size_unitdensity":0.71}},{"type":"Feature","geometry":{"type":"Polygon","coordinates":[[[-49.27368,-16.77063],[-49.2627,-16.77063],[-49.2627,-16.77612],[-49.27368,-16.77612],[-49.27368,-16.77063]]]},"properties":{"ghs":"6vhbwf","size":0.59,"ghs_len":6,"ghs_area":0.71,"ghs_bytes":263532,"ghs_items":349,"size_unit":"km2","ghsval_unit":"bytes","ghs_itemsdensity":490.14,"size_unitdensity":0.83}},{"type":"Feature","geometry":{"type":"Polygon","coordinates":[[[-49.27368,-16.76514],[-49.2627,-16.76514],[-49.2627,-16.77063],[-49.27368,-16.77063],[-49.27368,-16.76514]]]},"properties":{"ghs":"6vhbwg","size":0.59,"ghs_len":6,"ghs_area":0.71,"ghs_bytes":325562,"ghs_items":426,"size_unit":"km2","ghsval_unit":"bytes","ghs_itemsdensity":598.27,"size_unitdensity":0.83}},{"type":"Feature","geometry":{"type":"Polygon","coordinates":[[[-49.30664,-16.75964],[-49.29565,-16.75964],[-49.29565,-16.76514],[-49.30664,-16.76514],[-49.30664,-16.75964]]]},"properties":{"ghs":"6vhbwh","size":0.48,"ghs_len":6,"ghs_area":0.71,"ghs_bytes":200469,"ghs_items":1116,"size_unit":"km2","ghsval_unit":"bytes","ghs_itemsdensity":1567.25,"size_unitdensity":0.68}},{"type":"Feature","geometry":{"type":"Polygon","coordinates":[[[-49.30664,-16.75415],[-49.29565,-16.75415],[-49.29565,-16.75964],[-49.30664,-16.75964],[-49.30664,-16.75415]]]},"properties":{"ghs":"6vhbwj","size":0.52,"ghs_len":6,"ghs_area":0.71,"ghs_bytes":196626,"ghs_items":1041,"size_unit":"km2","ghsval_unit":"bytes","ghs_itemsdensity":1461.88,"size_unitdensity":0.73}},{"type":"Feature","geometry":{"type":"Polygon","coordinates":[[[-49.29565,-16.75964],[-49.28467,-16.75964],[-49.28467,-16.76514],[-49.29565,-16.76514],[-49.29565,-16.75964]]]},"properties":{"ghs":"6vhbwk","size":0.48,"ghs_len":6,"ghs_area":0.71,"ghs_bytes":307039,"ghs_items":1714,"size_unit":"km2","ghsval_unit":"bytes","ghs_itemsdensity":2407.04,"size_unitdensity":0.68}},{"type":"Feature","geometry":{"type":"Polygon","coordinates":[[[-49.29565,-16.75415],[-49.28467,-16.75415],[-49.28467,-16.75964],[-49.29565,-16.75964],[-49.29565,-16.75415]]]},"properties":{"ghs":"6vhbwm","size":0.48,"ghs_len":6,"ghs_area":0.71,"ghs_bytes":240492,"ghs_items":1340,"size_unit":"km2","ghsval_unit":"bytes","ghs_itemsdensity":1881.77,"size_unitdensity":0.68}},{"type":"Feature","geometry":{"type":"Polygon","coordinates":[[[-49.28467,-16.75964],[-49.27368,-16.75964],[-49.27368,-16.76514],[-49.28467,-16.76514],[-49.28467,-16.75964]]]},"properties":{"ghs":"6vhbws","size":0.51,"ghs_len":6,"ghs_area":0.71,"ghs_bytes":194128,"ghs_items":1042,"size_unit":"km2","ghsval_unit":"bytes","ghs_itemsdensity":1463.32,"size_unitdensity":0.71}},{"type":"Feature","geometry":{"type":"Polygon","coordinates":[[[-49.28467,-16.75415],[-49.27368,-16.75415],[-49.27368,-16.75964],[-49.28467,-16.75964],[-49.28467,-16.75415]]]},"properties":{"ghs":"6vhbwt","size":0.48,"ghs_len":6,"ghs_area":0.71,"ghs_bytes":211579,"ghs_items":1128,"size_unit":"km2","ghsval_unit":"bytes","ghs_itemsdensity":1584.05,"size_unitdensity":0.68}},{"type":"Feature","geometry":{"type":"Polygon","coordinates":[[[-49.27368,-16.75415],[-49.2627,-16.75415],[-49.2627,-16.75964],[-49.27368,-16.75964],[-49.27368,-16.75415]]]},"properties":{"ghs":"6vhbwv","size":0.51,"ghs_len":6,"ghs_area":0.71,"ghs_bytes":241601,"ghs_items":1466,"size_unit":"km2","ghsval_unit":"bytes","ghs_itemsdensity":2058.71,"size_unitdensity":0.72}},{"type":"Feature","geometry":{"type":"Polygon","coordinates":[[[-49.2627,-16.77063],[-49.2627,-16.76514],[-49.25171,-16.76514],[-49.25171,-16.75964],[-49.2627,-16.75964],[-49.2627,-16.75415],[-49.2627,-16.74866],[-49.25171,-16.74866],[-49.25171,-16.74316],[-49.21875,-16.74316],[-49.21875,-16.74866],[-49.22974,-16.74866],[-49.22974,-16.75415],[-49.21875,-16.75415],[-49.21875,-16.78711],[-49.2627,-16.78711],[-49.2627,-16.77612],[-49.2627,-16.77063]],[[-49.25171,-16.77063],[-49.24072,-16.77063],[-49.22974,-16.77063],[-49.22974,-16.76514],[-49.24072,-16.76514],[-49.25171,-16.76514],[-49.25171,-16.77063]]]},"properties":{"ghs":"6vhbx","size":14.34,"ghs_len":5,"ghs_area":19.23,"ghs_bytes":2911296,"ghs_items":13405,"size_unit":"km2","ghsval_unit":"bytes","ghs_itemsdensity":697.24,"size_unitdensity":0.75}},{"type":"Feature","geometry":{"type":"Polygon","coordinates":[[[-49.25171,-16.76514],[-49.24072,-16.76514],[-49.24072,-16.77063],[-49.25171,-16.77063],[-49.25171,-16.76514]]]},"properties":{"ghs":"6vhbx7","size":0.52,"ghs_len":6,"ghs_area":0.71,"ghs_bytes":189705,"ghs_items":1109,"size_unit":"km2","ghsval_unit":"bytes","ghs_itemsdensity":1557.46,"size_unitdensity":0.73}},{"type":"Feature","geometry":{"type":"Polygon","coordinates":[[[-49.24072,-16.76514],[-49.22974,-16.76514],[-49.22974,-16.77063],[-49.24072,-16.77063],[-49.24072,-16.76514]]]},"properties":{"ghs":"6vhbxe","size":0.38,"ghs_len":6,"ghs_area":0.71,"ghs_bytes":178044,"ghs_items":902,"size_unit":"km2","ghsval_unit":"bytes","ghs_itemsdensity":1266.75,"size_unitdensity":0.54}},{"type":"Feature","geometry":{"type":"Polygon","coordinates":[[[-49.2627,-16.75964],[-49.25171,-16.75964],[-49.25171,-16.76514],[-49.2627,-16.76514],[-49.2627,-16.75964]]]},"properties":{"ghs":"6vhbxh","size":0.44,"ghs_len":6,"ghs_area":0.71,"ghs_bytes":181210,"ghs_items":922,"size_unit":"km2","ghsval_unit":"bytes","ghs_itemsdensity":1294.8,"size_unitdensity":0.62}},{"type":"Feature","geometry":{"type":"Polygon","coordinates":[[[-49.2627,-16.74316],[-49.25171,-16.74316],[-49.25171,-16.74866],[-49.2627,-16.74866],[-49.2627,-16.74316]]]},"properties":{"ghs":"6vhbxp","size":0.48,"ghs_len":6,"ghs_area":0.71,"ghs_bytes":169789,"ghs_items":996,"size_unit":"km2","ghsval_unit":"bytes","ghs_itemsdensity":1398.61,"size_unitdensity":0.67}},{"type":"Feature","geometry":{"type":"Polygon","coordinates":[[[-49.22974,-16.74866],[-49.21875,-16.74866],[-49.21875,-16.75415],[-49.22974,-16.75415],[-49.22974,-16.74866]]]},"properties":{"ghs":"6vhbxy","size":0.52,"ghs_len":6,"ghs_area":0.71,"ghs_bytes":232405,"ghs_items":1385,"size_unit":"km2","ghsval_unit":"bytes","ghs_itemsdensity":1944.9,"size_unitdensity":0.73}},{"type":"Feature","geometry":{"type":"Polygon","coordinates":[[[-49.1748,-16.83105],[-49.1748,-16.78711],[-49.21875,-16.78711],[-49.21875,-16.75415],[-49.21875,-16.74866],[-49.21875,-16.74316],[-49.21875,-16.73871],[-49.2156,-16.74176],[-49.21554,-16.7418],[-49.21188,-16.743],[-49.21183,-16.74301],[-49.20874,-16.74418],[-49.20821,-16.7443],[-49.20801,-16.74437],[-49.20783,-16.74448],[-49.20684,-16.74523],[-49.20634,-16.74559],[-49.20633,-16.7456],[-49.20604,-16.74581],[-49.20603,-16.74582],[-49.20567,-16.74609],[-49.20559,-16.74617],[-49.19807,-16.75335],[-49.1918,-16.7592],[-49.19177,-16.75922],[-49.19113,-16.75986],[-49.18878,-16.76189],[-49.18867,-16.762],[-49.18456,-16.76686],[-49.18446,-16.76701],[-49.18439,-16.76717],[-49.18434,-16.76735],[-49.18233,-16.7798],[-49.18151,-16.7807],[-49.17945,-16.78176],[-49.17574,-16.78343],[-49.17564,-16.78348],[-49.1746,-16.7841],[-49.16869,-16.7876],[-49.16544,-16.78858],[-49.1609,-16.78901],[-49.16063,-16.78908],[-49.16001,-16.78932],[-49.15867,-16.78976],[-49.1585,-16.78984],[-49.15834,-16.78995],[-49.15821,-16.79008],[-49.1581,-16.79025],[-49.15791,-16.79061],[-49.15747,-16.79141],[-49.1574,-16.79157],[-49.15736,-16.79174],[-49.15728,-16.79227],[-49.15727,-16.79246],[-49.1573,-16.79265],[-49.15737,-16.79283],[-49.15768,-16.7935],[-49.1578,-16.7937],[-49.15797,-16.79387],[-49.1583,-16.79412],[-49.15848,-16.79423],[-49.15868,-16.7943],[-49.15944,-16.79447],[-49.15947,-16.79448],[-49.1597,-16.79453],[-49.15998,-16.7947],[-49.16028,-16.79496],[-49.16033,-16.7951],[-49.16054,-16.79578],[-49.1606,-16.79594],[-49.1607,-16.79609],[-49.16088,-16.79633],[-49.16104,-16.79649],[-49.16118,-16.79658],[-49.16113,-16.7966],[-49.16028,-16.797],[-49.16022,-16.79703],[-49.15952,-16.79742],[-49.15938,-16.79752],[-49.15925,-16.79764],[-49.15915,-16.79778],[-49.15902,-16.798],[-49.15894,-16.79816],[-49.1589,-16.79833],[-49.15888,-16.79851],[-49.15888,-16.79896],[-49.15889,-16.79909],[-49.15894,-16.79951],[-49.15898,-16.79969],[-49.15905,-16.79985],[-49.15915,-16.80001],[-49.15928,-16.80014],[-49.15942,-16.80024],[-49.15958,-16.80032],[-49.15983,-16.80041],[-49.15997,-16.80046],[-49.16012,-16.80048],[-49.16075,-16.80051],[-49.16078,-16.80056],[-49.16089,-16.80123],[-49.16093,-16.8014],[-49.16114,-16.80198],[-49.16111,-16.802],[-49.16093,-16.80214],[-49.16079,-16.80231],[-49.16039,-16.80293],[-49.16031,-16.80309],[-49.16026,-16.80326],[-49.16005,-16.80419],[-49.16004,-16.80425],[-49.15991,-16.80507],[-49.1599,-16.80516],[-49.15985,-16.80593],[-49.15985,-16.80611],[-49.15989,-16.80628],[-49.15995,-16.80645],[-49.16009,-16.80673],[-49.16019,-16.80688],[-49.16032,-16.80702],[-49.16047,-16.80713],[-49.16079,-16.80733],[-49.16096,-16.80741],[-49.16114,-16.80746],[-49.16133,-16.80747],[-49.16165,-16.80747],[-49.16152,-16.80763],[-49.1612,-16.80819],[-49.1611,-16.80844],[-49.16085,-16.80942],[-49.16039,-16.8101],[-49.15969,-16.81103],[-49.15968,-16.81105],[-49.15922,-16.81169],[-49.15886,-16.81203],[-49.1584,-16.81224],[-49.1583,-16.81229],[-49.15785,-16.81255],[-49.15769,-16.81267],[-49.15756,-16.81282],[-49.15745,-16.81298],[-49.15707,-16.8138],[-49.15701,-16.81397],[-49.1568,-16.81473],[-49.15679,-16.81478],[-49.15649,-16.81618],[-49.15647,-16.81639],[-49.15649,-16.81659],[-49.15655,-16.81679],[-49.15685,-16.81749],[-49.15694,-16.81765],[-49.15705,-16.81779],[-49.15719,-16.81791],[-49.15775,-16.8183],[-49.15791,-16.81839],[-49.15844,-16.81864],[-49.15869,-16.81871],[-49.15904,-16.81877],[-49.15923,-16.81879],[-49.15941,-16.81877],[-49.15958,-16.81872],[-49.15974,-16.81864],[-49.16082,-16.81797],[-49.16176,-16.81762],[-49.16192,-16.81754],[-49.16268,-16.81709],[-49.1628,-16.817],[-49.16292,-16.81689],[-49.1638,-16.81589],[-49.16392,-16.81571],[-49.16401,-16.8155],[-49.16419,-16.81485],[-49.16431,-16.815],[-49.16508,-16.81581],[-49.16516,-16.81589],[-49.16593,-16.81653],[-49.16597,-16.81656],[-49.16651,-16.81698],[-49.16666,-16.81707],[-49.16683,-16.81714],[-49.16726,-16.81728],[-49.16746,-16.81732],[-49.16767,-16.81731],[-49.16843,-16.81722],[-49.16844,-16.81722],[-49.16897,-16.81715],[-49.16983,-16.81737],[-49.16998,-16.81746],[-49.17028,-16.81778],[-49.17045,-16.81805],[-49.17027,-16.81822],[-49.16972,-16.81836],[-49.16909,-16.81848],[-49.16887,-16.81855],[-49.16854,-16.81869],[-49.16839,-16.81877],[-49.16826,-16.81887],[-49.16805,-16.81906],[-49.16792,-16.8192],[-49.16783,-16.81936],[-49.16776,-16.81953],[-49.16773,-16.81972],[-49.16773,-16.8199],[-49.16776,-16.82008],[-49.16788,-16.82049],[-49.16796,-16.82067],[-49.16807,-16.82084],[-49.16821,-16.82098],[-49.16838,-16.82109],[-49.16857,-16.82117],[-49.16864,-16.82118],[-49.16898,-16.82212],[-49.16901,-16.82224],[-49.16835,-16.8227],[-49.16821,-16.82281],[-49.16809,-16.82296],[-49.168,-16.82312],[-49.16786,-16.82344],[-49.1678,-16.82361],[-49.16778,-16.8238],[-49.16776,-16.82438],[-49.16775,-16.8245],[-49.16776,-16.82465],[-49.16781,-16.82504],[-49.16715,-16.82515],[-49.16694,-16.82522],[-49.16606,-16.82558],[-49.16603,-16.8256],[-49.16437,-16.82637],[-49.16422,-16.82646],[-49.16408,-16.82658],[-49.16397,-16.82672],[-49.16363,-16.82721],[-49.16334,-16.82749],[-49.16259,-16.82784],[-49.16239,-16.82796],[-49.16223,-16.82812],[-49.16191,-16.82851],[-49.16184,-16.82862],[-49.16157,-16.82906],[-49.1615,-16.82919],[-49.16146,-16.82934],[-49.16141,-16.82954],[-49.1612,-16.82977],[-49.1612,-16.82977],[-49.16135,-16.82917],[-49.16138,-16.82899],[-49.16137,-16.82881],[-49.16129,-16.82815],[-49.16125,-16.82795],[-49.16116,-16.82776],[-49.16096,-16.82741],[-49.16084,-16.82725],[-49.1607,-16.82712],[-49.16053,-16.82701],[-49.16035,-16.82695],[-49.15989,-16.82683],[-49.1597,-16.82597],[-49.15963,-16.82576],[-49.15902,-16.8245],[-49.15889,-16.82429],[-49.15823,-16.82348],[-49.15807,-16.82332],[-49.15787,-16.8232],[-49.15719,-16.82289],[-49.15697,-16.82282],[-49.15624,-16.82268],[-49.15608,-16.82266],[-49.15592,-16.82267],[-49.15463,-16.82284],[-49.15449,-16.82287],[-49.15435,-16.82292],[-49.15397,-16.82309],[-49.1538,-16.82319],[-49.15365,-16.82332],[-49.15353,-16.82347],[-49.15341,-16.82366],[-49.15332,-16.82385],[-49.15327,-16.82407],[-49.15323,-16.82444],[-49.15323,-16.82466],[-49.15327,-16.82488],[-49.15337,-16.82508],[-49.15359,-16.82545],[-49.15364,-16.82552],[-49.15369,-16.82558],[-49.15369,-16.82559],[-49.15366,-16.82568],[-49.1536,-16.82591],[-49.15355,-16.82632],[-49.15355,-16.82661],[-49.15366,-16.82726],[-49.15371,-16.82744],[-49.15378,-16.8276],[-49.15397,-16.82791],[-49.1541,-16.82809],[-49.15425,-16.82822],[-49.15346,-16.82976],[-49.15294,-16.83025],[-49.15282,-16.83039],[-49.15272,-16.83055],[-49.15249,-16.83104],[-49.15242,-16.83124],[-49.1524,-16.83146],[-49.15242,-16.83167],[-49.15248,-16.83188],[-49.15263,-16.8322],[-49.15273,-16.83237],[-49.15286,-16.83252],[-49.15301,-16.83263],[-49.1536,-16.833],[-49.1538,-16.8331],[-49.15401,-16.83315],[-49.15472,-16.83323],[-49.15533,-16.83348],[-49.15562,-16.83369],[-49.15572,-16.83388],[-49.15597,-16.83473],[-49.15591,-16.83553],[-49.1559,-16.83554],[-49.15555,-16.83556],[-49.15535,-16.8356],[-49.15516,-16.83568],[-49.15498,-16.83579],[-49.15484,-16.83594],[-49.15473,-16.83611],[-49.15458,-16.83641],[-49.15451,-16.83658],[-49.15448,-16.83677],[-49.15448,-16.83695],[-49.15451,-16.83714],[-49.15457,-16.83734],[-49.15464,-16.83752],[-49.15475,-16.83768],[-49.15488,-16.83782],[-49.15504,-16.83793],[-49.15521,-16.83801],[-49.1554,-16.83805],[-49.15559,-16.83806],[-49.15568,-16.83805],[-49.15588,-16.83824],[-49.15601,-16.83835],[-49.1564,-16.8386],[-49.15646,-16.83863],[-49.1566,-16.83875],[-49.15661,-16.83886],[-49.15656,-16.83903],[-49.1565,-16.83909],[-49.15645,-16.8391],[-49.15627,-16.83915],[-49.15545,-16.8395],[-49.15545,-16.83951],[-49.15431,-16.84],[-49.15385,-16.84015],[-49.15344,-16.84012],[-49.15185,-16.83951],[-49.15062,-16.83887],[-49.15044,-16.83874],[-49.14978,-16.83766],[-49.14969,-16.83754],[-49.14941,-16.83721],[-49.14926,-16.83706],[-49.14907,-16.83695],[-49.14887,-16.83688],[-49.14866,-16.83686],[-49.14835,-16.83685],[-49.14815,-16.83687],[-49.14795,-16.83693],[-49.14777,-16.83703],[-49.14732,-16.83734],[-49.14718,-16.83746],[-49.14707,-16.83761],[-49.14663,-16.83826],[-49.14627,-16.83878],[-49.14618,-16.83895],[-49.14613,-16.83914],[-49.14604,-16.83954],[-49.14602,-16.83975],[-49.14602,-16.83975],[-49.14574,-16.84018],[-49.14565,-16.84035],[-49.14533,-16.84111],[-49.14527,-16.84131],[-49.14526,-16.84152],[-49.14528,-16.84173],[-49.14538,-16.84212],[-49.14547,-16.84234],[-49.1457,-16.8428],[-49.14581,-16.84297],[-49.14596,-16.84311],[-49.14613,-16.84322],[-49.14653,-16.84343],[-49.14677,-16.84362],[-49.14681,-16.84367],[-49.14695,-16.84398],[-49.14689,-16.84435],[-49.14688,-16.8444],[-49.14676,-16.84555],[-49.14664,-16.84581],[-49.14618,-16.84633],[-49.14551,-16.84684],[-49.14539,-16.84696],[-49.14528,-16.8471],[-49.1448,-16.84785],[-49.14474,-16.84794],[-49.1445,-16.84843],[-49.14443,-16.8486],[-49.1444,-16.84877],[-49.14436,-16.8491],[-49.14435,-16.84918],[-49.14434,-16.8495],[-49.14436,-16.84972],[-49.14443,-16.84993],[-49.14453,-16.85012],[-49.14463,-16.85025],[-49.14475,-16.85039],[-49.14489,-16.8505],[-49.14506,-16.85059],[-49.14523,-16.85064],[-49.14541,-16.85066],[-49.14559,-16.85065],[-49.14612,-16.85057],[-49.14664,-16.85056],[-49.14741,-16.85077],[-49.1474,-16.85092],[-49.14736,-16.8512],[-49.14696,-16.85196],[-49.14689,-16.85211],[-49.14672,-16.85262],[-49.14669,-16.85274],[-49.1465,-16.85367],[-49.14648,-16.85377],[-49.1464,-16.85463],[-49.1464,-16.85482],[-49.14644,-16.85502],[-49.14653,-16.85534],[-49.14662,-16.85553],[-49.14674,-16.85571],[-49.1469,-16.85585],[-49.14718,-16.85606],[-49.14732,-16.85615],[-49.14748,-16.85621],[-49.14765,-16.85624],[-49.14845,-16.85634],[-49.14862,-16.85634],[-49.14972,-16.85627],[-49.14982,-16.85635],[-49.15001,-16.85649],[-49.15019,-16.85681],[-49.15083,-16.85844],[-49.15086,-16.85851],[-49.15124,-16.85931],[-49.15133,-16.85965],[-49.15156,-16.86081],[-49.1516,-16.86093],[-49.15177,-16.86144],[-49.15181,-16.86158],[-49.15181,-16.86157],[-49.15136,-16.86139],[-49.15071,-16.86079],[-49.15016,-16.86027],[-49.15001,-16.86015],[-49.14983,-16.86006],[-49.14964,-16.86],[-49.14944,-16.85999],[-49.14898,-16.86],[-49.14876,-16.86003],[-49.14856,-16.8601],[-49.14838,-16.86021],[-49.14823,-16.86036],[-49.1478,-16.86087],[-49.14772,-16.86099],[-49.14742,-16.86149],[-49.14735,-16.86163],[-49.1473,-16.86179],[-49.14713,-16.86255],[-49.1471,-16.86272],[-49.14706,-16.86361],[-49.14707,-16.86378],[-49.14725,-16.86532],[-49.14709,-16.86618],[-49.14707,-16.86628],[-49.147,-16.86706],[-49.14692,-16.86728],[-49.14689,-16.8673],[-49.14613,-16.86774],[-49.14596,-16.86787],[-49.14582,-16.86802],[-49.14572,-16.8682],[-49.1456,-16.86847],[-49.14555,-16.86861],[-49.14552,-16.86876],[-49.14538,-16.86994],[-49.14462,-16.87258],[-49.14458,-16.8728],[-49.14456,-16.87315],[-49.14458,-16.87337],[-49.14429,-16.87322],[-49.14408,-16.87314],[-49.14385,-16.8731],[-49.14291,-16.87307],[-49.1428,-16.87307],[-49.14199,-16.87314],[-49.14176,-16.87318],[-49.14155,-16.87328],[-49.14117,-16.87351],[-49.14102,-16.87362],[-49.1409,-16.87375],[-49.1408,-16.87391],[-49.1406,-16.87429],[-49.14053,-16.87448],[-49.14049,-16.87467],[-49.1405,-16.87487],[-49.14052,-16.875],[-49.18017,-16.875],[-49.18028,-16.87486],[-49.18039,-16.87471],[-49.18047,-16.87456],[-49.1805,-16.87453],[-49.18052,-16.87453],[-49.1807,-16.87448],[-49.18087,-16.8744],[-49.18099,-16.87433],[-49.18114,-16.87423],[-49.18126,-16.87411],[-49.18136,-16.87397],[-49.18152,-16.87368],[-49.1816,-16.87351],[-49.18163,-16.87341],[-49.18172,-16.87332],[-49.18183,-16.87316],[-49.18189,-16.87305],[-49.18196,-16.8729],[-49.182,-16.87273],[-49.18201,-16.87259],[-49.18209,-16.8725],[-49.1822,-16.87234],[-49.18229,-16.8722],[-49.18234,-16.87206],[-49.1824,-16.87207],[-49.18257,-16.87206],[-49.18271,-16.87205],[-49.1829,-16.87201],[-49.18307,-16.87193],[-49.18323,-16.87182],[-49.18337,-16.87169],[-49.18347,-16.87153],[-49.18354,-16.8714],[-49.18362,-16.87123],[-49.18365,-16.87107],[-49.18378,-16.87106],[-49.18393,-16.87102],[-49.18394,-16.87103],[-49.1841,-16.87118],[-49.18428,-16.87131],[-49.18443,-16.8714],[-49.18459,-16.87146],[-49.18476,-16.8715],[-49.18497,-16.87152],[-49.18519,-16.87152],[-49.1854,-16.87147],[-49.18569,-16.87137],[-49.18572,-16.87136],[-49.18572,-16.87136],[-49.18575,-16.87136],[-49.18602,-16.87142],[-49.18626,-16.87145],[-49.1865,-16.87141],[-49.18668,-16.87136],[-49.18693,-16.87125],[-49.18705,-16.87118],[-49.18719,-16.87108],[-49.18731,-16.87095],[-49.18741,-16.8708],[-49.18748,-16.87063],[-49.18752,-16.87046],[-49.18753,-16.87033],[-49.18754,-16.87009],[-49.18751,-16.86986],[-49.18745,-16.86963],[-49.18739,-16.86946],[-49.18738,-16.86917],[-49.18743,-16.86887],[-49.1876,-16.86886],[-49.18799,-16.86879],[-49.18816,-16.86874],[-49.18832,-16.86867],[-49.18845,-16.86859],[-49.18861,-16.86847],[-49.18874,-16.86832],[-49.18884,-16.86815],[-49.18891,-16.86796],[-49.18891,-16.86793],[-49.18902,-16.86797],[-49.18924,-16.86799],[-49.18948,-16.868],[-49.18967,-16.86798],[-49.18985,-16.86793],[-49.18992,-16.8679],[-49.19009,-16.86797],[-49.19023,-16.86802],[-49.19038,-16.86804],[-49.19071,-16.86807],[-49.1909,-16.86806],[-49.19108,-16.86803],[-49.19126,-16.86795],[-49.19137,-16.86789],[-49.19149,-16.86809],[-49.19155,-16.86817],[-49.19168,-16.86831],[-49.19183,-16.86843],[-49.192,-16.86851],[-49.19219,-16.86856],[-49.19237,-16.86857],[-49.19256,-16.86855],[-49.19273,-16.86851],[-49.19298,-16.86842],[-49.19317,-16.86833],[-49.19344,-16.86819],[-49.19363,-16.86807],[-49.19397,-16.8678],[-49.19416,-16.86759],[-49.19423,-16.86749],[-49.19443,-16.86735],[-49.19463,-16.86717],[-49.19467,-16.86712],[-49.19474,-16.86709],[-49.19491,-16.86701],[-49.19506,-16.8669],[-49.19518,-16.86676],[-49.19539,-16.8665],[-49.19547,-16.86636],[-49.19571,-16.86639],[-49.19589,-16.86639],[-49.19607,-16.86637],[-49.19625,-16.86631],[-49.19632,-16.86628],[-49.19641,-16.86627],[-49.19663,-16.86624],[-49.19679,-16.86621],[-49.19695,-16.86615],[-49.197,-16.86612],[-49.19701,-16.86618],[-49.19707,-16.86634],[-49.19716,-16.86654],[-49.19726,-16.86671],[-49.19739,-16.86685],[-49.19755,-16.86697],[-49.19772,-16.86705],[-49.19781,-16.86709],[-49.19802,-16.86714],[-49.19823,-16.86715],[-49.19844,-16.86711],[-49.19864,-16.86703],[-49.19881,-16.86694],[-49.19894,-16.86685],[-49.19906,-16.86674],[-49.1992,-16.8666],[-49.1993,-16.86647],[-49.19948,-16.8662],[-49.19956,-16.86606],[-49.19962,-16.86591],[-49.19965,-16.86578],[-49.19974,-16.86567],[-49.19984,-16.86553],[-49.19991,-16.86537],[-49.19996,-16.86521],[-49.20003,-16.86481],[-49.20003,-16.86476],[-49.20006,-16.86471],[-49.20018,-16.86445],[-49.20022,-16.86431],[-49.20026,-16.86415],[-49.20027,-16.86399],[-49.20026,-16.86383],[-49.20024,-16.86366],[-49.2002,-16.86353],[-49.20027,-16.86355],[-49.20046,-16.86355],[-49.20065,-16.86351],[-49.20084,-16.86345],[-49.20101,-16.86338],[-49.20116,-16.86328],[-49.2013,-16.86316],[-49.20142,-16.86302],[-49.20152,-16.86288],[-49.20168,-16.86261],[-49.20178,-16.86241],[-49.20181,-16.86227],[-49.20193,-16.86221],[-49.20208,-16.86213],[-49.20215,-16.86207],[-49.20218,-16.86208],[-49.20238,-16.86211],[-49.20258,-16.8621],[-49.20284,-16.86207],[-49.20305,-16.86201],[-49.20325,-16.86193],[-49.2037,-16.86181],[-49.2037,-16.86181],[-49.20395,-16.86175],[-49.20395,-16.86175],[-49.20414,-16.86179],[-49.20438,-16.86182],[-49.20445,-16.86198],[-49.20457,-16.86219],[-49.20465,-16.86231],[-49.20482,-16.86253],[-49.20496,-16.86268],[-49.20512,-16.86279],[-49.20526,-16.86287],[-49.20543,-16.86294],[-49.20561,-16.86299],[-49.2058,-16.863],[-49.20598,-16.86297],[-49.20616,-16.86291],[-49.20632,-16.86282],[-49.20646,-16.8627],[-49.20657,-16.86256],[-49.20663,-16.86276],[-49.20673,-16.86296],[-49.20687,-16.86314],[-49.20704,-16.86328],[-49.2072,-16.86338],[-49.20739,-16.86347],[-49.2076,-16.86353],[-49.20788,-16.86357],[-49.20789,-16.86357],[-49.20814,-16.8636],[-49.20835,-16.86368],[-49.20845,-16.86372],[-49.20852,-16.86378],[-49.20866,-16.86389],[-49.20882,-16.86397],[-49.20893,-16.86402],[-49.20911,-16.86407],[-49.20929,-16.86409],[-49.20947,-16.86408],[-49.20964,-16.86404],[-49.20981,-16.86396],[-49.20996,-16.86386],[-49.21003,-16.8638],[-49.21028,-16.86382],[-49.21052,-16.8638],[-49.21071,-16.86378],[-49.21088,-16.86371],[-49.21126,-16.86354],[-49.21139,-16.86347],[-49.21156,-16.86336],[-49.21156,-16.86336],[-49.21169,-16.86349],[-49.2118,-16.86359],[-49.21195,-16.86369],[-49.21211,-16.86377],[-49.21229,-16.86382],[-49.21247,-16.86383],[-49.21266,-16.86381],[-49.21283,-16.86375],[-49.21302,-16.86368],[-49.21322,-16.86357],[-49.21339,-16.86341],[-49.21351,-16.86328],[-49.21355,-16.86322],[-49.21368,-16.86305],[-49.21377,-16.86291],[-49.21384,-16.86276],[-49.21391,-16.86255],[-49.21395,-16.86237],[-49.21397,-16.86221],[-49.21401,-16.86222],[-49.21423,-16.86227],[-49.21446,-16.86227],[-49.21468,-16.86222],[-49.21482,-16.86217],[-49.215,-16.86209],[-49.21516,-16.86197],[-49.21529,-16.86182],[-49.21543,-16.86163],[-49.2155,-16.86151],[-49.21562,-16.86153],[-49.21598,-16.86154],[-49.21603,-16.86155],[-49.21608,-16.8616],[-49.21621,-16.86169],[-49.2164,-16.86182],[-49.21666,-16.86194],[-49.21701,-16.86204],[-49.21707,-16.86206],[-49.21721,-16.86219],[-49.21734,-16.86228],[-49.21753,-16.86238],[-49.21773,-16.86245],[-49.21795,-16.86246],[-49.21832,-16.86245],[-49.21852,-16.86243],[-49.21871,-16.86236],[-49.21875,-16.86234],[-49.21875,-16.83105],[-49.1748,-16.83105]]]},"properties":{"ghs":"6vj0","size":23.7,"ghs_len":4,"ghs_area":55.65,"ghs_bytes":2149055,"ghs_items":8231,"size_unit":"km2","ghsval_unit":"bytes","ghs_itemsdensity":147.92,"size_unitdensity":0.43}},{"type":"Feature","geometry":{"type":"Polygon","coordinates":[[[-49.1748,-16.78711],[-49.1748,-16.83105],[-49.21875,-16.83105],[-49.21875,-16.78711],[-49.1748,-16.78711]]]},"properties":{"ghs":"6vj02","size":13.86,"ghs_len":5,"ghs_area":22.78,"ghs_bytes":1945231,"ghs_items":8268,"size_unit":"km2","ghsval_unit":"bytes","ghs_itemsdensity":362.93,"size_unitdensity":0.61}}]}
