{"type": "FeatureCollection", "features": [
{"type": "Feature", "geometry": {"type": "Polygon", "coordinates": [[[-49.158371, -16.886319], [-49.158377, -16.886314], [-49.158385, -16.88631], [-49.158397, -16.886306], [-49.158408, -16.886303], [-49.158417, -16.886301], [-49.158429, -16.886299], [-49.158435, -16.886297], [-49.158461, -16.88629], [-49.158486, -16.886283], [-49.158512, -16.886276], [-49.158537, -16.886268], [-49.158563, -16.886261], [-49.158588, -16.886253], [-49.158614, -16.886245], [-49.158664, -16.886229], [-49.158692, -16.886221], [-49.158705, -16.886216], [-49.158733, -16.886208], [-49.158746, -16.886203], [-49.15876, -16.886199], [-49.158786, -16.886189], [-49.158807, -16.886179], [-49.158827, -16.886168], [-49.158847, -16.886156], [-49.158866, -16.886143], [-49.158886, -16.886131], [-49.158905, -16.886118], [-49.158925, -16.886107], [-49.158946, -16.886098], [-49.158967, -16.886091], [-49.158984, -16.886087], [-49.159001, -16.886085], [-49.159019, -16.886083], [-49.159037, -16.886083], [-49.159054, -16.886082], [-49.159072, -16.886082], [-49.15909, -16.886081], [-49.159108, -16.886079], [-49.159125, -16.886076], [-49.15914, -16.886072], [-49.159154, -16.886068], [-49.159169, -16.886064], [-49.159183, -16.88606], [-49.159198, -16.886055], [-49.159212, -16.88605], [-49.159226, -16.886044], [-49.15924, -16.886039], [-49.159254, -16.886033], [-49.159269, -16.886026], [-49.159283, -16.886018], [-49.159298, -16.88601], [-49.159326, -16.885994], [-49.159341, -16.885986], [-49.159355, -16.885978], [-49.15937, -16.88597], [-49.1594, -16.885958], [-49.159416, -16.885952], [-49.159431, -16.885946], [-49.159463, -16.885936], [-49.159478, -16.885932], [-49.159494, -16.885928], [-49.159511, -16.885926], [-49.159527, -16.885925], [-49.159538, -16.885925], [-49.159549, -16.885926], [-49.159561, -16.885927], [-49.159572, -16.885928], [-49.159584, -16.88593], [-49.159595, -16.885932], [-49.159607, -16.885935], [-49.159629, -16.885939], [-49.159636, -16.88594], [-49.159643, -16.885942], [-49.159654, -16.885944], [-49.159666, -16.885946], [-49.159673, -16.885948], [-49.159679, -16.885949], [-49.159685, -16.885949], [-49.159706, -16.88595], [-49.159726, -16.885948], [-49.159747, -16.885945], [-49.159767, -16.88594], [-49.159786, -16.885933], [-49.159806, -16.885926], [-49.159825, -16.885918], [-49.159844, -16.885909], [-49.159862, -16.885901], [-49.159879, -16.885892], [-49.159895, -16.885881], [-49.15991, -16.88587], [-49.159926, -16.885858], [-49.159971, -16.885822], [-49.160003, -16.8858], [-49.160025, -16.885789], [-49.160048, -16.885779], [-49.160073, -16.88577], [-49.160121, -16.885754], [-49.160144, -16.885744], [-49.160166, -16.885733], [-49.160185, -16.885719], [-49.160201, -16.885701], [-49.160213, -16.885681], [-49.160217, -16.885669], [-49.160222, -16.885657], [-49.160226, -16.885646], [-49.16023, -16.885634], [-49.160235, -16.885622], [-49.16024, -16.885611], [-49.160246, -16.8856], [-49.160259, -16.885583], [-49.160273, -16.885567], [-49.160289, -16.885552], [-49.160306, -16.885538], [-49.160323, -16.885525], [-49.160341, -16.885512], [-49.16036, -16.885499], [-49.160378, -16.885487], [-49.160396, -16.885474], [-49.160418, -16.885458], [-49.160429, -16.885451], [-49.160578, -16.884816], [-49.160782, -16.883948], [-49.158426, -16.883435], [-49.158371, -16.886319]]]}, "properties": {"nsvia": "FAZ Santo Antonio", "address": "?, ?, Q GLEBA, LT 1"}},
{"type": "Feature", "geometry": {"type": "Polygon", "coordinates": [[[-49.152171, -16.876096], [-49.152134, -16.876089], [-49.151937, -16.877028], [-49.154601, -16.877257], [-49.15513, -16.877182], [-49.155606, -16.876969], [-49.156446, -16.876776], [-49.157512, -16.877347], [-49.157755, -16.875966], [-49.155264, -16.875251], [-49.154906, -16.874185], [-49.154878, -16.874182], [-49.154839, -16.874173], [-49.154807, -16.874164], [-49.154785, -16.874158], [-49.154739, -16.87415], [-49.154704, -16.874146], [-49.154671, -16.874143], [-49.154649, -16.874139], [-49.154614, -16.874131], [-49.154591, -16.874125], [-49.154567, -16.874117], [-49.154537, -16.874108], [-49.154507, -16.874098], [-49.154459, -16.874081], [-49.154425, -16.874066], [-49.154407, -16.874059], [-49.154382, -16.874052], [-49.154358, -16.874047], [-49.15433, -16.874042], [-49.154302, -16.87404], [-49.154273, -16.87404], [-49.154252, -16.874042], [-49.154225, -16.874043], [-49.154195, -16.874045], [-49.154158, -16.874048], [-49.154119, -16.874048], [-49.154082, -16.874046], [-49.154043, -16.874045], [-49.154013, -16.874045], [-49.153987, -16.874046], [-49.153952, -16.874051], [-49.153914, -16.874056], [-49.153869, -16.874064], [-49.15382, -16.874075], [-49.153798, -16.87408], [-49.153748, -16.874092], [-49.153678, -16.874107], [-49.153617, -16.874121], [-49.153573, -16.874129], [-49.153537, -16.874133], [-49.153511, -16.874135], [-49.153482, -16.874132], [-49.153459, -16.87413], [-49.153422, -16.87412], [-49.153377, -16.874106], [-49.153344, -16.874087], [-49.153303, -16.87405], [-49.153262, -16.873999], [-49.15323, -16.873952], [-49.153213, -16.873914], [-49.153198, -16.873885], [-49.153184, -16.87386], [-49.153175, -16.873841], [-49.152864, -16.87499], [-49.152171, -16.876096]]]}, "properties": {"nsvia": "FAZ Santo Antonio", "address": "?, ?, Q GLEBA, LT 002"}}]}
