{"type":"FeatureCollection","features":[{"type":"Feature","geometry":{"type":"Polygon","coordinates":[[[-62.16298,-11.00282],[-62.16294,-11.00267],[-62.15094,-10.96867],[-62.15093,-10.96864],[-62.13793,-10.93464],[-62.13793,-10.93462],[-62.12493,-10.90262],[-62.12489,-10.90255],[-62.12291,-10.89859],[-62.11093,-10.86863],[-62.11092,-10.86862],[-62.09593,-10.83262],[-62.08193,-10.79763],[-62.08192,-10.79761],[-62.07292,-10.77662],[-62.06693,-10.76163],[-62.05493,-10.73064],[-62.05492,-10.73062],[-62.03434,-10.68064],[-62.01993,-10.64562],[-61.96093,-10.49763],[-61.96083,-10.49744],[-61.96069,-10.49727],[-61.96051,-10.49714],[-61.96032,-10.49705],[-61.93642,-10.48909],[-61.927,-10.48343],[-61.927,-10.476],[-61.92698,-10.4758],[-61.92692,-10.47562],[-61.92683,-10.47544],[-61.92671,-10.47529],[-61.91687,-10.46546],[-61.91307,-10.45405],[-61.91691,-10.44541],[-61.91697,-10.44524],[-61.917,-10.44507],[-61.917,-10.4449],[-61.915,-10.4249],[-61.91495,-10.4247],[-61.91487,-10.42452],[-61.91476,-10.42435],[-61.90897,-10.4176],[-61.908,-10.40492],[-61.90796,-10.40473],[-61.90789,-10.40454],[-61.90778,-10.40437],[-61.90763,-10.40423],[-61.90747,-10.40412],[-61.90728,-10.40404],[-61.90708,-10.404],[-61.90688,-10.40401],[-61.90668,-10.40405],[-61.90558,-10.40442],[-61.90895,-10.39432],[-61.90899,-10.39413],[-61.909,-10.39393],[-61.90897,-10.39374],[-61.9089,-10.39356],[-61.9088,-10.39339],[-61.90866,-10.39325],[-61.89991,-10.38548],[-61.89906,-10.38121],[-61.90683,-10.36955],[-61.90693,-10.36936],[-61.90699,-10.36915],[-61.907,-10.36893],[-61.90502,-10.33926],[-61.90985,-10.33153],[-61.90993,-10.33136],[-61.90998,-10.33118],[-61.91,-10.33099],[-61.90998,-10.3308],[-61.90992,-10.33061],[-61.90983,-10.33045],[-61.90971,-10.3303],[-61.90957,-10.33018],[-61.89357,-10.31918],[-61.8934,-10.31909],[-61.89323,-10.31903],[-61.89304,-10.319],[-61.89286,-10.31901],[-61.88619,-10.31996],[-61.85548,-10.30312],[-61.8553,-10.30305],[-61.85511,-10.30301],[-61.85492,-10.303],[-61.84292,-10.304],[-61.84271,-10.30404],[-61.84252,-10.30412],[-61.84234,-10.30425],[-61.8422,-10.3044],[-61.8397,-10.30773],[-61.83245,-10.30411],[-61.83225,-10.30403],[-61.83204,-10.304],[-61.83183,-10.30401],[-61.83163,-10.30407],[-61.83145,-10.30417],[-61.82953,-10.30544],[-61.829,-10.30384],[-61.829,-10.29625],[-61.84288,-10.27047],[-61.84294,-10.27034],[-61.84298,-10.2702],[-61.84594,-10.25538],[-61.85585,-10.23953],[-61.85591,-10.23941],[-61.86391,-10.22141],[-61.86399,-10.22113],[-61.86594,-10.20652],[-61.87361,-10.20025],[-61.87647,-10.1979],[-61.89027,-10.19396],[-61.8905,-10.19387],[-61.89069,-10.19372],[-61.91369,-10.17172],[-61.91386,-10.17151],[-61.91545,-10.16887],[-61.91686,-10.16651],[-61.91694,-10.16634],[-61.91699,-10.16615],[-61.917,-10.16595],[-61.91697,-10.16576],[-61.91691,-10.16558],[-61.91004,-10.15086],[-61.91299,-10.13316],[-61.913,-10.13301],[-61.91299,-10.13285],[-61.91066,-10.11701],[-61.91094,-10.11628],[-61.91121,-10.11575],[-61.91172,-10.11533],[-61.91173,-10.11532],[-61.9125,-10.11467],[-61.91256,-10.11462],[-61.91408,-10.1131],[-61.91426,-10.11287],[-61.91455,-10.11232],[-61.9149,-10.11191],[-61.91495,-10.11185],[-61.91551,-10.11106],[-61.91562,-10.11087],[-61.91572,-10.11062],[-61.91577,-10.11048],[-61.91605,-10.1093],[-61.91606,-10.10926],[-61.91654,-10.10692],[-61.91654,-10.10688],[-61.91669,-10.10592],[-61.91688,-10.10527],[-61.91761,-10.10348],[-61.91799,-10.10275],[-61.91805,-10.10261],[-61.91809,-10.10245],[-61.91817,-10.10197],[-61.91845,-10.10139],[-61.91896,-10.10092],[-61.91997,-10.10035],[-61.92011,-10.10025],[-61.92023,-10.10013],[-61.92155,-10.09863],[-61.92165,-10.09849],[-61.92172,-10.09834],[-61.922,-10.09765],[-61.92265,-10.09635],[-61.92397,-10.09542],[-61.92661,-10.09435],[-61.9267,-10.0943],[-61.92731,-10.09398],[-61.92744,-10.0939],[-61.92756,-10.09379],[-61.92777,-10.09358],[-61.92791,-10.0934],[-61.92832,-10.09272],[-61.92839,-10.09259],[-61.92844,-10.09244],[-61.9286,-10.09179],[-61.92903,-10.09061],[-61.92955,-10.08967],[-61.93015,-10.08886],[-61.93107,-10.08823],[-61.93372,-10.08684],[-61.9338,-10.0868],[-61.93566,-10.0856],[-61.93571,-10.08557],[-61.9378,-10.08405],[-61.93787,-10.08399],[-61.93949,-10.0826],[-61.94187,-10.08095],[-61.9429,-10.08072],[-61.94442,-10.08056],[-61.94446,-10.08055],[-61.94695,-10.0802],[-61.9486,-10.08008],[-61.94868,-10.08007],[-61.9497,-10.07991],[-61.94983,-10.07988],[-61.95028,-10.07975],[-61.95042,-10.07969],[-61.95056,-10.07961],[-61.95071,-10.07951],[-61.95119,-10.07929],[-61.95192,-10.07905],[-61.95207,-10.07905],[-61.95263,-10.07919],[-61.95335,-10.0797],[-61.95377,-10.08005],[-61.95392,-10.08016],[-61.95457,-10.08052],[-61.95472,-10.08059],[-61.95488,-10.08063],[-61.95524,-10.0807],[-61.95542,-10.08071],[-61.95748,-10.08071],[-61.95943,-10.081],[-61.95951,-10.08101],[-61.96129,-10.08113],[-61.96139,-10.08113],[-61.96285,-10.08108],[-61.96303,-10.08106],[-61.96335,-10.08099],[-61.96358,-10.08091],[-61.96525,-10.08008],[-61.96534,-10.08003],[-61.96728,-10.0788],[-61.96748,-10.07864],[-61.96779,-10.07831],[-61.96786,-10.07821],[-61.96844,-10.07742],[-61.96847,-10.07737],[-61.96905,-10.07648],[-61.96952,-10.07606],[-61.96962,-10.07596],[-61.96979,-10.07575],[-61.96994,-10.07551],[-61.97007,-10.07523],[-61.97013,-10.07505],[-61.97036,-10.07407],[-61.97065,-10.07324],[-61.97096,-10.07288],[-61.97165,-10.07222],[-61.97179,-10.07205],[-61.97224,-10.07137],[-61.97233,-10.07122],[-61.97238,-10.07106],[-61.97246,-10.07073],[-61.97249,-10.0706],[-61.97257,-10.06985],[-61.97258,-10.06969],[-61.97246,-10.06735],[-61.97241,-10.06707],[-61.97133,-10.064],[-61.97084,-10.06248],[-61.97064,-10.0617],[-61.97054,-10.06094],[-61.97068,-10.05926],[-61.97069,-10.05919],[-61.9707,-10.05819],[-61.9707,-10.05814],[-61.97066,-10.05713],[-61.97062,-10.05689],[-61.97054,-10.0567],[-61.97061,-10.05255],[-61.97076,-10.05022],[-61.97082,-10.04984],[-61.97084,-10.04981],[-61.97139,-10.04916],[-61.97209,-10.04862],[-61.97219,-10.04853],[-61.97383,-10.04684],[-61.97385,-10.04682],[-61.97679,-10.04363],[-61.97725,-10.04319],[-61.97736,-10.04308],[-61.97793,-10.04233],[-61.97803,-10.04218],[-61.9781,-10.04202],[-61.97841,-10.04103],[-61.97845,-10.04082],[-61.97872,-10.03803],[-61.97883,-10.03767],[-61.97886,-10.03755],[-61.97892,-10.0372],[-61.97932,-10.03641],[-61.97934,-10.03634],[-61.98001,-10.03473],[-61.98015,-10.03451],[-61.98155,-10.03323],[-61.98262,-10.03249],[-61.98268,-10.03245],[-61.9845,-10.03101],[-61.98459,-10.03093],[-61.98746,-10.02801],[-61.98949,-10.02653],[-61.99091,-10.02556],[-61.99104,-10.02544],[-61.99116,-10.02531],[-61.99156,-10.02474],[-61.99281,-10.02363],[-61.993,-10.0234],[-61.99404,-10.0217],[-61.99415,-10.02146],[-61.99423,-10.02118],[-61.99426,-10.02108],[-61.99443,-10.02018],[-61.99444,-10.02011],[-61.99478,-10.01696],[-61.99479,-10.01686],[-61.99481,-10.01514],[-61.99481,-10.01504],[-61.99479,-10.01484],[-61.99473,-10.01457],[-61.99461,-10.01428],[-61.99457,-10.01406],[-61.99458,-10.01343],[-61.99458,-10.01332],[-61.9945,-10.01253],[-61.99443,-10.01227],[-61.99347,-10.0098],[-61.9934,-10.00964],[-61.99319,-10.0093],[-61.99306,-10.00913],[-61.99291,-10.009],[-61.99206,-10.0084],[-61.99187,-10.0083],[-61.99058,-10.00777],[-61.99042,-10.00772],[-61.99025,-10.0077],[-61.98825,-10.0076],[-61.98635,-10.0074],[-61.98409,-10.00704],[-61.98243,-10.00647],[-61.98158,-10.00602],[-61.98034,-10.00488],[-61.98028,-10.00483],[-61.97892,-10.00376],[-61.97878,-10.00367],[-61.97863,-10.0036],[-61.97757,-10.00323],[-61.97672,-10.00282],[-61.97649,-10.00261],[-61.97603,-10.00186],[-61.97586,-10.00121],[-61.97562,-9.99973],[-61.97556,-9.99952],[-61.97546,-9.99933],[-61.97533,-9.99917],[-61.97275,-9.99666],[-61.9726,-9.99654],[-61.96949,-9.99449],[-61.96692,-9.99224],[-61.9666,-9.99173],[-61.96587,-9.99001],[-61.96583,-9.98992],[-61.96487,-9.98815],[-61.9645,-9.98731],[-61.96425,-9.98606],[-61.96423,-9.986],[-61.96084,-9.97321],[-61.95976,-9.96887],[-61.95974,-9.96881],[-61.95709,-9.9604],[-61.95647,-9.95797],[-61.95595,-9.95358],[-61.95596,-9.95216],[-61.95606,-9.95083],[-61.95624,-9.94974],[-61.95626,-9.94955],[-61.95623,-9.94935],[-61.95617,-9.94917],[-61.95607,-9.949],[-61.95595,-9.94885],[-61.95579,-9.94873],[-61.95562,-9.94864],[-61.95543,-9.94859],[-61.95524,-9.94858],[-61.95504,-9.9486],[-61.95486,-9.94866],[-61.95469,-9.94875],[-61.95454,-9.94888],[-61.94994,-9.95362],[-61.94266,-9.94725],[-61.94252,-9.94714],[-61.94236,-9.94707],[-61.9422,-9.94702],[-61.9372,-9.94602],[-61.93701,-9.946],[-61.93683,-9.94601],[-61.93665,-9.94606],[-61.93649,-9.94614],[-61.93634,-9.94625],[-61.93621,-9.94638],[-61.93611,-9.94654],[-61.92418,-9.96942],[-61.91027,-9.98432],[-61.91011,-9.98455],[-61.90876,-9.98725],[-61.89974,-9.97733],[-61.89959,-9.97719],[-61.89942,-9.97709],[-61.89922,-9.97703],[-61.89902,-9.977],[-61.89882,-9.97702],[-61.89863,-9.97707],[-61.87381,-9.987],[-61.86547,-9.987],[-61.86093,-9.98155],[-61.85901,-9.97197],[-61.86198,-9.95024],[-61.87794,-9.90735],[-61.87799,-9.90716],[-61.878,-9.90697],[-61.87797,-9.90677],[-61.87791,-9.90659],[-61.87782,-9.90642],[-61.86082,-9.88242],[-61.86065,-9.88224],[-61.86045,-9.88211],[-61.8507,-9.87723],[-61.83995,-9.85964],[-61.83804,-9.84912],[-61.84492,-9.8334],[-61.84498,-9.83322],[-61.845,-9.83303],[-61.84499,-9.83284],[-61.84296,-9.82065],[-61.84199,-9.81484],[-61.84194,-9.81466],[-61.84187,-9.8145],[-61.84177,-9.81436],[-61.83677,-9.80836],[-61.83664,-9.80823],[-61.83649,-9.80813],[-61.83632,-9.80805],[-61.80704,-9.79829],[-61.808,-9.77905],[-61.80799,-9.77884],[-61.80793,-9.77864],[-61.80784,-9.77845],[-61.80771,-9.77829],[-61.80083,-9.77142],[-61.79501,-9.75881],[-61.79598,-9.74331],[-61.79886,-9.73851],[-61.79895,-9.73832],[-61.79899,-9.73812],[-61.799,-9.73791],[-61.79895,-9.7377],[-61.79295,-9.7187],[-61.79288,-9.71852],[-61.79277,-9.71836],[-61.79263,-9.71823],[-61.79248,-9.71812],[-61.7923,-9.71805],[-61.79211,-9.71801],[-61.77411,-9.71601],[-61.77392,-9.716],[-61.77373,-9.71604],[-61.77355,-9.71611],[-61.77338,-9.71621],[-61.7597,-9.72696],[-61.73311,-9.72401],[-61.73292,-9.724],[-61.73274,-9.72404],[-61.71114,-9.72993],[-61.6905,-9.71813],[-61.69033,-9.71806],[-61.69016,-9.71801],[-61.68998,-9.718],[-61.6898,-9.71802],[-61.68507,-9.71897],[-61.66245,-9.7111],[-61.65655,-9.70717],[-61.65637,-9.70707],[-61.65616,-9.70701],[-61.64443,-9.70506],[-61.63264,-9.69523],[-61.63248,-9.69512],[-61.61048,-9.68312],[-61.61032,-9.68305],[-61.61015,-9.68301],[-61.60998,-9.683],[-61.6098,-9.68302],[-61.6048,-9.68402],[-61.60462,-9.68407],[-61.60446,-9.68416],[-61.60431,-9.68428],[-61.60419,-9.68442],[-61.60409,-9.68458],[-61.60403,-9.68476],[-61.60211,-9.69245],[-61.57315,-9.71776],[-61.57301,-9.71791],[-61.5729,-9.71808],[-61.57284,-9.71826],[-61.5728,-9.71846],[-61.57281,-9.71866],[-61.57286,-9.71885],[-61.57295,-9.71903],[-61.57334,-9.71968],[-61.57361,-9.72053],[-61.57358,-9.72138],[-61.5734,-9.72251],[-61.57309,-9.72321],[-61.57224,-9.72411],[-61.57221,-9.72414],[-61.57112,-9.72539],[-61.56779,-9.72778],[-61.56769,-9.72786],[-61.56627,-9.7292],[-61.56535,-9.72964],[-61.56443,-9.72985],[-61.56288,-9.72958],[-61.55995,-9.72818],[-61.55981,-9.72812],[-61.55858,-9.72775],[-61.55842,-9.72772],[-61.55826,-9.72771],[-61.55657,-9.72777],[-61.55641,-9.72779],[-61.55624,-9.72784],[-61.55481,-9.72839],[-61.55466,-9.72846],[-61.55452,-9.72856],[-61.5533,-9.72961],[-61.55315,-9.72976],[-61.55216,-9.73106],[-61.55143,-9.7316],[-61.55034,-9.73173],[-61.55025,-9.73174],[-61.54888,-9.73204],[-61.54866,-9.73211],[-61.5477,-9.73257],[-61.54755,-9.73265],[-61.54743,-9.73276],[-61.54635,-9.73381],[-61.54624,-9.73395],[-61.54566,-9.73478],[-61.54473,-9.73552],[-61.54309,-9.73601],[-61.54305,-9.73602],[-61.54073,-9.73681],[-61.54058,-9.73687],[-61.53981,-9.73728],[-61.53794,-9.73811],[-61.53701,-9.73839],[-61.53695,-9.73841],[-61.53609,-9.73872],[-61.53214,-9.73901],[-61.53109,-9.73901],[-61.53089,-9.73903],[-61.5307,-9.73908],[-61.53014,-9.73932],[-61.52996,-9.73941],[-61.52981,-9.73954],[-61.52969,-9.7397],[-61.52935,-9.74022],[-61.52925,-9.74041],[-61.5292,-9.74062],[-61.52919,-9.74084],[-61.52925,-9.74163],[-61.52931,-9.7419],[-61.52981,-9.74322],[-61.52989,-9.74339],[-61.53042,-9.74427],[-61.53095,-9.74543],[-61.53119,-9.74626],[-61.53122,-9.74765],[-61.53118,-9.74879],[-61.5309,-9.75126],[-61.5309,-9.75133],[-61.53083,-9.75315],[-61.53069,-9.75416],[-61.53069,-9.75441],[-61.53095,-9.75658],[-61.531,-9.75682],[-61.53146,-9.75804],[-61.53152,-9.75817],[-61.53333,-9.76143],[-61.53335,-9.76145],[-61.53472,-9.76378],[-61.53594,-9.76606],[-61.53654,-9.76751],[-61.53735,-9.76973],[-61.53736,-9.76976],[-61.53818,-9.77181],[-61.53835,-9.77271],[-61.53839,-9.77286],[-61.53874,-9.77384],[-61.53901,-9.7748],[-61.53922,-9.77631],[-61.53929,-9.77656],[-61.53961,-9.77732],[-61.53992,-9.77827],[-61.53999,-9.77843],[-61.54045,-9.77928],[-61.54048,-9.77933],[-61.54163,-9.78118],[-61.54172,-9.7813],[-61.54387,-9.78382],[-61.54392,-9.78388],[-61.54447,-9.78442],[-61.54613,-9.78653],[-61.54661,-9.78723],[-61.54686,-9.78811],[-61.54691,-9.7889],[-61.54672,-9.78929],[-61.54623,-9.78983],[-61.5453,-9.79029],[-61.54383,-9.79093],[-61.53974,-9.79191],[-61.53951,-9.792],[-61.53832,-9.79262],[-61.53753,-9.79293],[-61.53649,-9.79298],[-61.53295,-9.79259],[-61.53273,-9.79259],[-61.5306,-9.79284],[-61.53042,-9.79288],[-61.52919,-9.79326],[-61.52911,-9.79329],[-61.52758,-9.79392],[-61.52739,-9.79402],[-61.52583,-9.7951],[-61.52568,-9.79522],[-61.52485,-9.79606],[-61.52472,-9.79623],[-61.52395,-9.79745],[-61.52387,-9.7976],[-61.52382,-9.79775],[-61.52349,-9.79916],[-61.52346,-9.79943],[-61.52364,-9.80395],[-61.52365,-9.80406],[-61.52387,-9.80545],[-61.52391,-9.80559],[-61.52463,-9.80786],[-61.52466,-9.80796],[-61.52532,-9.80947],[-61.52537,-9.80957],[-61.52652,-9.81158],[-61.52656,-9.81164],[-61.52762,-9.81323],[-61.52764,-9.81326],[-61.52896,-9.8151],[-61.52999,-9.81684],[-61.53001,-9.81687],[-61.53075,-9.81803],[-61.53138,-9.81918],[-61.53149,-9.81982],[-61.53131,-9.82026],[-61.53058,-9.82094],[-61.52964,-9.82142],[-61.52898,-9.82164],[-61.52806,-9.82145],[-61.52644,-9.82083],[-61.52636,-9.82081],[-61.52477,-9.82035],[-61.52455,-9.82031],[-61.52319,-9.82023],[-61.523,-9.82024],[-61.52201,-9.82037],[-61.52187,-9.8204],[-61.52058,-9.82076],[-61.52039,-9.82083],[-61.52022,-9.82093],[-61.51823,-9.8225],[-61.51806,-9.82266],[-61.51733,-9.82358],[-61.51726,-9.82369],[-61.51648,-9.82497],[-61.51642,-9.82509],[-61.51568,-9.82684],[-61.51563,-9.82698],[-61.5151,-9.82912],[-61.51507,-9.82936],[-61.51506,-9.83051],[-61.51492,-9.83214],[-61.51492,-9.83224],[-61.51494,-9.83428],[-61.51495,-9.83433],[-61.5151,-9.83678],[-61.51515,-9.83885],[-61.51496,-9.84032],[-61.51495,-9.84046],[-61.51497,-9.84268],[-61.51478,-9.84403],[-61.51436,-9.84616],[-61.51291,-9.85011],[-61.51219,-9.85188],[-61.51153,-9.85335],[-61.5095,-9.85662],[-61.50768,-9.85922],[-61.50757,-9.85943],[-61.50687,-9.8612],[-61.50684,-9.86129],[-61.50636,-9.86293],[-61.50634,-9.86306],[-61.50609,-9.8647],[-61.50608,-9.86486],[-61.50611,-9.86707],[-61.50612,-9.8672],[-61.50637,-9.86897],[-61.5064,-9.86908],[-61.50682,-9.8707],[-61.50683,-9.87075],[-61.50781,-9.87387],[-61.50782,-9.8739],[-61.50861,-9.87621],[-61.50864,-9.87629],[-61.50892,-9.87692],[-61.50891,-9.87917],[-61.5086,-9.88072],[-61.50795,-9.88256],[-61.50743,-9.88386],[-61.5074,-9.88394],[-61.50673,-9.88611],[-61.5067,-9.88626],[-61.50655,-9.88728],[-61.50655,-9.88732],[-61.50648,-9.88794],[-61.50649,-9.88821],[-61.50669,-9.88939],[-61.50671,-9.88951],[-61.5072,-9.89116],[-61.50725,-9.89129],[-61.50833,-9.8937],[-61.50836,-9.89376],[-61.50912,-9.89518],[-61.50926,-9.89538],[-61.51039,-9.8966],[-61.51046,-9.89668],[-61.51211,-9.89813],[-61.51227,-9.89825],[-61.5134,-9.8989],[-61.51351,-9.89896],[-61.51508,-9.89963],[-61.51656,-9.9006],[-61.51663,-9.90065],[-61.51972,-9.90234],[-61.52218,-9.90415],[-61.5231,-9.90525],[-61.52345,-9.90597],[-61.5239,-9.90764],[-61.52373,-9.91077],[-61.52373,-9.9109],[-61.52385,-9.91257],[-61.52391,-9.91283],[-61.52492,-9.91569],[-61.52499,-9.91638],[-61.52488,-9.91747],[-61.52423,-9.91915],[-61.52328,-9.92114],[-61.52323,-9.92125],[-61.52225,-9.92414],[-61.52221,-9.92432],[-61.52204,-9.9255],[-61.52203,-9.92564],[-61.52203,-9.92676],[-61.52204,-9.92693],[-61.52227,-9.92837],[-61.52235,-9.92865],[-61.52318,-9.93036],[-61.5233,-9.93055],[-61.52346,-9.93071],[-61.52475,-9.93174],[-61.52485,-9.93181],[-61.52624,-9.93266],[-61.52723,-9.93349],[-61.52756,-9.93388],[-61.52735,-9.93554],[-61.52714,-9.93613],[-61.52628,-9.93721],[-61.52512,-9.93819],[-61.52505,-9.93825],[-61.52381,-9.9395],[-61.52364,-9.93973],[-61.52328,-9.94041],[-61.52322,-9.94053],[-61.52272,-9.94185],[-61.52269,-9.94196],[-61.52238,-9.94317],[-61.52236,-9.94331],[-61.52219,-9.94489],[-61.52218,-9.945],[-61.5222,-9.94717],[-61.52222,-9.94737],[-61.52255,-9.94895],[-61.5226,-9.94911],[-61.52267,-9.94926],[-61.52276,-9.94939],[-61.52342,-9.95018],[-61.52359,-9.95034],[-61.5238,-9.95046],[-61.52558,-9.95123],[-61.52572,-9.95128],[-61.52863,-9.95203],[-61.53031,-9.95266],[-61.53153,-9.95326],[-61.53242,-9.9541],[-61.5329,-9.95484],[-61.53314,-9.95568],[-61.53355,-9.95777],[-61.5336,-9.95794],[-61.5341,-9.95922],[-61.53421,-9.95943],[-61.53566,-9.96154],[-61.53573,-9.96164],[-61.53716,-9.96325],[-61.53808,-9.96475],[-61.53808,-9.96483],[-61.53678,-9.96502],[-61.53671,-9.96503],[-61.53445,-9.96551],[-61.53076,-9.96608],[-61.53049,-9.96616],[-61.52949,-9.96661],[-61.5293,-9.96673],[-61.52913,-9.96689],[-61.52773,-9.96863],[-61.52764,-9.96877],[-61.52757,-9.96892],[-61.52707,-9.9703],[-61.52702,-9.97048],[-61.52701,-9.97066],[-61.52706,-9.97336],[-61.52707,-9.97346],[-61.52777,-9.97906],[-61.52778,-9.9791],[-61.52811,-9.98111],[-61.52811,-9.98114],[-61.52924,-9.987],[-61.52928,-9.98714],[-61.53007,-9.98938],[-61.5301,-9.98947],[-61.53076,-9.99088],[-61.53087,-9.99106],[-61.532,-9.99255],[-61.53207,-9.99264],[-61.533,-9.9936],[-61.53304,-9.99364],[-61.53396,-9.9945],[-61.53404,-9.99457],[-61.53517,-9.9954],[-61.5353,-9.99548],[-61.53663,-9.99618],[-61.53674,-9.99623],[-61.5385,-9.99689],[-61.53872,-9.99694],[-61.54011,-9.99712],[-61.54015,-9.99713],[-61.54107,-9.9972],[-61.54116,-9.99726],[-61.54094,-9.99744],[-61.54092,-9.99746],[-61.53914,-9.99905],[-61.539,-9.99921],[-61.53889,-9.99939],[-61.53882,-9.99958],[-61.5388,-9.99979],[-61.53882,-10],[-61.5394,-10.00278],[-61.5394,-10.00279],[-61.53961,-10.00376],[-61.5397,-10.00534],[-61.53963,-10.00671],[-61.53963,-10.00687],[-61.53966,-10.00703],[-61.54009,-10.00851],[-61.5402,-10.00875],[-61.54098,-10.01004],[-61.54108,-10.01017],[-61.5412,-10.01029],[-61.54133,-10.01038],[-61.54213,-10.01085],[-61.54223,-10.0109],[-61.54369,-10.01155],[-61.54447,-10.01196],[-61.54469,-10.01227],[-61.54482,-10.01274],[-61.54469,-10.01375],[-61.54439,-10.0146],[-61.54436,-10.01472],[-61.54398,-10.0164],[-61.54396,-10.01659],[-61.54392,-10.01862],[-61.54394,-10.01887],[-61.54402,-10.01909],[-61.54456,-10.02018],[-61.54507,-10.02143],[-61.54517,-10.02162],[-61.54616,-10.02307],[-61.54628,-10.02322],[-61.54704,-10.02397],[-61.54797,-10.02515],[-61.54913,-10.02679],[-61.55034,-10.02874],[-61.55184,-10.0317],[-61.55186,-10.03174],[-61.55217,-10.03229],[-61.55248,-10.03384],[-61.55251,-10.0347],[-61.55254,-10.03491],[-61.55276,-10.03581],[-61.5528,-10.03592],[-61.55306,-10.03661],[-61.55316,-10.0368],[-61.5536,-10.03748],[-61.55368,-10.03784],[-61.55375,-10.03802],[-61.55384,-10.03819],[-61.55483,-10.03957],[-61.55498,-10.03974],[-61.55627,-10.04089],[-61.55639,-10.04099],[-61.55759,-10.04175],[-61.55762,-10.04178],[-61.55888,-10.04251],[-61.55901,-10.04257],[-61.56077,-10.04327],[-61.56091,-10.04332],[-61.56494,-10.04427],[-61.56741,-10.04528],[-61.56857,-10.04591],[-61.56946,-10.04687],[-61.56976,-10.04747],[-61.56987,-10.04764],[-61.57001,-10.04779],[-61.57017,-10.0479],[-61.57347,-10.0497],[-61.57673,-10.05187],[-61.57796,-10.05313],[-61.57892,-10.05476],[-61.57931,-10.0556],[-61.57962,-10.05648],[-61.57967,-10.05659],[-61.5801,-10.05744],[-61.58019,-10.05759],[-61.58031,-10.05773],[-61.58045,-10.05784],[-61.58188,-10.05876],[-61.58288,-10.05962],[-61.58329,-10.06026],[-61.58354,-10.06079],[-61.58355,-10.0617],[-61.58345,-10.06225],[-61.58307,-10.06336],[-61.5825,-10.06428],[-61.58244,-10.06438],[-61.58211,-10.06508],[-61.58135,-10.06612],[-61.5796,-10.06787],[-61.5795,-10.068],[-61.57941,-10.06814],[-61.57935,-10.0683],[-61.57844,-10.07148],[-61.57782,-10.07355],[-61.57736,-10.07476],[-61.57732,-10.07487],[-61.57695,-10.07638],[-61.57692,-10.07662],[-61.57691,-10.0782],[-61.57694,-10.07841],[-61.577,-10.0786],[-61.57758,-10.07995],[-61.57766,-10.0801],[-61.57777,-10.08023],[-61.57789,-10.08034],[-61.57879,-10.08104],[-61.57893,-10.08114],[-61.58151,-10.08252],[-61.58207,-10.08295],[-61.58242,-10.08374],[-61.58271,-10.08472],[-61.58288,-10.08721],[-61.58293,-10.08747],[-61.58314,-10.08807],[-61.58325,-10.08887],[-61.58327,-10.08897],[-61.58351,-10.08994],[-61.5835,-10.09056],[-61.58339,-10.09134],[-61.58304,-10.09211],[-61.58243,-10.09315],[-61.58238,-10.09324],[-61.58214,-10.09378],[-61.58207,-10.094],[-61.58206,-10.09423],[-61.58209,-10.09495],[-61.58211,-10.09514],[-61.58228,-10.09583],[-61.58233,-10.09599],[-61.58279,-10.09707],[-61.58286,-10.09722],[-61.58296,-10.09734],[-61.58366,-10.09814],[-61.58424,-10.09891],[-61.58492,-10.09997],[-61.58545,-10.10096],[-61.58581,-10.10218],[-61.58583,-10.10223],[-61.58619,-10.10325],[-61.58623,-10.10335],[-61.58679,-10.10453],[-61.58688,-10.10469],[-61.58701,-10.10483],[-61.58715,-10.10495],[-61.58761,-10.10524],[-61.58786,-10.10559],[-61.58817,-10.10648],[-61.5882,-10.10656],[-61.58878,-10.10783],[-61.58914,-10.10976],[-61.58921,-10.10998],[-61.58943,-10.11048],[-61.58967,-10.11164],[-61.59028,-10.11521],[-61.59031,-10.11533],[-61.59062,-10.11636],[-61.5908,-10.11747],[-61.58944,-10.11995],[-61.58937,-10.1201],[-61.589,-10.12116],[-61.58895,-10.12134],[-61.58885,-10.12202],[-61.58884,-10.12221],[-61.58886,-10.12239],[-61.58909,-10.12341],[-61.58917,-10.12363],[-61.58951,-10.12434],[-61.58952,-10.12469],[-61.58954,-10.12483],[-61.58958,-10.12498],[-61.58998,-10.1261],[-61.59002,-10.1262],[-61.59037,-10.12693],[-61.59066,-10.12811],[-61.59081,-10.12903],[-61.59084,-10.12914],[-61.59107,-10.12996],[-61.59114,-10.13013],[-61.59166,-10.13118],[-61.59172,-10.13129],[-61.59248,-10.13245],[-61.59255,-10.13254],[-61.59318,-10.13329],[-61.59386,-10.13457],[-61.59422,-10.13596],[-61.5945,-10.13719],[-61.59461,-10.13838],[-61.59448,-10.1398],[-61.59425,-10.14126],[-61.59405,-10.14215],[-61.59403,-10.14234],[-61.59404,-10.14254],[-61.59434,-10.14421],[-61.59436,-10.14433],[-61.59482,-10.14585],[-61.59489,-10.14601],[-61.59498,-10.14616],[-61.59509,-10.14629],[-61.59576,-10.14692],[-61.5959,-10.14703],[-61.59703,-10.14776],[-61.5971,-10.1478],[-61.59796,-10.14826],[-61.59898,-10.14898],[-61.59969,-10.14966],[-61.6004,-10.15088],[-61.60069,-10.15167],[-61.60101,-10.15372],[-61.60093,-10.15441],[-61.60092,-10.15447],[-61.60082,-10.15604],[-61.59996,-10.15803],[-61.59905,-10.15921],[-61.59815,-10.15991],[-61.5981,-10.15996],[-61.59691,-10.16104],[-61.59506,-10.1617],[-61.59368,-10.16201],[-61.59219,-10.1618],[-61.59035,-10.16131],[-61.59023,-10.16128],[-61.58897,-10.16111],[-61.58868,-10.16112],[-61.58656,-10.16144],[-61.58652,-10.16145],[-61.58447,-10.16185],[-61.58183,-10.16194],[-61.5818,-10.16194],[-61.57844,-10.16215],[-61.57828,-10.16217],[-61.57669,-10.16253],[-61.57651,-10.16258],[-61.57634,-10.16268],[-61.5762,-10.1628],[-61.57608,-10.16295],[-61.57486,-10.16479],[-61.57365,-10.16636],[-61.57245,-10.16759],[-61.57103,-10.16856],[-61.56992,-10.16922],[-61.56863,-10.16952],[-61.56684,-10.16964],[-61.5667,-10.16966],[-61.56358,-10.17033],[-61.56349,-10.17035],[-61.56213,-10.17077],[-61.56199,-10.17083],[-61.56186,-10.1709],[-61.56023,-10.17202],[-61.56006,-10.17217],[-61.55993,-10.17235],[-61.55878,-10.17437],[-61.5576,-10.176],[-61.55752,-10.17614],[-61.55746,-10.17629],[-61.55696,-10.1779],[-61.55694,-10.17796],[-61.55653,-10.17964],[-61.55651,-10.17987],[-61.5565,-10.18148],[-61.55651,-10.18163],[-61.55677,-10.18334],[-61.55678,-10.18343],[-61.55718,-10.18504],[-61.55723,-10.1852],[-61.55799,-10.18695],[-61.55808,-10.18711],[-61.55876,-10.18813],[-61.55907,-10.18898],[-61.55933,-10.18982],[-61.55923,-10.1904],[-61.55859,-10.19157],[-61.55789,-10.19202],[-61.55663,-10.19262],[-61.55647,-10.19271],[-61.55469,-10.194],[-61.55252,-10.19535],[-61.55239,-10.19545],[-61.55123,-10.19646],[-61.55108,-10.19662],[-61.55098,-10.19681],[-61.55051,-10.19785],[-61.55045,-10.19801],[-61.55042,-10.19818],[-61.55035,-10.199],[-61.55036,-10.19919],[-61.5504,-10.19938],[-61.55047,-10.19956],[-61.55059,-10.19973],[-61.55073,-10.19986],[-61.55089,-10.19997],[-61.55107,-10.20004],[-61.55188,-10.20027],[-61.55204,-10.2003],[-61.55415,-10.20056],[-61.55605,-10.20151],[-61.55751,-10.20266],[-61.55765,-10.20275],[-61.5578,-10.20282],[-61.55796,-10.20286],[-61.55965,-10.20314],[-61.55986,-10.20315],[-61.5621,-10.20303],[-61.5633,-10.2034],[-61.56548,-10.20521],[-61.56557,-10.20528],[-61.56732,-10.20642],[-61.56739,-10.20646],[-61.56941,-10.20754],[-61.56965,-10.20763],[-61.5709,-10.20792],[-61.57168,-10.20855],[-61.57204,-10.2094],[-61.57159,-10.21084],[-61.57156,-10.21101],[-61.57155,-10.21118],[-61.57162,-10.21277],[-61.57165,-10.213],[-61.57174,-10.21321],[-61.57227,-10.21419],[-61.57197,-10.21519],[-61.57194,-10.21546],[-61.57192,-10.21726],[-61.57192,-10.21731],[-61.57199,-10.21891],[-61.57204,-10.21918],[-61.57257,-10.22079],[-61.57265,-10.22097],[-61.57276,-10.22112],[-61.57388,-10.22244],[-61.57484,-10.22371],[-61.57538,-10.22507],[-61.57567,-10.2261],[-61.57504,-10.22773],[-61.57499,-10.2279],[-61.57464,-10.22969],[-61.57463,-10.2299],[-61.57465,-10.23011],[-61.57512,-10.23205],[-61.57513,-10.23207],[-61.57555,-10.23368],[-61.57555,-10.23469],[-61.57474,-10.23669],[-61.57386,-10.23875],[-61.57379,-10.23897],[-61.57378,-10.23919],[-61.57382,-10.23942],[-61.57449,-10.24175],[-61.57455,-10.24191],[-61.57538,-10.24364],[-61.57536,-10.24647],[-61.57497,-10.24911],[-61.57453,-10.25038],[-61.56123,-10.27134],[-61.55334,-10.27825],[-61.5532,-10.2784],[-61.55309,-10.27859],[-61.54309,-10.30059],[-61.54303,-10.30078],[-61.543,-10.30098],[-61.54302,-10.30118],[-61.54307,-10.30137],[-61.54316,-10.30155],[-61.54329,-10.3017],[-61.54345,-10.30183],[-61.55168,-10.30732],[-61.54728,-10.31524],[-61.53955,-10.31911],[-61.5394,-10.3192],[-61.53927,-10.31932],[-61.53916,-10.31946],[-61.53248,-10.32995],[-61.52108,-10.329],[-61.52089,-10.32901],[-61.52071,-10.32904],[-61.52053,-10.32912],[-61.52038,-10.32922],[-61.51538,-10.33322],[-61.51523,-10.33336],[-61.51512,-10.33352],[-61.51505,-10.3337],[-61.5102,-10.34919],[-61.50071,-10.35204],[-61.50053,-10.35212],[-61.50037,-10.35222],[-61.50023,-10.35236],[-61.50012,-10.35252],[-61.50005,-10.3527],[-61.50001,-10.35289],[-61.5,-10.35309],[-61.50198,-10.37582],[-61.49632,-10.38808],[-61.48888,-10.38901],[-61.48868,-10.38905],[-61.48851,-10.38913],[-61.48835,-10.38924],[-61.48821,-10.38939],[-61.48811,-10.38955],[-61.48328,-10.39921],[-61.47064,-10.40407],[-61.47046,-10.40416],[-61.47031,-10.40428],[-61.47018,-10.40443],[-61.47008,-10.4046],[-61.47002,-10.40479],[-61.47,-10.40499],[-61.47002,-10.40519],[-61.47007,-10.40538],[-61.47017,-10.40555],[-61.47029,-10.40571],[-61.475,-10.41041],[-61.475,-10.41648],[-61.46939,-10.41408],[-61.4692,-10.41402],[-61.469,-10.414],[-61.4688,-10.41402],[-61.4638,-10.41502],[-61.46363,-10.41507],[-61.46347,-10.41515],[-61.46332,-10.41526],[-61.4632,-10.4154],[-61.4602,-10.4194],[-61.46009,-10.41958],[-61.46002,-10.41979],[-61.46,-10.42],[-61.46002,-10.42021],[-61.46602,-10.44821],[-61.46608,-10.44839],[-61.46617,-10.44856],[-61.4663,-10.44871],[-61.46645,-10.44883],[-61.47451,-10.45421],[-61.46924,-10.46035],[-61.46912,-10.46053],[-61.46904,-10.46073],[-61.469,-10.46094],[-61.46901,-10.46115],[-61.46907,-10.46136],[-61.479,-10.48717],[-61.47801,-10.52855],[-61.46532,-10.54027],[-61.4652,-10.5404],[-61.46511,-10.54055],[-61.46504,-10.54072],[-61.46501,-10.5409],[-61.465,-10.54108],[-61.46503,-10.54126],[-61.46903,-10.55626],[-61.46909,-10.55642],[-61.46918,-10.55657],[-61.47797,-10.56927],[-61.476,-10.5889],[-61.47601,-10.58911],[-61.47605,-10.58931],[-61.47613,-10.5895],[-61.47988,-10.59605],[-61.47509,-10.60659],[-61.47503,-10.60677],[-61.475,-10.60696],[-61.47501,-10.60715],[-61.47506,-10.60734],[-61.47514,-10.60751],[-61.48779,-10.62892],[-61.47721,-10.64238],[-61.4771,-10.64256],[-61.47703,-10.64276],[-61.477,-10.64296],[-61.47701,-10.64317],[-61.47707,-10.64337],[-61.48099,-10.65316],[-61.48,-10.66894],[-61.48001,-10.66911],[-61.48004,-10.66929],[-61.48011,-10.66945],[-61.4802,-10.6696],[-61.4832,-10.6736],[-61.48336,-10.67376],[-61.48354,-10.67389],[-61.48376,-10.67397],[-61.49125,-10.67584],[-61.49403,-10.68326],[-61.49691,-10.69958],[-61.4796,-10.71304],[-61.47188,-10.71401],[-61.47168,-10.71405],[-61.47151,-10.71413],[-61.47135,-10.71424],[-61.47121,-10.71439],[-61.47111,-10.71455],[-61.47104,-10.71474],[-61.471,-10.71493],[-61.47101,-10.71513],[-61.47105,-10.71532],[-61.47113,-10.7155],[-61.47513,-10.7225],[-61.47525,-10.72266],[-61.47539,-10.72279],[-61.47555,-10.72289],[-61.48513,-10.72768],[-61.4869,-10.73568],[-61.47929,-10.74329],[-61.47916,-10.74346],[-61.47906,-10.74365],[-61.47901,-10.74385],[-61.479,-10.74406],[-61.47998,-10.75971],[-61.47519,-10.76642],[-61.47508,-10.7666],[-61.47502,-10.7668],[-61.475,-10.76701],[-61.47502,-10.76722],[-61.47894,-10.78483],[-61.47214,-10.7965],[-61.47206,-10.79667],[-61.47201,-10.79685],[-61.472,-10.79703],[-61.47202,-10.79722],[-61.47208,-10.7974],[-61.47217,-10.79756],[-61.47229,-10.7977],[-61.47243,-10.79782],[-61.4726,-10.79792],[-61.47278,-10.79797],[-61.48578,-10.80097],[-61.48598,-10.801],[-61.48618,-10.80098],[-61.48637,-10.80093],[-61.48655,-10.80083],[-61.48671,-10.80071],[-61.49171,-10.79571],[-61.49186,-10.79552],[-61.49196,-10.79529],[-61.49569,-10.78316],[-61.504,-10.78482],[-61.504,-10.789],[-61.50402,-10.78922],[-61.50409,-10.78942],[-61.50421,-10.78961],[-61.50436,-10.78977],[-61.50919,-10.79379],[-61.50655,-10.79511],[-61.50639,-10.79521],[-61.50624,-10.79534],[-61.50613,-10.7955],[-61.50605,-10.79568],[-61.50205,-10.80768],[-61.50201,-10.80786],[-61.502,-10.80804],[-61.50202,-10.80821],[-61.50208,-10.80838],[-61.50216,-10.80854],[-61.51089,-10.82212],[-61.50806,-10.82965],[-61.50802,-10.82981],[-61.508,-10.82998],[-61.50801,-10.83014],[-61.50901,-10.83714],[-61.50906,-10.83734],[-61.50914,-10.83752],[-61.50926,-10.83768],[-61.50941,-10.83781],[-61.50959,-10.83791],[-61.52018,-10.84272],[-61.52399,-10.85511],[-61.522,-10.88092],[-61.52201,-10.8811],[-61.52204,-10.88128],[-61.52211,-10.88145],[-61.5222,-10.8816],[-61.52474,-10.88499],[-61.51821,-10.89339],[-61.51811,-10.89354],[-61.51804,-10.89372],[-61.518,-10.8939],[-61.518,-10.89409],[-61.51804,-10.89427],[-61.51811,-10.89445],[-61.52257,-10.90338],[-61.51371,-10.90604],[-61.51352,-10.90612],[-61.51335,-10.90624],[-61.51321,-10.90639],[-61.5131,-10.90657],[-61.51303,-10.90676],[-61.513,-10.90697],[-61.51301,-10.90717],[-61.51307,-10.90737],[-61.51704,-10.91729],[-61.52195,-10.93989],[-61.51809,-10.94859],[-61.51802,-10.94878],[-61.518,-10.94898],[-61.51802,-10.94918],[-61.51807,-10.94937],[-61.51817,-10.94955],[-61.51829,-10.94971],[-61.52605,-10.95747],[-61.52901,-10.97914],[-61.52905,-10.97932],[-61.52913,-10.97949],[-61.52924,-10.97965],[-61.52937,-10.97978],[-61.52953,-10.97988],[-61.52971,-10.97996],[-61.52989,-10.97999],[-61.53008,-10.98],[-61.53027,-10.97996],[-61.53045,-10.97989],[-61.53812,-10.97606],[-61.54549,-10.9779],[-61.549,-10.98141],[-61.549,-10.986],[-61.54902,-10.9862],[-61.54908,-10.98638],[-61.54917,-10.98656],[-61.54929,-10.98671],[-61.54944,-10.98683],[-61.54962,-10.98692],[-61.5498,-10.98698],[-61.55,-10.987],[-61.84124,-10.987],[-61.85726,-10.98712],[-61.88876,-10.98736],[-61.94139,-10.98777],[-61.94195,-10.98974],[-61.94202,-10.98991],[-61.94211,-10.99006],[-61.94411,-10.99279],[-61.94426,-10.99295],[-61.94588,-10.99435],[-61.94608,-10.99449],[-61.95058,-10.99676],[-61.95166,-11.00008],[-61.9517,-11.00018],[-61.95669,-11.01143],[-61.95699,-11.01593],[-61.95342,-11.02376],[-61.95049,-11.02608],[-61.95034,-11.02623],[-61.95022,-11.0264],[-61.95015,-11.0266],[-61.94885,-11.03139],[-61.94882,-11.03154],[-61.94881,-11.0317],[-61.949,-11.0364],[-61.94738,-11.0456],[-61.94563,-11.04886],[-61.94524,-11.04959],[-61.94516,-11.04977],[-61.94512,-11.04996],[-61.94467,-11.05455],[-61.94356,-11.05773],[-61.94352,-11.0579],[-61.94351,-11.05808],[-61.94353,-11.05826],[-61.94358,-11.05843],[-61.94604,-11.06446],[-61.94748,-11.07477],[-61.94792,-11.08022],[-61.9473,-11.08263],[-61.94727,-11.08286],[-61.94723,-11.08439],[-61.94724,-11.08458],[-61.94729,-11.08477],[-61.94738,-11.08494],[-61.94749,-11.08509],[-61.94763,-11.08522],[-61.94779,-11.08532],[-61.94797,-11.08538],[-61.94815,-11.08542],[-61.94834,-11.08541],[-61.94853,-11.08537],[-61.94984,-11.08497],[-61.95019,-11.08669],[-61.95025,-11.08687],[-61.95034,-11.08703],[-61.95045,-11.08718],[-61.95059,-11.0873],[-61.95076,-11.08739],[-61.95206,-11.08799],[-61.95222,-11.08805],[-61.9524,-11.08808],[-61.95449,-11.08825],[-61.9558,-11.08992],[-61.95592,-11.09005],[-61.95606,-11.09016],[-61.95622,-11.09024],[-61.95639,-11.09029],[-61.95811,-11.09064],[-61.95832,-11.09066],[-61.95853,-11.09063],[-61.95873,-11.09056],[-61.96246,-11.08883],[-61.96622,-11.0902],[-61.9664,-11.09025],[-61.96658,-11.09026],[-61.96943,-11.09022],[-61.97169,-11.09138],[-61.97187,-11.09146],[-61.97429,-11.09216],[-61.97446,-11.09219],[-61.97463,-11.09219],[-61.97554,-11.09213],[-61.97578,-11.0962],[-61.97491,-11.10113],[-61.97489,-11.1013],[-61.97491,-11.10147],[-61.97495,-11.10164],[-61.97502,-11.1018],[-61.97597,-11.10346],[-61.97608,-11.10361],[-61.97621,-11.10374],[-61.98137,-11.10789],[-61.9815,-11.10798],[-61.98164,-11.10804],[-61.98549,-11.10952],[-61.98824,-11.11314],[-61.98839,-11.1133],[-61.98858,-11.11343],[-61.99194,-11.11511],[-61.99348,-11.11633],[-61.99595,-11.12007],[-61.99609,-11.12023],[-61.99626,-11.12037],[-61.99954,-11.12239],[-61.99972,-11.12248],[-61.99991,-11.12253],[-62.00012,-11.12254],[-62.00284,-11.1224],[-62.00331,-11.12506],[-62.00337,-11.12526],[-62.00346,-11.12544],[-62.00359,-11.1256],[-62.00374,-11.12572],[-62.00451,-11.12623],[-62.00465,-11.12631],[-62.0048,-11.12636],[-62.0141,-11.12886],[-62.01647,-11.13339],[-62.01656,-11.13353],[-62.02044,-11.13868],[-62.02223,-11.14276],[-62.02234,-11.14294],[-62.02248,-11.1431],[-62.02266,-11.14323],[-62.02499,-11.14454],[-62.0236,-11.14652],[-62.02351,-11.14668],[-62.02345,-11.14686],[-62.02342,-11.14705],[-62.02343,-11.14723],[-62.02347,-11.14742],[-62.02506,-11.15208],[-62.0224,-11.15918],[-62.02235,-11.15937],[-62.02234,-11.15956],[-62.02236,-11.15974],[-62.02241,-11.15992],[-62.02416,-11.16405],[-62.02277,-11.16626],[-62.02268,-11.16644],[-62.02263,-11.16663],[-62.02211,-11.16978],[-62.01949,-11.17351],[-62.0194,-11.17368],[-62.01933,-11.17388],[-62.01931,-11.17408],[-62.01933,-11.17428],[-62.02005,-11.17783],[-62.02015,-11.1781],[-62.02232,-11.18214],[-62.02239,-11.18225],[-62.02507,-11.18598],[-62.02506,-11.18644],[-62.02507,-11.18661],[-62.02511,-11.18677],[-62.02518,-11.18693],[-62.02851,-11.19318],[-62.02821,-11.19548],[-62.02627,-11.20067],[-62.02622,-11.20092],[-62.02586,-11.2043],[-62.02586,-11.20449],[-62.02589,-11.20468],[-62.02596,-11.20485],[-62.02781,-11.20854],[-62.0279,-11.20868],[-62.02801,-11.20881],[-62.02814,-11.20892],[-62.03303,-11.21227],[-62.03322,-11.21238],[-62.03783,-11.21425],[-62.03801,-11.21431],[-62.03819,-11.21433],[-62.03837,-11.21431],[-62.03854,-11.21427],[-62.04068,-11.21351],[-62.04085,-11.21344],[-62.041,-11.21333],[-62.04113,-11.2132],[-62.0425,-11.21151],[-62.0426,-11.21136],[-62.04267,-11.2112],[-62.04272,-11.21102],[-62.04272,-11.21084],[-62.04222,-11.19885],[-62.04587,-11.19506],[-62.04599,-11.1949],[-62.04608,-11.19472],[-62.04613,-11.19453],[-62.04816,-11.18222],[-62.04818,-11.18205],[-62.04816,-11.18189],[-62.04812,-11.18173],[-62.04764,-11.18036],[-62.04758,-11.18021],[-62.04749,-11.18008],[-62.04575,-11.1778],[-62.04571,-11.17606],[-62.0516,-11.16641],[-62.05168,-11.16624],[-62.05173,-11.16606],[-62.05175,-11.16587],[-62.05173,-11.16568],[-62.05167,-11.1655],[-62.05056,-11.16285],[-62.05046,-11.16266],[-62.05031,-11.16249],[-62.04807,-11.16046],[-62.04706,-11.15837],[-62.04669,-11.15534],[-62.04664,-11.15514],[-62.04655,-11.15494],[-62.04456,-11.15167],[-62.04531,-11.14964],[-62.04826,-11.14675],[-62.04839,-11.14659],[-62.04849,-11.1464],[-62.04855,-11.1462],[-62.04856,-11.14599],[-62.04853,-11.14579],[-62.04723,-11.14065],[-62.04719,-11.14054],[-62.04439,-11.1332],[-62.04429,-11.13301],[-62.04415,-11.13284],[-62.04398,-11.1327],[-62.04293,-11.13207],[-62.04304,-11.13166],[-62.04438,-11.1306],[-62.04921,-11.12931],[-62.0494,-11.12923],[-62.04957,-11.12912],[-62.04972,-11.12898],[-62.04984,-11.1288],[-62.05188,-11.12491],[-62.05406,-11.12316],[-62.05686,-11.1217],[-62.05703,-11.12159],[-62.05718,-11.12144],[-62.05729,-11.12127],[-62.05824,-11.1194],[-62.0583,-11.11923],[-62.05834,-11.11905],[-62.05834,-11.11886],[-62.05812,-11.11641],[-62.05806,-11.11615],[-62.05626,-11.1113],[-62.05624,-11.1086],[-62.05706,-11.10678],[-62.0589,-11.10577],[-62.06177,-11.10525],[-62.06195,-11.1052],[-62.06212,-11.10511],[-62.06227,-11.10499],[-62.0624,-11.10485],[-62.0625,-11.10469],[-62.06325,-11.10308],[-62.06331,-11.10292],[-62.06334,-11.10275],[-62.06334,-11.10257],[-62.06331,-11.1024],[-62.06233,-11.09874],[-62.0622,-11.09725],[-62.06438,-11.09722],[-62.06455,-11.0972],[-62.06471,-11.09716],[-62.066,-11.0967],[-62.06717,-11.09628],[-62.06736,-11.09619],[-62.06752,-11.09607],[-62.06765,-11.09592],[-62.06775,-11.09574],[-62.06782,-11.09555],[-62.06784,-11.09535],[-62.06789,-11.09085],[-62.06915,-11.08951],[-62.07347,-11.08774],[-62.07366,-11.08764],[-62.07382,-11.0875],[-62.07395,-11.08733],[-62.07404,-11.08714],[-62.07452,-11.08573],[-62.07796,-11.08205],[-62.07808,-11.08189],[-62.07958,-11.07949],[-62.07965,-11.07935],[-62.0797,-11.0792],[-62.08038,-11.07648],[-62.08041,-11.07628],[-62.0804,-11.07607],[-62.08034,-11.07587],[-62.08013,-11.07532],[-62.07743,-11.06841],[-62.08129,-11.06598],[-62.08143,-11.06587],[-62.08155,-11.06573],[-62.08818,-11.05691],[-62.08825,-11.05682],[-62.09192,-11.05053],[-62.09695,-11.0457],[-62.09709,-11.04553],[-62.09719,-11.04534],[-62.09725,-11.04513],[-62.09772,-11.04201],[-62.09772,-11.04175],[-62.09714,-11.03674],[-62.09806,-11.0341],[-62.09811,-11.03394],[-62.09874,-11.03019],[-62.09876,-11.03001],[-62.09874,-11.02982],[-62.09868,-11.02964],[-62.09745,-11.02669],[-62.09737,-11.02654],[-62.09727,-11.0264],[-62.09714,-11.02628],[-62.09699,-11.02619],[-62.09175,-11.02344],[-62.09149,-11.02335],[-62.09132,-11.02331],[-62.09132,-11.02329],[-62.09125,-11.02114],[-62.09124,-11.021],[-62.09113,-11.02038],[-62.09107,-11.02017],[-62.09092,-11.01981],[-62.09088,-11.01973],[-62.09054,-11.01909],[-62.09039,-11.01878],[-62.09043,-11.01862],[-62.09067,-11.01837],[-62.09222,-11.0174],[-62.09235,-11.01731],[-62.09245,-11.0172],[-62.09321,-11.01632],[-62.09331,-11.01617],[-62.0938,-11.01532],[-62.0939,-11.01506],[-62.09436,-11.01321],[-62.09437,-11.01314],[-62.09454,-11.01213],[-62.09456,-11.01196],[-62.09456,-11.01114],[-62.09454,-11.01094],[-62.09448,-11.01076],[-62.09439,-11.01058],[-62.09404,-11.01008],[-62.09391,-11.00991],[-62.09374,-11.00978],[-62.09355,-11.00969],[-62.09334,-11.00965],[-62.09285,-11.00958],[-62.09278,-11.00958],[-62.09212,-11.00953],[-62.09196,-11.00954],[-62.09181,-11.00956],[-62.09087,-11.0098],[-62.09128,-11.00902],[-62.09182,-11.00872],[-62.09288,-11.0083],[-62.09303,-11.00823],[-62.09403,-11.00762],[-62.09417,-11.00752],[-62.09428,-11.0074],[-62.09475,-11.00684],[-62.09503,-11.00656],[-62.09508,-11.00654],[-62.09523,-11.00652],[-62.09742,-11.00652],[-62.09748,-11.00652],[-62.09863,-11.00645],[-62.0989,-11.0064],[-62.09959,-11.00617],[-62.09983,-11.00605],[-62.10051,-11.00559],[-62.10063,-11.00549],[-62.10211,-11.00413],[-62.1022,-11.00403],[-62.10366,-11.00226],[-62.10374,-11.00215],[-62.1045,-11.00092],[-62.10458,-11.00075],[-62.1046,-11.00069],[-62.10461,-11.00073],[-62.1047,-11.00106],[-62.10477,-11.00177],[-62.10481,-11.00194],[-62.105,-11.00261],[-62.10508,-11.0028],[-62.10585,-11.00428],[-62.10602,-11.00451],[-62.10649,-11.00499],[-62.10667,-11.00514],[-62.10689,-11.00524],[-62.10764,-11.0055],[-62.10783,-11.00554],[-62.10803,-11.00555],[-62.10863,-11.00551],[-62.10879,-11.00548],[-62.10895,-11.00543],[-62.10959,-11.00515],[-62.10971,-11.0051],[-62.11046,-11.00465],[-62.11061,-11.00455],[-62.11074,-11.00441],[-62.11104,-11.00403],[-62.11113,-11.0039],[-62.11138,-11.00343],[-62.11141,-11.00339],[-62.11215,-11.00189],[-62.11236,-11.00163],[-62.11371,-11.00082],[-62.11402,-11.00071],[-62.1142,-11.00072],[-62.11453,-11.00085],[-62.11488,-11.00108],[-62.116,-11.00228],[-62.11612,-11.00239],[-62.11672,-11.00286],[-62.11693,-11.00298],[-62.11779,-11.00336],[-62.11781,-11.00337],[-62.11807,-11.00347],[-62.11819,-11.00358],[-62.11832,-11.00377],[-62.11917,-11.0057],[-62.11923,-11.00591],[-62.11923,-11.00624],[-62.11907,-11.00687],[-62.11904,-11.00712],[-62.11904,-11.00765],[-62.11904,-11.00773],[-62.11912,-11.00866],[-62.11902,-11.01008],[-62.11902,-11.01025],[-62.11905,-11.01041],[-62.11918,-11.01089],[-62.11923,-11.01105],[-62.11931,-11.01119],[-62.11952,-11.01151],[-62.11962,-11.01178],[-62.12019,-11.01381],[-62.12021,-11.01388],[-62.1204,-11.01442],[-62.12048,-11.01459],[-62.12058,-11.01473],[-62.1217,-11.01606],[-62.12181,-11.01618],[-62.12194,-11.01627],[-62.12209,-11.01635],[-62.12278,-11.01662],[-62.12295,-11.01667],[-62.12312,-11.01669],[-62.12389,-11.01671],[-62.12407,-11.0167],[-62.12423,-11.01666],[-62.125,-11.01641],[-62.12516,-11.01634],[-62.12531,-11.01625],[-62.12543,-11.01613],[-62.1262,-11.01529],[-62.1263,-11.01562],[-62.12649,-11.01659],[-62.12653,-11.01707],[-62.12659,-11.01801],[-62.12662,-11.01817],[-62.12666,-11.01832],[-62.12685,-11.0188],[-62.127,-11.01905],[-62.12749,-11.01968],[-62.1276,-11.0198],[-62.12773,-11.0199],[-62.12787,-11.01998],[-62.12935,-11.02063],[-62.12937,-11.02064],[-62.1298,-11.02082],[-62.12989,-11.02092],[-62.13067,-11.02205],[-62.13101,-11.02317],[-62.13108,-11.02334],[-62.13136,-11.02387],[-62.1315,-11.02407],[-62.13215,-11.02479],[-62.13227,-11.0249],[-62.13241,-11.02499],[-62.13318,-11.02542],[-62.13344,-11.02551],[-62.13453,-11.02577],[-62.13457,-11.02577],[-62.13588,-11.02603],[-62.13598,-11.02604],[-62.13699,-11.02612],[-62.13727,-11.02611],[-62.13756,-11.02605],[-62.13824,-11.02596],[-62.13864,-11.02596],[-62.13893,-11.02603],[-62.14122,-11.02794],[-62.14124,-11.02795],[-62.14199,-11.02855],[-62.14246,-11.02901],[-62.14303,-11.03001],[-62.14304,-11.03003],[-62.14352,-11.03082],[-62.14359,-11.03093],[-62.14371,-11.03109],[-62.14386,-11.03123],[-62.14404,-11.03133],[-62.14423,-11.03139],[-62.14444,-11.03141],[-62.14464,-11.0314],[-62.14483,-11.03134],[-62.15539,-11.02692],[-62.15556,-11.02683],[-62.15572,-11.02669],[-62.15585,-11.02653],[-62.15594,-11.02635],[-62.15882,-11.01865],[-62.16455,-11.01483],[-62.1647,-11.01471],[-62.16483,-11.01456],[-62.16492,-11.01439],[-62.16498,-11.01421],[-62.165,-11.01401],[-62.16498,-11.01382],[-62.16298,-11.00282]]]},"properties":{"ghs":"6w","size":1822.74,"ghs_len":2,"ghs_area":6947.73,"ghs_bytes":887239,"ghs_items":6410,"size_unit":"km","ghsval_unit":"bytes","ghs_itemsdensity":0.92,"size_unitdensity":0.26}}]}
