{"type": "FeatureCollection", "features": [
{"type": "Feature", "geometry": {"type": "Point", "coordinates": [-46.366374, -23.877332]}, "properties": {"info": {"x": 360884.26, "y": 7358682.8}, "address": "?, ?"}},
{"type": "Feature", "geometry": {"type": "Point", "coordinates": [-46.19088, -23.886101]}, "properties": {"info": {"x": 378762.04, "y": 7357873.3}, "address": "?, 0"}},
{"type": "Feature", "geometry": {"type": "Point", "coordinates": [-46.188577, -23.88702]}, "properties": {"info": {"x": 378997.32, "y": 7357773.5}, "address": "?, 0"}},
{"type": "Feature", "geometry": {"type": "Point", "coordinates": [-46.188524, -23.886697]}, "properties": {"info": {"x": 379002.45, "y": 7357809.3}, "address": "?, 0"}},
{"type": "Feature", "geometry": {"type": "Point", "coordinates": [-46.188749, -23.886426]}, "properties": {"info": {"x": 378979.26, "y": 7357839.1}, "address": "?, 0"}},
{"type": "Feature", "geometry": {"type": "Point", "coordinates": [-46.188899, -23.886178]}, "properties": {"info": {"x": 378963.77, "y": 7357866.4}, "address": "?, 0"}},
{"type": "Feature", "geometry": {"type": "Point", "coordinates": [-46.189007, -23.885921]}, "properties": {"info": {"x": 378952.59, "y": 7357894.8}, "address": "?, 0"}},
{"type": "Feature", "geometry": {"type": "Point", "coordinates": [-46.189145, -23.88566]}, "properties": {"info": {"x": 378938.29, "y": 7357923.6}, "address": "?, 0"}},
{"type": "Feature", "geometry": {"type": "Point", "coordinates": [-46.18654, -23.883267]}, "properties": {"info": {"x": 379201.27, "y": 7358190.8}, "address": "?, 0"}},
{"type": "Feature", "geometry": {"type": "Point", "coordinates": [-46.186799, -23.883332]}, "properties": {"info": {"x": 379174.94, "y": 7358183.4}, "address": "?, 0"}},
{"type": "Feature", "geometry": {"type": "Point", "coordinates": [-46.186975, -23.883815]}, "properties": {"info": {"x": 379157.54, "y": 7358129.8}, "address": "?, 0"}},
{"type": "Feature", "geometry": {"type": "Point", "coordinates": [-46.187244, -23.883865]}, "properties": {"info": {"x": 379130.14, "y": 7358123.9}, "address": "?, 0"}},
{"type": "Feature", "geometry": {"type": "Point", "coordinates": [-46.187783, -23.883966]}, "properties": {"info": {"x": 379075.35, "y": 7358112.3}, "address": "?, 0"}},
{"type": "Feature", "geometry": {"type": "Point", "coordinates": [-46.188071, -23.884028]}, "properties": {"info": {"x": 379046.09, "y": 7358105.2}, "address": "?, 0"}},
{"type": "Feature", "geometry": {"type": "Point", "coordinates": [-46.188376, -23.884104]}, "properties": {"info": {"x": 379015.17, "y": 7358096.6}, "address": "?, 0"}},
{"type": "Feature", "geometry": {"type": "Point", "coordinates": [-46.188763, -23.884173]}, "properties": {"info": {"x": 378975.79, "y": 7358088.6}, "address": "?, 0"}},
{"type": "Feature", "geometry": {"type": "Point", "coordinates": [-46.183229, -23.883934]}, "properties": {"info": {"x": 379538.99, "y": 7358119.8}, "address": "?, 0"}},
{"type": "Feature", "geometry": {"type": "Point", "coordinates": [-46.184321, -23.884512]}, "properties": {"info": {"x": 379428.42, "y": 7358054.8}, "address": "?, 0"}},
{"type": "Feature", "geometry": {"type": "Point", "coordinates": [-46.227893, -23.888168]}, "properties": {"info": {"x": 374995.54, "y": 7357612.2}, "address": "?, 0"}},
{"type": "Feature", "geometry": {"type": "Point", "coordinates": [-46.227932, -23.88792]}, "properties": {"info": {"x": 374991.33, "y": 7357639.6}, "address": "?, 0"}},
{"type": "Feature", "geometry": {"type": "Point", "coordinates": [-46.227847, -23.88842]}, "properties": {"info": {"x": 375000.46, "y": 7357584.3}, "address": "?, 0"}},
{"type": "Feature", "geometry": {"type": "Point", "coordinates": [-46.227944, -23.886175]}, "properties": {"info": {"x": 374988.44, "y": 7357832.8}, "address": "?, 0"}},
{"type": "Feature", "geometry": {"type": "Point", "coordinates": [-46.227797, -23.888671]}, "properties": {"info": {"x": 375005.77, "y": 7357556.6}, "address": "?, 0"}},
{"type": "Feature", "geometry": {"type": "Point", "coordinates": [-46.227756, -23.888908]}, "properties": {"info": {"x": 375010.2, "y": 7357530.4}, "address": "?, 0"}},
{"type": "Feature", "geometry": {"type": "Point", "coordinates": [-46.227698, -23.889128]}, "properties": {"info": {"x": 375016.27, "y": 7357506}, "address": "?, 0"}},
{"type": "Feature", "geometry": {"type": "Point", "coordinates": [-46.227642, -23.889347]}, "properties": {"info": {"x": 375022.2, "y": 7357481.8}, "address": "?, ?"}},
{"type": "Feature", "geometry": {"type": "Point", "coordinates": [-46.227593, -23.889545]}, "properties": {"info": {"x": 375027.36, "y": 7357460}, "address": "?, ?"}},
{"type": "Feature", "geometry": {"type": "Point", "coordinates": [-46.227549, -23.88972]}, "properties": {"info": {"x": 375031.99, "y": 7357440.6}, "address": "?, ?"}},
{"type": "Feature", "geometry": {"type": "Point", "coordinates": [-46.22761, -23.890196]}, "properties": {"info": {"x": 375026.26, "y": 7357387.9}, "address": "?, 0"}},
{"type": "Feature", "geometry": {"type": "Point", "coordinates": [-46.227575, -23.890415]}, "properties": {"info": {"x": 375030.02, "y": 7357363.6}, "address": "?, 0"}},
{"type": "Feature", "geometry": {"type": "Point", "coordinates": [-46.227534, -23.890638]}, "properties": {"info": {"x": 375034.49, "y": 7357339}, "address": "?, 0"}},
{"type": "Feature", "geometry": {"type": "Point", "coordinates": [-46.227493, -23.890861]}, "properties": {"info": {"x": 375038.83, "y": 7357314.4}, "address": "?, 0"}},
{"type": "Feature", "geometry": {"type": "Point", "coordinates": [-46.18627, -23.883214]}, "properties": {"info": {"x": 379228.73, "y": 7358197}, "address": "?, ?"}},
{"type": "Feature", "geometry": {"type": "Point", "coordinates": [-46.185999, -23.883166]}, "properties": {"info": {"x": 379256.32, "y": 7358202.5}, "address": "?, ?"}},
{"type": "Feature", "geometry": {"type": "Point", "coordinates": [-46.227449, -23.891083]}, "properties": {"info": {"x": 375043.55, "y": 7357289.9}, "address": "?, 0"}},
{"type": "Feature", "geometry": {"type": "Point", "coordinates": [-46.227387, -23.891302]}, "properties": {"info": {"x": 375050.02, "y": 7357265.7}, "address": "?, 0"}},
{"type": "Feature", "geometry": {"type": "Point", "coordinates": [-46.227313, -23.89152]}, "properties": {"info": {"x": 375057.75, "y": 7357241.6}, "address": "?, 0"}},
{"type": "Feature", "geometry": {"type": "Point", "coordinates": [-46.227213, -23.891755]}, "properties": {"info": {"x": 375068.17, "y": 7357215.7}, "address": "?, 0"}},
{"type": "Feature", "geometry": {"type": "Point", "coordinates": [-46.227088, -23.892013]}, "properties": {"info": {"x": 375081.2, "y": 7357187.1}, "address": "?, 0"}},
{"type": "Feature", "geometry": {"type": "Point", "coordinates": [-46.227086, -23.892291]}, "properties": {"info": {"x": 375081.61, "y": 7357156.3}, "address": "?, 0"}},
{"type": "Feature", "geometry": {"type": "Point", "coordinates": [-46.227063, -23.892563]}, "properties": {"info": {"x": 375084.2, "y": 7357126.3}, "address": "?, 0"}},
{"type": "Feature", "geometry": {"type": "Point", "coordinates": [-46.18546, -23.883065]}, "properties": {"info": {"x": 379311.09, "y": 7358214.1}, "address": "?, ?"}},
{"type": "Feature", "geometry": {"type": "Point", "coordinates": [-46.18519, -23.883015]}, "properties": {"info": {"x": 379338.48, "y": 7358219.9}, "address": "?, ?"}},
{"type": "Feature", "geometry": {"type": "Point", "coordinates": [-46.18458, -23.884611]}, "properties": {"info": {"x": 379402.11, "y": 7358043.7}, "address": "?, ?"}},
{"type": "Feature", "geometry": {"type": "Point", "coordinates": [-46.184063, -23.884403]}, "properties": {"info": {"x": 379454.49, "y": 7358067.2}, "address": "?, ?"}},
{"type": "Feature", "geometry": {"type": "Point", "coordinates": [-46.183807, -23.884289]}, "properties": {"info": {"x": 379480.49, "y": 7358080}, "address": "?, ?"}},
{"type": "Feature", "geometry": {"type": "Point", "coordinates": [-46.183553, -23.884166]}, "properties": {"info": {"x": 379506.2, "y": 7358093.8}, "address": "?, ?"}},
{"type": "Feature", "geometry": {"type": "Point", "coordinates": [-46.183802, -23.882912]}, "properties": {"info": {"x": 379479.72, "y": 7358232.4}, "address": "?, ?"}},
{"type": "Feature", "geometry": {"type": "Point", "coordinates": [-46.224228, -23.889204]}, "properties": {"info": {"x": 375369.62, "y": 7357500.7}, "address": "?, 0"}},
{"type": "Feature", "geometry": {"type": "Point", "coordinates": [-46.225569, -23.88519]}, "properties": {"info": {"x": 375229.3, "y": 7357944}, "address": "?, 0"}},
{"type": "Feature", "geometry": {"type": "Point", "coordinates": [-46.22579, -23.886111]}, "properties": {"info": {"x": 375207.65, "y": 7357841.9}, "address": "?, 0"}},
{"type": "Feature", "geometry": {"type": "Point", "coordinates": [-46.225885, -23.886547]}, "properties": {"info": {"x": 375198.42, "y": 7357793.5}, "address": "?, 0"}},
{"type": "Feature", "geometry": {"type": "Point", "coordinates": [-46.22599, -23.887019]}, "properties": {"info": {"x": 375188.13, "y": 7357741.1}, "address": "?, 0"}},
{"type": "Feature", "geometry": {"type": "Point", "coordinates": [-46.225695, -23.88822]}, "properties": {"info": {"x": 375219.33, "y": 7357608.4}, "address": "?, 0"}},
{"type": "Feature", "geometry": {"type": "Point", "coordinates": [-46.225405, -23.888797]}, "properties": {"info": {"x": 375249.46, "y": 7357544.8}, "address": "?, 0"}},
{"type": "Feature", "geometry": {"type": "Point", "coordinates": [-46.225131, -23.889328]}, "properties": {"info": {"x": 375277.82, "y": 7357486.2}, "address": "?, 0"}},
{"type": "Feature", "geometry": {"type": "Point", "coordinates": [-46.226692, -23.886028]}, "properties": {"info": {"x": 375115.73, "y": 7357850.2}, "address": "?, 0"}},
{"type": "Feature", "geometry": {"type": "Point", "coordinates": [-46.226727, -23.886279]}, "properties": {"info": {"x": 375112.46, "y": 7357822.4}, "address": "?, 0"}},
{"type": "Feature", "geometry": {"type": "Point", "coordinates": [-46.226758, -23.886532]}, "properties": {"info": {"x": 375109.55, "y": 7357794.4}, "address": "?, 0"}},
{"type": "Feature", "geometry": {"type": "Point", "coordinates": [-46.226775, -23.886792]}, "properties": {"info": {"x": 375108.06, "y": 7357765.6}, "address": "?, 0"}},
{"type": "Feature", "geometry": {"type": "Point", "coordinates": [-46.226798, -23.887062]}, "properties": {"info": {"x": 375105.94, "y": 7357735.7}, "address": "?, 0"}},
{"type": "Feature", "geometry": {"type": "Point", "coordinates": [-46.226804, -23.887333]}, "properties": {"info": {"x": 375105.63, "y": 7357705.6}, "address": "?, 0"}},
{"type": "Feature", "geometry": {"type": "Point", "coordinates": [-46.226858, -23.88764]}, "properties": {"info": {"x": 375100.4, "y": 7357671.5}, "address": "?, 0"}},
{"type": "Feature", "geometry": {"type": "Point", "coordinates": [-46.193551, -23.884711]}, "properties": {"info": {"x": 378488.76, "y": 7358024.9}, "address": "?, 0"}},
{"type": "Feature", "geometry": {"type": "Point", "coordinates": [-46.193271, -23.884616]}, "properties": {"info": {"x": 378517.17, "y": 7358035.6}, "address": "?, 0"}},
{"type": "Feature", "geometry": {"type": "Point", "coordinates": [-46.192987, -23.884524]}, "properties": {"info": {"x": 378546.04, "y": 7358046.1}, "address": "?, 0"}},
{"type": "Feature", "geometry": {"type": "Point", "coordinates": [-46.192707, -23.884432]}, "properties": {"info": {"x": 378574.44, "y": 7358056.5}, "address": "?, 0"}},
{"type": "Feature", "geometry": {"type": "Point", "coordinates": [-46.192435, -23.884335]}, "properties": {"info": {"x": 378602.08, "y": 7358067.5}, "address": "?, 0"}},
{"type": "Feature", "geometry": {"type": "Point", "coordinates": [-46.19216, -23.88424]}, "properties": {"info": {"x": 378630.01, "y": 7358078.3}, "address": "?, 0"}},
{"type": "Feature", "geometry": {"type": "Point", "coordinates": [-46.191887, -23.884157]}, "properties": {"info": {"x": 378657.7, "y": 7358087.7}, "address": "?, 0"}},
{"type": "Feature", "geometry": {"type": "Point", "coordinates": [-46.191621, -23.884058]}, "properties": {"info": {"x": 378684.69, "y": 7358098.9}, "address": "?, 0"}},
{"type": "Feature", "geometry": {"type": "Point", "coordinates": [-46.192352, -23.88576]}, "properties": {"info": {"x": 378611.88, "y": 7357909.8}, "address": "?, 0"}},
{"type": "Feature", "geometry": {"type": "Point", "coordinates": [-46.192099, -23.885648]}, "properties": {"info": {"x": 378637.47, "y": 7357922.4}, "address": "?, 0"}},
{"type": "Feature", "geometry": {"type": "Point", "coordinates": [-46.191288, -23.884042]}, "properties": {"info": {"x": 378718.57, "y": 7358100.9}, "address": "?, 0"}},
{"type": "Feature", "geometry": {"type": "Point", "coordinates": [-46.189043, -23.882108]}, "properties": {"info": {"x": 378945.32, "y": 7358317}, "address": "?, 0"}},
{"type": "Feature", "geometry": {"type": "Point", "coordinates": [-46.190747, -23.883821]}, "properties": {"info": {"x": 378773.49, "y": 7358125.9}, "address": "?, 0"}},
{"type": "Feature", "geometry": {"type": "Point", "coordinates": [-46.190291, -23.883749]}, "properties": {"info": {"x": 378819.82, "y": 7358134.3}, "address": "?, 0"}},
{"type": "Feature", "geometry": {"type": "Point", "coordinates": [-46.189998, -23.883649]}, "properties": {"info": {"x": 378849.54, "y": 7358145.5}, "address": "?, 0"}},
{"type": "Feature", "geometry": {"type": "Point", "coordinates": [-46.189719, -23.883554]}, "properties": {"info": {"x": 378877.84, "y": 7358156.3}, "address": "?, 0"}},
{"type": "Feature", "geometry": {"type": "Point", "coordinates": [-46.189436, -23.883452]}, "properties": {"info": {"x": 378906.58, "y": 7358167.8}, "address": "?, 0"}},
{"type": "Feature", "geometry": {"type": "Point", "coordinates": [-46.189146, -23.883376]}, "properties": {"info": {"x": 378936.02, "y": 7358176.5}, "address": "?, 0"}},
{"type": "Feature", "geometry": {"type": "Point", "coordinates": [-46.187143, -23.882974]}, "properties": {"info": {"x": 379139.58, "y": 7358222.7}, "address": "?, 0"}},
{"type": "Feature", "geometry": {"type": "Point", "coordinates": [-46.187412, -23.883028]}, "properties": {"info": {"x": 379112.24, "y": 7358216.6}, "address": "?, 0"}},
{"type": "Feature", "geometry": {"type": "Point", "coordinates": [-46.187681, -23.883081]}, "properties": {"info": {"x": 379084.91, "y": 7358210.5}, "address": "?, 0"}},
{"type": "Feature", "geometry": {"type": "Point", "coordinates": [-46.18795, -23.883134]}, "properties": {"info": {"x": 379057.57, "y": 7358204.4}, "address": "?, 0"}},
{"type": "Feature", "geometry": {"type": "Point", "coordinates": [-46.188238, -23.883191]}, "properties": {"info": {"x": 379028.3, "y": 7358197.8}, "address": "?, 0"}},
{"type": "Feature", "geometry": {"type": "Point", "coordinates": [-46.188545, -23.883251]}, "properties": {"info": {"x": 378997.1, "y": 7358190.8}, "address": "?, 0"}},
{"type": "Feature", "geometry": {"type": "Point", "coordinates": [-46.188852, -23.883314]}, "properties": {"info": {"x": 378965.94, "y": 7358183.6}, "address": "?, 0"}},
{"type": "Feature", "geometry": {"type": "Point", "coordinates": [-46.183036, -23.882753]}, "properties": {"info": {"x": 379557.52, "y": 7358250.7}, "address": "?, 0"}},
{"type": "Feature", "geometry": {"type": "Point", "coordinates": [-46.191411, -23.885011]}, "properties": {"info": {"x": 378706.97, "y": 7357993.5}, "address": "?, 0"}},
{"type": "Feature", "geometry": {"type": "Point", "coordinates": [-46.191344, -23.885133]}, "properties": {"info": {"x": 378713.92, "y": 7357980.1}, "address": "?, 0"}},
{"type": "Feature", "geometry": {"type": "Point", "coordinates": [-46.191241, -23.885313]}, "properties": {"info": {"x": 378724.51, "y": 7357960.3}, "address": "?, 0"}},
{"type": "Feature", "geometry": {"type": "Point", "coordinates": [-46.191154, -23.885641]}, "properties": {"info": {"x": 378733.69, "y": 7357924}, "address": "?, 0"}},
{"type": "Feature", "geometry": {"type": "Point", "coordinates": [-46.184839, -23.884717]}, "properties": {"info": {"x": 379375.83, "y": 7358031.8}, "address": "?, 0"}},
{"type": "Feature", "geometry": {"type": "Point", "coordinates": [-46.185095, -23.884835]}, "properties": {"info": {"x": 379349.91, "y": 7358018.4}, "address": "?, 0"}},
{"type": "Feature", "geometry": {"type": "Point", "coordinates": [-46.185357, -23.884901]}, "properties": {"info": {"x": 379323.3, "y": 7358010.9}, "address": "?, 0"}},
{"type": "Feature", "geometry": {"type": "Point", "coordinates": [-46.185656, -23.884803]}, "properties": {"info": {"x": 379292.67, "y": 7358021.4}, "address": "?, 0"}},
{"type": "Feature", "geometry": {"type": "Point", "coordinates": [-46.185912, -23.884954]}, "properties": {"info": {"x": 379266.78, "y": 7358004.6}, "address": "?, 0"}},
{"type": "Feature", "geometry": {"type": "Point", "coordinates": [-46.186151, -23.885133]}, "properties": {"info": {"x": 379242.67, "y": 7357984.5}, "address": "?, 0"}},
{"type": "Feature", "geometry": {"type": "Point", "coordinates": [-46.186388, -23.885343]}, "properties": {"info": {"x": 379218.68, "y": 7357961.1}, "address": "?, 0"}},
{"type": "Feature", "geometry": {"type": "Point", "coordinates": [-46.186636, -23.885509]}, "properties": {"info": {"x": 379193.62, "y": 7357942.4}, "address": "?, 0"}},
{"type": "Feature", "geometry": {"type": "Point", "coordinates": [-46.188221, -23.885311]}, "properties": {"info": {"x": 379032.01, "y": 7357963}, "address": "?, 0"}},
{"type": "Feature", "geometry": {"type": "Point", "coordinates": [-46.186944, -23.885383]}, "properties": {"info": {"x": 379162.11, "y": 7357956.2}, "address": "?, 0"}},
{"type": "Feature", "geometry": {"type": "Point", "coordinates": [-46.187223, -23.885442]}, "properties": {"info": {"x": 379133.74, "y": 7357949.4}, "address": "?, 0"}},
{"type": "Feature", "geometry": {"type": "Point", "coordinates": [-46.187799, -23.885582]}, "properties": {"info": {"x": 379075.23, "y": 7357933.4}, "address": "?, 0"}},
{"type": "Feature", "geometry": {"type": "Point", "coordinates": [-46.224577, -23.884945]}, "properties": {"info": {"x": 375330.07, "y": 7357972}, "address": "?, 0"}},
{"type": "Feature", "geometry": {"type": "Point", "coordinates": [-46.224705, -23.885301]}, "properties": {"info": {"x": 375317.38, "y": 7357932.4}, "address": "?, 0"}},
{"type": "Feature", "geometry": {"type": "Point", "coordinates": [-46.224769, -23.885566]}, "properties": {"info": {"x": 375311.05, "y": 7357903.1}, "address": "?, 0"}},
{"type": "Feature", "geometry": {"type": "Point", "coordinates": [-46.224833, -23.88583]}, "properties": {"info": {"x": 375304.87, "y": 7357873.8}, "address": "?, 0"}},
{"type": "Feature", "geometry": {"type": "Point", "coordinates": [-46.224896, -23.886095]}, "properties": {"info": {"x": 375298.68, "y": 7357844.4}, "address": "?, 0"}},
{"type": "Feature", "geometry": {"type": "Point", "coordinates": [-46.224961, -23.886359]}, "properties": {"info": {"x": 375292.35, "y": 7357815.1}, "address": "?, 0"}},
{"type": "Feature", "geometry": {"type": "Point", "coordinates": [-46.225024, -23.886624]}, "properties": {"info": {"x": 375286.12, "y": 7357785.7}, "address": "?, 0"}},
{"type": "Feature", "geometry": {"type": "Point", "coordinates": [-46.225087, -23.886888]}, "properties": {"info": {"x": 375279.98, "y": 7357756.4}, "address": "?, 0"}},
{"type": "Feature", "geometry": {"type": "Point", "coordinates": [-46.225152, -23.887153]}, "properties": {"info": {"x": 375273.65, "y": 7357727.1}, "address": "?, 0"}},
{"type": "Feature", "geometry": {"type": "Point", "coordinates": [-46.225975, -23.887605]}, "properties": {"info": {"x": 375190.21, "y": 7357676.2}, "address": "?, 0"}},
{"type": "Feature", "geometry": {"type": "Point", "coordinates": [-46.225692, -23.88566]}, "properties": {"info": {"x": 375217.17, "y": 7357891.9}, "address": "?, 0"}},
{"type": "Feature", "geometry": {"type": "Point", "coordinates": [-46.22658, -23.885747]}, "properties": {"info": {"x": 375126.91, "y": 7357881.4}, "address": "?, 0"}},
{"type": "Feature", "geometry": {"type": "Point", "coordinates": [-46.225988, -23.889582]}, "properties": {"info": {"x": 375190.83, "y": 7357457.4}, "address": "?, 0"}},
{"type": "Feature", "geometry": {"type": "Point", "coordinates": [-46.226126, -23.88934]}, "properties": {"info": {"x": 375176.56, "y": 7357483.9}, "address": "?, 0"}},
{"type": "Feature", "geometry": {"type": "Point", "coordinates": [-46.226204, -23.889126]}, "properties": {"info": {"x": 375168.39, "y": 7357507.6}, "address": "?, 0"}},
{"type": "Feature", "geometry": {"type": "Point", "coordinates": [-46.226287, -23.888913]}, "properties": {"info": {"x": 375159.79, "y": 7357531.1}, "address": "?, 0"}},
{"type": "Feature", "geometry": {"type": "Point", "coordinates": [-46.226373, -23.888678]}, "properties": {"info": {"x": 375150.72, "y": 7357557}, "address": "?, 0"}},
{"type": "Feature", "geometry": {"type": "Point", "coordinates": [-46.193758, -23.882577]}, "properties": {"info": {"x": 378465.7, "y": 7358261.1}, "address": "?, 0"}},
{"type": "Feature", "geometry": {"type": "Point", "coordinates": [-46.19346, -23.882561]}, "properties": {"info": {"x": 378496.05, "y": 7358263.1}, "address": "?, 0"}},
{"type": "Feature", "geometry": {"type": "Point", "coordinates": [-46.193161, -23.882545]}, "properties": {"info": {"x": 378526.45, "y": 7358265.1}, "address": "?, 0"}},
{"type": "Feature", "geometry": {"type": "Point", "coordinates": [-46.192863, -23.882529]}, "properties": {"info": {"x": 378556.79, "y": 7358267.1}, "address": "?, 0"}},
{"type": "Feature", "geometry": {"type": "Point", "coordinates": [-46.192564, -23.882513]}, "properties": {"info": {"x": 378587.18, "y": 7358269.1}, "address": "?, 0"}},
{"type": "Feature", "geometry": {"type": "Point", "coordinates": [-46.196137, -23.882738]}, "properties": {"info": {"x": 378223.67, "y": 7358241.1}, "address": "?, ?"}},
{"type": "Feature", "geometry": {"type": "Point", "coordinates": [-46.191519, -23.884837]}, "properties": {"info": {"x": 378695.78, "y": 7358012.7}, "address": "?, ?"}},
{"type": "Feature", "geometry": {"type": "Point", "coordinates": [-46.227383, -23.889869]}, "properties": {"info": {"x": 375049.1, "y": 7357424.3}, "address": "?, ?"}},
{"type": "Feature", "geometry": {"type": "Point", "coordinates": [-46.227962, -23.88668]}, "properties": {"info": {"x": 374987.02, "y": 7357777}, "address": "?, 0"}},
{"type": "Feature", "geometry": {"type": "Point", "coordinates": [-46.227972, -23.886929]}, "properties": {"info": {"x": 374986.31, "y": 7357749.4}, "address": "?, 0"}},
{"type": "Feature", "geometry": {"type": "Point", "coordinates": [-46.227965, -23.887177]}, "properties": {"info": {"x": 374987.24, "y": 7357721.9}, "address": "?, 0"}},
{"type": "Feature", "geometry": {"type": "Point", "coordinates": [-46.226476, -23.888425]}, "properties": {"info": {"x": 375140.08, "y": 7357585}, "address": "?, 0"}},
{"type": "Feature", "geometry": {"type": "Point", "coordinates": [-46.226587, -23.888174]}, "properties": {"info": {"x": 375128.49, "y": 7357612.7}, "address": "?, 0"}},
{"type": "Feature", "geometry": {"type": "Point", "coordinates": [-46.226559, -23.885433]}, "properties": {"info": {"x": 375128.76, "y": 7357916.2}, "address": "?, 0"}},
{"type": "Feature", "geometry": {"type": "Point", "coordinates": [-46.226693, -23.88792]}, "properties": {"info": {"x": 375117.44, "y": 7357640.7}, "address": "?, 0"}},
{"type": "Feature", "geometry": {"type": "Point", "coordinates": [-46.227937, -23.885873]}, "properties": {"info": {"x": 374988.88, "y": 7357866.3}, "address": "?, 0"}},
{"type": "Feature", "geometry": {"type": "Point", "coordinates": [-46.227949, -23.886428]}, "properties": {"info": {"x": 374988.14, "y": 7357804.8}, "address": "?, 0"}},
{"type": "Feature", "geometry": {"type": "Point", "coordinates": [-46.227957, -23.887428]}, "properties": {"info": {"x": 374988.29, "y": 7357694.1}, "address": "?, 0"}},
{"type": "Feature", "geometry": {"type": "Point", "coordinates": [-46.227953, -23.887674]}, "properties": {"info": {"x": 374988.98, "y": 7357666.8}, "address": "?, 0"}},
{"type": "Feature", "geometry": {"type": "Point", "coordinates": [-46.183525, -23.882883]}, "properties": {"info": {"x": 379507.86, "y": 7358235.8}, "address": "?, 0"}},
{"type": "Feature", "geometry": {"type": "Point", "coordinates": [-46.18409, -23.882901]}, "properties": {"info": {"x": 379450.43, "y": 7358233.5}, "address": "?, 0"}},
{"type": "Feature", "geometry": {"type": "Point", "coordinates": [-46.184373, -23.882911]}, "properties": {"info": {"x": 379421.59, "y": 7358232}, "address": "?, 0"}},
{"type": "Feature", "geometry": {"type": "Point", "coordinates": [-46.184649, -23.882925]}, "properties": {"info": {"x": 379393.48, "y": 7358230.3}, "address": "?, 0"}},
{"type": "Feature", "geometry": {"type": "Point", "coordinates": [-46.18492, -23.882968]}, "properties": {"info": {"x": 379365.92, "y": 7358225.3}, "address": "?, 0"}},
{"type": "Feature", "geometry": {"type": "Point", "coordinates": [-46.185729, -23.883115]}, "properties": {"info": {"x": 379283.7, "y": 7358208.3}, "address": "?, 0"}},
{"type": "Feature", "geometry": {"type": "Point", "coordinates": [-46.197302, -23.882918]}, "properties": {"info": {"x": 378105.24, "y": 7358220.3}, "address": "?, 0"}},
{"type": "Feature", "geometry": {"type": "Point", "coordinates": [-46.19701, -23.882876]}, "properties": {"info": {"x": 378134.93, "y": 7358225.2}, "address": "?, 0"}},
{"type": "Feature", "geometry": {"type": "Point", "coordinates": [-46.196715, -23.882836]}, "properties": {"info": {"x": 378164.89, "y": 7358229.8}, "address": "?, 0"}},
{"type": "Feature", "geometry": {"type": "Point", "coordinates": [-46.196427, -23.882778]}, "properties": {"info": {"x": 378194.12, "y": 7358236.5}, "address": "?, 0"}},
{"type": "Feature", "geometry": {"type": "Point", "coordinates": [-46.195845, -23.882698]}, "properties": {"info": {"x": 378253.38, "y": 7358245.8}, "address": "?, 0"}},
{"type": "Feature", "geometry": {"type": "Point", "coordinates": [-46.195548, -23.882676]}, "properties": {"info": {"x": 378283.51, "y": 7358248.6}, "address": "?, 0"}},
{"type": "Feature", "geometry": {"type": "Point", "coordinates": [-46.225325, -23.887475]}, "properties": {"info": {"x": 375256.35, "y": 7357691.2}, "address": "?, 0"}},
{"type": "Feature", "geometry": {"type": "Point", "coordinates": [-46.225065, -23.887744]}, "properties": {"info": {"x": 375283.08, "y": 7357661.7}, "address": "?, 0"}},
{"type": "Feature", "geometry": {"type": "Point", "coordinates": [-46.224928, -23.887984]}, "properties": {"info": {"x": 375297.23, "y": 7357635.2}, "address": "?, 0"}},
{"type": "Feature", "geometry": {"type": "Point", "coordinates": [-46.224791, -23.888224]}, "properties": {"info": {"x": 375311.39, "y": 7357608.8}, "address": "?, 0"}},
{"type": "Feature", "geometry": {"type": "Point", "coordinates": [-46.224654, -23.888464]}, "properties": {"info": {"x": 375325.54, "y": 7357582.3}, "address": "?, 0"}},
{"type": "Feature", "geometry": {"type": "Point", "coordinates": [-46.224518, -23.888704]}, "properties": {"info": {"x": 375339.7, "y": 7357555.9}, "address": "?, 0"}},
{"type": "Feature", "geometry": {"type": "Point", "coordinates": [-46.224381, -23.888944]}, "properties": {"info": {"x": 375353.85, "y": 7357529.4}, "address": "?, 0"}},
{"type": "Feature", "geometry": {"type": "Point", "coordinates": [-46.187511, -23.885506]}, "properties": {"info": {"x": 379104.48, "y": 7357942.1}, "address": "?, ?"}},
{"type": "Feature", "geometry": {"type": "Point", "coordinates": [-46.187514, -23.883916]}, "properties": {"info": {"x": 379102.75, "y": 7358118.1}, "address": "?, ?"}},
{"type": "Feature", "geometry": {"type": "Point", "coordinates": [-46.189853, -23.884339]}, "properties": {"info": {"x": 378864.95, "y": 7358069.3}, "address": "?, 0"}},
{"type": "Feature", "geometry": {"type": "Point", "coordinates": [-46.189718, -23.88458]}, "properties": {"info": {"x": 378878.92, "y": 7358042.7}, "address": "?, 0"}},
{"type": "Feature", "geometry": {"type": "Point", "coordinates": [-46.189487, -23.884828]}, "properties": {"info": {"x": 378902.7, "y": 7358015.5}, "address": "?, 0"}},
{"type": "Feature", "geometry": {"type": "Point", "coordinates": [-46.189258, -23.885317]}, "properties": {"info": {"x": 378926.49, "y": 7357961.5}, "address": "?, 0"}},
{"type": "Feature", "geometry": {"type": "Point", "coordinates": [-46.197582, -23.883281]}, "properties": {"info": {"x": 378077, "y": 7358179.7}, "address": "?, 0"}},
{"type": "Feature", "geometry": {"type": "Point", "coordinates": [-46.196873, -23.884953]}, "properties": {"info": {"x": 378150.79, "y": 7357995.3}, "address": "?, 0"}},
{"type": "Feature", "geometry": {"type": "Point", "coordinates": [-46.196488, -23.885004]}, "properties": {"info": {"x": 378190.06, "y": 7357990}, "address": "?, 0"}},
{"type": "Feature", "geometry": {"type": "Point", "coordinates": [-46.196191, -23.884985]}, "properties": {"info": {"x": 378220.25, "y": 7357992.3}, "address": "?, 0"}},
{"type": "Feature", "geometry": {"type": "Point", "coordinates": [-46.195892, -23.884982]}, "properties": {"info": {"x": 378250.72, "y": 7357992.9}, "address": "?, 0"}},
{"type": "Feature", "geometry": {"type": "Point", "coordinates": [-46.195615, -23.884898]}, "properties": {"info": {"x": 378278.78, "y": 7358002.4}, "address": "?, 0"}},
{"type": "Feature", "geometry": {"type": "Point", "coordinates": [-46.195296, -23.884925]}, "properties": {"info": {"x": 378311.37, "y": 7357999.7}, "address": "?, 0"}},
{"type": "Feature", "geometry": {"type": "Point", "coordinates": [-46.194994, -23.884983]}, "properties": {"info": {"x": 378342.16, "y": 7357993.5}, "address": "?, 0"}},
{"type": "Feature", "geometry": {"type": "Point", "coordinates": [-46.194707, -23.884917]}, "properties": {"info": {"x": 378371.24, "y": 7358001.1}, "address": "?, 0"}},
{"type": "Feature", "geometry": {"type": "Point", "coordinates": [-46.194414, -23.884896]}, "properties": {"info": {"x": 378401.05, "y": 7358003.7}, "address": "?, 0"}},
{"type": "Feature", "geometry": {"type": "Point", "coordinates": [-46.194119, -23.884881]}, "properties": {"info": {"x": 378431.14, "y": 7358005.6}, "address": "?, 0"}},
{"type": "Feature", "geometry": {"type": "Point", "coordinates": [-46.19383, -23.884808]}, "properties": {"info": {"x": 378460.42, "y": 7358013.9}, "address": "?, 0"}},
{"type": "Feature", "geometry": {"type": "Point", "coordinates": [-46.191969, -23.882477]}, "properties": {"info": {"x": 378647.73, "y": 7358273.6}, "address": "?, 0"}},
{"type": "Feature", "geometry": {"type": "Point", "coordinates": [-46.195249, -23.882662]}, "properties": {"info": {"x": 378313.98, "y": 7358250.3}, "address": "?, 0"}},
{"type": "Feature", "geometry": {"type": "Point", "coordinates": [-46.194951, -23.882646]}, "properties": {"info": {"x": 378344.35, "y": 7358252.3}, "address": "?, 0"}},
{"type": "Feature", "geometry": {"type": "Point", "coordinates": [-46.194652, -23.882631]}, "properties": {"info": {"x": 378374.74, "y": 7358254.3}, "address": "?, 0"}},
{"type": "Feature", "geometry": {"type": "Point", "coordinates": [-46.194354, -23.882612]}, "properties": {"info": {"x": 378405.04, "y": 7358256.6}, "address": "?, 0"}},
{"type": "Feature", "geometry": {"type": "Point", "coordinates": [-46.194056, -23.882596]}, "properties": {"info": {"x": 378435.39, "y": 7358258.7}, "address": "?, 0"}},
{"type": "Feature", "geometry": {"type": "Point", "coordinates": [-46.224603, -23.890753]}, "properties": {"info": {"x": 375332.98, "y": 7357328.9}, "address": "?, 0"}},
{"type": "Feature", "geometry": {"type": "Point", "coordinates": [-46.224532, -23.891114]}, "properties": {"info": {"x": 375340.5, "y": 7357288.9}, "address": "?, 0"}},
{"type": "Feature", "geometry": {"type": "Point", "coordinates": [-46.223924, -23.88975]}, "properties": {"info": {"x": 375401.1, "y": 7357440.5}, "address": "?, 0"}},
{"type": "Feature", "geometry": {"type": "Point", "coordinates": [-46.223477, -23.88962]}, "properties": {"info": {"x": 375446.52, "y": 7357455.3}, "address": "?, 0"}},
{"type": "Feature", "geometry": {"type": "Point", "coordinates": [-46.224037, -23.890662]}, "properties": {"info": {"x": 375390.53, "y": 7357339.5}, "address": "?, 0"}},
{"type": "Feature", "geometry": {"type": "Point", "coordinates": [-46.223702, -23.89049]}, "properties": {"info": {"x": 375424.46, "y": 7357358.7}, "address": "?, 0"}},
{"type": "Feature", "geometry": {"type": "Point", "coordinates": [-46.223262, -23.89021]}, "properties": {"info": {"x": 375468.98, "y": 7357390.2}, "address": "?, 0"}},
{"type": "Feature", "geometry": {"type": "Point", "coordinates": [-46.225491, -23.891541]}, "properties": {"info": {"x": 375243.34, "y": 7357240.9}, "address": "?, 0"}},
{"type": "Feature", "geometry": {"type": "Point", "coordinates": [-46.225345, -23.891835]}, "properties": {"info": {"x": 375258.5, "y": 7357208.4}, "address": "?, 0"}},
{"type": "Feature", "geometry": {"type": "Point", "coordinates": [-46.225216, -23.892367]}, "properties": {"info": {"x": 375272.11, "y": 7357149.6}, "address": "?, 0"}},
{"type": "Feature", "geometry": {"type": "Point", "coordinates": [-46.225287, -23.892102]}, "properties": {"info": {"x": 375264.62, "y": 7357178.9}, "address": "?, 0"}},
{"type": "Feature", "geometry": {"type": "Point", "coordinates": [-46.225107, -23.892621]}, "properties": {"info": {"x": 375283.49, "y": 7357121.6}, "address": "?, 0"}},
{"type": "Feature", "geometry": {"type": "Point", "coordinates": [-46.224876, -23.892863]}, "properties": {"info": {"x": 375307.23, "y": 7357095}, "address": "?, 0"}},
{"type": "Feature", "geometry": {"type": "Point", "coordinates": [-46.224551, -23.893223]}, "properties": {"info": {"x": 375340.6, "y": 7357055.4}, "address": "?, 0"}},
{"type": "Feature", "geometry": {"type": "Point", "coordinates": [-46.224424, -23.891599]}, "properties": {"info": {"x": 375352.03, "y": 7357235.3}, "address": "?, 0"}},
{"type": "Feature", "geometry": {"type": "Point", "coordinates": [-46.224338, -23.892078]}, "properties": {"info": {"x": 375361.18, "y": 7357182.3}, "address": "?, 0"}},
{"type": "Feature", "geometry": {"type": "Point", "coordinates": [-46.224221, -23.892444]}, "properties": {"info": {"x": 375373.53, "y": 7357142}, "address": "?, 876"}},
{"type": "Feature", "geometry": {"type": "Point", "coordinates": [-46.225467, -23.89321]}, "properties": {"info": {"x": 375247.31, "y": 7357056}, "address": "?, 0"}},
{"type": "Feature", "geometry": {"type": "Point", "coordinates": [-46.226101, -23.893145]}, "properties": {"info": {"x": 375182.74, "y": 7357062.6}, "address": "?, 0"}},
{"type": "Feature", "geometry": {"type": "Point", "coordinates": [-46.224766, -23.893601]}, "properties": {"info": {"x": 375319.06, "y": 7357013.4}, "address": "?, 0"}},
{"type": "Feature", "geometry": {"type": "Point", "coordinates": [-46.224156, -23.892629]}, "properties": {"info": {"x": 375380.27, "y": 7357121.6}, "address": "?, 898"}},
{"type": "Feature", "geometry": {"type": "Point", "coordinates": [-46.224113, -23.892766]}, "properties": {"info": {"x": 375384.81, "y": 7357106.4}, "address": "?, 914"}},
{"type": "Feature", "geometry": {"type": "Point", "coordinates": [-46.224056, -23.892936]}, "properties": {"info": {"x": 375390.74, "y": 7357087.7}, "address": "?, 932"}},
{"type": "Feature", "geometry": {"type": "Point", "coordinates": [-46.223982, -23.893467]}, "properties": {"info": {"x": 375398.77, "y": 7357028.9}, "address": "?, 0"}},
{"type": "Feature", "geometry": {"type": "Point", "coordinates": [-46.223648, -23.892842]}, "properties": {"info": {"x": 375432.18, "y": 7357098.4}, "address": "?, 0"}},
{"type": "Feature", "geometry": {"type": "Point", "coordinates": [-46.223562, -23.891124]}, "properties": {"info": {"x": 375439.32, "y": 7357288.7}, "address": "?, 0"}},
{"type": "Feature", "geometry": {"type": "Point", "coordinates": [-46.223636, -23.891566]}, "properties": {"info": {"x": 375432.15, "y": 7357239.7}, "address": "?, 0"}},
{"type": "Feature", "geometry": {"type": "Point", "coordinates": [-46.223637, -23.892033]}, "properties": {"info": {"x": 375432.49, "y": 7357188}, "address": "?, 0"}},
{"type": "Feature", "geometry": {"type": "Point", "coordinates": [-46.19013, -23.887303]}, "properties": {"info": {"x": 378839.49, "y": 7357740.8}, "address": "?, 0"}},
{"type": "Feature", "geometry": {"type": "Point", "coordinates": [-46.190318, -23.886926]}, "properties": {"info": {"x": 378820, "y": 7357782.5}, "address": "?, 0"}},
{"type": "Feature", "geometry": {"type": "Point", "coordinates": [-46.190528, -23.886624]}, "properties": {"info": {"x": 378798.35, "y": 7357815.7}, "address": "?, 0"}},
{"type": "Feature", "geometry": {"type": "Point", "coordinates": [-46.190657, -23.886375]}, "properties": {"info": {"x": 378785.01, "y": 7357843.2}, "address": "?, 0"}},
{"type": "Feature", "geometry": {"type": "Point", "coordinates": [-46.191506, -23.888484]}, "properties": {"info": {"x": 378700.48, "y": 7357608.9}, "address": "?, 0"}},
{"type": "Feature", "geometry": {"type": "Point", "coordinates": [-46.191192, -23.888426]}, "properties": {"info": {"x": 378732.41, "y": 7357615.6}, "address": "?, 0"}},
{"type": "Feature", "geometry": {"type": "Point", "coordinates": [-46.190885, -23.888362]}, "properties": {"info": {"x": 378763.64, "y": 7357623}, "address": "?, 0"}},
{"type": "Feature", "geometry": {"type": "Point", "coordinates": [-46.19011, -23.887611]}, "properties": {"info": {"x": 378841.85, "y": 7357706.7}, "address": "?, 0"}},
{"type": "Feature", "geometry": {"type": "Point", "coordinates": [-46.190056, -23.887832]}, "properties": {"info": {"x": 378847.58, "y": 7357682.4}, "address": "?, 0"}},
{"type": "Feature", "geometry": {"type": "Point", "coordinates": [-46.190001, -23.888052]}, "properties": {"info": {"x": 378853.32, "y": 7357658}, "address": "?, 0"}},
{"type": "Feature", "geometry": {"type": "Point", "coordinates": [-46.189949, -23.888266]}, "properties": {"info": {"x": 378858.87, "y": 7357634.4}, "address": "?, 0"}},
{"type": "Feature", "geometry": {"type": "Point", "coordinates": [-46.189894, -23.888486]}, "properties": {"info": {"x": 378864.6, "y": 7357610.1}, "address": "?, 6"}},
{"type": "Feature", "geometry": {"type": "Point", "coordinates": [-46.189838, -23.888715]}, "properties": {"info": {"x": 378870.56, "y": 7357584.7}, "address": "?, 0"}},
{"type": "Feature", "geometry": {"type": "Point", "coordinates": [-46.188302, -23.888358]}, "properties": {"info": {"x": 379026.61, "y": 7357625.6}, "address": "?, 0"}},
{"type": "Feature", "geometry": {"type": "Point", "coordinates": [-46.188357, -23.888134]}, "properties": {"info": {"x": 379020.77, "y": 7357650.3, "is_agg": true, "properties_agg": [{"x": 379023.85, "y": 7357650.9, "feature_id": 43118}], "geom_cmp_equals": [false]}, "error": 100, "address": "?, 0"}},
{"type": "Feature", "geometry": {"type": "Point", "coordinates": [-46.18839, -23.887909]}, "properties": {"info": {"x": 379017.23, "y": 7357675.2}, "address": "?, 0"}},
{"type": "Feature", "geometry": {"type": "Point", "coordinates": [-46.188491, -23.88747]}, "properties": {"info": {"x": 379006.59, "y": 7357723.8}, "address": "?, 0"}},
{"type": "Feature", "geometry": {"type": "Point", "coordinates": [-46.188444, -23.887692]}, "properties": {"info": {"x": 379011.53, "y": 7357699.2}, "address": "?, 0"}},
{"type": "Feature", "geometry": {"type": "Point", "coordinates": [-46.188539, -23.887248]}, "properties": {"info": {"x": 379001.49, "y": 7357748.3}, "address": "?, 0"}},
{"type": "Feature", "geometry": {"type": "Point", "coordinates": [-46.186878, -23.887157]}, "properties": {"info": {"x": 379170.46, "y": 7357759.8}, "address": "?, 0"}},
{"type": "Feature", "geometry": {"type": "Point", "coordinates": [-46.187319, -23.887396]}, "properties": {"info": {"x": 379125.84, "y": 7357732.9}, "address": "?, 0"}},
{"type": "Feature", "geometry": {"type": "Point", "coordinates": [-46.187603, -23.88747]}, "properties": {"info": {"x": 379096.95, "y": 7357724.5}, "address": "?, 0"}},
{"type": "Feature", "geometry": {"type": "Point", "coordinates": [-46.19337, -23.886342]}, "properties": {"info": {"x": 378508.71, "y": 7357844.5}, "address": "?, 0"}},
{"type": "Feature", "geometry": {"type": "Point", "coordinates": [-46.193077, -23.886113]}, "properties": {"info": {"x": 378538.34, "y": 7357870.1}, "address": "?, 0"}},
{"type": "Feature", "geometry": {"type": "Point", "coordinates": [-46.192586, -23.887265]}, "properties": {"info": {"x": 378589.47, "y": 7357743}, "address": "?, 0"}},
{"type": "Feature", "geometry": {"type": "Point", "coordinates": [-46.192834, -23.885995]}, "properties": {"info": {"x": 378562.97, "y": 7357883.4}, "address": "?, 0"}},
{"type": "Feature", "geometry": {"type": "Point", "coordinates": [-46.192589, -23.885889]}, "properties": {"info": {"x": 378587.86, "y": 7357895.4}, "address": "?, 0"}},
{"type": "Feature", "geometry": {"type": "Point", "coordinates": [-46.192161, -23.887232]}, "properties": {"info": {"x": 378632.68, "y": 7357746.9}, "address": "?, 0"}},
{"type": "Feature", "geometry": {"type": "Point", "coordinates": [-46.1919, -23.887148]}, "properties": {"info": {"x": 378659.15, "y": 7357756.5}, "address": "?, 0"}},
{"type": "Feature", "geometry": {"type": "Point", "coordinates": [-46.191632, -23.887077]}, "properties": {"info": {"x": 378686.41, "y": 7357764.6}, "address": "?, 0"}},
{"type": "Feature", "geometry": {"type": "Point", "coordinates": [-46.19137, -23.886973]}, "properties": {"info": {"x": 378712.97, "y": 7357776.3}, "address": "?, 6"}},
{"type": "Feature", "geometry": {"type": "Point", "coordinates": [-46.22704, -23.892898]}, "properties": {"info": {"x": 375086.86, "y": 7357089.3}, "address": "?, ?"}},
{"type": "Feature", "geometry": {"type": "Point", "coordinates": [-46.227556, -23.893218]}, "properties": {"info": {"x": 375034.72, "y": 7357053.3}, "address": "?, 0"}},
{"type": "Feature", "geometry": {"type": "Point", "coordinates": [-46.228372, -23.893739]}, "properties": {"info": {"x": 374952.09, "y": 7356994.9}, "address": "?, 0"}},
{"type": "Feature", "geometry": {"type": "Point", "coordinates": [-46.228638, -23.894012]}, "properties": {"info": {"x": 374925.32, "y": 7356964.5}, "address": "?, 0"}},
{"type": "Feature", "geometry": {"type": "Point", "coordinates": [-46.228651, -23.894459]}, "properties": {"info": {"x": 374924.41, "y": 7356915}, "address": "?, 0"}},
{"type": "Feature", "geometry": {"type": "Point", "coordinates": [-46.228676, -23.894943]}, "properties": {"info": {"x": 374922.35, "y": 7356861.3}, "address": "?, 0"}},
{"type": "Feature", "geometry": {"type": "Point", "coordinates": [-46.22874, -23.895402]}, "properties": {"info": {"x": 374916.23, "y": 7356810.5}, "address": "?, 0"}},
{"type": "Feature", "geometry": {"type": "Point", "coordinates": [-46.228927, -23.895688]}, "properties": {"info": {"x": 374897.48, "y": 7356778.6}, "address": "?, 0"}},
{"type": "Feature", "geometry": {"type": "Point", "coordinates": [-46.229117, -23.896132]}, "properties": {"info": {"x": 374878.52, "y": 7356729.3}, "address": "?, 0"}},
{"type": "Feature", "geometry": {"type": "Point", "coordinates": [-46.229075, -23.8964]}, "properties": {"info": {"x": 374883.12, "y": 7356699.7}, "address": "?, 0"}},
{"type": "Feature", "geometry": {"type": "Point", "coordinates": [-46.228855, -23.896703]}, "properties": {"info": {"x": 374905.79, "y": 7356666.3}, "address": "?, 0"}},
{"type": "Feature", "geometry": {"type": "Point", "coordinates": [-46.228619, -23.897011]}, "properties": {"info": {"x": 374930.12, "y": 7356632.4}, "address": "?, 0"}},
{"type": "Feature", "geometry": {"type": "Point", "coordinates": [-46.228296, -23.897421]}, "properties": {"info": {"x": 374963.36, "y": 7356587.3}, "address": "?, 0"}},
{"type": "Feature", "geometry": {"type": "Point", "coordinates": [-46.226575, -23.890268]}, "properties": {"info": {"x": 375131.73, "y": 7357380.8}, "address": "?, ?"}},
{"type": "Feature", "geometry": {"type": "Point", "coordinates": [-46.226455, -23.890935]}, "properties": {"info": {"x": 375144.54, "y": 7357307.1}, "address": "?, 0"}},
{"type": "Feature", "geometry": {"type": "Point", "coordinates": [-46.226321, -23.891685]}, "properties": {"info": {"x": 375158.96, "y": 7357224.1}, "address": "?, 0"}},
{"type": "Feature", "geometry": {"type": "Point", "coordinates": [-46.2262, -23.892353]}, "properties": {"info": {"x": 375171.92, "y": 7357150.3}, "address": "?, 0"}},
{"type": "Feature", "geometry": {"type": "Point", "coordinates": [-46.226675, -23.893344]}, "properties": {"info": {"x": 375124.5, "y": 7357040.1}, "address": "?, 0"}},
{"type": "Feature", "geometry": {"type": "Point", "coordinates": [-46.227057, -23.89368]}, "properties": {"info": {"x": 375085.88, "y": 7357002.5}, "address": "?, 0"}},
{"type": "Feature", "geometry": {"type": "Point", "coordinates": [-46.227449, -23.893974]}, "properties": {"info": {"x": 375046.3, "y": 7356969.7}, "address": "?, 0"}},
{"type": "Feature", "geometry": {"type": "Point", "coordinates": [-46.227821, -23.894267]}, "properties": {"info": {"x": 375008.75, "y": 7356936.9}, "address": "?, 0"}},
{"type": "Feature", "geometry": {"type": "Point", "coordinates": [-46.227902, -23.894712]}, "properties": {"info": {"x": 375000.92, "y": 7356887.6}, "address": "?, 0"}},
{"type": "Feature", "geometry": {"type": "Point", "coordinates": [-46.22798, -23.895621]}, "properties": {"info": {"x": 374993.77, "y": 7356786.8}, "address": "?, 0"}},
{"type": "Feature", "geometry": {"type": "Point", "coordinates": [-46.227996, -23.896007]}, "properties": {"info": {"x": 374992.55, "y": 7356744.1}, "address": "?, 0"}},
{"type": "Feature", "geometry": {"type": "Point", "coordinates": [-46.227902, -23.896358]}, "properties": {"info": {"x": 375002.43, "y": 7356705.3}, "address": "?, 0"}},
{"type": "Feature", "geometry": {"type": "Point", "coordinates": [-46.227719, -23.896676]}, "properties": {"info": {"x": 375021.45, "y": 7356670.3}, "address": "?, 0"}},
{"type": "Feature", "geometry": {"type": "Point", "coordinates": [-46.227616, -23.896993]}, "properties": {"info": {"x": 375032.21, "y": 7356635.3}, "address": "?, 0"}},
{"type": "Feature", "geometry": {"type": "Point", "coordinates": [-46.227561, -23.897389]}, "properties": {"info": {"x": 375038.18, "y": 7356591.4}, "address": "?, 0"}},
{"type": "Feature", "geometry": {"type": "Point", "coordinates": [-46.225739, -23.889929]}, "properties": {"info": {"x": 375216.56, "y": 7357419.1}, "address": "?, 0"}},
{"type": "Feature", "geometry": {"type": "Point", "coordinates": [-46.225656, -23.890193]}, "properties": {"info": {"x": 375225.24, "y": 7357389.9}, "address": "?, 0"}},
{"type": "Feature", "geometry": {"type": "Point", "coordinates": [-46.225583, -23.890457]}, "properties": {"info": {"x": 375232.89, "y": 7357360.8}, "address": "?, 0"}},
{"type": "Feature", "geometry": {"type": "Point", "coordinates": [-46.22553, -23.890724]}, "properties": {"info": {"x": 375238.58, "y": 7357331.3}, "address": "?, 0"}},
{"type": "Feature", "geometry": {"type": "Point", "coordinates": [-46.225402, -23.891076]}, "properties": {"info": {"x": 375251.88, "y": 7357292.4}, "address": "?, 0"}},
{"type": "Feature", "geometry": {"type": "Point", "coordinates": [-46.224895, -23.889875]}, "properties": {"info": {"x": 375302.44, "y": 7357425.9}, "address": "?, ?"}},
{"type": "Feature", "geometry": {"type": "Point", "coordinates": [-46.224735, -23.890308]}, "properties": {"info": {"x": 375319.08, "y": 7357378.1}, "address": "?, 0"}},
{"type": "Feature", "geometry": {"type": "Point", "coordinates": [-46.190794, -23.882913]}, "properties": {"info": {"x": 378767.82, "y": 7358226.3}, "address": "?, 739"}},
{"type": "Feature", "geometry": {"type": "Point", "coordinates": [-46.368451, -23.865446]}, "properties": {"info": {"x": 360660.08, "y": 7359997, "is_agg": true, "properties_agg": [{"x": 360660.08, "y": 7359997, "feature_id": 43250}], "geom_cmp_equals": [true]}, "error": 100, "address": "?, ?"}},
{"type": "Feature", "geometry": {"type": "Point", "coordinates": [-46.188319, -23.88621]}, "properties": {"info": {"x": 379022.93, "y": 7357863.4}, "address": "?, ?"}},
{"type": "Feature", "geometry": {"type": "Point", "coordinates": [-46.1883, -23.887979]}, "properties": {"info": {"x": 379026.42, "y": 7357667.6}, "address": "?, ?"}},
{"type": "Feature", "geometry": {"type": "Point", "coordinates": [-46.188516, -23.888175]}, "properties": {"info": {"x": 379004.64, "y": 7357645.6}, "address": "?, ?"}},
{"type": "Feature", "geometry": {"type": "Point", "coordinates": [-46.188706, -23.888219]}, "properties": {"info": {"x": 378985.34, "y": 7357640.6}, "address": "?, ?"}},
{"type": "Feature", "geometry": {"type": "Point", "coordinates": [-46.188803, -23.888242]}, "properties": {"info": {"x": 378975.46, "y": 7357638}, "address": "?, ?"}},
{"type": "Feature", "geometry": {"type": "Point", "coordinates": [-46.188203, -23.886163]}, "properties": {"info": {"x": 379034.65, "y": 7357868.7}, "address": "?, ?"}},
{"type": "Feature", "geometry": {"type": "Point", "coordinates": [-46.188758, -23.886371]}, "properties": {"info": {"x": 378978.36, "y": 7357845.3}, "address": "?, ?"}},
{"type": "Feature", "geometry": {"type": "Point", "coordinates": [-46.188634, -23.886324]}, "properties": {"info": {"x": 378990.89, "y": 7357850.5}, "address": "?, ?"}},
{"type": "Feature", "geometry": {"type": "Point", "coordinates": [-46.188918, -23.886451]}, "properties": {"info": {"x": 378962.15, "y": 7357836.2}, "address": "?, ?"}},
{"type": "Feature", "geometry": {"type": "Point", "coordinates": [-46.188989, -23.886474]}, "properties": {"info": {"x": 378954.96, "y": 7357833.6}, "address": "?, ?"}},
{"type": "Feature", "geometry": {"type": "Point", "coordinates": [-46.189103, -23.886513]}, "properties": {"info": {"x": 378943.32, "y": 7357829.2}, "address": "?, ?"}},
{"type": "Feature", "geometry": {"type": "Point", "coordinates": [-46.18919, -23.886555]}, "properties": {"info": {"x": 378934.56, "y": 7357824.5}, "address": "?, ?"}},
{"type": "Feature", "geometry": {"type": "Point", "coordinates": [-46.18806, -23.886549]}, "properties": {"info": {"x": 379049.61, "y": 7357826.1}, "address": "?, ?"}},
{"type": "Feature", "geometry": {"type": "Point", "coordinates": [-46.188541, -23.885989]}, "properties": {"info": {"x": 379000.07, "y": 7357887.7}, "address": "?, ?"}},
{"type": "Feature", "geometry": {"type": "Point", "coordinates": [-46.188406, -23.886655]}, "properties": {"info": {"x": 379014.41, "y": 7357814}, "address": "?, ?"}},
{"type": "Feature", "geometry": {"type": "Point", "coordinates": [-46.188869, -23.886778]}, "properties": {"info": {"x": 378967.42, "y": 7357800}, "address": "?, ?"}},
{"type": "Feature", "geometry": {"type": "Point", "coordinates": [-46.188104, -23.886129]}, "properties": {"info": {"x": 379044.67, "y": 7357872.5}, "address": "?, ?"}},
{"type": "Feature", "geometry": {"type": "Point", "coordinates": [-46.189053, -23.886827]}, "properties": {"info": {"x": 378948.72, "y": 7357794.5}, "address": "?, ?"}},
{"type": "Feature", "geometry": {"type": "Point", "coordinates": [-46.188674, -23.886729]}, "properties": {"info": {"x": 378987.19, "y": 7357805.7}, "address": "?, ?"}},
{"type": "Feature", "geometry": {"type": "Point", "coordinates": [-46.188936, -23.888319]}, "properties": {"info": {"x": 378962.04, "y": 7357629.4}, "address": "?, ?"}},
{"type": "Feature", "geometry": {"type": "Point", "coordinates": [-46.188917, -23.888398]}, "properties": {"info": {"x": 378964.05, "y": 7357620.6}, "address": "?, ?"}},
{"type": "Feature", "geometry": {"type": "Point", "coordinates": [-46.188421, -23.888152]}, "properties": {"info": {"x": 379014.33, "y": 7357648.2}, "address": "?, ?"}},
{"type": "Feature", "geometry": {"type": "Point", "coordinates": [-46.189369, -23.88662]}, "properties": {"info": {"x": 378916.4, "y": 7357817.2}, "address": "?, ?"}},
{"type": "Feature", "geometry": {"type": "Point", "coordinates": [-46.189035, -23.886489]}, "properties": {"info": {"x": 378950.26, "y": 7357831.9}, "address": "?, ?"}},
{"type": "Feature", "geometry": {"type": "Point", "coordinates": [-46.188828, -23.886419]}, "properties": {"info": {"x": 378971.3, "y": 7357839.9}, "address": "?, ?"}},
{"type": "Feature", "geometry": {"type": "Point", "coordinates": [-46.188083, -23.885515]}, "properties": {"info": {"x": 379046.31, "y": 7357940.5}, "address": "?, ?"}},
{"type": "Feature", "geometry": {"type": "Point", "coordinates": [-46.18869, -23.886344]}, "properties": {"info": {"x": 378985.2, "y": 7357848.3}, "address": "?, ?"}},
{"type": "Feature", "geometry": {"type": "Point", "coordinates": [-46.188958, -23.887998]}, "properties": {"info": {"x": 378959.47, "y": 7357664.9}, "address": "?, ?"}},
{"type": "Feature", "geometry": {"type": "Point", "coordinates": [-46.18866, -23.888423]}, "properties": {"info": {"x": 378990.24, "y": 7357618.1}, "address": "?, ?"}},
{"type": "Feature", "geometry": {"type": "Point", "coordinates": [-46.188127, -23.885433]}, "properties": {"info": {"x": 379041.75, "y": 7357949.6}, "address": "?, ?"}},
{"type": "Feature", "geometry": {"type": "Point", "coordinates": [-46.188163, -23.88535]}, "properties": {"info": {"x": 379037.97, "y": 7357958.7}, "address": "?, ?"}},
{"type": "Feature", "geometry": {"type": "Point", "coordinates": [-46.188239, -23.885187]}, "properties": {"info": {"x": 379030.05, "y": 7357976.8}, "address": "?, ?"}},
{"type": "Feature", "geometry": {"type": "Point", "coordinates": [-46.188202, -23.88527]}, "properties": {"info": {"x": 379033.97, "y": 7357967.6}, "address": "?, ?"}},
{"type": "Feature", "geometry": {"type": "Point", "coordinates": [-46.18847, -23.888378]}, "properties": {"info": {"x": 379009.57, "y": 7357623.2}, "address": "?, ?"}},
{"type": "Feature", "geometry": {"type": "Point", "coordinates": [-46.188276, -23.885125]}, "properties": {"info": {"x": 379026.28, "y": 7357983.5}, "address": "?, ?"}},
{"type": "Feature", "geometry": {"type": "Point", "coordinates": [-46.18889, -23.888512]}, "properties": {"info": {"x": 378966.89, "y": 7357608.1}, "address": "?, ?"}},
{"type": "Feature", "geometry": {"type": "Point", "coordinates": [-46.188303, -23.885089]}, "properties": {"info": {"x": 379023.42, "y": 7357987.6}, "address": "?, ?"}},
{"type": "Feature", "geometry": {"type": "Point", "coordinates": [-46.188328, -23.885027]}, "properties": {"info": {"x": 379020.83, "y": 7357994.4}, "address": "?, ?"}},
{"type": "Feature", "geometry": {"type": "Point", "coordinates": [-46.188957, -23.888229]}, "properties": {"info": {"x": 378959.81, "y": 7357639.3}, "address": "?, ?"}},
{"type": "Feature", "geometry": {"type": "Point", "coordinates": [-46.187901, -23.888247]}, "properties": {"info": {"x": 379067.34, "y": 7357638.3}, "address": "?, ?"}},
{"type": "Feature", "geometry": {"type": "Point", "coordinates": [-46.187712, -23.888201]}, "properties": {"info": {"x": 379086.52, "y": 7357643.4}, "address": "?, ?"}},
{"type": "Feature", "geometry": {"type": "Point", "coordinates": [-46.187806, -23.888223]}, "properties": {"info": {"x": 379076.95, "y": 7357640.9, "is_agg": true, "properties_agg": [{"x": 379076.95, "y": 7357640.9, "feature_id": 43261}, {"x": 379076.95, "y": 7357640.9, "feature_id": 43263}, {"x": 379076.95, "y": 7357640.9, "feature_id": 43264}, {"x": 379076.95, "y": 7357640.9, "feature_id": 43266}, {"x": 379076.95, "y": 7357640.9, "feature_id": 43267}, {"x": 379076.95, "y": 7357640.9, "feature_id": 43268}, {"x": 379076.95, "y": 7357640.9, "feature_id": 43269}, {"x": 379076.95, "y": 7357640.9, "feature_id": 43270}], "geom_cmp_equals": [true, true, true, true, true, true, true, true]}, "error": 100, "address": "?, ?"}},
{"type": "Feature", "geometry": {"type": "Point", "coordinates": [-46.187618, -23.888178]}, "properties": {"info": {"x": 379096.08, "y": 7357646.1}, "address": "?, ?"}},
{"type": "Feature", "geometry": {"type": "Point", "coordinates": [-46.187566, -23.887952]}, "properties": {"info": {"x": 379101.13, "y": 7357671.2}, "address": "?, ?"}},
{"type": "Feature", "geometry": {"type": "Point", "coordinates": [-46.187664, -23.887974]}, "properties": {"info": {"x": 379091.18, "y": 7357668.7}, "address": "?, ?"}},
{"type": "Feature", "geometry": {"type": "Point", "coordinates": [-46.18752, -23.888157]}, "properties": {"info": {"x": 379106.01, "y": 7357648.6}, "address": "?, ?"}},
{"type": "Feature", "geometry": {"type": "Point", "coordinates": [-46.18776, -23.887998]}, "properties": {"info": {"x": 379081.45, "y": 7357666}, "address": "?, ?"}},
{"type": "Feature", "geometry": {"type": "Point", "coordinates": [-46.187986, -23.888051]}, "properties": {"info": {"x": 379058.47, "y": 7357659.9}, "address": "?, ?"}},
{"type": "Feature", "geometry": {"type": "Point", "coordinates": [-46.188137, -23.888086]}, "properties": {"info": {"x": 379043.11, "y": 7357655.8}, "address": "?, ?"}},
{"type": "Feature", "geometry": {"type": "Point", "coordinates": [-46.188055, -23.888067]}, "properties": {"info": {"x": 379051.45, "y": 7357658}, "address": "?, ?"}},
{"type": "Feature", "geometry": {"type": "Point", "coordinates": [-46.188273, -23.88619]}, "properties": {"info": {"x": 379027.51, "y": 7357865.7}, "address": "?, ?"}},
{"type": "Feature", "geometry": {"type": "Point", "coordinates": [-46.188233, -23.888108]}, "properties": {"info": {"x": 379033.4, "y": 7357653.3}, "address": "?, ?"}},
{"type": "Feature", "geometry": {"type": "Point", "coordinates": [-46.188612, -23.888197]}, "properties": {"info": {"x": 378994.92, "y": 7357643.2}, "address": "?, ?"}},
{"type": "Feature", "geometry": {"type": "Point", "coordinates": [-46.188755, -23.888444]}, "properties": {"info": {"x": 378980.6, "y": 7357615.7}, "address": "?, ?"}},
{"type": "Feature", "geometry": {"type": "Point", "coordinates": [-46.188756, -23.887948]}, "properties": {"info": {"x": 378979.97, "y": 7357670.6}, "address": "?, ?"}},
{"type": "Feature", "geometry": {"type": "Point", "coordinates": [-46.188565, -23.888401]}, "properties": {"info": {"x": 378999.9, "y": 7357620.6}, "address": "?, ?"}},
{"type": "Feature", "geometry": {"type": "Point", "coordinates": [-46.188521, -23.886283]}, "properties": {"info": {"x": 379002.38, "y": 7357855.2}, "address": "?, ?"}},
{"type": "Feature", "geometry": {"type": "Point", "coordinates": [-46.188409, -23.886242]}, "properties": {"info": {"x": 379013.79, "y": 7357859.7}, "address": "?, ?"}},
{"type": "Feature", "geometry": {"type": "Point", "coordinates": [-46.187996, -23.888268]}, "properties": {"info": {"x": 379057.65, "y": 7357635.8}, "address": "?, ?"}},
{"type": "Feature", "geometry": {"type": "Point", "coordinates": [-46.188375, -23.888358]}, "properties": {"info": {"x": 379019.16, "y": 7357625.5}, "address": "?, ?"}},
{"type": "Feature", "geometry": {"type": "Point", "coordinates": [-46.188139, -23.888301]}, "properties": {"info": {"x": 379043.15, "y": 7357632}, "address": "?, ?"}},
{"type": "Feature", "geometry": {"type": "Point", "coordinates": [-46.188281, -23.888335]}, "properties": {"info": {"x": 379028.68, "y": 7357628.2}, "address": "?, ?"}},
{"type": "Feature", "geometry": {"type": "Point", "coordinates": [-46.188529, -23.884832]}, "properties": {"info": {"x": 379000.21, "y": 7358015.8}, "address": "?, ?"}},
{"type": "Feature", "geometry": {"type": "Point", "coordinates": [-46.189263, -23.886886]}, "properties": {"info": {"x": 378927.42, "y": 7357787.8}, "address": "?, ?"}},
{"type": "Feature", "geometry": {"type": "Point", "coordinates": [-46.188672, -23.887927]}, "properties": {"info": {"x": 378988.58, "y": 7357673}, "address": "?, ?"}},
{"type": "Feature", "geometry": {"type": "Point", "coordinates": [-46.188407, -23.884781]}, "properties": {"info": {"x": 379012.61, "y": 7358021.6}, "address": "?, ?"}},
{"type": "Feature", "geometry": {"type": "Point", "coordinates": [-46.188307, -23.88475]}, "properties": {"info": {"x": 379022.71, "y": 7358025.1}, "address": "?, ?"}},
{"type": "Feature", "geometry": {"type": "Point", "coordinates": [-46.188314, -23.884924]}, "properties": {"info": {"x": 379022.21, "y": 7358005.8}, "address": "?, ?"}},
{"type": "Feature", "geometry": {"type": "Point", "coordinates": [-46.188364, -23.886225]}, "properties": {"info": {"x": 379018.32, "y": 7357861.7}, "address": "?, ?"}},
{"type": "Feature", "geometry": {"type": "Point", "coordinates": [-46.190215, -23.885474]}, "properties": {"info": {"x": 378829.15, "y": 7357943.3}, "address": "?, ?"}}]}
