{"type":"FeatureCollection","features":[{"type":"Feature","geometry":{"type":"MultiPolygon","coordinates":[[[[-50.97656,-29.70703],[-50.99807,-29.70703],[-50.99757,-29.70654],[-50.99721,-29.70618],[-50.99706,-29.7059],[-50.99695,-29.70572],[-50.9968,-29.70558],[-50.99663,-29.70546],[-50.99643,-29.70539],[-50.99623,-29.70536],[-50.99602,-29.70537],[-50.99576,-29.70541],[-50.99509,-29.70513],[-50.99484,-29.70506],[-50.9927,-29.70476],[-50.99246,-29.70459],[-50.99053,-29.70236],[-50.99021,-29.70193],[-50.99007,-29.70177],[-50.98989,-29.70164],[-50.98969,-29.70156],[-50.98948,-29.70152],[-50.98877,-29.70147],[-50.98856,-29.70147],[-50.98835,-29.70152],[-50.98816,-29.70161],[-50.988,-29.70174],[-50.98654,-29.70314],[-50.98585,-29.70335],[-50.98538,-29.70325],[-50.98209,-29.70186],[-50.98206,-29.70185],[-50.98092,-29.7014],[-50.98072,-29.70134],[-50.98052,-29.70133],[-50.98032,-29.70136],[-50.97849,-29.70181],[-50.97787,-29.70165],[-50.97656,-29.70097],[-50.97656,-29.70703]]],[[[-51.00906,-29.70703],[-51.00902,-29.70701],[-51.00865,-29.70679],[-51.00857,-29.70674],[-51.0082,-29.70657],[-51.0082,-29.70657],[-51.00804,-29.70649],[-51.00771,-29.70634],[-51.00764,-29.70631],[-51.0072,-29.70614],[-51.00712,-29.70611],[-51.00697,-29.70607],[-51.00694,-29.70606],[-51.00678,-29.70602],[-51.00663,-29.70599],[-51.00642,-29.70597],[-51.00627,-29.70596],[-51.00609,-29.70597],[-51.00599,-29.70599],[-51.00582,-29.70601],[-51.00573,-29.70603],[-51.00554,-29.70608],[-51.00544,-29.70611],[-51.00457,-29.70644],[-51.00454,-29.70645],[-51.00385,-29.70673],[-51.00382,-29.70674],[-51.00317,-29.70703],[-51.00906,-29.70703]]],[[[-51.1084,-29.66309],[-51.14474,-29.66309],[-51.14522,-29.65771],[-51.14541,-29.65573],[-51.14552,-29.65498],[-51.14554,-29.65487],[-51.14554,-29.65483],[-51.14559,-29.65453],[-51.14559,-29.65451],[-51.14566,-29.65396],[-51.14566,-29.65393],[-51.14573,-29.65314],[-51.14573,-29.65313],[-51.14574,-29.65305],[-51.14574,-29.65294],[-51.14573,-29.65264],[-51.14573,-29.65258],[-51.14572,-29.65244],[-51.14572,-29.65244],[-51.14569,-29.65217],[-51.14569,-29.65217],[-51.14567,-29.65193],[-51.14565,-29.65185],[-51.1456,-29.65156],[-51.1456,-29.65153],[-51.14554,-29.65128],[-51.14554,-29.65127],[-51.14551,-29.65113],[-51.14532,-29.65011],[-51.14532,-29.65008],[-51.14526,-29.64983],[-51.14524,-29.6497],[-51.14522,-29.64964],[-51.14513,-29.64926],[-51.14504,-29.64879],[-51.14479,-29.64752],[-51.14479,-29.64752],[-51.14467,-29.64691],[-51.14448,-29.64594],[-51.14436,-29.64528],[-51.14436,-29.64527],[-51.14423,-29.64457],[-51.14416,-29.64421],[-51.14357,-29.6412],[-51.14357,-29.64119],[-51.14335,-29.64013],[-51.14306,-29.63862],[-51.14305,-29.6386],[-51.14294,-29.63809],[-51.14291,-29.63787],[-51.1429,-29.63785],[-51.14288,-29.6377],[-51.14283,-29.63752],[-51.14274,-29.63735],[-51.14263,-29.6372],[-51.14249,-29.63708],[-51.14233,-29.63698],[-51.14215,-29.63691],[-51.14197,-29.63688],[-51.14178,-29.63689],[-51.1411,-29.63697],[-51.1403,-29.63704],[-51.14025,-29.63703],[-51.14005,-29.63703],[-51.13932,-29.63709],[-51.13875,-29.63711],[-51.13856,-29.63714],[-51.13838,-29.6372],[-51.13821,-29.63729],[-51.1382,-29.6373],[-51.13786,-29.63734],[-51.13708,-29.63743],[-51.13707,-29.63743],[-51.13504,-29.63767],[-51.13481,-29.6377],[-51.13399,-29.63777],[-51.13074,-29.63715],[-51.13059,-29.63714],[-51.13043,-29.63714],[-51.12279,-29.63811],[-51.11434,-29.63913],[-51.10491,-29.64],[-51.10354,-29.64013],[-51.09391,-29.641],[-51.09372,-29.64104],[-51.09353,-29.64112],[-51.09337,-29.64122],[-51.09323,-29.64136],[-51.09312,-29.64153],[-51.09304,-29.64171],[-51.093,-29.6419],[-51.093,-29.6421],[-51.0942,-29.65405],[-51.09407,-29.65409],[-51.09399,-29.65412],[-51.0932,-29.6544],[-51.09303,-29.65447],[-51.09288,-29.65458],[-51.09275,-29.65471],[-51.09265,-29.65487],[-51.09258,-29.65504],[-51.09209,-29.65656],[-51.09107,-29.65805],[-51.09099,-29.65818],[-51.08996,-29.66036],[-51.08908,-29.66108],[-51.08882,-29.66119],[-51.08875,-29.66122],[-51.08842,-29.66136],[-51.08825,-29.66146],[-51.0881,-29.66159],[-51.08797,-29.66174],[-51.08788,-29.66192],[-51.08783,-29.66212],[-51.08782,-29.66232],[-51.08785,-29.66309],[-51.1084,-29.66309]]]]},"properties":{"ghs":"6fex","size":0.77,"ghs_len":4,"ghs_area":14.62,"ghs_bytes":1685715,"ghs_items":8862,"size_unit":"km2","ghsval_unit":"bytes","ghs_itemsdensity":606.14,"size_unitdensity":0.05}},{"type":"Feature","geometry":{"type":"Polygon","coordinates":[[[-51.14136,-29.67407],[-51.13037,-29.67407],[-51.13037,-29.67957],[-51.14136,-29.67957],[-51.14136,-29.67407]]]},"properties":{"ghs":"6fexhm","size":0.16,"ghs_len":6,"ghs_area":0.65,"ghs_bytes":356340,"ghs_items":1625,"size_unit":"km2","ghsval_unit":"bytes","ghs_itemsdensity":2509.52,"size_unitdensity":0.25}},{"type":"Feature","geometry":{"type":"Polygon","coordinates":[[[-51.14136,-29.66858],[-51.13037,-29.66858],[-51.13037,-29.67407],[-51.14136,-29.67407],[-51.14136,-29.66858]]]},"properties":{"ghs":"6fexhq","size":0.15,"ghs_len":6,"ghs_area":0.65,"ghs_bytes":331944,"ghs_items":1620,"size_unit":"km2","ghsval_unit":"bytes","ghs_itemsdensity":2501.66,"size_unitdensity":0.23}},{"type":"Feature","geometry":{"type":"MultiPolygon","coordinates":[[[[-51.15234,-29.70703],[-51.15234,-29.71597],[-51.15827,-29.71593],[-51.15848,-29.71591],[-51.15867,-29.71585],[-51.15885,-29.71575],[-51.159,-29.71561],[-51.15912,-29.71545],[-51.15921,-29.71526],[-51.15966,-29.71397],[-51.15968,-29.71392],[-51.15999,-29.71289],[-51.16001,-29.7128],[-51.16026,-29.71157],[-51.16027,-29.7115],[-51.16033,-29.71099],[-51.16037,-29.71074],[-51.16038,-29.71056],[-51.16037,-29.71032],[-51.16036,-29.71023],[-51.15999,-29.70748],[-51.15992,-29.70703],[-51.15234,-29.70703]]],[[[-51.1084,-29.70703],[-51.07842,-29.70703],[-51.07895,-29.71411],[-51.0461,-29.711],[-51.00919,-29.70712],[-51.00909,-29.70705],[-51.00906,-29.70703],[-51.00317,-29.70703],[-51.00274,-29.70722],[-51.00273,-29.70722],[-51.00244,-29.70736],[-51.00203,-29.70752],[-51.00203,-29.70752],[-51.00177,-29.70763],[-51.00173,-29.70765],[-51.00135,-29.70782],[-51.00123,-29.70789],[-51.00097,-29.70805],[-51.0009,-29.7081],[-51.00031,-29.70854],[-51.0003,-29.70855],[-50.99989,-29.70886],[-50.99949,-29.7084],[-50.9994,-29.70832],[-50.99894,-29.7079],[-50.99892,-29.70789],[-50.99844,-29.70747],[-50.99835,-29.70733],[-50.99821,-29.70716],[-50.99807,-29.70703],[-50.97656,-29.70703],[-50.97656,-29.79756],[-51.00449,-29.80737],[-51.00451,-29.80738],[-51.03969,-29.81895],[-51.04104,-29.8194],[-51.04106,-29.81941],[-51.05568,-29.82395],[-51.07461,-29.83079],[-51.07462,-29.83079],[-51.07529,-29.83103],[-51.07548,-29.83107],[-51.07567,-29.83108],[-51.07586,-29.83105],[-51.07671,-29.83084],[-51.07678,-29.83084],[-51.07694,-29.8309],[-51.07729,-29.83103],[-51.07741,-29.83107],[-51.0776,-29.83114],[-51.07788,-29.8312],[-51.07838,-29.83124],[-51.07856,-29.83123],[-51.07873,-29.8312],[-51.07889,-29.83113],[-51.07904,-29.83104],[-51.07914,-29.83097],[-51.07946,-29.83102],[-51.07964,-29.83103],[-51.08007,-29.83102],[-51.08024,-29.831],[-51.08067,-29.83091],[-51.08087,-29.83085],[-51.08095,-29.83082],[-51.0811,-29.83079],[-51.0813,-29.83074],[-51.08148,-29.83065],[-51.08164,-29.83052],[-51.08177,-29.83037],[-51.08187,-29.83019],[-51.08192,-29.83],[-51.08194,-29.8298],[-51.08192,-29.8296],[-51.08186,-29.82941],[-51.08176,-29.82923],[-51.06954,-29.81182],[-51.06905,-29.81004],[-51.0698,-29.80798],[-51.06996,-29.808],[-51.07016,-29.80799],[-51.07034,-29.80794],[-51.07051,-29.80786],[-51.07067,-29.80774],[-51.0708,-29.8076],[-51.0709,-29.80744],[-51.07567,-29.79772],[-51.07569,-29.79771],[-51.0759,-29.79761],[-51.07606,-29.7975],[-51.0763,-29.79732],[-51.07642,-29.7972],[-51.07653,-29.79706],[-51.07666,-29.79685],[-51.07674,-29.7967],[-51.07679,-29.79654],[-51.07693,-29.7959],[-51.07699,-29.79566],[-51.07725,-29.79531],[-51.07734,-29.79515],[-51.07764,-29.79452],[-51.07772,-29.7943],[-51.07774,-29.79406],[-51.07773,-29.79365],[-51.07774,-29.79339],[-51.07774,-29.79334],[-51.07774,-29.79278],[-51.07771,-29.79251],[-51.07757,-29.79202],[-51.07751,-29.79187],[-51.07743,-29.79173],[-51.07712,-29.79126],[-51.07705,-29.79117],[-51.07651,-29.79053],[-51.07637,-29.79039],[-51.07592,-29.79002],[-51.07585,-29.78997],[-51.07524,-29.78956],[-51.07488,-29.78908],[-51.07468,-29.78888],[-51.07366,-29.7881],[-51.07301,-29.78725],[-51.07227,-29.78596],[-51.07217,-29.78582],[-51.07205,-29.7857],[-51.07174,-29.78543],[-51.07175,-29.78543],[-51.07222,-29.78524],[-51.07245,-29.78515],[-51.07282,-29.78511],[-51.07295,-29.78508],[-51.07339,-29.78497],[-51.07355,-29.78492],[-51.07369,-29.78484],[-51.0743,-29.78444],[-51.07438,-29.78438],[-51.07478,-29.78405],[-51.07482,-29.78402],[-51.07511,-29.78377],[-51.07537,-29.78367],[-51.07556,-29.78357],[-51.07572,-29.78344],[-51.07616,-29.78301],[-51.07618,-29.78298],[-51.07636,-29.78279],[-51.07659,-29.78258],[-51.07674,-29.78252],[-51.07714,-29.78238],[-51.07745,-29.78232],[-51.07757,-29.78229],[-51.07794,-29.78216],[-51.07809,-29.78209],[-51.07823,-29.782],[-51.07848,-29.7818],[-51.07875,-29.78163],[-51.07876,-29.78163],[-51.07919,-29.78135],[-51.07933,-29.78125],[-51.07958,-29.78101],[-51.07974,-29.78082],[-51.07988,-29.78061],[-51.07995,-29.78048],[-51.08,-29.78034],[-51.08006,-29.78013],[-51.08012,-29.77997],[-51.08016,-29.77993],[-51.0806,-29.77956],[-51.08089,-29.77935],[-51.08107,-29.7792],[-51.0812,-29.779],[-51.08142,-29.77861],[-51.08172,-29.77842],[-51.08184,-29.77834],[-51.08226,-29.77801],[-51.08242,-29.77784],[-51.08289,-29.77724],[-51.08298,-29.77711],[-51.08304,-29.77696],[-51.08322,-29.77648],[-51.08326,-29.77632],[-51.08328,-29.77617],[-51.08329,-29.77564],[-51.08328,-29.77545],[-51.08319,-29.77484],[-51.08318,-29.77481],[-51.08308,-29.77432],[-51.08307,-29.77428],[-51.08289,-29.77349],[-51.08297,-29.77339],[-51.08319,-29.77307],[-51.08321,-29.77303],[-51.08335,-29.77281],[-51.08344,-29.77262],[-51.08349,-29.77241],[-51.08352,-29.77213],[-51.08353,-29.7721],[-51.08355,-29.77185],[-51.08361,-29.77176],[-51.08363,-29.77173],[-51.08365,-29.77169],[-51.08379,-29.77163],[-51.08389,-29.77156],[-51.084,-29.7715],[-51.08417,-29.77135],[-51.08431,-29.77118],[-51.08451,-29.77086],[-51.08462,-29.7706],[-51.08468,-29.77036],[-51.08471,-29.77033],[-51.0848,-29.77018],[-51.08487,-29.77002],[-51.08491,-29.76985],[-51.08491,-29.76967],[-51.08491,-29.76949],[-51.0849,-29.76937],[-51.08493,-29.7693],[-51.08498,-29.76904],[-51.085,-29.76879],[-51.085,-29.76861],[-51.08496,-29.76844],[-51.08492,-29.7683],[-51.08492,-29.76825],[-51.08492,-29.76809],[-51.08494,-29.76806],[-51.08494,-29.76804],[-51.08517,-29.76758],[-51.08522,-29.76746],[-51.08538,-29.76699],[-51.08544,-29.76683],[-51.0857,-29.76652],[-51.08581,-29.76636],[-51.08588,-29.76617],[-51.08589,-29.76614],[-51.08597,-29.76605],[-51.08606,-29.76594],[-51.08634,-29.76554],[-51.08644,-29.76535],[-51.0865,-29.76516],[-51.0866,-29.76463],[-51.08662,-29.76441],[-51.08659,-29.76419],[-51.08658,-29.76418],[-51.08668,-29.76414],[-51.08683,-29.76408],[-51.08713,-29.76392],[-51.08727,-29.76384],[-51.0874,-29.76373],[-51.08763,-29.76348],[-51.08773,-29.76336],[-51.08781,-29.76323],[-51.08798,-29.76288],[-51.08804,-29.7627],[-51.08808,-29.76251],[-51.08809,-29.76225],[-51.08809,-29.76205],[-51.08804,-29.7617],[-51.08821,-29.76117],[-51.08826,-29.76095],[-51.08825,-29.76073],[-51.0882,-29.76052],[-51.08768,-29.75911],[-51.08757,-29.75823],[-51.08752,-29.75804],[-51.08744,-29.75787],[-51.08705,-29.75719],[-51.08713,-29.75674],[-51.08757,-29.75604],[-51.08765,-29.75587],[-51.0877,-29.75568],[-51.08772,-29.75549],[-51.0877,-29.75419],[-51.08767,-29.75397],[-51.08759,-29.75375],[-51.08734,-29.75328],[-51.08741,-29.75312],[-51.08747,-29.75291],[-51.08748,-29.75269],[-51.08744,-29.75164],[-51.08747,-29.75145],[-51.08748,-29.75126],[-51.08745,-29.75107],[-51.08738,-29.75088],[-51.08729,-29.75072],[-51.08716,-29.75057],[-51.08686,-29.75029],[-51.08679,-29.75023],[-51.08675,-29.7502],[-51.0867,-29.7501],[-51.0866,-29.74996],[-51.08647,-29.74984],[-51.08623,-29.74964],[-51.08607,-29.74953],[-51.08588,-29.74946],[-51.08569,-29.74942],[-51.08562,-29.74942],[-51.08553,-29.74929],[-51.08537,-29.74914],[-51.08521,-29.74903],[-51.08521,-29.74896],[-51.08521,-29.74874],[-51.08516,-29.74853],[-51.08506,-29.74826],[-51.08508,-29.74817],[-51.08508,-29.74799],[-51.08507,-29.74794],[-51.0851,-29.74777],[-51.08512,-29.74757],[-51.08512,-29.74756],[-51.08553,-29.7469],[-51.0862,-29.7467],[-51.08636,-29.74664],[-51.0865,-29.74655],[-51.08663,-29.74644],[-51.08774,-29.7453],[-51.08786,-29.74515],[-51.08795,-29.74498],[-51.088,-29.7448],[-51.08802,-29.74461],[-51.08803,-29.74324],[-51.08801,-29.74304],[-51.08795,-29.74285],[-51.08786,-29.74268],[-51.08745,-29.74206],[-51.08744,-29.74189],[-51.08741,-29.74169],[-51.08733,-29.7415],[-51.08722,-29.74133],[-51.08712,-29.74122],[-51.08725,-29.74022],[-51.08725,-29.73997],[-51.08715,-29.73913],[-51.08747,-29.73903],[-51.08764,-29.73902],[-51.08795,-29.73903],[-51.08798,-29.73903],[-51.08813,-29.73903],[-51.08824,-29.73907],[-51.08845,-29.73911],[-51.08875,-29.73913],[-51.08894,-29.73913],[-51.08913,-29.73909],[-51.08921,-29.73906],[-51.08966,-29.73919],[-51.08985,-29.73922],[-51.09006,-29.73922],[-51.09025,-29.73918],[-51.09043,-29.7391],[-51.09138,-29.73856],[-51.09151,-29.73847],[-51.09162,-29.73836],[-51.09218,-29.73774],[-51.09231,-29.73756],[-51.09233,-29.73758],[-51.09333,-29.73883],[-51.09345,-29.73895],[-51.09359,-29.73905],[-51.09375,-29.73913],[-51.09498,-29.7396],[-51.09516,-29.73965],[-51.09534,-29.73967],[-51.09553,-29.73965],[-51.09571,-29.7396],[-51.09619,-29.7394],[-51.09637,-29.73931],[-51.09653,-29.73919],[-51.09666,-29.73903],[-51.09675,-29.73885],[-51.09721,-29.73774],[-51.09748,-29.73747],[-51.09773,-29.73742],[-51.09956,-29.73772],[-51.09972,-29.73773],[-51.09989,-29.73771],[-51.10084,-29.73754],[-51.101,-29.7375],[-51.10115,-29.73743],[-51.10175,-29.73709],[-51.10217,-29.73709],[-51.10271,-29.73736],[-51.10298,-29.73745],[-51.10406,-29.73765],[-51.10423,-29.73766],[-51.10441,-29.73765],[-51.10457,-29.7376],[-51.10516,-29.7374],[-51.10537,-29.73729],[-51.10556,-29.73713],[-51.10602,-29.73662],[-51.10616,-29.73644],[-51.10625,-29.73622],[-51.10632,-29.73597],[-51.10674,-29.73506],[-51.10726,-29.73445],[-51.10735,-29.73433],[-51.10742,-29.73419],[-51.10771,-29.73352],[-51.10777,-29.73333],[-51.10779,-29.73313],[-51.10779,-29.7325],[-51.10777,-29.73231],[-51.10772,-29.73214],[-51.10764,-29.73197],[-51.10753,-29.73183],[-51.10719,-29.73146],[-51.10691,-29.73062],[-51.10683,-29.73045],[-51.10618,-29.72932],[-51.10613,-29.7291],[-51.10616,-29.729],[-51.10681,-29.72927],[-51.10692,-29.72931],[-51.10776,-29.72956],[-51.10795,-29.72959],[-51.10815,-29.72959],[-51.10834,-29.72955],[-51.1084,-29.72953],[-51.1084,-29.70703]]]]},"properties":{"ghs":"6few","size":0.38,"ghs_len":4,"ghs_area":127.12,"ghs_bytes":877064,"ghs_items":4197,"size_unit":"km2","ghsval_unit":"bytes","ghs_itemsdensity":33.02,"size_unitdensity":0}},{"type":"Feature","geometry":{"type":"Polygon","coordinates":[[[-51.13037,-29.69055],[-51.11938,-29.69055],[-51.11938,-29.69604],[-51.13037,-29.69604],[-51.13037,-29.69055]]]},"properties":{"ghs":"6fexhd","size":0.17,"ghs_len":6,"ghs_area":0.65,"ghs_bytes":350473,"ghs_items":1445,"size_unit":"km2","ghsval_unit":"bytes","ghs_itemsdensity":2231.9,"size_unitdensity":0.26}},{"type":"Feature","geometry":{"type":"Polygon","coordinates":[[[-51.13037,-29.68506],[-51.11938,-29.68506],[-51.11938,-29.69055],[-51.13037,-29.69055],[-51.13037,-29.68506]]]},"properties":{"ghs":"6fexhe","size":0.22,"ghs_len":6,"ghs_area":0.65,"ghs_bytes":417497,"ghs_items":1682,"size_unit":"km2","ghsval_unit":"bytes","ghs_itemsdensity":2597.82,"size_unitdensity":0.34}},{"type":"Feature","geometry":{"type":"Polygon","coordinates":[[[-51.13037,-29.70703],[-51.11938,-29.70703],[-51.1084,-29.70703],[-51.1084,-29.72953],[-51.10897,-29.72936],[-51.10944,-29.72977],[-51.1096,-29.72988],[-51.10978,-29.72996],[-51.11143,-29.73052],[-51.11146,-29.73056],[-51.11152,-29.73144],[-51.11145,-29.73197],[-51.11123,-29.73239],[-51.11063,-29.73295],[-51.1105,-29.7331],[-51.1104,-29.73327],[-51.11008,-29.73397],[-51.11003,-29.73412],[-51.11,-29.73428],[-51.10999,-29.73445],[-51.11004,-29.73509],[-51.11007,-29.73529],[-51.11015,-29.73548],[-51.11039,-29.73595],[-51.1105,-29.73613],[-51.11065,-29.73628],[-51.11084,-29.73639],[-51.11123,-29.73658],[-51.11139,-29.73665],[-51.11156,-29.73668],[-51.11173,-29.73668],[-51.11221,-29.73665],[-51.11238,-29.73663],[-51.11247,-29.73687],[-51.11256,-29.73706],[-51.11269,-29.73723],[-51.11285,-29.73736],[-51.11304,-29.73746],[-51.11324,-29.73752],[-51.11356,-29.73757],[-51.11374,-29.73758],[-51.11386,-29.73757],[-51.11401,-29.73797],[-51.1141,-29.73814],[-51.11421,-29.7383],[-51.11435,-29.73843],[-51.11452,-29.73853],[-51.1147,-29.73859],[-51.11489,-29.73862],[-51.11549,-29.73866],[-51.11605,-29.73884],[-51.11666,-29.73943],[-51.11683,-29.73957],[-51.11703,-29.73966],[-51.11725,-29.73971],[-51.11777,-29.73976],[-51.11797,-29.73976],[-51.11817,-29.73972],[-51.11836,-29.73964],[-51.11852,-29.73952],[-51.11885,-29.73924],[-51.11943,-29.73896],[-51.11957,-29.73888],[-51.12012,-29.73851],[-51.12127,-29.7381],[-51.12152,-29.73797],[-51.12196,-29.73765],[-51.12255,-29.73745],[-51.12261,-29.73744],[-51.12255,-29.7375],[-51.12246,-29.73769],[-51.1224,-29.73789],[-51.12239,-29.7381],[-51.1224,-29.73847],[-51.12243,-29.73868],[-51.1225,-29.73887],[-51.12261,-29.73904],[-51.12275,-29.73919],[-51.12292,-29.7393],[-51.12379,-29.73979],[-51.124,-29.73987],[-51.12525,-29.74024],[-51.12526,-29.74024],[-51.12495,-29.74085],[-51.12487,-29.74108],[-51.12472,-29.74176],[-51.1247,-29.74195],[-51.12471,-29.74213],[-51.12475,-29.74231],[-51.12482,-29.74247],[-51.12493,-29.74263],[-51.12506,-29.74275],[-51.12521,-29.74286],[-51.12552,-29.74303],[-51.12578,-29.74313],[-51.12617,-29.74322],[-51.12661,-29.7438],[-51.12675,-29.74395],[-51.12691,-29.74407],[-51.12737,-29.74433],[-51.12753,-29.7444],[-51.1277,-29.74445],[-51.12788,-29.74446],[-51.12806,-29.74444],[-51.12823,-29.74439],[-51.12863,-29.74423],[-51.12883,-29.74423],[-51.12908,-29.74434],[-51.12927,-29.7444],[-51.12945,-29.74442],[-51.12964,-29.74441],[-51.12983,-29.74436],[-51.13,-29.74428],[-51.13015,-29.74417],[-51.13028,-29.74403],[-51.13038,-29.74386],[-51.13045,-29.74369],[-51.13048,-29.7435],[-51.1305,-29.74325],[-51.13054,-29.74291],[-51.13062,-29.74266],[-51.13067,-29.74253],[-51.13072,-29.74241],[-51.13174,-29.74207],[-51.13236,-29.74197],[-51.13253,-29.74193],[-51.13269,-29.74186],[-51.13284,-29.74175],[-51.13297,-29.74163],[-51.13344,-29.74108],[-51.13405,-29.74047],[-51.1342,-29.74029],[-51.13435,-29.74005],[-51.13469,-29.73975],[-51.13478,-29.73965],[-51.13526,-29.73912],[-51.13532,-29.73904],[-51.13554,-29.73873],[-51.13613,-29.73803],[-51.13762,-29.73634],[-51.13763,-29.73633],[-51.13787,-29.73605],[-51.13825,-29.73563],[-51.13893,-29.73493],[-51.13897,-29.73489],[-51.13931,-29.7345],[-51.13037,-29.7345],[-51.13037,-29.729],[-51.14136,-29.729],[-51.14136,-29.73239],[-51.14151,-29.7323],[-51.14176,-29.73216],[-51.14178,-29.73215],[-51.14241,-29.73177],[-51.14353,-29.73121],[-51.1436,-29.73117],[-51.14467,-29.73052],[-51.14492,-29.73038],[-51.14531,-29.73019],[-51.14542,-29.73013],[-51.14592,-29.7298],[-51.14622,-29.72964],[-51.14654,-29.72949],[-51.14665,-29.72943],[-51.14695,-29.72923],[-51.1471,-29.72912],[-51.14722,-29.72898],[-51.1474,-29.72874],[-51.14748,-29.72861],[-51.1476,-29.72838],[-51.14765,-29.72828],[-51.14772,-29.7281],[-51.14776,-29.72795],[-51.14776,-29.72795],[-51.14777,-29.72794],[-51.14785,-29.72777],[-51.1479,-29.72759],[-51.14791,-29.7275],[-51.14793,-29.7273],[-51.14791,-29.72719],[-51.14791,-29.72718],[-51.14793,-29.72715],[-51.14799,-29.72697],[-51.14802,-29.72678],[-51.14801,-29.72678],[-51.14807,-29.72671],[-51.14819,-29.72653],[-51.14821,-29.72649],[-51.14826,-29.72644],[-51.14831,-29.72638],[-51.14844,-29.72621],[-51.14852,-29.72602],[-51.14856,-29.72582],[-51.14857,-29.72562],[-51.14857,-29.72559],[-51.14857,-29.72557],[-51.14857,-29.72537],[-51.14855,-29.72531],[-51.14855,-29.72519],[-51.14852,-29.725],[-51.1485,-29.72494],[-51.14853,-29.72476],[-51.14855,-29.72464],[-51.14854,-29.72438],[-51.14846,-29.72391],[-51.14846,-29.7238],[-51.14842,-29.7236],[-51.14834,-29.72341],[-51.14823,-29.72324],[-51.14792,-29.72287],[-51.14787,-29.72278],[-51.14773,-29.72259],[-51.14772,-29.72257],[-51.14772,-29.72257],[-51.14767,-29.72195],[-51.14763,-29.72132],[-51.14762,-29.72129],[-51.14765,-29.72127],[-51.14778,-29.72116],[-51.14789,-29.72103],[-51.14804,-29.72082],[-51.14813,-29.72066],[-51.14819,-29.72048],[-51.14822,-29.72029],[-51.14822,-29.72022],[-51.14823,-29.71997],[-51.14826,-29.71985],[-51.14833,-29.71963],[-51.14836,-29.71943],[-51.14837,-29.71931],[-51.14838,-29.71927],[-51.14838,-29.71908],[-51.14836,-29.71898],[-51.14835,-29.71881],[-51.1483,-29.71861],[-51.14821,-29.71842],[-51.14817,-29.71836],[-51.14806,-29.71821],[-51.14792,-29.71808],[-51.14775,-29.71799],[-51.14775,-29.71799],[-51.14773,-29.71795],[-51.14769,-29.71786],[-51.14762,-29.71773],[-51.14759,-29.71758],[-51.14753,-29.71743],[-51.14755,-29.71739],[-51.14757,-29.71734],[-51.14759,-29.71731],[-51.14759,-29.71731],[-51.14767,-29.71715],[-51.14776,-29.71702],[-51.14787,-29.71689],[-51.14797,-29.71674],[-51.14804,-29.71658],[-51.14808,-29.7164],[-51.14808,-29.71622],[-51.14807,-29.716],[-51.15234,-29.71597],[-51.15234,-29.70703],[-51.13037,-29.70703]],[[-51.14136,-29.72351],[-51.13037,-29.72351],[-51.11938,-29.72351],[-51.11938,-29.71802],[-51.13037,-29.71802],[-51.13037,-29.71252],[-51.14136,-29.71252],[-51.14136,-29.71802],[-51.14136,-29.72351]]]},"properties":{"ghs":"6fewu","size":1.46,"ghs_len":5,"ghs_area":10.73,"ghs_bytes":2918645,"ghs_items":14318,"size_unit":"km2","ghsval_unit":"bytes","ghs_itemsdensity":1334.67,"size_unitdensity":0.14}},{"type":"Feature","geometry":{"type":"Polygon","coordinates":[[[-51.14136,-29.729],[-51.13037,-29.729],[-51.13037,-29.7345],[-51.13931,-29.7345],[-51.13938,-29.73441],[-51.1394,-29.73439],[-51.14011,-29.73354],[-51.14014,-29.73349],[-51.14034,-29.73322],[-51.14059,-29.73296],[-51.14067,-29.73289],[-51.14089,-29.7327],[-51.14128,-29.73244],[-51.14136,-29.73239],[-51.14136,-29.729]]]},"properties":{"ghs":"6fewu7","size":0.12,"ghs_len":6,"ghs_area":0.62,"ghs_bytes":340134,"ghs_items":1811,"size_unit":"km2","ghsval_unit":"bytes","ghs_itemsdensity":2914.65,"size_unitdensity":0.2}},{"type":"Feature","geometry":{"type":"Polygon","coordinates":[[[-51.14136,-29.71802],[-51.13037,-29.71802],[-51.13037,-29.72351],[-51.14136,-29.72351],[-51.14136,-29.71802]]]},"properties":{"ghs":"6fewum","size":0.2,"ghs_len":6,"ghs_area":0.65,"ghs_bytes":398469,"ghs_items":2028,"size_unit":"km2","ghsval_unit":"bytes","ghs_itemsdensity":3133.22,"size_unitdensity":0.32}},{"type":"Feature","geometry":{"type":"Polygon","coordinates":[[[-51.14136,-29.71252],[-51.13037,-29.71252],[-51.13037,-29.71802],[-51.14136,-29.71802],[-51.14136,-29.71252]]]},"properties":{"ghs":"6fewuq","size":0.19,"ghs_len":6,"ghs_area":0.65,"ghs_bytes":341355,"ghs_items":1611,"size_unit":"km2","ghsval_unit":"bytes","ghs_itemsdensity":2488.83,"size_unitdensity":0.3}},{"type":"Feature","geometry":{"type":"Polygon","coordinates":[[[-51.13037,-29.71802],[-51.11938,-29.71802],[-51.11938,-29.72351],[-51.13037,-29.72351],[-51.13037,-29.71802]]]},"properties":{"ghs":"6fewut","size":0.14,"ghs_len":6,"ghs_area":0.65,"ghs_bytes":335973,"ghs_items":1697,"size_unit":"km2","ghsval_unit":"bytes","ghs_itemsdensity":2621.83,"size_unitdensity":0.21}},{"type":"Feature","geometry":{"type":"Polygon","coordinates":[[[-51.11938,-29.68506],[-51.1084,-29.68506],[-51.1084,-29.69055],[-51.11938,-29.69055],[-51.11938,-29.68506]]]},"properties":{"ghs":"6fexhg","size":0.1,"ghs_len":6,"ghs_area":0.65,"ghs_bytes":300261,"ghs_items":1294,"size_unit":"km2","ghsval_unit":"bytes","ghs_itemsdensity":1998.56,"size_unitdensity":0.15}},{"type":"Feature","geometry":{"type":"Polygon","coordinates":[[[-51.15234,-29.67407],[-51.14136,-29.67407],[-51.14136,-29.67957],[-51.15234,-29.67957],[-51.15234,-29.67407]]]},"properties":{"ghs":"6fexhj","size":0.14,"ghs_len":6,"ghs_area":0.65,"ghs_bytes":358303,"ghs_items":1764,"size_unit":"km2","ghsval_unit":"bytes","ghs_itemsdensity":2724.18,"size_unitdensity":0.22}},{"type":"Feature","geometry":{"type":"Polygon","coordinates":[[[-51.14136,-29.67957],[-51.13037,-29.67957],[-51.13037,-29.68506],[-51.14136,-29.68506],[-51.14136,-29.67957]]]},"properties":{"ghs":"6fexhk","size":0.23,"ghs_len":6,"ghs_area":0.65,"ghs_bytes":378845,"ghs_items":1589,"size_unit":"km2","ghsval_unit":"bytes","ghs_itemsdensity":2454.06,"size_unitdensity":0.36}},{"type":"Feature","geometry":{"type":"Polygon","coordinates":[[[-51.15234,-29.67407],[-51.15234,-29.67957],[-51.15234,-29.68506],[-51.15234,-29.69055],[-51.15234,-29.70703],[-51.15992,-29.70703],[-51.15981,-29.70616],[-51.1598,-29.70614],[-51.15979,-29.70605],[-51.15963,-29.70501],[-51.15962,-29.70497],[-51.15948,-29.70427],[-51.15949,-29.70401],[-51.1599,-29.7025],[-51.15992,-29.70238],[-51.16019,-29.70053],[-51.1602,-29.7005],[-51.16022,-29.7003],[-51.1603,-29.7001],[-51.16111,-29.6984],[-51.1612,-29.69812],[-51.16123,-29.6979],[-51.16124,-29.69774],[-51.16123,-29.69664],[-51.16123,-29.69662],[-51.16119,-29.69507],[-51.16118,-29.69492],[-51.161,-29.69396],[-51.16527,-29.69545],[-51.16667,-29.69594],[-51.16684,-29.69599],[-51.16701,-29.696],[-51.16718,-29.69598],[-51.17818,-29.69398],[-51.17838,-29.69393],[-51.17856,-29.69383],[-51.17872,-29.69369],[-51.17885,-29.69353],[-51.17894,-29.69334],[-51.17899,-29.69313],[-51.17978,-29.6873],[-51.17979,-29.68711],[-51.17976,-29.68692],[-51.17969,-29.68674],[-51.1793,-29.68591],[-51.17903,-29.68535],[-51.17865,-29.68454],[-51.17804,-29.68322],[-51.17767,-29.68218],[-51.1775,-29.68154],[-51.1775,-29.68154],[-51.17768,-29.68058],[-51.17769,-29.68052],[-51.17778,-29.67976],[-51.17782,-29.67955],[-51.17801,-29.6785],[-51.17803,-29.67827],[-51.17799,-29.67804],[-51.17795,-29.67789],[-51.17791,-29.67779],[-51.17689,-29.67529],[-51.17684,-29.67511],[-51.17684,-29.67508],[-51.17686,-29.67502],[-51.17688,-29.67492],[-51.17689,-29.67492],[-51.17702,-29.67443],[-51.17748,-29.67347],[-51.1775,-29.67343],[-51.17787,-29.67259],[-51.1779,-29.67249],[-51.17792,-29.67244],[-51.17796,-29.67228],[-51.17797,-29.67211],[-51.17797,-29.67194],[-51.17794,-29.67176],[-51.17789,-29.67159],[-51.17781,-29.67143],[-51.1777,-29.67128],[-51.17756,-29.67116],[-51.17721,-29.6709],[-51.1771,-29.67083],[-51.17684,-29.67068],[-51.17677,-29.67064],[-51.17642,-29.67049],[-51.17642,-29.67048],[-51.17618,-29.67037],[-51.17578,-29.67017],[-51.17549,-29.67003],[-51.17527,-29.66992],[-51.17477,-29.66968],[-51.17466,-29.66962],[-51.17444,-29.66954],[-51.17399,-29.66944],[-51.17348,-29.66932],[-51.17298,-29.66921],[-51.17248,-29.66909],[-51.17097,-29.66873],[-51.17074,-29.6687],[-51.17012,-29.6687],[-51.17002,-29.66871],[-51.16996,-29.66871],[-51.16976,-29.66876],[-51.16969,-29.66878],[-51.16968,-29.66879],[-51.16942,-29.66887],[-51.1694,-29.66888],[-51.16874,-29.66913],[-51.16853,-29.66917],[-51.16843,-29.66916],[-51.16828,-29.66914],[-51.16797,-29.66907],[-51.16792,-29.66906],[-51.16779,-29.66903],[-51.16775,-29.66902],[-51.16763,-29.66901],[-51.16749,-29.669],[-51.16743,-29.669],[-51.16722,-29.66902],[-51.16717,-29.66903],[-51.1671,-29.66905],[-51.16561,-29.66948],[-51.1656,-29.66947],[-51.16553,-29.66947],[-51.16533,-29.66946],[-51.16514,-29.6695],[-51.16496,-29.66957],[-51.16479,-29.66968],[-51.16465,-29.66982],[-51.16458,-29.66991],[-51.16443,-29.67005],[-51.16373,-29.67029],[-51.16278,-29.6706],[-51.16274,-29.67061],[-51.1627,-29.67062],[-51.16252,-29.67044],[-51.16234,-29.67029],[-51.16209,-29.67013],[-51.16203,-29.6701],[-51.16188,-29.67002],[-51.16162,-29.66987],[-51.16158,-29.66985],[-51.16117,-29.66966],[-51.16114,-29.66964],[-51.1608,-29.66949],[-51.16076,-29.66947],[-51.16046,-29.66936],[-51.16028,-29.66931],[-51.15996,-29.66924],[-51.15983,-29.66923],[-51.15961,-29.66922],[-51.15959,-29.66921],[-51.15937,-29.66921],[-51.15903,-29.66919],[-51.15889,-29.66917],[-51.15854,-29.66909],[-51.15791,-29.66893],[-51.15785,-29.66892],[-51.15772,-29.66888],[-51.15687,-29.66863],[-51.15683,-29.66862],[-51.15626,-29.66848],[-51.15546,-29.66808],[-51.15528,-29.66802],[-51.15515,-29.66798],[-51.155,-29.66795],[-51.15484,-29.66795],[-51.15429,-29.66797],[-51.15427,-29.66798],[-51.1542,-29.66798],[-51.15379,-29.66801],[-51.1536,-29.66802],[-51.15305,-29.66801],[-51.15293,-29.66801],[-51.15234,-29.66807],[-51.15234,-29.67407]]]},"properties":{"ghs":"6fex5","size":0.51,"ghs_len":5,"ghs_area":8.21,"ghs_bytes":1553115,"ghs_items":7730,"size_unit":"km2","ghsval_unit":"bytes","ghs_itemsdensity":942.05,"size_unitdensity":0.06}},{"type":"Feature","geometry":{"type":"MultiPolygon","coordinates":[[[[-51.14136,-29.69055],[-51.14136,-29.69604],[-51.14136,-29.70154],[-51.13037,-29.70154],[-51.13037,-29.70703],[-51.15234,-29.70703],[-51.15234,-29.69055],[-51.14136,-29.69055]]],[[[-51.14136,-29.67957],[-51.14136,-29.68506],[-51.15234,-29.68506],[-51.15234,-29.67957],[-51.14136,-29.67957]]],[[[-51.1084,-29.66309],[-51.1084,-29.66858],[-51.1084,-29.67407],[-51.1084,-29.67957],[-51.1084,-29.68506],[-51.11938,-29.68506],[-51.11938,-29.67957],[-51.11938,-29.67407],[-51.11938,-29.66858],[-51.13037,-29.66858],[-51.14136,-29.66858],[-51.14136,-29.67407],[-51.15234,-29.67407],[-51.15234,-29.66807],[-51.14982,-29.66831],[-51.1491,-29.6683],[-51.14899,-29.6683],[-51.14893,-29.66831],[-51.14854,-29.66835],[-51.14805,-29.6684],[-51.14734,-29.66847],[-51.14722,-29.66848],[-51.14668,-29.66853],[-51.14652,-29.66855],[-51.14651,-29.66855],[-51.14605,-29.6686],[-51.14596,-29.66861],[-51.14567,-29.66867],[-51.14422,-29.66878],[-51.14474,-29.66309],[-51.1084,-29.66309]]],[[[-51.1084,-29.70154],[-51.11938,-29.70154],[-51.11938,-29.69604],[-51.11938,-29.69055],[-51.1084,-29.69055],[-51.1084,-29.69604],[-51.1084,-29.70154]]]]},"properties":{"ghs":"6fexh","size":1.53,"ghs_len":5,"ghs_area":9.26,"ghs_bytes":2927608,"ghs_items":13093,"size_unit":"km2","ghsval_unit":"bytes","ghs_itemsdensity":1413.34,"size_unitdensity":0.17}},{"type":"Feature","geometry":{"type":"Polygon","coordinates":[[[-51.14136,-29.69604],[-51.13037,-29.69604],[-51.13037,-29.70154],[-51.14136,-29.70154],[-51.14136,-29.69604]]]},"properties":{"ghs":"6fexh3","size":0.19,"ghs_len":6,"ghs_area":0.65,"ghs_bytes":303191,"ghs_items":1340,"size_unit":"km2","ghsval_unit":"bytes","ghs_itemsdensity":2069.83,"size_unitdensity":0.29}},{"type":"Feature","geometry":{"type":"Polygon","coordinates":[[[-51.15234,-29.68506],[-51.14136,-29.68506],[-51.14136,-29.69055],[-51.15234,-29.69055],[-51.15234,-29.68506]]]},"properties":{"ghs":"6fexh5","size":0.15,"ghs_len":6,"ghs_area":0.65,"ghs_bytes":307981,"ghs_items":1418,"size_unit":"km2","ghsval_unit":"bytes","ghs_itemsdensity":2190.08,"size_unitdensity":0.23}},{"type":"Feature","geometry":{"type":"Polygon","coordinates":[[[-51.14136,-29.69055],[-51.13037,-29.69055],[-51.13037,-29.69604],[-51.14136,-29.69604],[-51.14136,-29.69055]]]},"properties":{"ghs":"6fexh6","size":0.21,"ghs_len":6,"ghs_area":0.65,"ghs_bytes":369534,"ghs_items":1577,"size_unit":"km2","ghsval_unit":"bytes","ghs_itemsdensity":2435.78,"size_unitdensity":0.33}},{"type":"Feature","geometry":{"type":"Polygon","coordinates":[[[-51.14136,-29.68506],[-51.13037,-29.68506],[-51.13037,-29.69055],[-51.14136,-29.69055],[-51.14136,-29.68506]]]},"properties":{"ghs":"6fexh7","size":0.26,"ghs_len":6,"ghs_area":0.65,"ghs_bytes":374361,"ghs_items":1597,"size_unit":"km2","ghsval_unit":"bytes","ghs_itemsdensity":2466.54,"size_unitdensity":0.4}},{"type":"Feature","geometry":{"type":"Polygon","coordinates":[[[-51.13037,-29.70154],[-51.11938,-29.70154],[-51.11938,-29.70703],[-51.13037,-29.70703],[-51.13037,-29.70154]]]},"properties":{"ghs":"6fexh8","size":0.14,"ghs_len":6,"ghs_area":0.65,"ghs_bytes":308521,"ghs_items":1376,"size_unit":"km2","ghsval_unit":"bytes","ghs_itemsdensity":2125.55,"size_unitdensity":0.22}},{"type":"Feature","geometry":{"type":"Polygon","coordinates":[[[-51.13037,-29.69604],[-51.11938,-29.69604],[-51.11938,-29.70154],[-51.13037,-29.70154],[-51.13037,-29.69604]]]},"properties":{"ghs":"6fexh9","size":0.16,"ghs_len":6,"ghs_area":0.65,"ghs_bytes":358632,"ghs_items":1578,"size_unit":"km2","ghsval_unit":"bytes","ghs_itemsdensity":2437.46,"size_unitdensity":0.25}},{"type":"Feature","geometry":{"type":"Polygon","coordinates":[[[-51.11938,-29.70154],[-51.1084,-29.70154],[-51.1084,-29.70703],[-51.11938,-29.70703],[-51.11938,-29.70154]]]},"properties":{"ghs":"6fexhb","size":0.14,"ghs_len":6,"ghs_area":0.65,"ghs_bytes":358623,"ghs_items":1828,"size_unit":"km2","ghsval_unit":"bytes","ghs_itemsdensity":2823.77,"size_unitdensity":0.21}},{"type":"Feature","geometry":{"type":"Polygon","coordinates":[[[-51.13037,-29.67957],[-51.11938,-29.67957],[-51.11938,-29.68506],[-51.13037,-29.68506],[-51.13037,-29.67957]]]},"properties":{"ghs":"6fexhs","size":0.24,"ghs_len":6,"ghs_area":0.65,"ghs_bytes":380133,"ghs_items":1431,"size_unit":"km2","ghsval_unit":"bytes","ghs_itemsdensity":2210.04,"size_unitdensity":0.37}},{"type":"Feature","geometry":{"type":"Polygon","coordinates":[[[-51.13037,-29.67407],[-51.11938,-29.67407],[-51.11938,-29.67957],[-51.13037,-29.67957],[-51.13037,-29.67407]]]},"properties":{"ghs":"6fexht","size":0.15,"ghs_len":6,"ghs_area":0.65,"ghs_bytes":346081,"ghs_items":1366,"size_unit":"km2","ghsval_unit":"bytes","ghs_itemsdensity":2109.54,"size_unitdensity":0.24}},{"type":"Feature","geometry":{"type":"Polygon","coordinates":[[[-51.13037,-29.66858],[-51.11938,-29.66858],[-51.11938,-29.67407],[-51.13037,-29.67407],[-51.13037,-29.66858]]]},"properties":{"ghs":"6fexhw","size":0.16,"ghs_len":6,"ghs_area":0.65,"ghs_bytes":396998,"ghs_items":1861,"size_unit":"km2","ghsval_unit":"bytes","ghs_itemsdensity":2873.83,"size_unitdensity":0.25}},{"type":"Feature","geometry":{"type":"MultiPolygon","coordinates":[[[[-51.09741,-29.70154],[-51.08643,-29.70154],[-51.08643,-29.69604],[-51.08643,-29.69055],[-51.08643,-29.68506],[-51.08643,-29.67957],[-51.09741,-29.67957],[-51.1084,-29.67957],[-51.1084,-29.67407],[-51.09741,-29.67407],[-51.09741,-29.66858],[-51.1084,-29.66858],[-51.1084,-29.66309],[-51.08785,-29.66309],[-51.08793,-29.66528],[-51.08762,-29.66611],[-51.08756,-29.66632],[-51.08755,-29.66653],[-51.0876,-29.66714],[-51.08763,-29.66735],[-51.08851,-29.67034],[-51.08874,-29.67225],[-51.08874,-29.67227],[-51.08899,-29.674],[-51.08875,-29.67415],[-51.08858,-29.67428],[-51.08845,-29.67444],[-51.08835,-29.67463],[-51.08829,-29.67483],[-51.08827,-29.67492],[-51.0882,-29.67493],[-51.08809,-29.67496],[-51.08769,-29.67509],[-51.0875,-29.67517],[-51.08733,-29.67528],[-51.08719,-29.67543],[-51.08709,-29.67561],[-51.08702,-29.6758],[-51.08679,-29.67669],[-51.08656,-29.67763],[-51.08643,-29.67813],[-51.08642,-29.67814],[-51.08637,-29.67835],[-51.08636,-29.67839],[-51.08635,-29.67845],[-51.08628,-29.67862],[-51.08611,-29.67925],[-51.08595,-29.67983],[-51.08592,-29.6799],[-51.0859,-29.67995],[-51.08582,-29.68006],[-51.08581,-29.68008],[-51.08573,-29.68017],[-51.08532,-29.6806],[-51.0853,-29.68063],[-51.0851,-29.68086],[-51.08455,-29.68147],[-51.08455,-29.68147],[-51.08446,-29.68157],[-51.08411,-29.68193],[-51.08409,-29.68196],[-51.08362,-29.68249],[-51.08361,-29.6825],[-51.08324,-29.68289],[-51.08322,-29.6829],[-51.08313,-29.68301],[-51.08311,-29.68303],[-51.0827,-29.68351],[-51.08268,-29.68354],[-51.08241,-29.68388],[-51.08235,-29.68397],[-51.08201,-29.6845],[-51.082,-29.68451],[-51.08188,-29.68471],[-51.0816,-29.68515],[-51.08152,-29.68526],[-51.08149,-29.68528],[-51.08145,-29.68531],[-51.08139,-29.68534],[-51.08138,-29.68534],[-51.08129,-29.68535],[-51.08114,-29.68536],[-51.08108,-29.68535],[-51.08099,-29.68533],[-51.08094,-29.6853],[-51.08094,-29.6853],[-51.08088,-29.68524],[-51.08087,-29.68521],[-51.0808,-29.68491],[-51.0808,-29.6849],[-51.0807,-29.68446],[-51.08066,-29.68434],[-51.08056,-29.68407],[-51.0805,-29.68393],[-51.08037,-29.6837],[-51.08027,-29.68354],[-51.08015,-29.6834],[-51.08001,-29.68327],[-51.07993,-29.6832],[-51.07976,-29.68305],[-51.07963,-29.68296],[-51.0794,-29.68282],[-51.07932,-29.68278],[-51.0791,-29.68268],[-51.07893,-29.68261],[-51.0787,-29.68255],[-51.07855,-29.68252],[-51.0784,-29.68252],[-51.07814,-29.68253],[-51.07812,-29.68253],[-51.078,-29.68253],[-51.07797,-29.68254],[-51.07776,-29.68256],[-51.07758,-29.68259],[-51.07737,-29.68265],[-51.0772,-29.68271],[-51.07701,-29.6828],[-51.07689,-29.68287],[-51.07673,-29.68298],[-51.07662,-29.68306],[-51.07645,-29.68321],[-51.07634,-29.68333],[-51.07619,-29.68351],[-51.07611,-29.68363],[-51.076,-29.68381],[-51.07579,-29.68414],[-51.07577,-29.68419],[-51.07556,-29.68456],[-51.07555,-29.68457],[-51.07545,-29.68475],[-51.07541,-29.68482],[-51.0754,-29.68483],[-51.07509,-29.68535],[-51.07508,-29.68535],[-51.07507,-29.68537],[-51.07494,-29.68551],[-51.07484,-29.68567],[-51.07478,-29.68586],[-51.07475,-29.68605],[-51.07476,-29.68624],[-51.07556,-29.69189],[-51.07556,-29.6919],[-51.07589,-29.69402],[-51.07597,-29.6943],[-51.07642,-29.69524],[-51.07799,-29.70131],[-51.07842,-29.70703],[-51.1084,-29.70703],[-51.1084,-29.70154],[-51.09741,-29.70154]]],[[[-51.09741,-29.69055],[-51.09741,-29.69604],[-51.1084,-29.69604],[-51.1084,-29.69055],[-51.09741,-29.69055]]]]},"properties":{"ghs":"6fexj","size":1.13,"ghs_len":5,"ghs_area":7.52,"ghs_bytes":2718927,"ghs_items":13504,"size_unit":"km2","ghsval_unit":"bytes","ghs_itemsdensity":1796.46,"size_unitdensity":0.15}},{"type":"Feature","geometry":{"type":"Polygon","coordinates":[[[-51.1084,-29.69604],[-51.09741,-29.69604],[-51.09741,-29.70154],[-51.1084,-29.70154],[-51.1084,-29.69604]]]},"properties":{"ghs":"6fexj1","size":0.13,"ghs_len":6,"ghs_area":0.65,"ghs_bytes":352870,"ghs_items":1744,"size_unit":"km2","ghsval_unit":"bytes","ghs_itemsdensity":2693.87,"size_unitdensity":0.21}},{"type":"Feature","geometry":{"type":"Polygon","coordinates":[[[-51.09741,-29.69604],[-51.08643,-29.69604],[-51.08643,-29.70154],[-51.09741,-29.70154],[-51.09741,-29.69604]]]},"properties":{"ghs":"6fexj3","size":0.15,"ghs_len":6,"ghs_area":0.65,"ghs_bytes":425348,"ghs_items":2257,"size_unit":"km2","ghsval_unit":"bytes","ghs_itemsdensity":3486.28,"size_unitdensity":0.24}},{"type":"Feature","geometry":{"type":"Polygon","coordinates":[[[-51.1084,-29.68506],[-51.09741,-29.68506],[-51.09741,-29.69055],[-51.1084,-29.69055],[-51.1084,-29.68506]]]},"properties":{"ghs":"6fexj5","size":0.12,"ghs_len":6,"ghs_area":0.65,"ghs_bytes":355758,"ghs_items":1678,"size_unit":"km2","ghsval_unit":"bytes","ghs_itemsdensity":2591.65,"size_unitdensity":0.18}},{"type":"Feature","geometry":{"type":"Polygon","coordinates":[[[-51.09741,-29.69055],[-51.08643,-29.69055],[-51.08643,-29.69604],[-51.09741,-29.69604],[-51.09741,-29.69055]]]},"properties":{"ghs":"6fexj6","size":0.18,"ghs_len":6,"ghs_area":0.65,"ghs_bytes":445019,"ghs_items":2317,"size_unit":"km2","ghsval_unit":"bytes","ghs_itemsdensity":3578.76,"size_unitdensity":0.29}},{"type":"Feature","geometry":{"type":"Polygon","coordinates":[[[-51.09741,-29.68506],[-51.08643,-29.68506],[-51.08643,-29.69055],[-51.09741,-29.69055],[-51.09741,-29.68506]]]},"properties":{"ghs":"6fexj7","size":0.16,"ghs_len":6,"ghs_area":0.65,"ghs_bytes":453045,"ghs_items":2271,"size_unit":"km2","ghsval_unit":"bytes","ghs_itemsdensity":3507.53,"size_unitdensity":0.25}},{"type":"Feature","geometry":{"type":"Polygon","coordinates":[[[-51.1084,-29.67957],[-51.09741,-29.67957],[-51.09741,-29.68506],[-51.1084,-29.68506],[-51.1084,-29.67957]]]},"properties":{"ghs":"6fexjh","size":0.13,"ghs_len":6,"ghs_area":0.65,"ghs_bytes":379808,"ghs_items":1714,"size_unit":"km2","ghsval_unit":"bytes","ghs_itemsdensity":2647.11,"size_unitdensity":0.21}},{"type":"Feature","geometry":{"type":"Polygon","coordinates":[[[-51.09741,-29.67957],[-51.08643,-29.67957],[-51.08643,-29.68506],[-51.09741,-29.68506],[-51.09741,-29.67957]]]},"properties":{"ghs":"6fexjk","size":0.18,"ghs_len":6,"ghs_area":0.65,"ghs_bytes":410250,"ghs_items":2073,"size_unit":"km2","ghsval_unit":"bytes","ghs_itemsdensity":3201.55,"size_unitdensity":0.28}},{"type":"Feature","geometry":{"type":"Polygon","coordinates":[[[-51.1084,-29.66858],[-51.09741,-29.66858],[-51.09741,-29.67407],[-51.1084,-29.67407],[-51.1084,-29.66858]]]},"properties":{"ghs":"6fexjn","size":0.16,"ghs_len":6,"ghs_area":0.65,"ghs_bytes":358558,"ghs_items":1757,"size_unit":"km2","ghsval_unit":"bytes","ghs_itemsdensity":2713.22,"size_unitdensity":0.25}}]}
