{"type":"FeatureCollection","features":[{"type":"Feature","geometry":{"type":"MultiPolygon","coordinates":[[[[-40.36001,-20.30035],[-40.35984,-20.30012],[-40.35888,-20.29917],[-40.357,-20.29732],[-40.35664,-20.29697],[-40.35577,-20.2961],[-40.35518,-20.29442],[-40.35331,-20.289],[-40.35326,-20.28887],[-40.35193,-20.28629],[-40.35121,-20.28487],[-40.35085,-20.28418],[-40.35076,-20.28404],[-40.35065,-20.28391],[-40.35052,-20.28381],[-40.34811,-20.28219],[-40.34361,-20.27784],[-40.3418,-20.27609],[-40.3418,-20.28076],[-40.3418,-20.28625],[-40.3418,-20.30273],[-40.36134,-20.30273],[-40.36001,-20.30035]]],[[[-40.32901,-20.25519],[-40.32901,-20.25519],[-40.32805,-20.24998],[-40.32799,-20.24896],[-40.3279,-20.24732],[-40.32818,-20.24531],[-40.32884,-20.24321],[-40.32897,-20.24293],[-40.32916,-20.24254],[-40.32951,-20.2418],[-40.32954,-20.24174],[-40.32985,-20.24096],[-40.33015,-20.24042],[-40.33023,-20.24024],[-40.33027,-20.24004],[-40.33027,-20.23983],[-40.3302,-20.23916],[-40.33016,-20.23897],[-40.33009,-20.23879],[-40.32998,-20.23862],[-40.32984,-20.23849],[-40.32945,-20.23817],[-40.32926,-20.23805],[-40.32905,-20.23797],[-40.32882,-20.23795],[-40.3198,-20.23795],[-40.31962,-20.23727],[-40.31956,-20.2371],[-40.31946,-20.23694],[-40.31934,-20.2368],[-40.31919,-20.23669],[-40.31903,-20.23661],[-40.31794,-20.23616],[-40.31736,-20.23574],[-40.31717,-20.23563],[-40.31696,-20.23556],[-40.31674,-20.23554],[-40.31628,-20.23556],[-40.31608,-20.23559],[-40.31588,-20.23566],[-40.31554,-20.23582],[-40.31364,-20.23597],[-40.31357,-20.23598],[-40.31099,-20.23638],[-40.31081,-20.23635],[-40.31081,-20.23635],[-40.3108,-20.23627],[-40.31081,-20.23603],[-40.31126,-20.23493],[-40.31128,-20.23486],[-40.31177,-20.23337],[-40.31182,-20.23317],[-40.31182,-20.23296],[-40.31172,-20.23192],[-40.31166,-20.23167],[-40.31148,-20.23116],[-40.31139,-20.23097],[-40.31126,-20.23081],[-40.3111,-20.23067],[-40.31062,-20.23034],[-40.31029,-20.2301],[-40.3101,-20.22999],[-40.30989,-20.22992],[-40.30967,-20.2299],[-40.30951,-20.22991],[-40.30945,-20.22979],[-40.30934,-20.22961],[-40.30911,-20.22931],[-40.30898,-20.2291],[-40.30886,-20.22894],[-40.3087,-20.2288],[-40.30852,-20.22871],[-40.30811,-20.22853],[-40.30803,-20.2285],[-40.30771,-20.2284],[-40.30757,-20.22836],[-40.30691,-20.22825],[-40.30672,-20.22823],[-40.30654,-20.22825],[-40.30636,-20.2283],[-40.30619,-20.22839],[-40.30577,-20.22866],[-40.30577,-20.22866],[-40.30551,-20.2287],[-40.3053,-20.22876],[-40.30514,-20.22883],[-40.30514,-20.22882],[-40.30503,-20.22872],[-40.30473,-20.22847],[-40.30455,-20.22835],[-40.30435,-20.22827],[-40.30409,-20.2282],[-40.30389,-20.22817],[-40.30369,-20.22817],[-40.30349,-20.22822],[-40.30318,-20.22833],[-40.30308,-20.22838],[-40.30304,-20.22836],[-40.30287,-20.22831],[-40.30269,-20.22829],[-40.30251,-20.2283],[-40.30226,-20.22834],[-40.30209,-20.22838],[-40.30192,-20.22846],[-40.30177,-20.22856],[-40.30085,-20.22933],[-40.29958,-20.23025],[-40.29942,-20.23039],[-40.2987,-20.2312],[-40.29859,-20.23135],[-40.29851,-20.23151],[-40.29847,-20.23164],[-40.29825,-20.2319],[-40.29811,-20.23209],[-40.29803,-20.23231],[-40.29794,-20.23265],[-40.29794,-20.23266],[-40.29766,-20.23285],[-40.29749,-20.233],[-40.29735,-20.23318],[-40.29726,-20.23339],[-40.29699,-20.23427],[-40.29695,-20.23448],[-40.29696,-20.23469],[-40.29701,-20.2349],[-40.29709,-20.23512],[-40.29706,-20.23515],[-40.29693,-20.23532],[-40.29684,-20.23551],[-40.29677,-20.23573],[-40.29672,-20.23594],[-40.29672,-20.23616],[-40.29677,-20.23637],[-40.29689,-20.23673],[-40.29696,-20.23706],[-40.297,-20.23731],[-40.29693,-20.23774],[-40.29689,-20.23795],[-40.29106,-20.23795],[-40.29086,-20.23797],[-40.29067,-20.23803],[-40.2905,-20.23812],[-40.29035,-20.23824],[-40.29023,-20.2384],[-40.29013,-20.23857],[-40.29008,-20.23876],[-40.29001,-20.23908],[-40.2898,-20.23908],[-40.28566,-20.2391],[-40.28557,-20.2391],[-40.2855,-20.23911],[-40.28538,-20.23912],[-40.28532,-20.23914],[-40.28521,-20.23917],[-40.28515,-20.23919],[-40.28501,-20.23924],[-40.28496,-20.23927],[-40.28495,-20.23928],[-40.28483,-20.23924],[-40.28476,-20.23923],[-40.28464,-20.23922],[-40.28459,-20.23922],[-40.28455,-20.23922],[-40.28145,-20.23923],[-40.2814,-20.23923],[-40.28125,-20.23924],[-40.28113,-20.23925],[-40.28102,-20.23927],[-40.28078,-20.23935],[-40.28049,-20.23948],[-40.27976,-20.23839],[-40.27962,-20.23823],[-40.27945,-20.2381],[-40.27926,-20.23801],[-40.27906,-20.23796],[-40.27885,-20.23795],[-40.27864,-20.23799],[-40.27779,-20.23825],[-40.2776,-20.23833],[-40.27516,-20.23966],[-40.2751,-20.23969],[-40.27475,-20.23991],[-40.27467,-20.23978],[-40.27456,-20.23965],[-40.2745,-20.2396],[-40.27441,-20.23948],[-40.27426,-20.23933],[-40.27421,-20.23929],[-40.27398,-20.23916],[-40.27393,-20.23914],[-40.27374,-20.23908],[-40.27355,-20.23906],[-40.27349,-20.23906],[-40.27326,-20.23908],[-40.27305,-20.23916],[-40.27299,-20.23919],[-40.2728,-20.23931],[-40.27264,-20.23947],[-40.27238,-20.2398],[-40.27233,-20.23986],[-40.2723,-20.23989],[-40.27219,-20.24007],[-40.27212,-20.24027],[-40.2721,-20.24041],[-40.27174,-20.24075],[-40.27159,-20.24094],[-40.27122,-20.24152],[-40.27032,-20.24266],[-40.27022,-20.24281],[-40.27014,-20.24298],[-40.27012,-20.24305],[-40.27004,-20.24322],[-40.26999,-20.24335],[-40.26998,-20.24339],[-40.26946,-20.24402],[-40.26938,-20.24414],[-40.26851,-20.24561],[-40.26848,-20.24561],[-40.26829,-20.24564],[-40.2681,-20.24571],[-40.26794,-20.24581],[-40.2678,-20.24594],[-40.26768,-20.2461],[-40.2676,-20.24627],[-40.26755,-20.24646],[-40.26754,-20.24657],[-40.26721,-20.24643],[-40.26702,-20.24637],[-40.26682,-20.24635],[-40.26662,-20.24637],[-40.26643,-20.24643],[-40.26625,-20.24653],[-40.2661,-20.24666],[-40.26598,-20.24681],[-40.26585,-20.24701],[-40.26576,-20.24719],[-40.26571,-20.24738],[-40.2657,-20.24758],[-40.26573,-20.24778],[-40.26578,-20.24794],[-40.26569,-20.24815],[-40.26561,-20.24823],[-40.26551,-20.24839],[-40.26541,-20.24859],[-40.26541,-20.24859],[-40.26539,-20.24862],[-40.2653,-20.24869],[-40.26521,-20.24877],[-40.26508,-20.24893],[-40.26498,-20.24912],[-40.26496,-20.24917],[-40.26454,-20.24996],[-40.26445,-20.25011],[-40.26439,-20.25022],[-40.26437,-20.25026],[-40.26432,-20.25044],[-40.26427,-20.25068],[-40.26427,-20.25071],[-40.26424,-20.25087],[-40.26421,-20.25094],[-40.26417,-20.25114],[-40.26417,-20.25134],[-40.26421,-20.25153],[-40.26429,-20.25171],[-40.2644,-20.25187],[-40.2645,-20.25197],[-40.26448,-20.25208],[-40.26449,-20.25227],[-40.26452,-20.25245],[-40.26459,-20.25263],[-40.26462,-20.25268],[-40.26463,-20.25288],[-40.26463,-20.25289],[-40.26463,-20.2529],[-40.26463,-20.25291],[-40.26446,-20.25311],[-40.26442,-20.25316],[-40.26424,-20.25341],[-40.2642,-20.25343],[-40.26408,-20.25354],[-40.26398,-20.25364],[-40.26386,-20.25368],[-40.26382,-20.25368],[-40.2634,-20.25373],[-40.2634,-20.25371],[-40.26355,-20.2534],[-40.26363,-20.25318],[-40.26367,-20.25299],[-40.26369,-20.25279],[-40.26367,-20.25259],[-40.26361,-20.2524],[-40.26352,-20.25223],[-40.2634,-20.25207],[-40.26301,-20.25168],[-40.26289,-20.25158],[-40.26281,-20.25152],[-40.26309,-20.25104],[-40.26311,-20.251],[-40.26432,-20.24864],[-40.26439,-20.24845],[-40.26442,-20.24825],[-40.26442,-20.24813],[-40.26474,-20.24748],[-40.26479,-20.24739],[-40.26487,-20.24722],[-40.26491,-20.24704],[-40.26492,-20.24685],[-40.2649,-20.24667],[-40.26484,-20.24649],[-40.26475,-20.24633],[-40.26463,-20.24618],[-40.26458,-20.24614],[-40.26445,-20.24602],[-40.26429,-20.24594],[-40.26159,-20.2447],[-40.26179,-20.24464],[-40.26199,-20.24455],[-40.26211,-20.24448],[-40.26223,-20.24439],[-40.26234,-20.24429],[-40.26252,-20.2441],[-40.26259,-20.24401],[-40.26471,-20.24499],[-40.26489,-20.24506],[-40.26508,-20.24509],[-40.26527,-20.24508],[-40.26546,-20.24503],[-40.26551,-20.24501],[-40.26559,-20.24498],[-40.26575,-20.2449],[-40.2659,-20.24479],[-40.26602,-20.24465],[-40.26605,-20.24461],[-40.26614,-20.24446],[-40.26637,-20.244],[-40.26638,-20.24395],[-40.26658,-20.24359],[-40.26659,-20.24357],[-40.26665,-20.24346],[-40.26666,-20.24345],[-40.26706,-20.24268],[-40.26711,-20.24257],[-40.26729,-20.24208],[-40.26731,-20.24202],[-40.26744,-20.24174],[-40.26776,-20.24106],[-40.26783,-20.24092],[-40.26785,-20.24091],[-40.26798,-20.24077],[-40.26808,-20.24062],[-40.26813,-20.24052],[-40.26819,-20.24036],[-40.26823,-20.2402],[-40.26826,-20.24],[-40.2686,-20.23973],[-40.26874,-20.2396],[-40.26884,-20.23944],[-40.26892,-20.23927],[-40.26896,-20.23908],[-40.26897,-20.2389],[-40.26894,-20.23871],[-40.26888,-20.23853],[-40.26879,-20.23837],[-40.26866,-20.23822],[-40.26851,-20.23811],[-40.26834,-20.23802],[-40.26816,-20.23797],[-40.26797,-20.23795],[-40.2619,-20.23795],[-40.22101,-20.23795],[-40.22083,-20.23797],[-40.22066,-20.23802],[-40.22049,-20.2381],[-40.21442,-20.2418],[-40.21426,-20.24191],[-40.21413,-20.24206],[-40.21403,-20.24223],[-40.21397,-20.24241],[-40.21394,-20.2426],[-40.21395,-20.2428],[-40.21398,-20.24298],[-40.21403,-20.24318],[-40.21412,-20.24337],[-40.21421,-20.2435],[-40.2143,-20.24363],[-40.21442,-20.24375],[-40.21454,-20.24384],[-40.21467,-20.24393],[-40.21478,-20.24399],[-40.21496,-20.24413],[-40.21499,-20.24415],[-40.21508,-20.24422],[-40.21509,-20.24427],[-40.21514,-20.24439],[-40.21525,-20.24466],[-40.21534,-20.24484],[-40.21547,-20.24499],[-40.21562,-20.24514],[-40.21579,-20.24528],[-40.21599,-20.24537],[-40.21624,-20.24546],[-40.21643,-20.24553],[-40.21648,-20.24555],[-40.21658,-20.24563],[-40.21688,-20.24586],[-40.21706,-20.24603],[-40.2171,-20.24607],[-40.21712,-20.24611],[-40.21713,-20.24614],[-40.21721,-20.24631],[-40.21731,-20.24647],[-40.21743,-20.24661],[-40.21754,-20.24671],[-40.2177,-20.24689],[-40.21789,-20.24706],[-40.2182,-20.24727],[-40.21839,-20.2474],[-40.21851,-20.24749],[-40.21859,-20.24758],[-40.21867,-20.24767],[-40.21878,-20.24777],[-40.21898,-20.24803],[-40.21915,-20.2482],[-40.21936,-20.24833],[-40.21953,-20.2484],[-40.21955,-20.24842],[-40.21964,-20.24856],[-40.21975,-20.2487],[-40.21994,-20.24889],[-40.22055,-20.24985],[-40.22065,-20.24998],[-40.22077,-20.25009],[-40.22118,-20.25042],[-40.22119,-20.25043],[-40.22156,-20.25072],[-40.22181,-20.25092],[-40.22201,-20.25111],[-40.22224,-20.25162],[-40.22234,-20.25189],[-40.22238,-20.25212],[-40.22236,-20.2522],[-40.2223,-20.25249],[-40.22228,-20.25265],[-40.22229,-20.25282],[-40.22232,-20.25303],[-40.22233,-20.25307],[-40.21979,-20.25477],[-40.2197,-20.25481],[-40.2196,-20.25487],[-40.21946,-20.25496],[-40.21938,-20.25502],[-40.21925,-20.25513],[-40.21925,-20.25513],[-40.21858,-20.25568],[-40.21841,-20.25586],[-40.21839,-20.25589],[-40.2183,-20.25604],[-40.21823,-20.2562],[-40.21822,-20.25624],[-40.21819,-20.25641],[-40.21818,-20.25659],[-40.21818,-20.25663],[-40.21821,-20.2568],[-40.21827,-20.25697],[-40.21828,-20.25701],[-40.21837,-20.25716],[-40.21847,-20.25729],[-40.2185,-20.25732],[-40.21854,-20.25736],[-40.21831,-20.25787],[-40.21827,-20.258],[-40.21824,-20.25807],[-40.21821,-20.25825],[-40.2182,-20.25831],[-40.2182,-20.25846],[-40.21821,-20.25861],[-40.21823,-20.25869],[-40.21826,-20.25882],[-40.21829,-20.25892],[-40.21833,-20.259],[-40.21837,-20.25909],[-40.21847,-20.25928],[-40.21859,-20.25944],[-40.2186,-20.25945],[-40.21874,-20.25964],[-40.21883,-20.25975],[-40.219,-20.25992],[-40.21901,-20.25993],[-40.21974,-20.26066],[-40.2198,-20.26077],[-40.21989,-20.2609],[-40.21992,-20.26094],[-40.22011,-20.26112],[-40.22015,-20.26115],[-40.22038,-20.26128],[-40.22043,-20.2613],[-40.22059,-20.26135],[-40.22075,-20.26137],[-40.22079,-20.26137],[-40.22108,-20.26134],[-40.22111,-20.26133],[-40.22126,-20.26128],[-40.22139,-20.26122],[-40.22142,-20.2612],[-40.22154,-20.26111],[-40.22165,-20.261],[-40.22168,-20.26097],[-40.22177,-20.26085],[-40.22184,-20.2607],[-40.22186,-20.26067],[-40.22192,-20.26048],[-40.22193,-20.26042],[-40.22195,-20.26027],[-40.22194,-20.26011],[-40.22193,-20.26005],[-40.2219,-20.2599],[-40.22185,-20.25975],[-40.22183,-20.25972],[-40.22188,-20.25972],[-40.22202,-20.25967],[-40.22204,-20.25966],[-40.22221,-20.25957],[-40.22352,-20.25867],[-40.22645,-20.26254],[-40.2265,-20.2626],[-40.22652,-20.26264],[-40.22699,-20.26367],[-40.22701,-20.26372],[-40.22703,-20.26381],[-40.22703,-20.26382],[-40.22706,-20.26402],[-40.22711,-20.2642],[-40.22717,-20.26433],[-40.22723,-20.26447],[-40.22731,-20.2646],[-40.22735,-20.26467],[-40.22769,-20.26516],[-40.22773,-20.26522],[-40.22778,-20.26529],[-40.22815,-20.26577],[-40.22816,-20.26579],[-40.22827,-20.26592],[-40.2284,-20.26603],[-40.22843,-20.26605],[-40.22857,-20.26614],[-40.22873,-20.2662],[-40.22877,-20.26621],[-40.22893,-20.26624],[-40.22909,-20.26625],[-40.22913,-20.26625],[-40.22928,-20.26623],[-40.23005,-20.26725],[-40.23007,-20.26726],[-40.23007,-20.26734],[-40.22999,-20.26775],[-40.22985,-20.26835],[-40.22982,-20.26853],[-40.22978,-20.26929],[-40.22979,-20.26949],[-40.2299,-20.27017],[-40.22993,-20.27031],[-40.23011,-20.27092],[-40.23014,-20.27102],[-40.23044,-20.27174],[-40.23052,-20.27188],[-40.23149,-20.27344],[-40.23156,-20.2736],[-40.2318,-20.27437],[-40.23188,-20.27456],[-40.23201,-20.27478],[-40.23218,-20.275],[-40.23246,-20.27528],[-40.2329,-20.27571],[-40.233,-20.27589],[-40.23313,-20.27621],[-40.23325,-20.27666],[-40.23331,-20.27704],[-40.23296,-20.28396],[-40.23267,-20.28458],[-40.2326,-20.2846],[-40.23244,-20.28468],[-40.2323,-20.28479],[-40.23224,-20.28484],[-40.23212,-20.28499],[-40.23202,-20.28515],[-40.23196,-20.28533],[-40.23193,-20.28552],[-40.23194,-20.28571],[-40.23198,-20.2859],[-40.23206,-20.28607],[-40.23206,-20.28608],[-40.23008,-20.29085],[-40.22911,-20.29297],[-40.22909,-20.29302],[-40.2288,-20.29376],[-40.22875,-20.29391],[-40.22873,-20.29406],[-40.2287,-20.29441],[-40.22872,-20.29466],[-40.22881,-20.29513],[-40.22886,-20.29532],[-40.22896,-20.2955],[-40.22909,-20.29566],[-40.22945,-20.29602],[-40.22967,-20.29618],[-40.23196,-20.29745],[-40.23196,-20.29745],[-40.23434,-20.29876],[-40.23656,-20.30004],[-40.23658,-20.30005],[-40.23837,-20.30104],[-40.23994,-20.30191],[-40.24014,-20.30199],[-40.24035,-20.30203],[-40.24057,-20.30203],[-40.24078,-20.30197],[-40.24089,-20.30193],[-40.24105,-20.30185],[-40.24119,-20.30175],[-40.24132,-20.30162],[-40.24142,-20.30149],[-40.24152,-20.30134],[-40.24159,-20.30117],[-40.24163,-20.30099],[-40.24164,-20.30081],[-40.24161,-20.30062],[-40.24157,-20.30046],[-40.2415,-20.30027],[-40.24139,-20.30009],[-40.24125,-20.29994],[-40.24107,-20.29982],[-40.24092,-20.29974],[-40.24076,-20.29967],[-40.24062,-20.29964],[-40.24053,-20.29956],[-40.24039,-20.29948],[-40.24024,-20.29941],[-40.24009,-20.29936],[-40.24005,-20.29935],[-40.23956,-20.29903],[-40.23949,-20.299],[-40.23839,-20.2984],[-40.23781,-20.29808],[-40.23781,-20.29807],[-40.23784,-20.29788],[-40.23784,-20.2977],[-40.2378,-20.29752],[-40.23772,-20.29734],[-40.23762,-20.29719],[-40.23749,-20.29706],[-40.23734,-20.29695],[-40.23203,-20.29394],[-40.23231,-20.29328],[-40.23698,-20.29593],[-40.23717,-20.29601],[-40.23737,-20.29605],[-40.23757,-20.29605],[-40.23777,-20.29601],[-40.23796,-20.29593],[-40.23813,-20.29582],[-40.23827,-20.29567],[-40.23837,-20.2955],[-40.2384,-20.29544],[-40.23872,-20.29534],[-40.23892,-20.29526],[-40.2391,-20.29513],[-40.23924,-20.29497],[-40.23984,-20.29413],[-40.23986,-20.29409],[-40.24154,-20.29152],[-40.24186,-20.29156],[-40.24397,-20.29278],[-40.24666,-20.29442],[-40.24685,-20.29451],[-40.24705,-20.29456],[-40.24734,-20.2946],[-40.24754,-20.2946],[-40.24774,-20.29457],[-40.24792,-20.2945],[-40.24809,-20.29439],[-40.24823,-20.29425],[-40.24835,-20.29408],[-40.24849,-20.29382],[-40.24856,-20.29364],[-40.2486,-20.29345],[-40.2486,-20.29326],[-40.24857,-20.29306],[-40.24849,-20.29288],[-40.24839,-20.29272],[-40.24825,-20.29258],[-40.24809,-20.29247],[-40.24709,-20.29192],[-40.24718,-20.29189],[-40.24735,-20.29178],[-40.2475,-20.29164],[-40.24761,-20.29148],[-40.24769,-20.29133],[-40.24777,-20.29115],[-40.24781,-20.29096],[-40.24782,-20.29077],[-40.24779,-20.29058],[-40.24772,-20.2904],[-40.24762,-20.29024],[-40.24749,-20.2901],[-40.24733,-20.28998],[-40.24486,-20.2885],[-40.24496,-20.28819],[-40.24536,-20.28752],[-40.24538,-20.28749],[-40.24543,-20.28739],[-40.24556,-20.28743],[-40.24557,-20.28743],[-40.24571,-20.28751],[-40.24583,-20.28764],[-40.24599,-20.28776],[-40.2461,-20.28783],[-40.24613,-20.28784],[-40.24613,-20.28785],[-40.24627,-20.28803],[-40.24636,-20.28813],[-40.24653,-20.28827],[-40.24664,-20.28835],[-40.24683,-20.28844],[-40.24695,-20.28849],[-40.24715,-20.28855],[-40.24729,-20.28857],[-40.24734,-20.28858],[-40.24737,-20.28863],[-40.24745,-20.28873],[-40.2476,-20.28888],[-40.2477,-20.28897],[-40.24787,-20.28908],[-40.24799,-20.28914],[-40.24818,-20.28922],[-40.24831,-20.28926],[-40.2485,-20.28929],[-40.24854,-20.2893],[-40.24871,-20.28938],[-40.2489,-20.28944],[-40.24909,-20.28945],[-40.24929,-20.28943],[-40.24948,-20.28937],[-40.24965,-20.28927],[-40.2498,-20.28915],[-40.24992,-20.28899],[-40.24999,-20.28889],[-40.25007,-20.28872],[-40.25013,-20.28853],[-40.25014,-20.28834],[-40.25012,-20.28814],[-40.25006,-20.28796],[-40.25001,-20.28786],[-40.25002,-20.28773],[-40.25,-20.28753],[-40.24993,-20.28733],[-40.24983,-20.28715],[-40.24969,-20.287],[-40.24953,-20.28687],[-40.24851,-20.28627],[-40.24855,-20.28616],[-40.24858,-20.28596],[-40.24856,-20.28577],[-40.24851,-20.28558],[-40.24842,-20.2854],[-40.2483,-20.28524],[-40.24815,-20.28511],[-40.24791,-20.28495],[-40.24819,-20.28463],[-40.24829,-20.28449],[-40.24836,-20.28435],[-40.24875,-20.28339],[-40.2488,-20.28323],[-40.24895,-20.2826],[-40.24942,-20.28153],[-40.2498,-20.28083],[-40.24987,-20.28066],[-40.24991,-20.28047],[-40.24991,-20.28028],[-40.24988,-20.28009],[-40.24988,-20.28009],[-40.24989,-20.28008],[-40.25005,-20.27993],[-40.25018,-20.27976],[-40.25027,-20.27956],[-40.25034,-20.27932],[-40.25038,-20.27913],[-40.25038,-20.27894],[-40.25035,-20.27875],[-40.25044,-20.27863],[-40.25051,-20.27853],[-40.25093,-20.27782],[-40.25114,-20.27767],[-40.25127,-20.27756],[-40.25138,-20.27742],[-40.25147,-20.27727],[-40.25163,-20.27691],[-40.25271,-20.27536],[-40.2528,-20.2752],[-40.25286,-20.27503],[-40.25288,-20.27484],[-40.25288,-20.27479],[-40.25319,-20.27463],[-40.25333,-20.27454],[-40.25359,-20.27434],[-40.25373,-20.27422],[-40.25384,-20.27407],[-40.25391,-20.27394],[-40.25391,-20.25879],[-40.29785,-20.25879],[-40.32966,-20.25879],[-40.32901,-20.25519]]],[[[-40.29785,-20.30273],[-40.27622,-20.30273],[-40.27624,-20.30275],[-40.27642,-20.30285],[-40.27661,-20.3029],[-40.27664,-20.30291],[-40.27668,-20.30292],[-40.27677,-20.30296],[-40.27695,-20.303],[-40.27714,-20.303],[-40.27733,-20.30297],[-40.27748,-20.30291],[-40.27762,-20.30299],[-40.27767,-20.30301],[-40.27773,-20.30305],[-40.27791,-20.30313],[-40.27811,-20.30317],[-40.27814,-20.30317],[-40.27831,-20.30321],[-40.27833,-20.30322],[-40.27843,-20.30324],[-40.27863,-20.30328],[-40.27883,-20.30328],[-40.27902,-20.30323],[-40.27907,-20.30322],[-40.27925,-20.30314],[-40.27931,-20.3031],[-40.27931,-20.30312],[-40.27936,-20.30329],[-40.27937,-20.30335],[-40.27938,-20.30345],[-40.2794,-20.30351],[-40.27942,-20.30367],[-40.27949,-20.30388],[-40.2796,-20.30406],[-40.27982,-20.30435],[-40.27993,-20.30448],[-40.28004,-20.30457],[-40.28011,-20.30463],[-40.28011,-20.30463],[-40.28025,-20.30475],[-40.28041,-20.30483],[-40.28045,-20.30484],[-40.28046,-20.30486],[-40.28062,-20.30497],[-40.28064,-20.30498],[-40.2807,-20.30503],[-40.28078,-20.30509],[-40.2809,-20.30516],[-40.28107,-20.30525],[-40.28125,-20.3053],[-40.28126,-20.3053],[-40.28135,-20.30532],[-40.2814,-20.30535],[-40.2815,-20.30539],[-40.28169,-20.30544],[-40.28175,-20.30545],[-40.28191,-20.30547],[-40.28194,-20.30547],[-40.28196,-20.30547],[-40.282,-20.3055],[-40.28204,-20.30551],[-40.28224,-20.30558],[-40.28242,-20.3056],[-40.28254,-20.30564],[-40.28257,-20.30565],[-40.28277,-20.30567],[-40.28282,-20.30567],[-40.28295,-20.30567],[-40.28298,-20.30568],[-40.28304,-20.30572],[-40.28311,-20.30574],[-40.28329,-20.30581],[-40.28348,-20.30583],[-40.28353,-20.30583],[-40.28372,-20.30582],[-40.2839,-20.30578],[-40.28395,-20.30576],[-40.28408,-20.3057],[-40.28409,-20.3057],[-40.2842,-20.30579],[-40.28437,-20.30588],[-40.28441,-20.30589],[-40.28466,-20.30596],[-40.28469,-20.30597],[-40.28482,-20.30598],[-40.28483,-20.30598],[-40.28484,-20.30598],[-40.28487,-20.30599],[-40.28493,-20.30598],[-40.28495,-20.30598],[-40.2851,-20.30599],[-40.28514,-20.30598],[-40.28533,-20.30595],[-40.28541,-20.30592],[-40.28542,-20.30592],[-40.28561,-20.30587],[-40.28565,-20.30586],[-40.28583,-20.30576],[-40.28599,-20.30563],[-40.28611,-20.30548],[-40.28613,-20.30559],[-40.28614,-20.30561],[-40.28622,-20.30578],[-40.28634,-20.30593],[-40.28647,-20.30606],[-40.28664,-20.30616],[-40.28681,-20.30623],[-40.287,-20.30627],[-40.28719,-20.30626],[-40.28722,-20.30626],[-40.28742,-20.30622],[-40.28761,-20.30614],[-40.28777,-20.30602],[-40.28781,-20.30598],[-40.28785,-20.30594],[-40.28799,-20.30578],[-40.28808,-20.30559],[-40.28813,-20.30538],[-40.28813,-20.30538],[-40.28817,-20.30531],[-40.28818,-20.30528],[-40.28823,-20.30511],[-40.28825,-20.30493],[-40.28825,-20.30487],[-40.28825,-20.30483],[-40.28823,-20.30464],[-40.28823,-20.30461],[-40.28822,-20.30457],[-40.28822,-20.30456],[-40.28817,-20.3044],[-40.28817,-20.30436],[-40.28813,-20.30416],[-40.28805,-20.30398],[-40.28794,-20.30384],[-40.2887,-20.30383],[-40.28873,-20.30384],[-40.28892,-20.30387],[-40.28894,-20.30387],[-40.28919,-20.30387],[-40.2892,-20.30387],[-40.2892,-20.30388],[-40.28922,-20.30394],[-40.28932,-20.3042],[-40.28938,-20.30432],[-40.28947,-20.30448],[-40.28953,-20.30465],[-40.28953,-20.30466],[-40.28953,-20.30468],[-40.28951,-20.30471],[-40.28943,-20.30493],[-40.28941,-20.30516],[-40.28941,-20.30537],[-40.28941,-20.30543],[-40.28943,-20.30576],[-40.28944,-20.30586],[-40.28947,-20.30604],[-40.28943,-20.3063],[-40.28943,-20.3063],[-40.2894,-20.30646],[-40.28937,-20.30653],[-40.28935,-20.30658],[-40.28924,-20.30688],[-40.28918,-20.30704],[-40.28911,-20.30715],[-40.28911,-20.30716],[-40.28899,-20.30738],[-40.28892,-20.30755],[-40.28887,-20.30761],[-40.28881,-20.30765],[-40.28872,-20.30772],[-40.28858,-20.30774],[-40.28847,-20.30777],[-40.28831,-20.30782],[-40.28787,-20.30792],[-40.28775,-20.30794],[-40.28759,-20.30795],[-40.28732,-20.30801],[-40.28727,-20.30803],[-40.28725,-20.30803],[-40.28702,-20.3081],[-40.287,-20.30811],[-40.28699,-20.30811],[-40.28678,-20.30817],[-40.28672,-20.30819],[-40.28668,-20.3082],[-40.28653,-20.30823],[-40.28638,-20.30829],[-40.28626,-20.30834],[-40.28618,-20.30837],[-40.286,-20.30846],[-40.28591,-20.30851],[-40.28579,-20.30861],[-40.28578,-20.30861],[-40.28577,-20.30862],[-40.28568,-20.30868],[-40.28559,-20.30874],[-40.28553,-20.30877],[-40.28546,-20.3088],[-40.28533,-20.30881],[-40.28529,-20.3088],[-40.28512,-20.3088],[-40.28495,-20.30882],[-40.28483,-20.30886],[-40.28483,-20.30886],[-40.28461,-20.30889],[-40.28459,-20.3089],[-40.28459,-20.3089],[-40.28459,-20.30889],[-40.28459,-20.30883],[-40.28458,-20.30865],[-40.28454,-20.30847],[-40.28447,-20.30831],[-40.2844,-20.3082],[-40.2844,-20.30807],[-40.28437,-20.30788],[-40.28432,-20.30775],[-40.28431,-20.3077],[-40.28424,-20.30752],[-40.28413,-20.30736],[-40.28399,-20.30722],[-40.28383,-20.30711],[-40.28378,-20.30709],[-40.2836,-20.30701],[-40.28336,-20.30694],[-40.28318,-20.3069],[-40.28299,-20.30689],[-40.28281,-20.30691],[-40.28261,-20.30694],[-40.28242,-20.30702],[-40.28225,-20.30713],[-40.28213,-20.30723],[-40.28201,-20.30734],[-40.28198,-20.30737],[-40.28193,-20.30738],[-40.28179,-20.30741],[-40.28164,-20.30743],[-40.28154,-20.30745],[-40.2813,-20.30751],[-40.28117,-20.30752],[-40.28116,-20.30752],[-40.28115,-20.30749],[-40.28109,-20.3074],[-40.28106,-20.30736],[-40.28098,-20.30724],[-40.28084,-20.30709],[-40.28067,-20.30697],[-40.28048,-20.30689],[-40.28041,-20.30686],[-40.28031,-20.30682],[-40.2802,-20.30678],[-40.28017,-20.30674],[-40.28002,-20.30661],[-40.27985,-20.30651],[-40.27967,-20.30645],[-40.27961,-20.30644],[-40.27954,-20.30642],[-40.27938,-20.30641],[-40.2793,-20.30638],[-40.27908,-20.30638],[-40.27904,-20.30638],[-40.27881,-20.30642],[-40.27859,-20.30652],[-40.27856,-20.30654],[-40.2784,-20.30666],[-40.27827,-20.30681],[-40.27821,-20.30691],[-40.27814,-20.30698],[-40.27802,-20.30714],[-40.27796,-20.30727],[-40.27794,-20.30723],[-40.27793,-20.30723],[-40.27793,-20.30722],[-40.27783,-20.30702],[-40.2777,-20.30686],[-40.27769,-20.30685],[-40.27769,-20.30684],[-40.27754,-20.30668],[-40.27735,-20.30655],[-40.27725,-20.30649],[-40.27711,-20.30644],[-40.27704,-20.30634],[-40.27689,-20.3062],[-40.27683,-20.30615],[-40.27665,-20.30605],[-40.27645,-20.30598],[-40.27635,-20.30595],[-40.27621,-20.30593],[-40.27606,-20.30593],[-40.27601,-20.30591],[-40.27582,-20.30589],[-40.27568,-20.3059],[-40.27562,-20.30586],[-40.27543,-20.30579],[-40.2754,-20.30578],[-40.27519,-20.30575],[-40.27498,-20.30576],[-40.27477,-20.30582],[-40.27474,-20.30583],[-40.27465,-20.30588],[-40.27454,-20.30589],[-40.27435,-20.30596],[-40.27422,-20.30602],[-40.27409,-20.30603],[-40.27405,-20.30604],[-40.27391,-20.30602],[-40.2737,-20.30603],[-40.2735,-20.30608],[-40.27332,-20.30617],[-40.27327,-20.3062],[-40.2731,-20.30633],[-40.27297,-20.3065],[-40.27292,-20.30657],[-40.27291,-20.30658],[-40.27281,-20.30675],[-40.27274,-20.30688],[-40.27268,-20.30704],[-40.27264,-20.30721],[-40.27264,-20.30739],[-40.27266,-20.30756],[-40.27267,-20.3076],[-40.27267,-20.3076],[-40.27265,-20.30786],[-40.27259,-20.3081],[-40.27257,-20.30829],[-40.27257,-20.30844],[-40.27259,-20.30868],[-40.27267,-20.3089],[-40.27272,-20.309],[-40.27283,-20.30918],[-40.27298,-20.30933],[-40.27305,-20.30939],[-40.27321,-20.3095],[-40.27338,-20.30957],[-40.2734,-20.30958],[-40.27341,-20.30958],[-40.27359,-20.30964],[-40.27367,-20.30966],[-40.27384,-20.30969],[-40.27401,-20.30969],[-40.27417,-20.30966],[-40.27424,-20.30964],[-40.2744,-20.30958],[-40.27446,-20.30977],[-40.27451,-20.30986],[-40.27458,-20.31],[-40.27468,-20.31011],[-40.27475,-20.31019],[-40.2747,-20.31034],[-40.27468,-20.31053],[-40.27469,-20.31072],[-40.27474,-20.3109],[-40.2748,-20.31107],[-40.27488,-20.31125],[-40.27494,-20.31133],[-40.27497,-20.31143],[-40.27504,-20.31162],[-40.27507,-20.31174],[-40.27515,-20.31196],[-40.27525,-20.31214],[-40.27537,-20.31232],[-40.27552,-20.31247],[-40.2757,-20.31258],[-40.2759,-20.31265],[-40.27611,-20.31268],[-40.27632,-20.31266],[-40.27643,-20.31264],[-40.27648,-20.31269],[-40.27661,-20.31285],[-40.27679,-20.31299],[-40.27687,-20.31304],[-40.27706,-20.31314],[-40.27727,-20.31319],[-40.27748,-20.31319],[-40.27769,-20.31315],[-40.27789,-20.31307],[-40.27792,-20.31306],[-40.27805,-20.313],[-40.27814,-20.31295],[-40.27826,-20.31292],[-40.27835,-20.31288],[-40.27839,-20.31296],[-40.27842,-20.31307],[-40.27846,-20.31318],[-40.27856,-20.31337],[-40.2787,-20.31354],[-40.27887,-20.31368],[-40.27907,-20.31377],[-40.27914,-20.31379],[-40.27923,-20.31392],[-40.27931,-20.314],[-40.27946,-20.31413],[-40.27963,-20.31423],[-40.27982,-20.3143],[-40.27992,-20.31432],[-40.28001,-20.31433],[-40.28012,-20.31437],[-40.28022,-20.31439],[-40.28042,-20.31442],[-40.28062,-20.31441],[-40.28082,-20.31436],[-40.28103,-20.31428],[-40.28115,-20.31423],[-40.28124,-20.31418],[-40.2814,-20.31407],[-40.28143,-20.31404],[-40.28148,-20.31402],[-40.2815,-20.314],[-40.28153,-20.31402],[-40.28171,-20.31407],[-40.28176,-20.3141],[-40.28192,-20.31419],[-40.2821,-20.31424],[-40.28223,-20.31427],[-40.28236,-20.31428],[-40.28244,-20.31445],[-40.28256,-20.3146],[-40.2826,-20.31464],[-40.28275,-20.31476],[-40.28293,-20.31486],[-40.28299,-20.31488],[-40.28309,-20.31493],[-40.28331,-20.31499],[-40.28339,-20.315],[-40.2836,-20.315],[-40.28381,-20.31496],[-40.284,-20.31488],[-40.28413,-20.31479],[-40.28424,-20.31473],[-40.28441,-20.3146],[-40.28445,-20.31456],[-40.28457,-20.3144],[-40.28458,-20.31439],[-40.28461,-20.31437],[-40.28475,-20.31421],[-40.28479,-20.31416],[-40.28481,-20.31414],[-40.28483,-20.31412],[-40.28497,-20.31398],[-40.28507,-20.31381],[-40.28509,-20.31378],[-40.28516,-20.31359],[-40.28519,-20.31342],[-40.28533,-20.31359],[-40.28538,-20.31365],[-40.28542,-20.31369],[-40.28547,-20.31379],[-40.28551,-20.31387],[-40.28561,-20.31403],[-40.28566,-20.31412],[-40.28583,-20.31429],[-40.28585,-20.31431],[-40.2859,-20.31436],[-40.28591,-20.31437],[-40.28595,-20.31443],[-40.28599,-20.31448],[-40.28609,-20.31456],[-40.28603,-20.31471],[-40.28599,-20.31489],[-40.28598,-20.31497],[-40.2857,-20.31528],[-40.28564,-20.31535],[-40.28531,-20.31578],[-40.28526,-20.31586],[-40.28495,-20.31633],[-40.28492,-20.31639],[-40.28468,-20.31683],[-40.28464,-20.3169],[-40.28442,-20.31739],[-40.2844,-20.31744],[-40.28418,-20.31803],[-40.28417,-20.31803],[-40.2822,-20.32331],[-40.28215,-20.32351],[-40.28214,-20.32371],[-40.28217,-20.32391],[-40.28224,-20.32411],[-40.28228,-20.32417],[-40.28228,-20.32418],[-40.28231,-20.32441],[-40.28236,-20.32461],[-40.28245,-20.32484],[-40.28252,-20.32497],[-40.2826,-20.3251],[-40.2827,-20.32521],[-40.28281,-20.32533],[-40.28293,-20.32543],[-40.28307,-20.32551],[-40.28326,-20.3256],[-40.28333,-20.32563],[-40.28351,-20.32571],[-40.2837,-20.32576],[-40.28385,-20.32579],[-40.28401,-20.32581],[-40.28416,-20.32581],[-40.28425,-20.32581],[-40.28439,-20.3258],[-40.28455,-20.32579],[-40.28466,-20.3258],[-40.28488,-20.3258],[-40.28499,-20.32578],[-40.28518,-20.32574],[-40.28535,-20.32566],[-40.2854,-20.32563],[-40.28545,-20.32562],[-40.28564,-20.32555],[-40.28582,-20.32545],[-40.28582,-20.32545],[-40.28592,-20.32539],[-40.28597,-20.32535],[-40.28609,-20.32526],[-40.28655,-20.32504],[-40.28667,-20.32498],[-40.28713,-20.32468],[-40.28727,-20.32457],[-40.28741,-20.32459],[-40.28747,-20.32459],[-40.28757,-20.32462],[-40.28775,-20.32465],[-40.28794,-20.32464],[-40.28803,-20.32462],[-40.28823,-20.32458],[-40.28841,-20.32449],[-40.28844,-20.32447],[-40.28851,-20.32459],[-40.28852,-20.32465],[-40.28856,-20.3248],[-40.28854,-20.32485],[-40.28847,-20.32508],[-40.28846,-20.32516],[-40.28844,-20.32534],[-40.28846,-20.32553],[-40.28852,-20.32571],[-40.2886,-20.32587],[-40.28872,-20.32602],[-40.28886,-20.32614],[-40.28887,-20.32615],[-40.28896,-20.32622],[-40.28917,-20.32637],[-40.28924,-20.3264],[-40.28924,-20.32643],[-40.28923,-20.32651],[-40.28922,-20.3267],[-40.28923,-20.32676],[-40.28925,-20.32689],[-40.28927,-20.32702],[-40.28927,-20.32703],[-40.28929,-20.32723],[-40.28935,-20.32742],[-40.28945,-20.32759],[-40.28957,-20.32774],[-40.28964,-20.32781],[-40.2897,-20.32786],[-40.28979,-20.32793],[-40.2899,-20.32801],[-40.28993,-20.32804],[-40.28994,-20.32805],[-40.28998,-20.32809],[-40.29008,-20.32818],[-40.29012,-20.3282],[-40.29027,-20.3283],[-40.29031,-20.32832],[-40.29053,-20.3284],[-40.29061,-20.32841],[-40.29061,-20.32841],[-40.2907,-20.32844],[-40.29075,-20.32844],[-40.29098,-20.32846],[-40.29106,-20.32845],[-40.29125,-20.32842],[-40.2913,-20.32843],[-40.29172,-20.32843],[-40.29181,-20.32842],[-40.29197,-20.32841],[-40.29203,-20.3284],[-40.29218,-20.32837],[-40.29224,-20.32836],[-40.2924,-20.32833],[-40.29245,-20.32831],[-40.29257,-20.32828],[-40.29262,-20.32827],[-40.29274,-20.32822],[-40.29279,-20.32821],[-40.29291,-20.32816],[-40.29296,-20.32814],[-40.29307,-20.32809],[-40.29324,-20.32799],[-40.29332,-20.32793],[-40.2934,-20.32789],[-40.29345,-20.32787],[-40.29356,-20.32782],[-40.29361,-20.3278],[-40.29371,-20.32774],[-40.29376,-20.32771],[-40.29386,-20.32765],[-40.2939,-20.32762],[-40.29399,-20.32756],[-40.29404,-20.32753],[-40.29413,-20.32746],[-40.29417,-20.32742],[-40.29424,-20.32736],[-40.29444,-20.3272],[-40.29458,-20.32708],[-40.29468,-20.32693],[-40.29476,-20.32677],[-40.29477,-20.32675],[-40.29477,-20.32674],[-40.29482,-20.32674],[-40.29488,-20.32672],[-40.29501,-20.32669],[-40.29508,-20.32666],[-40.29519,-20.32662],[-40.29523,-20.32659],[-40.29533,-20.32654],[-40.29537,-20.32651],[-40.29546,-20.32645],[-40.2955,-20.32642],[-40.29562,-20.3263],[-40.29593,-20.32595],[-40.29594,-20.32594],[-40.29603,-20.32584],[-40.29611,-20.32576],[-40.29611,-20.32575],[-40.29616,-20.3257],[-40.2962,-20.32566],[-40.29624,-20.32561],[-40.29628,-20.32557],[-40.29632,-20.32552],[-40.29635,-20.32548],[-40.29638,-20.32542],[-40.29643,-20.32535],[-40.2966,-20.32506],[-40.29665,-20.32496],[-40.2968,-20.32504],[-40.29694,-20.32509],[-40.29713,-20.32514],[-40.29731,-20.32516],[-40.29747,-20.32518],[-40.29761,-20.32517],[-40.29783,-20.32515],[-40.29785,-20.32514],[-40.29785,-20.30273]]],[[[-40.2301,-20.27777],[-40.23,-20.27759],[-40.22986,-20.27743],[-40.2297,-20.27731],[-40.22951,-20.27722],[-40.2293,-20.27717],[-40.22909,-20.27717],[-40.22889,-20.27721],[-40.22879,-20.27724],[-40.22864,-20.27726],[-40.22846,-20.2773],[-40.22829,-20.27737],[-40.22815,-20.27746],[-40.22807,-20.27747],[-40.22789,-20.27754],[-40.22772,-20.27765],[-40.22754,-20.27779],[-40.22739,-20.27794],[-40.22727,-20.27811],[-40.22719,-20.2783],[-40.22715,-20.27851],[-40.22716,-20.27871],[-40.22721,-20.27891],[-40.22727,-20.27909],[-40.22736,-20.27927],[-40.22748,-20.27943],[-40.22764,-20.27957],[-40.22781,-20.27967],[-40.22801,-20.27973],[-40.22821,-20.27975],[-40.22842,-20.27975],[-40.22857,-20.27974],[-40.22886,-20.2797],[-40.22901,-20.27966],[-40.22916,-20.27961],[-40.22944,-20.27946],[-40.2296,-20.27937],[-40.22973,-20.27925],[-40.22997,-20.279],[-40.23009,-20.27885],[-40.23018,-20.27867],[-40.23023,-20.27849],[-40.23024,-20.27829],[-40.23022,-20.2781],[-40.23016,-20.27792],[-40.2301,-20.27777]]]]},"properties":{"ghs":"7h7k","size":21.85,"ghs_len":4,"ghs_area":44.71,"ghs_bytes":2020179,"ghs_items":6882,"size_unit":"km2","ghsval_unit":"bytes","ghs_itemsdensity":153.93,"size_unitdensity":0.49}},{"type":"Feature","geometry":{"type":"Polygon","coordinates":[[[-40.34184,-20.32655],[-40.34202,-20.32656],[-40.3421,-20.32656],[-40.34215,-20.32656],[-40.3422,-20.32656],[-40.34239,-20.32655],[-40.3424,-20.32655],[-40.34244,-20.32655],[-40.34256,-20.32654],[-40.3426,-20.32657],[-40.34279,-20.32664],[-40.34299,-20.32668],[-40.34304,-20.32671],[-40.3431,-20.32674],[-40.34325,-20.32681],[-40.34327,-20.32681],[-40.3433,-20.32684],[-40.3435,-20.32695],[-40.3436,-20.32698],[-40.34374,-20.32706],[-40.34383,-20.3271],[-40.34383,-20.3271],[-40.34395,-20.32716],[-40.34414,-20.32721],[-40.34419,-20.32722],[-40.34433,-20.32722],[-40.34437,-20.32724],[-40.34455,-20.32732],[-40.34474,-20.32735],[-40.34494,-20.32735],[-40.34511,-20.32731],[-40.34517,-20.32731],[-40.3453,-20.32732],[-40.34543,-20.32732],[-40.34544,-20.32732],[-40.34549,-20.32732],[-40.34562,-20.32731],[-40.34564,-20.32731],[-40.34578,-20.32733],[-40.34595,-20.32733],[-40.34613,-20.32731],[-40.3462,-20.32731],[-40.3463,-20.3273],[-40.3464,-20.32728],[-40.34643,-20.32728],[-40.34657,-20.3274],[-40.34675,-20.3275],[-40.34695,-20.32755],[-40.34715,-20.32757],[-40.34735,-20.32754],[-40.34747,-20.3275],[-40.34755,-20.32751],[-40.34759,-20.32751],[-40.34763,-20.32751],[-40.34784,-20.3275],[-40.34796,-20.32748],[-40.34819,-20.32742],[-40.34828,-20.32737],[-40.34849,-20.32729],[-40.34864,-20.3273],[-40.34867,-20.3273],[-40.34876,-20.32731],[-40.34931,-20.32736],[-40.34933,-20.32742],[-40.34943,-20.32758],[-40.34956,-20.32772],[-40.34971,-20.32784],[-40.34989,-20.32792],[-40.35007,-20.32797],[-40.35026,-20.32798],[-40.35034,-20.32798],[-40.35054,-20.32795],[-40.35073,-20.32788],[-40.3509,-20.32778],[-40.35098,-20.32771],[-40.35099,-20.32771],[-40.3511,-20.32767],[-40.3511,-20.32767],[-40.35112,-20.32767],[-40.35119,-20.32766],[-40.35134,-20.32761],[-40.35154,-20.32759],[-40.35185,-20.32756],[-40.35189,-20.32755],[-40.3519,-20.32756],[-40.35192,-20.32756],[-40.35197,-20.32758],[-40.35216,-20.32763],[-40.35233,-20.32763],[-40.35234,-20.32764],[-40.35249,-20.32776],[-40.35266,-20.32784],[-40.35277,-20.32788],[-40.35284,-20.3279],[-40.35288,-20.32791],[-40.35312,-20.32795],[-40.35335,-20.32793],[-40.35338,-20.32793],[-40.35348,-20.3279],[-40.3535,-20.3279],[-40.35351,-20.32789],[-40.35352,-20.32789],[-40.35354,-20.32789],[-40.35354,-20.32789],[-40.35366,-20.32788],[-40.35379,-20.32786],[-40.35387,-20.32784],[-40.35392,-20.32783],[-40.35406,-20.32791],[-40.35426,-20.32797],[-40.35446,-20.32799],[-40.35449,-20.32799],[-40.35449,-20.32799],[-40.35453,-20.32799],[-40.35473,-20.32796],[-40.35492,-20.3279],[-40.3551,-20.3278],[-40.35525,-20.32767],[-40.35537,-20.32751],[-40.35546,-20.32733],[-40.35551,-20.32714],[-40.35552,-20.32694],[-40.35542,-20.32489],[-40.35556,-20.32474],[-40.35568,-20.3246],[-40.35662,-20.32422],[-40.35683,-20.32411],[-40.357,-20.32395],[-40.35814,-20.32263],[-40.35819,-20.32257],[-40.35887,-20.32165],[-40.36105,-20.31983],[-40.36119,-20.31969],[-40.36172,-20.31905],[-40.36257,-20.31801],[-40.36268,-20.31784],[-40.36276,-20.31766],[-40.3628,-20.31746],[-40.36284,-20.31698],[-40.36295,-20.31568],[-40.36299,-20.31516],[-40.36333,-20.31192],[-40.36333,-20.3117],[-40.36328,-20.31132],[-40.36321,-20.31074],[-40.36316,-20.31027],[-40.36304,-20.30929],[-40.3629,-20.30801],[-40.36289,-20.30796],[-40.36263,-20.30637],[-40.36258,-20.30604],[-40.36254,-20.30588],[-40.36235,-20.30529],[-40.36215,-20.3047],[-40.36206,-20.30442],[-40.36176,-20.30351],[-40.36168,-20.30334],[-40.36134,-20.30273],[-40.3418,-20.30273],[-40.3418,-20.31372],[-40.3418,-20.31921],[-40.3418,-20.32654],[-40.34184,-20.32655]]]},"properties":{"ghs":"7h7k3","size":2.44,"ghs_len":5,"ghs_area":5.51,"ghs_bytes":2138688,"ghs_items":6908,"size_unit":"km2","ghsval_unit":"bytes","ghs_itemsdensity":1254.65,"size_unitdensity":0.44}},{"type":"Feature","geometry":{"type":"Polygon","coordinates":[[[-40.3418,-20.28076],[-40.33081,-20.28076],[-40.33081,-20.28625],[-40.3418,-20.28625],[-40.3418,-20.28076]]]},"properties":{"ghs":"7h7kd5","size":0.38,"ghs_len":6,"ghs_area":0.7,"ghs_bytes":474040,"ghs_items":1679,"size_unit":"km2","ghsval_unit":"bytes","ghs_itemsdensity":2405.77,"size_unitdensity":0.55}},{"type":"Feature","geometry":{"type":"Polygon","coordinates":[[[-40.31982,-20.29724],[-40.30884,-20.29724],[-40.30884,-20.30273],[-40.31982,-20.30273],[-40.31982,-20.29724]]]},"properties":{"ghs":"7h7kd8","size":0.54,"ghs_len":6,"ghs_area":0.7,"ghs_bytes":604042,"ghs_items":1968,"size_unit":"km2","ghsval_unit":"bytes","ghs_itemsdensity":2820.16,"size_unitdensity":0.77}},{"type":"Feature","geometry":{"type":"Polygon","coordinates":[[[-40.31982,-20.29175],[-40.30884,-20.29175],[-40.30884,-20.29724],[-40.31982,-20.29724],[-40.31982,-20.29175]]]},"properties":{"ghs":"7h7kd9","size":0.55,"ghs_len":6,"ghs_area":0.7,"ghs_bytes":404549,"ghs_items":1271,"size_unit":"km2","ghsval_unit":"bytes","ghs_itemsdensity":1821.29,"size_unitdensity":0.79}},{"type":"Feature","geometry":{"type":"Polygon","coordinates":[[[-40.30884,-20.29724],[-40.29785,-20.29724],[-40.29785,-20.30273],[-40.30884,-20.30273],[-40.30884,-20.29724]]]},"properties":{"ghs":"7h7kdb","size":0.45,"ghs_len":6,"ghs_area":0.7,"ghs_bytes":456185,"ghs_items":1530,"size_unit":"km2","ghsval_unit":"bytes","ghs_itemsdensity":2192.5,"size_unitdensity":0.65}},{"type":"Feature","geometry":{"type":"Polygon","coordinates":[[[-40.31982,-20.28625],[-40.30884,-20.28625],[-40.30884,-20.29175],[-40.31982,-20.29175],[-40.31982,-20.28625]]]},"properties":{"ghs":"7h7kdd","size":0.49,"ghs_len":6,"ghs_area":0.7,"ghs_bytes":476644,"ghs_items":1572,"size_unit":"km2","ghsval_unit":"bytes","ghs_itemsdensity":2252.53,"size_unitdensity":0.71}},{"type":"Feature","geometry":{"type":"Polygon","coordinates":[[[-40.33081,-20.26978],[-40.31982,-20.26978],[-40.31982,-20.27527],[-40.33081,-20.27527],[-40.33081,-20.26978]]]},"properties":{"ghs":"7h7kdm","size":0.52,"ghs_len":6,"ghs_area":0.7,"ghs_bytes":447352,"ghs_items":1845,"size_unit":"km2","ghsval_unit":"bytes","ghs_itemsdensity":2643.44,"size_unitdensity":0.74}},{"type":"Feature","geometry":{"type":"MultiPolygon","coordinates":[[[[-40.29785,-20.30273],[-40.29785,-20.29724],[-40.29785,-20.25879],[-40.25391,-20.25879],[-40.25391,-20.27394],[-40.25393,-20.2739],[-40.25398,-20.27372],[-40.25401,-20.27355],[-40.25412,-20.27353],[-40.25449,-20.27344],[-40.25467,-20.27337],[-40.25482,-20.27328],[-40.25489,-20.27326],[-40.25507,-20.27316],[-40.2552,-20.27307],[-40.25535,-20.27294],[-40.25548,-20.27279],[-40.25557,-20.2726],[-40.2556,-20.27251],[-40.2557,-20.27237],[-40.25572,-20.27234],[-40.25584,-20.27227],[-40.256,-20.27213],[-40.25612,-20.27197],[-40.25621,-20.27179],[-40.25626,-20.27159],[-40.25626,-20.27138],[-40.25625,-20.27115],[-40.25622,-20.27096],[-40.25616,-20.27079],[-40.25606,-20.27063],[-40.25594,-20.27049],[-40.2558,-20.27037],[-40.25563,-20.27029],[-40.25545,-20.27021],[-40.25528,-20.27016],[-40.2551,-20.27012],[-40.25494,-20.2701],[-40.25477,-20.2701],[-40.25461,-20.27014],[-40.25426,-20.27024],[-40.25425,-20.27022],[-40.25425,-20.27019],[-40.25441,-20.2699],[-40.25457,-20.26968],[-40.25458,-20.26967],[-40.25486,-20.26927],[-40.25526,-20.26893],[-40.25545,-20.26873],[-40.25549,-20.26866],[-40.25576,-20.26845],[-40.25604,-20.26826],[-40.25719,-20.26751],[-40.25721,-20.26749],[-40.25759,-20.26723],[-40.258,-20.26708],[-40.25801,-20.26707],[-40.25809,-20.26707],[-40.25826,-20.26705],[-40.25841,-20.26701],[-40.25848,-20.267],[-40.25856,-20.26698],[-40.25856,-20.26698],[-40.25858,-20.26697],[-40.25863,-20.26696],[-40.25905,-20.26688],[-40.25943,-20.26687],[-40.25976,-20.26691],[-40.25997,-20.26692],[-40.26055,-20.26688],[-40.26101,-20.26691],[-40.26203,-20.26706],[-40.26211,-20.26707],[-40.26279,-20.26712],[-40.26356,-20.26724],[-40.26439,-20.26743],[-40.26442,-20.26744],[-40.26498,-20.26755],[-40.26542,-20.26765],[-40.26545,-20.26765],[-40.26577,-20.26772],[-40.26618,-20.26783],[-40.26624,-20.26784],[-40.2664,-20.26787],[-40.26675,-20.26795],[-40.26705,-20.26801],[-40.26757,-20.2682],[-40.26757,-20.2682],[-40.26854,-20.26855],[-40.26859,-20.26856],[-40.26918,-20.26874],[-40.26946,-20.26885],[-40.26977,-20.26898],[-40.26978,-20.26898],[-40.27031,-20.2692],[-40.27091,-20.26947],[-40.27108,-20.26957],[-40.27075,-20.27008],[-40.27064,-20.27031],[-40.27063,-20.27034],[-40.27059,-20.27051],[-40.27058,-20.27068],[-40.27058,-20.27071],[-40.2706,-20.27089],[-40.27065,-20.27106],[-40.27066,-20.27108],[-40.27074,-20.27123],[-40.27084,-20.27137],[-40.27086,-20.27139],[-40.27098,-20.27151],[-40.27112,-20.2716],[-40.27115,-20.27161],[-40.27129,-20.27168],[-40.27144,-20.27172],[-40.27147,-20.27173],[-40.27163,-20.27175],[-40.27178,-20.27174],[-40.27181,-20.27174],[-40.27197,-20.27171],[-40.27211,-20.27165],[-40.27214,-20.27164],[-40.27228,-20.27156],[-40.27241,-20.27146],[-40.27243,-20.27144],[-40.27259,-20.27124],[-40.27276,-20.27097],[-40.27317,-20.27116],[-40.27321,-20.27118],[-40.27366,-20.27136],[-40.2747,-20.27188],[-40.27472,-20.27189],[-40.27538,-20.2722],[-40.27614,-20.2726],[-40.27619,-20.27262],[-40.27676,-20.27287],[-40.27698,-20.273],[-40.27629,-20.27399],[-40.27628,-20.274],[-40.27627,-20.27402],[-40.27615,-20.27427],[-40.27614,-20.27429],[-40.2761,-20.27445],[-40.27609,-20.27462],[-40.27609,-20.27465],[-40.27611,-20.27481],[-40.27615,-20.27498],[-40.27616,-20.275],[-40.27623,-20.27515],[-40.27633,-20.27528],[-40.27635,-20.2753],[-40.27646,-20.27542],[-40.27659,-20.27551],[-40.27661,-20.27552],[-40.27674,-20.27559],[-40.27689,-20.27564],[-40.27691,-20.27564],[-40.27706,-20.27567],[-40.27721,-20.27567],[-40.27724,-20.27567],[-40.27739,-20.27565],[-40.27753,-20.27561],[-40.27755,-20.2756],[-40.27769,-20.27553],[-40.27782,-20.27544],[-40.27784,-20.27543],[-40.27802,-20.27524],[-40.27803,-20.27523],[-40.27804,-20.27521],[-40.27805,-20.2752],[-40.27878,-20.27558],[-40.28014,-20.2764],[-40.28023,-20.27645],[-40.28073,-20.27678],[-40.28073,-20.27678],[-40.28118,-20.27707],[-40.2834,-20.27865],[-40.28369,-20.27886],[-40.28401,-20.27915],[-40.28449,-20.27959],[-40.28584,-20.28088],[-40.28609,-20.28112],[-40.28628,-20.28133],[-40.2864,-20.28147],[-40.28652,-20.28163],[-40.2867,-20.28191],[-40.28698,-20.28235],[-40.28721,-20.28275],[-40.28725,-20.28282],[-40.28762,-20.28335],[-40.28797,-20.28389],[-40.28797,-20.28389],[-40.28839,-20.28453],[-40.28852,-20.28475],[-40.28863,-20.28499],[-40.28871,-20.28519],[-40.28878,-20.28542],[-40.28912,-20.28668],[-40.28918,-20.28697],[-40.28926,-20.28749],[-40.28927,-20.28765],[-40.28928,-20.28783],[-40.28929,-20.2884],[-40.28929,-20.2885],[-40.28928,-20.28861],[-40.28917,-20.28925],[-40.28914,-20.28937],[-40.28911,-20.28949],[-40.28909,-20.28957],[-40.28881,-20.29033],[-40.28848,-20.29118],[-40.28835,-20.29147],[-40.28829,-20.29156],[-40.28811,-20.2915],[-40.28804,-20.29149],[-40.28735,-20.29116],[-40.28731,-20.29114],[-40.28722,-20.29111],[-40.28716,-20.29108],[-40.28709,-20.29106],[-40.28695,-20.29103],[-40.28687,-20.29101],[-40.28673,-20.29099],[-40.28664,-20.29099],[-40.28664,-20.29099],[-40.28648,-20.29099],[-40.28641,-20.29096],[-40.28638,-20.29095],[-40.28623,-20.29093],[-40.28607,-20.29092],[-40.28604,-20.29092],[-40.28589,-20.29094],[-40.28574,-20.29099],[-40.28571,-20.291],[-40.28557,-20.29106],[-40.28544,-20.29115],[-40.28541,-20.29117],[-40.28529,-20.29128],[-40.28519,-20.29141],[-40.28517,-20.29144],[-40.28509,-20.29159],[-40.28504,-20.29175],[-40.28503,-20.29179],[-40.28501,-20.29198],[-40.28494,-20.29199],[-40.28488,-20.2919],[-40.28486,-20.29186],[-40.28472,-20.29172],[-40.28455,-20.29161],[-40.2845,-20.29157],[-40.28432,-20.2915],[-40.28425,-20.29148],[-40.28423,-20.29144],[-40.28408,-20.29128],[-40.28391,-20.29116],[-40.28383,-20.29112],[-40.28366,-20.29105],[-40.28347,-20.29101],[-40.28347,-20.29101],[-40.28342,-20.29099],[-40.28321,-20.29095],[-40.283,-20.29095],[-40.28279,-20.291],[-40.2826,-20.29109],[-40.28256,-20.29111],[-40.28244,-20.2912],[-40.28228,-20.29109],[-40.28225,-20.29107],[-40.28206,-20.291],[-40.28185,-20.29097],[-40.28173,-20.29096],[-40.2816,-20.29096],[-40.28158,-20.29097],[-40.28141,-20.29099],[-40.28125,-20.29105],[-40.2811,-20.29113],[-40.28108,-20.29114],[-40.28094,-20.29125],[-40.28081,-20.29139],[-40.28072,-20.29156],[-40.28066,-20.29173],[-40.28065,-20.29177],[-40.28065,-20.29177],[-40.28064,-20.2918],[-40.2806,-20.29199],[-40.28059,-20.29218],[-40.28059,-20.29223],[-40.28059,-20.29229],[-40.28061,-20.29248],[-40.28061,-20.29248],[-40.28061,-20.29252],[-40.28063,-20.29259],[-40.28064,-20.2927],[-40.2807,-20.29286],[-40.28079,-20.29302],[-40.2809,-20.29316],[-40.28092,-20.29317],[-40.28099,-20.29324],[-40.28102,-20.29328],[-40.28116,-20.29344],[-40.28133,-20.29356],[-40.28136,-20.29357],[-40.28154,-20.29365],[-40.28173,-20.29369],[-40.28193,-20.29369],[-40.28206,-20.29367],[-40.28213,-20.29379],[-40.28221,-20.29392],[-40.28232,-20.29403],[-40.28235,-20.29406],[-40.2824,-20.2941],[-40.28245,-20.29416],[-40.28253,-20.29423],[-40.28263,-20.29431],[-40.28272,-20.29437],[-40.28278,-20.29441],[-40.28283,-20.29445],[-40.28301,-20.29452],[-40.28301,-20.29463],[-40.28303,-20.29482],[-40.28306,-20.29494],[-40.28313,-20.29512],[-40.28323,-20.29529],[-40.28337,-20.29544],[-40.28353,-20.29556],[-40.28371,-20.29564],[-40.28384,-20.29568],[-40.2839,-20.29572],[-40.28407,-20.29582],[-40.28426,-20.29588],[-40.28426,-20.29588],[-40.28438,-20.29596],[-40.28459,-20.29604],[-40.28463,-20.29605],[-40.28491,-20.29634],[-40.28507,-20.29647],[-40.28526,-20.29656],[-40.28567,-20.29673],[-40.28578,-20.29677],[-40.28584,-20.29681],[-40.286,-20.29689],[-40.28616,-20.29696],[-40.28635,-20.29702],[-40.28655,-20.29703],[-40.28658,-20.29705],[-40.28676,-20.29709],[-40.2869,-20.29711],[-40.28709,-20.29712],[-40.28719,-20.2971],[-40.28719,-20.29712],[-40.28728,-20.29731],[-40.28733,-20.29739],[-40.28734,-20.29746],[-40.28735,-20.29752],[-40.28736,-20.29763],[-40.28741,-20.29781],[-40.28742,-20.29784],[-40.28744,-20.29796],[-40.28752,-20.29815],[-40.28763,-20.29833],[-40.28774,-20.29847],[-40.28783,-20.29861],[-40.28789,-20.2987],[-40.28799,-20.29882],[-40.28814,-20.29897],[-40.28832,-20.29909],[-40.2884,-20.29912],[-40.28849,-20.29921],[-40.28866,-20.29932],[-40.28869,-20.29934],[-40.28874,-20.29936],[-40.28888,-20.29952],[-40.28905,-20.29964],[-40.28923,-20.29973],[-40.28959,-20.29985],[-40.28959,-20.29997],[-40.28959,-20.29999],[-40.2896,-20.30017],[-40.28962,-20.30032],[-40.28964,-20.30043],[-40.28965,-20.30052],[-40.28965,-20.30055],[-40.28967,-20.30067],[-40.28968,-20.3007],[-40.28968,-20.30073],[-40.28967,-20.30074],[-40.28966,-20.30079],[-40.28964,-20.30089],[-40.28958,-20.30104],[-40.28956,-20.30108],[-40.28939,-20.30135],[-40.28914,-20.30164],[-40.28911,-20.30168],[-40.28907,-20.30173],[-40.28897,-20.30172],[-40.28879,-20.30173],[-40.28871,-20.30175],[-40.28781,-20.30175],[-40.2878,-20.30174],[-40.28771,-20.30171],[-40.28751,-20.30167],[-40.28744,-20.30166],[-40.28725,-20.30166],[-40.28721,-20.30166],[-40.2872,-20.30166],[-40.28717,-20.30166],[-40.28705,-20.30166],[-40.28699,-20.30166],[-40.28687,-20.30166],[-40.28671,-20.30168],[-40.28672,-20.30161],[-40.28674,-20.30146],[-40.28674,-20.30128],[-40.2867,-20.30111],[-40.28669,-20.30108],[-40.28667,-20.30101],[-40.28666,-20.30099],[-40.28666,-20.30096],[-40.28657,-20.30075],[-40.28654,-20.30068],[-40.28645,-20.30054],[-40.28634,-20.30042],[-40.2863,-20.30039],[-40.28624,-20.30034],[-40.28622,-20.30031],[-40.28606,-20.30018],[-40.28589,-20.30009],[-40.2857,-20.30003],[-40.28551,-20.30001],[-40.28531,-20.30003],[-40.28525,-20.30004],[-40.28511,-20.29997],[-40.28497,-20.29993],[-40.28492,-20.29991],[-40.28475,-20.29986],[-40.2846,-20.29986],[-40.28451,-20.29974],[-40.28448,-20.29972],[-40.28431,-20.29958],[-40.28426,-20.29948],[-40.28414,-20.29932],[-40.28412,-20.29929],[-40.28398,-20.29917],[-40.28383,-20.29907],[-40.28376,-20.29905],[-40.28374,-20.29904],[-40.28367,-20.299],[-40.28363,-20.29899],[-40.28362,-20.29898],[-40.28351,-20.29893],[-40.28344,-20.29888],[-40.28339,-20.29886],[-40.28331,-20.29878],[-40.28327,-20.29874],[-40.28316,-20.29867],[-40.28308,-20.29859],[-40.28289,-20.29849],[-40.28269,-20.29842],[-40.28264,-20.29841],[-40.28259,-20.2984],[-40.28252,-20.29839],[-40.28237,-20.29837],[-40.28221,-20.29838],[-40.28215,-20.29839],[-40.28195,-20.29843],[-40.28176,-20.29852],[-40.28165,-20.2986],[-40.28158,-20.29861],[-40.28155,-20.29862],[-40.28145,-20.29864],[-40.28124,-20.29865],[-40.2812,-20.29865],[-40.28099,-20.2987],[-40.2808,-20.2988],[-40.28077,-20.29882],[-40.28063,-20.29894],[-40.28056,-20.29895],[-40.28046,-20.29898],[-40.28025,-20.29906],[-40.28012,-20.29913],[-40.28007,-20.29916],[-40.27998,-20.29922],[-40.27993,-20.29925],[-40.2799,-20.29926],[-40.27984,-20.29928],[-40.27979,-20.29929],[-40.27974,-20.2993],[-40.27974,-20.2993],[-40.27965,-20.29925],[-40.27947,-20.29919],[-40.27937,-20.29917],[-40.27926,-20.29916],[-40.27916,-20.29908],[-40.27896,-20.29896],[-40.27893,-20.29894],[-40.27887,-20.29891],[-40.27874,-20.29885],[-40.27869,-20.29872],[-40.27864,-20.29863],[-40.27863,-20.29859],[-40.27852,-20.2984],[-40.27838,-20.29824],[-40.2783,-20.29818],[-40.27827,-20.29815],[-40.27811,-20.29802],[-40.27793,-20.29794],[-40.27789,-20.29793],[-40.27788,-20.29792],[-40.2778,-20.29785],[-40.27764,-20.29776],[-40.27747,-20.29769],[-40.27728,-20.29766],[-40.27709,-20.29766],[-40.27698,-20.29768],[-40.27698,-20.29765],[-40.27695,-20.29745],[-40.27694,-20.2974],[-40.27688,-20.29724],[-40.27686,-20.29718],[-40.27677,-20.29702],[-40.27666,-20.29688],[-40.27652,-20.29676],[-40.27636,-20.29667],[-40.27619,-20.29661],[-40.27611,-20.29659],[-40.27592,-20.29656],[-40.27587,-20.29657],[-40.27584,-20.29656],[-40.27569,-20.29654],[-40.27563,-20.29653],[-40.27542,-20.29654],[-40.27522,-20.2966],[-40.27503,-20.29669],[-40.27498,-20.29672],[-40.27485,-20.29683],[-40.27473,-20.29696],[-40.27464,-20.2971],[-40.27458,-20.29724],[-40.27458,-20.29725],[-40.27455,-20.29728],[-40.27444,-20.29742],[-40.27437,-20.29758],[-40.27432,-20.29775],[-40.27428,-20.29795],[-40.27427,-20.29803],[-40.27426,-20.29814],[-40.27425,-20.29822],[-40.27425,-20.29836],[-40.27428,-20.29865],[-40.27432,-20.29877],[-40.27438,-20.29894],[-40.27442,-20.29903],[-40.27459,-20.29928],[-40.27463,-20.29932],[-40.27477,-20.29945],[-40.27493,-20.29955],[-40.27503,-20.29958],[-40.27497,-20.29966],[-40.27487,-20.29984],[-40.27486,-20.29988],[-40.27481,-20.30005],[-40.27479,-20.30022],[-40.2748,-20.30039],[-40.27484,-20.30056],[-40.27486,-20.30062],[-40.27494,-20.30078],[-40.27504,-20.30094],[-40.27517,-20.30107],[-40.27532,-20.30117],[-40.27549,-20.30125],[-40.27556,-20.30126],[-40.27558,-20.30136],[-40.2756,-20.30145],[-40.27562,-20.30153],[-40.27562,-20.30158],[-40.27562,-20.3016],[-40.27562,-20.30164],[-40.27562,-20.30185],[-40.27567,-20.30205],[-40.27576,-20.30224],[-40.2758,-20.30231],[-40.2759,-20.30245],[-40.27603,-20.30257],[-40.27605,-20.30258],[-40.27606,-20.30259],[-40.27606,-20.3026],[-40.27608,-20.30262],[-40.27622,-20.30273],[-40.29785,-20.30273]]],[[[-40.28685,-20.28425],[-40.28685,-20.28424],[-40.28685,-20.28419],[-40.28684,-20.28413],[-40.28684,-20.28406],[-40.28681,-20.28389],[-40.2868,-20.28385],[-40.28674,-20.28368],[-40.28665,-20.28353],[-40.28663,-20.28349],[-40.28652,-20.28336],[-40.28639,-20.28325],[-40.28624,-20.28316],[-40.28615,-20.28312],[-40.28612,-20.2831],[-40.28589,-20.28302],[-40.28587,-20.28301],[-40.28566,-20.28299],[-40.28545,-20.28301],[-40.28543,-20.28301],[-40.2854,-20.28301],[-40.28523,-20.28306],[-40.28518,-20.28308],[-40.28504,-20.28312],[-40.28501,-20.28313],[-40.28486,-20.2832],[-40.28471,-20.2833],[-40.28471,-20.28331],[-40.28466,-20.28334],[-40.28451,-20.28346],[-40.28448,-20.28349],[-40.28446,-20.28351],[-40.28439,-20.28357],[-40.28432,-20.28363],[-40.28418,-20.28378],[-40.28407,-20.28395],[-40.28404,-20.28399],[-40.28397,-20.2842],[-40.28394,-20.28442],[-40.28394,-20.28445],[-40.28397,-20.28472],[-40.28398,-20.28477],[-40.28403,-20.28491],[-40.28403,-20.28492],[-40.28408,-20.28508],[-40.28416,-20.28522],[-40.28418,-20.28525],[-40.28434,-20.28544],[-40.28436,-20.28547],[-40.28441,-20.2855],[-40.28442,-20.28551],[-40.28462,-20.28564],[-40.28468,-20.28566],[-40.28477,-20.2857],[-40.28493,-20.28574],[-40.28499,-20.28575],[-40.2851,-20.28578],[-40.28528,-20.28579],[-40.28529,-20.28579],[-40.28531,-20.28579],[-40.28548,-20.28578],[-40.28565,-20.28573],[-40.28567,-20.28572],[-40.28576,-20.28568],[-40.28587,-20.28566],[-40.28588,-20.28565],[-40.28592,-20.28564],[-40.28594,-20.28564],[-40.28613,-20.28554],[-40.28621,-20.2855],[-40.28623,-20.28549],[-40.28629,-20.28545],[-40.28646,-20.28533],[-40.28659,-20.28519],[-40.2867,-20.28502],[-40.28674,-20.28493],[-40.2868,-20.28477],[-40.28684,-20.28459],[-40.28684,-20.2845],[-40.28685,-20.28446],[-40.28685,-20.28429],[-40.28685,-20.28425]]]]},"properties":{"ghs":"7h7ke","size":7.03,"ghs_len":5,"ghs_area":11.22,"ghs_bytes":2121080,"ghs_items":6295,"size_unit":"km2","ghsval_unit":"bytes","ghs_itemsdensity":560.81,"size_unitdensity":0.63}},{"type":"Feature","geometry":{"type":"Polygon","coordinates":[[[-40.3418,-20.31921],[-40.33081,-20.31921],[-40.33081,-20.31372],[-40.3418,-20.31372],[-40.3418,-20.30273],[-40.31982,-20.30273],[-40.31982,-20.30823],[-40.30884,-20.30823],[-40.30884,-20.30273],[-40.29785,-20.30273],[-40.29785,-20.32514],[-40.29804,-20.32507],[-40.29823,-20.32495],[-40.2983,-20.3249],[-40.29832,-20.32488],[-40.29834,-20.32489],[-40.29839,-20.32489],[-40.29856,-20.32493],[-40.29862,-20.32493],[-40.29875,-20.32495],[-40.29894,-20.32495],[-40.29901,-20.32494],[-40.29908,-20.32493],[-40.29923,-20.32492],[-40.29945,-20.32486],[-40.29954,-20.32482],[-40.29973,-20.32472],[-40.29989,-20.32457],[-40.30002,-20.3244],[-40.30006,-20.32432],[-40.3001,-20.32429],[-40.30016,-20.32423],[-40.30017,-20.32423],[-40.30029,-20.32424],[-40.30029,-20.32424],[-40.30035,-20.32425],[-40.30039,-20.32425],[-40.30052,-20.3243],[-40.30071,-20.32434],[-40.30072,-20.32436],[-40.30088,-20.32449],[-40.30104,-20.3246],[-40.30129,-20.32472],[-40.30149,-20.32478],[-40.30173,-20.32483],[-40.30197,-20.32482],[-40.30201,-20.32482],[-40.30219,-20.32482],[-40.30224,-20.32482],[-40.30227,-20.32481],[-40.30237,-20.32481],[-40.30245,-20.32481],[-40.30254,-20.32479],[-40.30257,-20.32479],[-40.30266,-20.32487],[-40.30275,-20.32495],[-40.30282,-20.32503],[-40.30283,-20.32511],[-40.3028,-20.32527],[-40.3028,-20.32545],[-40.30282,-20.32562],[-40.30288,-20.32579],[-40.30297,-20.32594],[-40.30308,-20.3261],[-40.30308,-20.3261],[-40.30319,-20.32629],[-40.30334,-20.32644],[-40.30352,-20.32656],[-40.3036,-20.3266],[-40.30373,-20.32666],[-40.30375,-20.32667],[-40.30391,-20.32678],[-40.3041,-20.32685],[-40.30424,-20.32689],[-40.30439,-20.32691],[-40.30454,-20.32692],[-40.30466,-20.32692],[-40.30477,-20.32693],[-40.30502,-20.32697],[-40.30511,-20.32699],[-40.30529,-20.32712],[-40.30532,-20.32714],[-40.30552,-20.32744],[-40.30565,-20.32759],[-40.30576,-20.32768],[-40.30585,-20.32779],[-40.30598,-20.32793],[-40.30609,-20.328],[-40.3061,-20.32811],[-40.30616,-20.32829],[-40.30625,-20.32846],[-40.30646,-20.32878],[-40.30658,-20.32893],[-40.30673,-20.32905],[-40.30683,-20.32911],[-40.30687,-20.32915],[-40.30695,-20.32922],[-40.3071,-20.32933],[-40.30713,-20.32935],[-40.30715,-20.32961],[-40.3072,-20.32985],[-40.30724,-20.32998],[-40.30726,-20.33005],[-40.3073,-20.33014],[-40.30741,-20.33034],[-40.30747,-20.33042],[-40.30753,-20.33051],[-40.3076,-20.33058],[-40.30778,-20.33074],[-40.30795,-20.33083],[-40.30802,-20.33088],[-40.30819,-20.33096],[-40.30836,-20.33101],[-40.30855,-20.33103],[-40.30889,-20.33103],[-40.30905,-20.33102],[-40.30908,-20.33102],[-40.30931,-20.33105],[-40.30946,-20.33111],[-40.30966,-20.33114],[-40.30986,-20.33114],[-40.30988,-20.33113],[-40.30998,-20.33115],[-40.31004,-20.33115],[-40.31033,-20.33111],[-40.31038,-20.33109],[-40.31054,-20.33103],[-40.31057,-20.33101],[-40.31071,-20.33095],[-40.31087,-20.33083],[-40.31101,-20.33069],[-40.31102,-20.33066],[-40.3111,-20.33064],[-40.31127,-20.33054],[-40.31134,-20.3305],[-40.31149,-20.33037],[-40.31157,-20.33026],[-40.31158,-20.33026],[-40.31175,-20.3301],[-40.3118,-20.33004],[-40.31182,-20.33],[-40.31185,-20.32998],[-40.31198,-20.32982],[-40.31208,-20.32965],[-40.31212,-20.3295],[-40.31219,-20.32944],[-40.31233,-20.32937],[-40.3125,-20.32925],[-40.31256,-20.3292],[-40.31268,-20.32907],[-40.31269,-20.32905],[-40.31272,-20.32903],[-40.31279,-20.32894],[-40.31283,-20.32889],[-40.3129,-20.32881],[-40.31297,-20.32872],[-40.31308,-20.32854],[-40.31312,-20.32845],[-40.31313,-20.32842],[-40.31314,-20.3284],[-40.31318,-20.32836],[-40.31328,-20.32823],[-40.31332,-20.32816],[-40.31339,-20.32801],[-40.31342,-20.32797],[-40.31342,-20.32797],[-40.31343,-20.32795],[-40.31345,-20.32793],[-40.31357,-20.32778],[-40.31366,-20.3276],[-40.31367,-20.32757],[-40.31373,-20.32735],[-40.31374,-20.32712],[-40.3137,-20.3269],[-40.31369,-20.32687],[-40.31361,-20.32671],[-40.31362,-20.3267],[-40.3137,-20.32664],[-40.31385,-20.32656],[-40.31413,-20.32637],[-40.31421,-20.32631],[-40.31434,-20.3262],[-40.31442,-20.32613],[-40.31456,-20.32598],[-40.31468,-20.32582],[-40.31477,-20.32564],[-40.31482,-20.32544],[-40.31483,-20.32523],[-40.31483,-20.3252],[-40.31483,-20.3252],[-40.3149,-20.3252],[-40.31503,-20.3252],[-40.31511,-20.32519],[-40.31515,-20.32518],[-40.31521,-20.32517],[-40.31528,-20.32517],[-40.31537,-20.32523],[-40.31548,-20.32529],[-40.31553,-20.32532],[-40.31564,-20.32538],[-40.31581,-20.32544],[-40.31588,-20.32547],[-40.31616,-20.32551],[-40.31625,-20.32551],[-40.31645,-20.32548],[-40.31653,-20.32557],[-40.31661,-20.32569],[-40.31666,-20.32577],[-40.31671,-20.32582],[-40.31676,-20.32587],[-40.31676,-20.32588],[-40.31678,-20.32591],[-40.31689,-20.32605],[-40.31701,-20.32618],[-40.31716,-20.32628],[-40.31722,-20.3263],[-40.31719,-20.32643],[-40.31719,-20.32647],[-40.31719,-20.32668],[-40.31723,-20.32688],[-40.31724,-20.32691],[-40.31733,-20.32711],[-40.31747,-20.32729],[-40.31763,-20.32743],[-40.31769,-20.32747],[-40.31787,-20.32756],[-40.31806,-20.32762],[-40.31825,-20.32764],[-40.31843,-20.32762],[-40.31846,-20.32765],[-40.31865,-20.32772],[-40.31885,-20.32775],[-40.31891,-20.32775],[-40.31908,-20.32775],[-40.31926,-20.32771],[-40.31943,-20.32765],[-40.31946,-20.32763],[-40.31957,-20.32761],[-40.32053,-20.32736],[-40.32165,-20.32707],[-40.32183,-20.32701],[-40.32199,-20.32691],[-40.32213,-20.32679],[-40.32215,-20.32677],[-40.32227,-20.32665],[-40.32239,-20.32649],[-40.32246,-20.32631],[-40.32247,-20.32628],[-40.32251,-20.32611],[-40.32254,-20.3261],[-40.32258,-20.32609],[-40.32267,-20.32607],[-40.32282,-20.32602],[-40.32296,-20.32595],[-40.32303,-20.3259],[-40.3232,-20.32577],[-40.32333,-20.32561],[-40.32343,-20.32542],[-40.32345,-20.32538],[-40.32349,-20.32522],[-40.32351,-20.32505],[-40.32352,-20.32501],[-40.32351,-20.32481],[-40.32345,-20.32462],[-40.32337,-20.32444],[-40.32334,-20.32439],[-40.32334,-20.32439],[-40.32329,-20.32417],[-40.32327,-20.3241],[-40.32313,-20.32385],[-40.32307,-20.32376],[-40.32298,-20.32365],[-40.32297,-20.32361],[-40.32295,-20.32354],[-40.32293,-20.32349],[-40.32295,-20.32342],[-40.32299,-20.32344],[-40.32317,-20.3235],[-40.32318,-20.32351],[-40.32337,-20.32357],[-40.32345,-20.32358],[-40.32366,-20.3236],[-40.32387,-20.32357],[-40.324,-20.32353],[-40.32413,-20.32351],[-40.32418,-20.3235],[-40.32426,-20.32348],[-40.32426,-20.32348],[-40.32427,-20.32348],[-40.32427,-20.32348],[-40.32442,-20.32353],[-40.32444,-20.32354],[-40.3245,-20.32356],[-40.32456,-20.32358],[-40.32468,-20.32362],[-40.32471,-20.32362],[-40.32473,-20.32363],[-40.32483,-20.32365],[-40.32489,-20.32366],[-40.325,-20.32367],[-40.32522,-20.32368],[-40.32528,-20.3237],[-40.32535,-20.32372],[-40.32541,-20.32374],[-40.32551,-20.32376],[-40.32552,-20.32376],[-40.32555,-20.32386],[-40.32565,-20.32405],[-40.32579,-20.3242],[-40.32595,-20.32433],[-40.32614,-20.32442],[-40.32621,-20.32444],[-40.32639,-20.32449],[-40.32657,-20.3245],[-40.32676,-20.32448],[-40.32679,-20.32447],[-40.32737,-20.32465],[-40.32969,-20.32541],[-40.33038,-20.32564],[-40.33061,-20.32569],[-40.3323,-20.32584],[-40.3323,-20.32584],[-40.33437,-20.32601],[-40.33448,-20.32603],[-40.33464,-20.32605],[-40.33465,-20.32606],[-40.33491,-20.3261],[-40.33498,-20.3261],[-40.33508,-20.32611],[-40.33511,-20.32612],[-40.33517,-20.32612],[-40.33524,-20.32613],[-40.33526,-20.32613],[-40.33537,-20.32613],[-40.33541,-20.32613],[-40.33553,-20.32614],[-40.33557,-20.32614],[-40.3358,-20.32613],[-40.33588,-20.32613],[-40.33597,-20.32612],[-40.33605,-20.32611],[-40.33613,-20.32609],[-40.33614,-20.32609],[-40.33614,-20.32609],[-40.33616,-20.32609],[-40.33625,-20.32614],[-40.33638,-20.3262],[-40.33642,-20.32621],[-40.33656,-20.32625],[-40.33672,-20.32627],[-40.33674,-20.32627],[-40.33691,-20.32627],[-40.33692,-20.32626],[-40.33692,-20.32627],[-40.33696,-20.32627],[-40.337,-20.32627],[-40.33705,-20.32627],[-40.33731,-20.32626],[-40.33736,-20.32625],[-40.33749,-20.32621],[-40.3375,-20.32621],[-40.33752,-20.3262],[-40.33772,-20.32613],[-40.33779,-20.32609],[-40.33974,-20.32615],[-40.33975,-20.32615],[-40.34066,-20.32617],[-40.34069,-20.32619],[-40.34087,-20.32629],[-40.34097,-20.32632],[-40.34108,-20.32638],[-40.34125,-20.32644],[-40.34143,-20.32647],[-40.34144,-20.32647],[-40.34147,-20.32648],[-40.34153,-20.3265],[-40.34158,-20.32651],[-40.34172,-20.32653],[-40.3418,-20.32654],[-40.3418,-20.31921]]]},"properties":{"ghs":"7h7k6","size":5.38,"ghs_len":5,"ghs_area":10.7,"ghs_bytes":2854758,"ghs_items":8923,"size_unit":"km2","ghsval_unit":"bytes","ghs_itemsdensity":833.77,"size_unitdensity":0.5}},{"type":"Feature","geometry":{"type":"Polygon","coordinates":[[[-40.3418,-20.31372],[-40.33081,-20.31372],[-40.33081,-20.31921],[-40.3418,-20.31921],[-40.3418,-20.31372]]]},"properties":{"ghs":"7h7k6j","size":0.35,"ghs_len":6,"ghs_area":0.7,"ghs_bytes":431661,"ghs_items":1303,"size_unit":"km2","ghsval_unit":"bytes","ghs_itemsdensity":1867.4,"size_unitdensity":0.5}},{"type":"Feature","geometry":{"type":"Polygon","coordinates":[[[-40.31982,-20.30273],[-40.30884,-20.30273],[-40.30884,-20.30823],[-40.31982,-20.30823],[-40.31982,-20.30273]]]},"properties":{"ghs":"7h7k6x","size":0.55,"ghs_len":6,"ghs_area":0.7,"ghs_bytes":471858,"ghs_items":1520,"size_unit":"km2","ghsval_unit":"bytes","ghs_itemsdensity":2178.24,"size_unitdensity":0.79}},{"type":"Feature","geometry":{"type":"Polygon","coordinates":[[[-40.29785,-20.25879],[-40.29785,-20.29724],[-40.30884,-20.29724],[-40.30884,-20.29175],[-40.30884,-20.28625],[-40.31982,-20.28625],[-40.31982,-20.29175],[-40.31982,-20.29724],[-40.31982,-20.30273],[-40.3418,-20.30273],[-40.3418,-20.28625],[-40.33081,-20.28625],[-40.33081,-20.28076],[-40.3418,-20.28076],[-40.3418,-20.27609],[-40.34147,-20.27577],[-40.33789,-20.27193],[-40.33637,-20.27031],[-40.33502,-20.26788],[-40.33245,-20.26327],[-40.33222,-20.26286],[-40.33212,-20.26271],[-40.32988,-20.25999],[-40.32966,-20.25879],[-40.29785,-20.25879]],[[-40.31982,-20.27527],[-40.31982,-20.26978],[-40.33081,-20.26978],[-40.33081,-20.27527],[-40.31982,-20.27527]]]},"properties":{"ghs":"7h7kd","size":8.94,"ghs_len":5,"ghs_area":16.79,"ghs_bytes":2969561,"ghs_items":9788,"size_unit":"km2","ghsval_unit":"bytes","ghs_itemsdensity":582.83,"size_unitdensity":0.53}}]}
