{"type":"FeatureCollection","features":[{"type":"Feature","geometry":{"type":"Polygon","coordinates":[[[-46.57465,-23.02734],[-46.56926,-23.03333],[-46.56911,-23.03355],[-46.56392,-23.04393],[-46.56228,-23.04122],[-46.56001,-23.03608],[-46.5599,-23.0359],[-46.55865,-23.03417],[-46.55852,-23.03402],[-46.55836,-23.03391],[-46.55819,-23.03382],[-46.553,-23.03187],[-46.5528,-23.03181],[-46.54148,-23.03006],[-46.53876,-23.02734],[-46.53163,-23.02734],[-46.5285,-23.02913],[-46.52832,-23.02927],[-46.52817,-23.02945],[-46.5267,-23.03165],[-46.52251,-23.02914],[-46.52235,-23.02906],[-46.52218,-23.02902],[-46.51891,-23.02842],[-46.51298,-23.02734],[-46.49751,-23.02734],[-46.49443,-23.02872],[-46.49364,-23.02907],[-46.49104,-23.02993],[-46.48501,-23.02734],[-46.48324,-23.02734],[-46.47829,-23.03229],[-46.47821,-23.03239],[-46.46451,-23.05],[-46.46028,-23.05],[-46.46097,-23.04724],[-46.461,-23.04704],[-46.46099,-23.04684],[-46.46093,-23.04664],[-46.46084,-23.04646],[-46.46071,-23.0463],[-46.46055,-23.04617],[-46.45187,-23.04038],[-46.44896,-23.02974],[-46.4489,-23.02956],[-46.4488,-23.0294],[-46.44868,-23.02927],[-46.44853,-23.02915],[-46.44836,-23.02907],[-46.44819,-23.02902],[-46.448,-23.029],[-46.441,-23.029],[-46.44082,-23.02902],[-46.44064,-23.02907],[-46.44048,-23.02914],[-46.44034,-23.02925],[-46.43134,-23.03725],[-46.43121,-23.03738],[-46.43112,-23.03753],[-46.43105,-23.03769],[-46.43101,-23.03786],[-46.431,-23.03804],[-46.4324,-23.07307],[-46.43244,-23.0733],[-46.43253,-23.07352],[-46.44322,-23.09266],[-46.44332,-23.09282],[-46.44345,-23.09295],[-46.4436,-23.09305],[-46.44377,-23.09312],[-46.44395,-23.09317],[-46.44426,-23.09321],[-46.44434,-23.09322],[-46.44457,-23.09324],[-46.44481,-23.09322],[-46.44504,-23.09316],[-46.44518,-23.09309],[-46.44534,-23.09301],[-46.4457,-23.09277],[-46.44584,-23.09265],[-46.44596,-23.09251],[-46.44596,-23.09251],[-46.44614,-23.09247],[-46.44633,-23.09239],[-46.44638,-23.09236],[-46.44691,-23.09248],[-46.44713,-23.09256],[-46.44706,-23.09275],[-46.44701,-23.09298],[-46.44701,-23.0932],[-46.44707,-23.09343],[-46.44718,-23.09374],[-46.44726,-23.0939],[-46.44737,-23.09405],[-46.4475,-23.09418],[-46.44766,-23.09428],[-46.44783,-23.09435],[-46.44821,-23.09447],[-46.44843,-23.09451],[-46.44865,-23.0945],[-46.44886,-23.09444],[-46.44906,-23.09435],[-46.44946,-23.09408],[-46.44964,-23.09399],[-46.44964,-23.09412],[-46.44968,-23.09431],[-46.44975,-23.09449],[-46.44986,-23.09465],[-46.44999,-23.09479],[-46.45023,-23.09499],[-46.45039,-23.0951],[-46.4504,-23.0951],[-46.45033,-23.09535],[-46.4503,-23.09554],[-46.4503,-23.09573],[-46.45034,-23.09592],[-46.45042,-23.0961],[-46.45053,-23.0963],[-46.45064,-23.09646],[-46.45078,-23.0966],[-46.45094,-23.09671],[-46.45113,-23.09678],[-46.45132,-23.09682],[-46.45156,-23.09684],[-46.45175,-23.09683],[-46.45194,-23.09679],[-46.45212,-23.09672],[-46.45248,-23.09652],[-46.45259,-23.09645],[-46.4528,-23.0963],[-46.45282,-23.09632],[-46.45299,-23.09638],[-46.45413,-23.09672],[-46.4543,-23.09675],[-46.45448,-23.09676],[-46.45465,-23.09673],[-46.45489,-23.09667],[-46.45509,-23.0966],[-46.45527,-23.09648],[-46.45542,-23.09633],[-46.45548,-23.09625],[-46.45558,-23.0962],[-46.45581,-23.09618],[-46.45588,-23.0962],[-46.45599,-23.09634],[-46.45613,-23.09647],[-46.45629,-23.09657],[-46.45647,-23.09664],[-46.45655,-23.09666],[-46.45656,-23.09673],[-46.45662,-23.09692],[-46.45671,-23.09709],[-46.45684,-23.09724],[-46.45699,-23.09737],[-46.45714,-23.09746],[-46.45731,-23.09755],[-46.45749,-23.09761],[-46.45768,-23.09763],[-46.45787,-23.09761],[-46.45819,-23.09755],[-46.45841,-23.09822],[-46.45849,-23.09839],[-46.45859,-23.09854],[-46.45885,-23.09885],[-46.45899,-23.09903],[-46.45913,-23.09917],[-46.45929,-23.09928],[-46.45946,-23.09936],[-46.45965,-23.0994],[-46.45984,-23.0994],[-46.46003,-23.09937],[-46.46021,-23.0993],[-46.46032,-23.09925],[-46.46037,-23.09925],[-46.46065,-23.09931],[-46.46084,-23.09932],[-46.46102,-23.09931],[-46.4612,-23.09925],[-46.46137,-23.09917],[-46.46152,-23.09905],[-46.46153,-23.09904],[-46.46167,-23.09902],[-46.46169,-23.09902],[-46.46177,-23.09909],[-46.46191,-23.09919],[-46.46208,-23.09927],[-46.46226,-23.09931],[-46.46244,-23.09933],[-46.46265,-23.09932],[-46.46284,-23.0993],[-46.46303,-23.09924],[-46.46315,-23.09929],[-46.46334,-23.09932],[-46.46353,-23.09932],[-46.46371,-23.09928],[-46.46375,-23.09927],[-46.46377,-23.0993],[-46.4639,-23.09944],[-46.46405,-23.09954],[-46.46423,-23.09962],[-46.46441,-23.09967],[-46.4646,-23.09968],[-46.46478,-23.09966],[-46.46495,-23.09962],[-46.46515,-23.09955],[-46.46532,-23.09945],[-46.46537,-23.0994],[-46.46541,-23.09942],[-46.46562,-23.09946],[-46.466,-23.0995],[-46.46616,-23.0995],[-46.46625,-23.09949],[-46.46618,-23.09967],[-46.46614,-23.09986],[-46.46614,-23.10006],[-46.46618,-23.10025],[-46.46625,-23.10043],[-46.46636,-23.1006],[-46.4665,-23.10074],[-46.46667,-23.10084],[-46.46697,-23.101],[-46.46714,-23.10107],[-46.46732,-23.10111],[-46.46747,-23.10113],[-46.4675,-23.10113],[-46.46761,-23.10114],[-46.46778,-23.10113],[-46.46795,-23.1011],[-46.46807,-23.10107],[-46.46824,-23.10101],[-46.46824,-23.10101],[-46.46827,-23.10109],[-46.46835,-23.10127],[-46.46847,-23.10144],[-46.46862,-23.10157],[-46.4688,-23.10168],[-46.46899,-23.10174],[-46.46915,-23.10178],[-46.46934,-23.1018],[-46.46953,-23.10179],[-46.46972,-23.10174],[-46.46988,-23.10166],[-46.46993,-23.10172],[-46.47006,-23.10184],[-46.46997,-23.10194],[-46.46986,-23.10208],[-46.46978,-23.10223],[-46.46972,-23.10239],[-46.46969,-23.10256],[-46.46968,-23.10273],[-46.46969,-23.10292],[-46.46974,-23.10312],[-46.46982,-23.10329],[-46.46993,-23.10345],[-46.47008,-23.10359],[-46.4702,-23.10368],[-46.47037,-23.10379],[-46.47055,-23.10385],[-46.47075,-23.10388],[-46.47076,-23.10388],[-46.47076,-23.10395],[-46.4708,-23.10416],[-46.47087,-23.10436],[-46.47096,-23.10457],[-46.4711,-23.10475],[-46.47128,-23.10489],[-46.4714,-23.10497],[-46.47154,-23.10504],[-46.47168,-23.10509],[-46.47184,-23.10514],[-46.47202,-23.10517],[-46.4722,-23.10517],[-46.47222,-23.10516],[-46.47231,-23.10534],[-46.47244,-23.10551],[-46.47254,-23.10559],[-46.47257,-23.10572],[-46.47261,-23.10585],[-46.4727,-23.10603],[-46.47282,-23.1062],[-46.47297,-23.10633],[-46.47315,-23.10643],[-46.47334,-23.1065],[-46.47354,-23.10654],[-46.4737,-23.10656],[-46.47373,-23.10662],[-46.47384,-23.1068],[-46.47396,-23.10695],[-46.4741,-23.10708],[-46.47426,-23.10718],[-46.47444,-23.10724],[-46.47455,-23.10727],[-46.47474,-23.1073],[-46.47492,-23.1073],[-46.4751,-23.10726],[-46.47527,-23.10719],[-46.47532,-23.10717],[-46.47539,-23.10723],[-46.47556,-23.10733],[-46.47575,-23.1074],[-46.47595,-23.10742],[-46.47619,-23.10743],[-46.4762,-23.10743],[-46.47641,-23.10743],[-46.47652,-23.10752],[-46.47658,-23.10757],[-46.47683,-23.10776],[-46.47698,-23.10785],[-46.47715,-23.10792],[-46.47732,-23.10795],[-46.47747,-23.10795],[-46.47748,-23.10801],[-46.47752,-23.1082],[-46.47761,-23.10838],[-46.47773,-23.10854],[-46.47787,-23.10867],[-46.47799,-23.10874],[-46.47808,-23.10888],[-46.47821,-23.10902],[-46.47837,-23.10913],[-46.47855,-23.10921],[-46.47874,-23.10926],[-46.47884,-23.10927],[-46.47904,-23.10928],[-46.47923,-23.10925],[-46.47941,-23.10918],[-46.47958,-23.10908],[-46.47972,-23.10894],[-46.4798,-23.10885],[-46.48008,-23.10893],[-46.48059,-23.10911],[-46.48064,-23.10923],[-46.48074,-23.10939],[-46.48091,-23.10961],[-46.48105,-23.10976],[-46.48113,-23.10983],[-46.48108,-23.10999],[-46.48105,-23.11021],[-46.48103,-23.11043],[-46.48107,-23.11064],[-46.48115,-23.11084],[-46.48127,-23.11102],[-46.48136,-23.11113],[-46.48149,-23.11126],[-46.48164,-23.11136],[-46.48165,-23.11137],[-46.48164,-23.1114],[-46.48158,-23.1117],[-46.48156,-23.11193],[-46.4816,-23.11215],[-46.48168,-23.11236],[-46.48177,-23.11253],[-46.48188,-23.11269],[-46.482,-23.11284],[-46.48204,-23.11289],[-46.48225,-23.11312],[-46.48247,-23.11339],[-46.48259,-23.11353],[-46.48274,-23.11364],[-46.48304,-23.11382],[-46.48326,-23.11392],[-46.4835,-23.11399],[-46.48369,-23.11403],[-46.48389,-23.11403],[-46.48408,-23.114],[-46.48428,-23.11394],[-46.48446,-23.11386],[-46.48462,-23.11375],[-46.48476,-23.11361],[-46.48489,-23.11345],[-46.48497,-23.11334],[-46.48508,-23.11315],[-46.48513,-23.11309],[-46.48521,-23.11313],[-46.48538,-23.11316],[-46.48556,-23.11317],[-46.48574,-23.11314],[-46.48591,-23.11308],[-46.48614,-23.11298],[-46.48632,-23.11288],[-46.48647,-23.11275],[-46.48659,-23.11259],[-46.48667,-23.11241],[-46.48671,-23.1123],[-46.48681,-23.11217],[-46.48685,-23.1121],[-46.48693,-23.11218],[-46.48693,-23.11218],[-46.487,-23.11502],[-46.48703,-23.11522],[-46.48709,-23.11542],[-46.48719,-23.11559],[-46.50907,-23.14542],[-46.51102,-23.15422],[-46.51108,-23.15439],[-46.51116,-23.15454],[-46.51127,-23.15468],[-46.5114,-23.1548],[-46.51155,-23.15489],[-46.51734,-23.15779],[-46.52574,-23.16898],[-46.52222,-23.17338],[-46.52214,-23.17349],[-46.51914,-23.17849],[-46.51906,-23.17867],[-46.51901,-23.17887],[-46.519,-23.17907],[-46.51904,-23.17927],[-46.51911,-23.17946],[-46.51923,-23.17963],[-46.53852,-23.20312],[-46.66795,-23.20312],[-46.66023,-23.19579],[-46.66289,-23.19045],[-46.66297,-23.19025],[-46.663,-23.19005],[-46.66299,-23.18984],[-46.66293,-23.18964],[-46.655,-23.16882],[-46.655,-23.16348],[-46.66462,-23.15578],[-46.66477,-23.15564],[-46.66488,-23.15548],[-46.66496,-23.15529],[-46.67296,-23.12929],[-46.67297,-23.12923],[-46.67897,-23.10423],[-46.679,-23.10403],[-46.67898,-23.10383],[-46.67893,-23.10363],[-46.67514,-23.09415],[-46.6778,-23.0906],[-46.6779,-23.09044],[-46.67797,-23.09026],[-46.678,-23.09007],[-46.67799,-23.08988],[-46.67729,-23.08412],[-46.67896,-23.08113],[-46.67896,-23.08113],[-46.67897,-23.08111],[-46.67897,-23.08111],[-46.68095,-23.07755],[-46.68487,-23.07049],[-46.68489,-23.07045],[-46.68589,-23.06845],[-46.68596,-23.06827],[-46.686,-23.06808],[-46.68606,-23.06736],[-46.687,-23.05608],[-46.68699,-23.05587],[-46.68694,-23.05565],[-46.68684,-23.05546],[-46.67784,-23.04146],[-46.67751,-23.04093],[-46.67762,-23.04087],[-46.67778,-23.04077],[-46.67791,-23.04064],[-46.67802,-23.0405],[-46.67812,-23.04034],[-46.67821,-23.04014],[-46.67826,-23.03994],[-46.6783,-23.03963],[-46.6783,-23.0394],[-46.67822,-23.03869],[-46.67819,-23.03853],[-46.67818,-23.03849],[-46.67823,-23.03828],[-46.67838,-23.03801],[-46.67845,-23.03786],[-46.67863,-23.03738],[-46.67869,-23.03713],[-46.67875,-23.03658],[-46.67873,-23.0363],[-46.67866,-23.03592],[-46.67859,-23.0357],[-46.6784,-23.03527],[-46.67867,-23.03506],[-46.67883,-23.03491],[-46.67914,-23.03455],[-46.67915,-23.03453],[-46.67964,-23.03391],[-46.6797,-23.03384],[-46.68017,-23.03313],[-46.68017,-23.03312],[-46.68049,-23.03262],[-46.68068,-23.03241],[-46.6813,-23.03197],[-46.68132,-23.03196],[-46.68264,-23.03096],[-46.68281,-23.03079],[-46.683,-23.03055],[-46.68309,-23.03042],[-46.68316,-23.03028],[-46.68324,-23.03007],[-46.68329,-23.02985],[-46.6833,-23.02962],[-46.68327,-23.02934],[-46.68323,-23.02916],[-46.68317,-23.02899],[-46.68307,-23.02883],[-46.68293,-23.02864],[-46.6828,-23.0285],[-46.68266,-23.02839],[-46.68249,-23.02831],[-46.68223,-23.02821],[-46.68208,-23.0281],[-46.6828,-23.0275],[-46.68289,-23.02741],[-46.68295,-23.02734],[-46.57465,-23.02734]]]},"properties":{"ghs":"6gyu","size":3.69,"ghs_len":4,"ghs_area":379.1,"ghs_bytes":1524507,"ghs_items":6581,"size_unit":"km2","ghsval_unit":"bytes","ghs_itemsdensity":17.36,"size_unitdensity":0.01}}]}
