{"type":"FeatureCollection","features":[{"type":"Feature","geometry":{"type":"Polygon","coordinates":[[[-53.78906,-24.60938],[-53.67709,-24.60938],[-53.67637,-24.61006],[-53.67636,-24.61007],[-53.66841,-24.61769],[-53.66818,-24.6179],[-53.66818,-24.61791],[-53.6644,-24.62148],[-53.6644,-24.62148],[-53.66075,-24.62496],[-53.66022,-24.62544],[-53.6602,-24.62546],[-53.65583,-24.62964],[-53.6552,-24.63024],[-53.6516,-24.63367],[-53.64972,-24.63545],[-53.64674,-24.63829],[-53.64571,-24.63927],[-53.64571,-24.63927],[-53.63733,-24.64725],[-53.63731,-24.64727],[-53.63724,-24.64734],[-53.63656,-24.64802],[-53.6353,-24.64928],[-53.63479,-24.64978],[-53.6305,-24.65386],[-53.62738,-24.65682],[-53.62738,-24.65682],[-53.62305,-24.66094],[-53.62161,-24.66231],[-53.61836,-24.6654],[-53.61321,-24.6703],[-53.61321,-24.6703],[-53.60757,-24.67569],[-53.60097,-24.68194],[-53.60097,-24.68194],[-53.5946,-24.688],[-53.59431,-24.68828],[-53.59429,-24.68829],[-53.59322,-24.68936],[-53.5896,-24.69298],[-53.58955,-24.69304],[-53.58497,-24.69762],[-53.58431,-24.69827],[-53.58418,-24.6984],[-53.58384,-24.6987],[-53.58284,-24.6996],[-53.57433,-24.70726],[-53.57429,-24.70729],[-53.57396,-24.70763],[-53.57311,-24.70848],[-53.57058,-24.71101],[-53.57023,-24.71135],[-53.56118,-24.72041],[-53.55973,-24.72186],[-53.55816,-24.72343],[-53.55816,-24.72343],[-53.55293,-24.72869],[-53.5526,-24.72899],[-53.55257,-24.72902],[-53.55215,-24.72944],[-53.55024,-24.73135],[-53.55023,-24.73135],[-53.5481,-24.73351],[-53.54292,-24.73869],[-53.53657,-24.745],[-53.53654,-24.74503],[-53.53627,-24.74532],[-53.53611,-24.74555],[-53.53359,-24.75058],[-53.53311,-24.75155],[-53.53304,-24.75174],[-53.533,-24.75193],[-53.53301,-24.75213],[-53.53305,-24.75232],[-53.53481,-24.7576],[-53.53531,-24.75908],[-53.53705,-24.76432],[-53.53715,-24.76453],[-53.53729,-24.76471],[-53.54529,-24.77271],[-53.54542,-24.77282],[-53.54557,-24.7729],[-53.54573,-24.77296],[-53.55213,-24.77479],[-53.55248,-24.77489],[-53.55591,-24.77832],[-53.55439,-24.78516],[-53.67726,-24.78516],[-53.67814,-24.78427],[-53.67864,-24.78378],[-53.6824,-24.78127],[-53.68407,-24.78015],[-53.68663,-24.78143],[-53.68726,-24.78175],[-53.688,-24.78212],[-53.68848,-24.78236],[-53.69037,-24.7833],[-53.69107,-24.78365],[-53.69198,-24.78411],[-53.69408,-24.78516],[-53.78906,-24.78516],[-53.78906,-24.60938]]]},"properties":{"ghs":"6g9g","size":29.59,"ghs_len":4,"ghs_area":388.64,"ghs_bytes":22190,"ghs_items":15,"size_unit":"km2","ghsval_unit":"bytes","ghs_itemsdensity":0.04,"size_unitdensity":0.08}}]}
