{"type": "FeatureCollection", "features": [
{"type": "Feature", "geometry": {"type": "Polygon", "coordinates": [[[-53.742832, -24.754681], [-53.74142, -24.754842], [-53.739551, -24.755299], [-53.73862, -24.755492], [-53.738088, -24.755525], [-53.737791, -24.755531], [-53.739341, -24.763251], [-53.739893, -24.76609], [-53.740566, -24.769685], [-53.744176, -24.76969], [-53.757225, -24.769674], [-53.757134, -24.769511], [-53.746961, -24.754666], [-53.742832, -24.754681]]]}, "properties": {"nsvia_name": "SÃO FRANCISCO"}},
{"type": "Feature", "geometry": {"type": "Polygon", "coordinates": [[[-53.721895, -24.765794], [-53.723047, -24.765788], [-53.723049, -24.765849], [-53.723054, -24.765883], [-53.731386, -24.765864], [-53.732815, -24.769408], [-53.732837, -24.769415], [-53.732947, -24.769685], [-53.733442, -24.7697], [-53.740566, -24.769685], [-53.739893, -24.76609], [-53.739341, -24.763251], [-53.737791, -24.755531], [-53.725273, -24.755556], [-53.721895, -24.765794]]]}, "properties": {"nsvia_name": "JARDIM PANORAMA"}},
{"type": "Feature", "geometry": {"type": "Polygon", "coordinates": [[[-53.735661, -24.744112], [-53.735637, -24.744051], [-53.735603, -24.743968], [-53.735568, -24.743872], [-53.735546, -24.743813], [-53.735485, -24.743746], [-53.735415, -24.743703], [-53.735351, -24.743661], [-53.735302, -24.743595], [-53.735293, -24.74353], [-53.735303, -24.743509], [-53.735299, -24.74344], [-53.73527, -24.743381], [-53.735158, -24.74335], [-53.735093, -24.743366], [-53.734953, -24.743359], [-53.73483, -24.743318], [-53.734728, -24.743281], [-53.734653, -24.743268], [-53.734539, -24.743242], [-53.734447, -24.743199], [-53.73442, -24.743132], [-53.73439, -24.743069], [-53.73436, -24.742945], [-53.734357, -24.742886], [-53.734416, -24.742835], [-53.734455, -24.742742], [-53.734465, -24.742721], [-53.734493, -24.74264], [-53.734497, -24.742546], [-53.734498, -24.742238], [-53.734491, -24.742158], [-53.728174, -24.742217], [-53.72822, -24.744494], [-53.728277, -24.744542], [-53.728279, -24.746652], [-53.728112, -24.746847], [-53.725281, -24.755556], [-53.735201, -24.755536], [-53.735824, -24.749754], [-53.736163, -24.746883], [-53.736176, -24.744293], [-53.735796, -24.744176], [-53.735661, -24.744112]]]}, "properties": {"nsvia_name": "SADIA"}},
{"type": "Feature", "geometry": {"type": "Polygon", "coordinates": [[[-53.759712, -24.766985], [-53.762788, -24.765907], [-53.764539, -24.759076], [-53.764607, -24.758991], [-53.764624, -24.758925], [-53.764604, -24.758894], [-53.764656, -24.758626], [-53.764791, -24.758313], [-53.764793, -24.758236], [-53.764842, -24.758057], [-53.764838, -24.757969], [-53.764936, -24.757877], [-53.76496, -24.757797], [-53.764954, -24.757753], [-53.764925, -24.757712], [-53.76484, -24.757675], [-53.764852, -24.757571], [-53.764706, -24.757402], [-53.764617, -24.757367], [-53.764519, -24.757364], [-53.764167, -24.757356], [-53.764108, -24.757331], [-53.76401, -24.75735], [-53.763937, -24.75731], [-53.763749, -24.747329], [-53.763745, -24.747247], [-53.763227, -24.747045], [-53.762897, -24.746835], [-53.762469, -24.746424], [-53.761771, -24.745691], [-53.761555, -24.745436], [-53.761462, -24.745382], [-53.761401, -24.745359], [-53.761313, -24.745356], [-53.761244, -24.745374], [-53.761166, -24.745415], [-53.761102, -24.745464], [-53.760304, -24.746133], [-53.759622, -24.746501], [-53.758614, -24.746795], [-53.75768, -24.747007], [-53.757073, -24.747242], [-53.756172, -24.747785], [-53.755351, -24.748574], [-53.75423, -24.750087], [-53.75328, -24.75139], [-53.75212, -24.753047], [-53.751637, -24.753726], [-53.751229, -24.754244], [-53.751005, -24.754416], [-53.750824, -24.754515], [-53.750513, -24.754672], [-53.750234, -24.754741], [-53.74993, -24.754787], [-53.749056, -24.754795], [-53.746961, -24.754666], [-53.757134, -24.769511], [-53.757225, -24.769674], [-53.75767, -24.770227], [-53.759712, -24.766985]]]}, "properties": {"nsvia_name": "CERÂMICA PRATA"}},
{"type": "Feature", "geometry": {"type": "Polygon", "coordinates": [[[-53.751199, -24.7531], [-53.750843, -24.75299], [-53.75043, -24.752886], [-53.750191, -24.752755], [-53.750012, -24.752567], [-53.749846, -24.752394], [-53.749744, -24.752312], [-53.749354, -24.752056], [-53.749203, -24.751955], [-53.749105, -24.751861], [-53.749054, -24.75175], [-53.749017, -24.751623], [-53.748925, -24.751426], [-53.748857, -24.751335], [-53.748804, -24.751288], [-53.748676, -24.751219], [-53.74849, -24.751142], [-53.748011, -24.750816], [-53.747695, -24.750726], [-53.747419, -24.750679], [-53.746117, -24.750695], [-53.745602, -24.750736], [-53.744766, -24.750856], [-53.744469, -24.750877], [-53.744198, -24.750866], [-53.743943, -24.750807], [-53.743319, -24.750635], [-53.742703, -24.750454], [-53.742321, -24.75035], [-53.742122, -24.750246], [-53.741951, -24.750037], [-53.74174, -24.749746], [-53.741357, -24.749234], [-53.741068, -24.748809], [-53.740924, -24.748628], [-53.740832, -24.748418], [-53.740679, -24.74781], [-53.740512, -24.747159], [-53.740429, -24.746769], [-53.740437, -24.746546], [-53.740291, -24.746257], [-53.739953, -24.745793], [-53.739662, -24.745443], [-53.739396, -24.7451], [-53.739217, -24.744904], [-53.73915, -24.74481], [-53.739116, -24.744687], [-53.739101, -24.744583], [-53.739043, -24.744524], [-53.738958, -24.744438], [-53.738899, -24.744339], [-53.738818, -24.744241], [-53.738727, -24.744083], [-53.738687, -24.744056], [-53.738591, -24.744058], [-53.738443, -24.74408], [-53.738265, -24.7441], [-53.738112, -24.744126], [-53.737995, -24.744168], [-53.737874, -24.744219], [-53.737753, -24.744285], [-53.737634, -24.744411], [-53.737504, -24.744481], [-53.737361, -24.744531], [-53.737147, -24.744535], [-53.736906, -24.744508], [-53.736471, -24.744388], [-53.736176, -24.744293], [-53.736163, -24.746883], [-53.735824, -24.749754], [-53.735201, -24.755536], [-53.737791, -24.755531], [-53.738088, -24.755525], [-53.73862, -24.755492], [-53.739551, -24.755299], [-53.74142, -24.754842], [-53.742832, -24.754681], [-53.746961, -24.754666], [-53.749056, -24.754795], [-53.74993, -24.754787], [-53.750234, -24.754741], [-53.750513, -24.754672], [-53.750824, -24.754515], [-53.751005, -24.754416], [-53.751229, -24.754244], [-53.751637, -24.753726], [-53.75202, -24.753187], [-53.751716, -24.75317], [-53.751199, -24.7531]]]}, "properties": {"nsvia_name": "JARDIM BRESSAN"}},
{"type": "Feature", "geometry": {"type": "Polygon", "coordinates": [[[-53.707431, -24.758204], [-53.707495, -24.758126], [-53.707515, -24.758077], [-53.707589, -24.75805], [-53.70764, -24.758004], [-53.707735, -24.757726], [-53.707961, -24.757464], [-53.70809, -24.757392], [-53.708267, -24.757338], [-53.708331, -24.757279], [-53.708371, -24.757223], [-53.708404, -24.757168], [-53.708413, -24.757137], [-53.708414, -24.757133], [-53.708409, -24.757007], [-53.708407, -24.756976], [-53.708428, -24.75687], [-53.708447, -24.756798], [-53.708525, -24.756695], [-53.708669, -24.756631], [-53.708876, -24.75654], [-53.708961, -24.756512], [-53.709084, -24.756493], [-53.709217, -24.756476], [-53.70926, -24.756457], [-53.709312, -24.756426], [-53.709344, -24.756382], [-53.709387, -24.756271], [-53.709399, -24.755978], [-53.709461, -24.755891], [-53.709486, -24.755857], [-53.709509, -24.755833], [-53.709787, -24.755566], [-53.710022, -24.755299], [-53.710034, -24.755115], [-53.710074, -24.754997], [-53.710308, -24.754675], [-53.710412, -24.754483], [-53.71042, -24.754518], [-53.710418, -24.754493], [-53.710637, -24.754331], [-53.710716, -24.754254], [-53.710741, -24.754214], [-53.710747, -24.754127], [-53.709874, -24.752213], [-53.709743, -24.752017], [-53.705409, -24.742602], [-53.690741, -24.748073], [-53.691378, -24.748904], [-53.691864, -24.749694], [-53.692021, -24.749978], [-53.692169, -24.750668], [-53.692169, -24.750721], [-53.692161, -24.751519], [-53.692159, -24.751677], [-53.692029, -24.752561], [-53.691877, -24.753596], [-53.691874, -24.753617], [-53.691796, -24.754304], [-53.691797, -24.754603], [-53.691801, -24.755164], [-53.692027, -24.755491], [-53.692556, -24.756265], [-53.692646, -24.756397], [-53.69272, -24.756821], [-53.692738, -24.756926], [-53.692546, -24.757921], [-53.691408, -24.763798], [-53.691818, -24.763437], [-53.692289, -24.763136], [-53.693648, -24.762106], [-53.69398, -24.761701], [-53.694152, -24.761563], [-53.694386, -24.761487], [-53.694666, -24.761513], [-53.696089, -24.761799], [-53.700342, -24.762473], [-53.701354, -24.76264], [-53.706755, -24.758687], [-53.706985, -24.758567], [-53.707327, -24.758284], [-53.707431, -24.758204]]]}, "properties": {"nsvia_name": "PINHEIRINHO"}},
{"type": "Feature", "geometry": {"type": "Polygon", "coordinates": [[[-53.747298, -24.739086], [-53.747244, -24.739114], [-53.747218, -24.739138], [-53.747166, -24.739253], [-53.746984, -24.739365], [-53.746838, -24.739432], [-53.746805, -24.739472], [-53.746771, -24.739561], [-53.746728, -24.739611], [-53.746613, -24.739674], [-53.746613, -24.73967], [-53.74645, -24.739762], [-53.746166, -24.739866], [-53.746053, -24.739924], [-53.745947, -24.739947], [-53.74595, -24.741459], [-53.745976, -24.741439], [-53.745977, -24.74146], [-53.746122, -24.750695], [-53.747419, -24.750679], [-53.747695, -24.750726], [-53.748011, -24.750816], [-53.74849, -24.751142], [-53.748676, -24.751219], [-53.748804, -24.751288], [-53.748857, -24.751335], [-53.748925, -24.751426], [-53.749017, -24.751623], [-53.749054, -24.75175], [-53.749105, -24.751861], [-53.749203, -24.751955], [-53.749354, -24.752056], [-53.749744, -24.752312], [-53.749846, -24.752394], [-53.750012, -24.752567], [-53.750191, -24.752755], [-53.75043, -24.752886], [-53.750843, -24.75299], [-53.751199, -24.7531], [-53.751716, -24.75317], [-53.75202, -24.753187], [-53.75212, -24.753047], [-53.75328, -24.75139], [-53.75423, -24.750087], [-53.755351, -24.748574], [-53.756172, -24.747785], [-53.757073, -24.747242], [-53.75768, -24.747007], [-53.758614, -24.746795], [-53.759622, -24.746501], [-53.760304, -24.746133], [-53.761102, -24.745464], [-53.761166, -24.745415], [-53.761244, -24.745374], [-53.761313, -24.745356], [-53.761401, -24.745359], [-53.761462, -24.745382], [-53.761555, -24.745436], [-53.760866, -24.744747], [-53.760488, -24.744212], [-53.760249, -24.743693], [-53.760161, -24.743152], [-53.760126, -24.742225], [-53.760085, -24.739728], [-53.759964, -24.734806], [-53.756969, -24.735064], [-53.754898, -24.734775], [-53.752003, -24.734418], [-53.752003, -24.73441], [-53.749878, -24.734223], [-53.749879, -24.734892], [-53.74989, -24.735043], [-53.749949, -24.735231], [-53.749999, -24.735325], [-53.749988, -24.735445], [-53.749889, -24.735624], [-53.749741, -24.735815], [-53.749541, -24.736147], [-53.749475, -24.736274], [-53.749349, -24.736516], [-53.749194, -24.736702], [-53.749143, -24.73688], [-53.749103, -24.73695], [-53.749028, -24.737014], [-53.748968, -24.737091], [-53.748929, -24.737212], [-53.74887, -24.737339], [-53.748844, -24.737415], [-53.748709, -24.737554], [-53.748692, -24.737566], [-53.748535, -24.737779], [-53.748247, -24.738028], [-53.748, -24.73841], [-53.747895, -24.738548], [-53.747816, -24.738615], [-53.747765, -24.738624], [-53.747698, -24.738763], [-53.747687, -24.738778], [-53.747442, -24.738991], [-53.74735, -24.739052], [-53.747298, -24.739086]]]}, "properties": {"nsvia_name": "JARDIM PANCERA"}},
{"type": "Feature", "geometry": {"type": "Polygon", "coordinates": [[[-53.745069, -24.740626], [-53.744823, -24.740731], [-53.744625, -24.740836], [-53.744303, -24.74098], [-53.744003, -24.74115], [-53.743783, -24.74121], [-53.743471, -24.741141], [-53.743274, -24.741277], [-53.743153, -24.741752], [-53.74301, -24.742183], [-53.742821, -24.742382], [-53.742543, -24.742602], [-53.741649, -24.743104], [-53.740849, -24.744077], [-53.74008, -24.744634], [-53.739739, -24.744798], [-53.739264, -24.744955], [-53.739396, -24.7451], [-53.739662, -24.745443], [-53.739953, -24.745793], [-53.740291, -24.746257], [-53.740437, -24.746546], [-53.740429, -24.746769], [-53.740512, -24.747159], [-53.740679, -24.74781], [-53.740832, -24.748418], [-53.740924, -24.748628], [-53.741068, -24.748809], [-53.741357, -24.749234], [-53.74174, -24.749746], [-53.741951, -24.750037], [-53.742122, -24.750246], [-53.742321, -24.75035], [-53.742703, -24.750454], [-53.743319, -24.750635], [-53.743943, -24.750807], [-53.744198, -24.750866], [-53.744469, -24.750877], [-53.744766, -24.750856], [-53.745602, -24.750736], [-53.746117, -24.750695], [-53.746122, -24.750695], [-53.745977, -24.74146], [-53.745976, -24.741439], [-53.74595, -24.741459], [-53.745947, -24.740299], [-53.745452, -24.740461], [-53.745069, -24.740626]]]}, "properties": {"nsvia_name": "JARDIM PARIZOTTO"}},
{"type": "Feature", "geometry": {"type": "Polygon", "coordinates": [[[-53.705836, -24.715338], [-53.705297, -24.71502], [-53.70472, -24.7146], [-53.703594, -24.713455], [-53.702229, -24.712131], [-53.701841, -24.711571], [-53.700862, -24.709913], [-53.698614, -24.710911], [-53.699507, -24.712596], [-53.700664, -24.714106], [-53.701647, -24.715118], [-53.702333, -24.715728], [-53.702794, -24.716031], [-53.702893, -24.722661], [-53.702937, -24.724687], [-53.701283, -24.726584], [-53.70004, -24.728107], [-53.699212, -24.729415], [-53.698472, -24.730721], [-53.698292, -24.731299], [-53.69829, -24.731461], [-53.698311, -24.731447], [-53.698642, -24.731351], [-53.69873, -24.731342], [-53.698817, -24.731505], [-53.698921, -24.731659], [-53.698985, -24.731878], [-53.69923, -24.732103], [-53.699271, -24.732128], [-53.69932, -24.732136], [-53.699397, -24.73208], [-53.699504, -24.731927], [-53.699514, -24.731882], [-53.69952, -24.731791], [-53.699491, -24.731611], [-53.699422, -24.731548], [-53.69948, -24.731426], [-53.699404, -24.73126], [-53.699417, -24.731171], [-53.699469, -24.731093], [-53.699555, -24.731052], [-53.699606, -24.731052], [-53.699699, -24.731085], [-53.699749, -24.731086], [-53.699842, -24.731055], [-53.700019, -24.730969], [-53.700068, -24.730963], [-53.700304, -24.730795], [-53.700551, -24.730794], [-53.70066, -24.730863], [-53.700649, -24.730881], [-53.700942, -24.730999], [-53.701203, -24.73036], [-53.701542, -24.729875], [-53.703106, -24.727868], [-53.70574, -24.724828], [-53.707975, -24.722336], [-53.709968, -24.720037], [-53.711414, -24.718126], [-53.70831, -24.716618], [-53.705836, -24.715338]]]}, "properties": {"nsvia_name": "JARDIM INDEPENDÊNCIA"}},
{"type": "Feature", "geometry": {"type": "Polygon", "coordinates": [[[-53.738194, -24.698408], [-53.738233, -24.698003], [-53.738335, -24.697762], [-53.73852, -24.69742], [-53.738274, -24.697151], [-53.736687, -24.695521], [-53.735995, -24.696083], [-53.735743, -24.696288], [-53.735452, -24.696525], [-53.735321, -24.696587], [-53.734987, -24.696805], [-53.732191, -24.698132], [-53.730783, -24.698825], [-53.728477, -24.70011], [-53.726173, -24.70147], [-53.723216, -24.703593], [-53.721459, -24.704861], [-53.725113, -24.704815], [-53.725737, -24.704776], [-53.725767, -24.706563], [-53.727217, -24.706553], [-53.727412, -24.720104], [-53.730378, -24.72009], [-53.738439, -24.719998], [-53.738194, -24.698408]]]}, "properties": {"nsvia_name": "JARDIM GISELA"}},
{"type": "Feature", "geometry": {"type": "Polygon", "coordinates": [[[-53.730512, -24.725834], [-53.730378, -24.72009], [-53.727412, -24.720104], [-53.727217, -24.706553], [-53.725767, -24.706563], [-53.725737, -24.704776], [-53.725113, -24.704815], [-53.721457, -24.704861], [-53.719693, -24.70616], [-53.715831, -24.709002], [-53.709071, -24.709073], [-53.709059, -24.708539], [-53.703903, -24.710776], [-53.70286, -24.709099], [-53.700862, -24.709913], [-53.701841, -24.711571], [-53.702229, -24.712131], [-53.703594, -24.713455], [-53.70472, -24.7146], [-53.705297, -24.71502], [-53.705836, -24.715338], [-53.70831, -24.716618], [-53.711414, -24.718126], [-53.712333, -24.718564], [-53.713559, -24.719148], [-53.715024, -24.719816], [-53.721272, -24.723429], [-53.724368, -24.725225], [-53.730518, -24.725966], [-53.730512, -24.725834]]]}, "properties": {"nsvia_name": "JARDIM PORTO ALEGRE"}},
{"type": "Feature", "geometry": {"type": "Polygon", "coordinates": [[[-53.752022, -24.727053], [-53.759621, -24.726962], [-53.759775, -24.726958], [-53.759775, -24.726942], [-53.75978, -24.726942], [-53.759778, -24.726853], [-53.761437, -24.719812], [-53.751808, -24.719886], [-53.7519, -24.727052], [-53.752022, -24.727053]]]}, "properties": {"nsvia_name": "JARDIM SANTA MARIA"}},
{"type": "Feature", "geometry": {"type": "Polygon", "coordinates": [[[-53.747023, -24.722745], [-53.746566, -24.724911], [-53.746271, -24.726279], [-53.746039, -24.727034], [-53.745765, -24.72743], [-53.744432, -24.727423], [-53.744424, -24.729889], [-53.751964, -24.729801], [-53.752003, -24.734418], [-53.754898, -24.734775], [-53.756969, -24.735064], [-53.759964, -24.734806], [-53.759946, -24.734079], [-53.759775, -24.726958], [-53.759621, -24.726962], [-53.752022, -24.727053], [-53.7519, -24.727052], [-53.751808, -24.719886], [-53.747639, -24.719917], [-53.747403, -24.720903], [-53.747023, -24.722745]]]}, "properties": {"nsvia_name": "JARDIM LA SALLE"}},
{"type": "Feature", "geometry": {"type": "Polygon", "coordinates": [[[-53.763629, -24.74406], [-53.764926, -24.74404], [-53.764806, -24.734415], [-53.764803, -24.734305], [-53.76505, -24.734209], [-53.765364, -24.734042], [-53.76616, -24.733533], [-53.767778, -24.732519], [-53.770037, -24.731149], [-53.771765, -24.730114], [-53.771755, -24.729815], [-53.76295, -24.729814], [-53.762941, -24.729714], [-53.762897, -24.726973], [-53.762526, -24.726975], [-53.759782, -24.727051], [-53.75978, -24.726942], [-53.759775, -24.726942], [-53.759946, -24.734079], [-53.760085, -24.739728], [-53.760126, -24.742225], [-53.760161, -24.743152], [-53.760249, -24.743693], [-53.760488, -24.744212], [-53.760866, -24.744747], [-53.761555, -24.745436], [-53.761771, -24.745691], [-53.762469, -24.746424], [-53.762897, -24.746835], [-53.763227, -24.747045], [-53.763745, -24.747247], [-53.763692, -24.747159], [-53.763629, -24.74406]]]}, "properties": {"nsvia_name": "VILA BECKER"}},
{"type": "Feature", "geometry": {"type": "Polygon", "coordinates": [[[-53.706985, -24.758567], [-53.706755, -24.758687], [-53.701354, -24.76264], [-53.701875, -24.762744], [-53.702709, -24.762876], [-53.703409, -24.762935], [-53.70386, -24.76295], [-53.704559, -24.762933], [-53.705415, -24.762851], [-53.705895, -24.762781], [-53.706431, -24.762662], [-53.706866, -24.762546], [-53.707299, -24.762418], [-53.707678, -24.762269], [-53.707941, -24.762159], [-53.708271, -24.762022], [-53.708726, -24.761818], [-53.709047, -24.761664], [-53.709318, -24.761543], [-53.709517, -24.761446], [-53.711773, -24.760388], [-53.711773, -24.760386], [-53.711783, -24.760384], [-53.719102, -24.756984], [-53.720791, -24.756271], [-53.721937, -24.755915], [-53.722972, -24.7557], [-53.724354, -24.755576], [-53.725283, -24.755551], [-53.728112, -24.746847], [-53.728279, -24.746652], [-53.728277, -24.744542], [-53.72822, -24.744494], [-53.728174, -24.742217], [-53.734491, -24.742158], [-53.734491, -24.742162], [-53.734493, -24.742161], [-53.734415, -24.74193], [-53.734415, -24.741929], [-53.734411, -24.741665], [-53.734428, -24.741607], [-53.734471, -24.741548], [-53.734424, -24.741545], [-53.734441, -24.74143], [-53.734506, -24.741434], [-53.73453, -24.741311], [-53.734518, -24.741208], [-53.73441, -24.74108], [-53.734167, -24.74087], [-53.733887, -24.740653], [-53.733743, -24.74056], [-53.733693, -24.740498], [-53.733579, -24.74046], [-53.733518, -24.74046], [-53.733239, -24.7403], [-53.733072, -24.740175], [-53.732944, -24.740119], [-53.732911, -24.740088], [-53.732563, -24.739894], [-53.732341, -24.739715], [-53.732156, -24.739523], [-53.731887, -24.73928], [-53.731848, -24.73921], [-53.731808, -24.739182], [-53.731672, -24.739133], [-53.731671, -24.739135], [-53.731534, -24.73909], [-53.731531, -24.73909], [-53.731533, -24.739086], [-53.731493, -24.739063], [-53.731406, -24.739051], [-53.730964, -24.739053], [-53.730819, -24.739075], [-53.730606, -24.73916], [-53.730138, -24.739305], [-53.729992, -24.739311], [-53.729817, -24.739256], [-53.729699, -24.739162], [-53.729668, -24.739044], [-53.729608, -24.738962], [-53.729583, -24.738893], [-53.729575, -24.738563], [-53.729508, -24.738276], [-53.729506, -24.73816], [-53.729503, -24.738159], [-53.729474, -24.738017], [-53.729474, -24.738016], [-53.729464, -24.73797], [-53.729484, -24.737893], [-53.729602, -24.737729], [-53.729506, -24.737729], [-53.729559, -24.737604], [-53.729896, -24.73741], [-53.730113, -24.737367], [-53.730147, -24.737306], [-53.72337, -24.73729], [-53.723362, -24.737725], [-53.716175, -24.737718], [-53.714447, -24.738597], [-53.714468, -24.738721], [-53.714373, -24.73877], [-53.714388, -24.739148], [-53.714419, -24.739275], [-53.714425, -24.739559], [-53.714368, -24.739629], [-53.71433, -24.739732], [-53.714302, -24.739768], [-53.714231, -24.739867], [-53.714186, -24.739985], [-53.714061, -24.74012], [-53.714037, -24.740163], [-53.714009, -24.740293], [-53.713959, -24.740447], [-53.713959, -24.740513], [-53.713982, -24.740668], [-53.713975, -24.740767], [-53.713904, -24.741015], [-53.713916, -24.741062], [-53.714087, -24.741212], [-53.714186, -24.741415], [-53.71419, -24.74148], [-53.714142, -24.741763], [-53.714055, -24.74193], [-53.71404, -24.742014], [-53.713987, -24.742108], [-53.714012, -24.742174], [-53.714014, -24.74224], [-53.713978, -24.742459], [-53.71393, -24.742793], [-53.713911, -24.742986], [-53.71394, -24.74318], [-53.71394, -24.743295], [-53.713892, -24.743428], [-53.713935, -24.743491], [-53.713931, -24.743546], [-53.713953, -24.743603], [-53.713932, -24.743731], [-53.713946, -24.743797], [-53.713903, -24.74395], [-53.713884, -24.74414], [-53.713867, -24.744208], [-53.713834, -24.744255], [-53.713595, -24.744337], [-53.713546, -24.744388], [-53.713548, -24.744422], [-53.713614, -24.744488], [-53.713662, -24.744625], [-53.713679, -24.744679], [-53.713637, -24.744792], [-53.713639, -24.744928], [-53.713518, -24.745344], [-53.713458, -24.745462], [-53.713421, -24.745588], [-53.713362, -24.745657], [-53.713368, -24.745715], [-53.713345, -24.745769], [-53.713206, -24.745767], [-53.713158, -24.745833], [-53.71312, -24.74594], [-53.713137, -24.746058], [-53.713137, -24.746059], [-53.713103, -24.746234], [-53.713036, -24.746437], [-53.713038, -24.74657], [-53.713038, -24.746653], [-53.713037, -24.746659], [-53.712999, -24.746763], [-53.713033, -24.746763], [-53.71303, -24.746815], [-53.713029, -24.746931], [-53.713112, -24.747149], [-53.713087, -24.747521], [-53.712837, -24.747525], [-53.712871, -24.747571], [-53.712855, -24.747666], [-53.712888, -24.747908], [-53.71287, -24.747974], [-53.712844, -24.747963], [-53.712828, -24.747919], [-53.712814, -24.747939], [-53.712866, -24.748104], [-53.712862, -24.748163], [-53.712823, -24.748212], [-53.712707, -24.748299], [-53.712633, -24.748418], [-53.712538, -24.748447], [-53.712491, -24.748489], [-53.712468, -24.748553], [-53.71241, -24.748627], [-53.712378, -24.7488], [-53.712284, -24.748936], [-53.712325, -24.749077], [-53.712298, -24.749143], [-53.712131, -24.749328], [-53.71213, -24.749401], [-53.712152, -24.749535], [-53.712089, -24.749593], [-53.712088, -24.749643], [-53.71206, -24.74993], [-53.712012, -24.750125], [-53.712048, -24.750232], [-53.712037, -24.75028], [-53.711954, -24.750409], [-53.71198, -24.750479], [-53.711938, -24.750523], [-53.711958, -24.750613], [-53.711885, -24.750738], [-53.711878, -24.750868], [-53.711921, -24.750953], [-53.711904, -24.751061], [-53.711823, -24.751226], [-53.711796, -24.75134], [-53.711653, -24.75174], [-53.711596, -24.751887], [-53.711488, -24.752043], [-53.711415, -24.752223], [-53.711404, -24.752448], [-53.711348, -24.752619], [-53.711336, -24.75276], [-53.711353, -24.752872], [-53.711311, -24.753133], [-53.711259, -24.7532], [-53.711139, -24.75329], [-53.711128, -24.75332], [-53.711188, -24.753396], [-53.711198, -24.753441], [-53.711075, -24.753657], [-53.711003, -24.753688], [-53.710977, -24.753723], [-53.710845, -24.754013], [-53.710815, -24.754034], [-53.710774, -24.754035], [-53.710748, -24.754098], [-53.710741, -24.754214], [-53.710716, -24.754254], [-53.710637, -24.754331], [-53.710418, -24.754493], [-53.71042, -24.754518], [-53.710412, -24.754483], [-53.710308, -24.754675], [-53.710074, -24.754997], [-53.710034, -24.755115], [-53.710022, -24.755299], [-53.709787, -24.755566], [-53.709509, -24.755833], [-53.709486, -24.755857], [-53.709461, -24.755891], [-53.709399, -24.755978], [-53.709387, -24.756271], [-53.709344, -24.756382], [-53.709312, -24.756426], [-53.70926, -24.756457], [-53.709217, -24.756476], [-53.709084, -24.756493], [-53.708961, -24.756512], [-53.708876, -24.75654], [-53.708669, -24.756631], [-53.708525, -24.756695], [-53.708447, -24.756798], [-53.708428, -24.75687], [-53.708407, -24.756976], [-53.708409, -24.757007], [-53.708414, -24.757133], [-53.708413, -24.757137], [-53.708404, -24.757168], [-53.708371, -24.757223], [-53.708331, -24.757279], [-53.708267, -24.757338], [-53.70809, -24.757392], [-53.707961, -24.757464], [-53.707735, -24.757726], [-53.70764, -24.758004], [-53.707589, -24.75805], [-53.707515, -24.758077], [-53.707495, -24.758126], [-53.707431, -24.758204], [-53.707327, -24.758284], [-53.706985, -24.758567]]]}, "properties": {"nsvia_name": "VILA PIONEIRO"}}]}
