{"type": "FeatureCollection", "features": [
{"type": "Feature", "geometry": {"type": "Polygon", "coordinates": [[[-47.283313, -22.493102], [-47.283032, -22.493148], [-47.282917, -22.493203], [-47.282643, -22.49307], [-47.282481, -22.493148], [-47.282492, -22.493198], [-47.282447, -22.493231], [-47.282375, -22.49321], [-47.282237, -22.493328], [-47.282001, -22.493376], [-47.281823, -22.493275], [-47.281465, -22.493363], [-47.281279, -22.493466], [-47.281158, -22.49345], [-47.281112, -22.493511], [-47.280954, -22.493577], [-47.280939, -22.4937], [-47.280823, -22.493815], [-47.280719, -22.493961], [-47.280614, -22.493887], [-47.280361, -22.493861], [-47.280259, -22.494025], [-47.280106, -22.494156], [-47.27985, -22.494124], [-47.279697, -22.494248], [-47.279224, -22.494065], [-47.278813, -22.494092], [-47.278499, -22.493869], [-47.278216, -22.493966], [-47.277994, -22.493735], [-47.277773, -22.493732], [-47.277749, -22.493588], [-47.27602, -22.494526], [-47.275546, -22.49381], [-47.275386, -22.493814], [-47.275328, -22.493866], [-47.274899, -22.494459], [-47.274394, -22.495213], [-47.273908, -22.495826], [-47.280013, -22.499194], [-47.289326, -22.504369], [-47.289405, -22.50422], [-47.290129, -22.502948], [-47.290191, -22.502713], [-47.29021, -22.502404], [-47.29022, -22.502237], [-47.290211, -22.50151], [-47.290204, -22.500785], [-47.290176, -22.500067], [-47.290201, -22.499197], [-47.289187, -22.498481], [-47.287658, -22.497402], [-47.288015, -22.495102], [-47.288268, -22.493335], [-47.288077, -22.493154], [-47.287998, -22.493078], [-47.287766, -22.493021], [-47.287742, -22.492959], [-47.28758, -22.493084], [-47.287582, -22.493213], [-47.287486, -22.493247], [-47.287417, -22.49322], [-47.287141, -22.493278], [-47.287035, -22.493221], [-47.286774, -22.493268], [-47.28659, -22.493167], [-47.286499, -22.493192], [-47.286353, -22.493117], [-47.286197, -22.492972], [-47.286047, -22.493022], [-47.285894, -22.492955], [-47.285827, -22.492993], [-47.2857, -22.492943], [-47.285604, -22.492983], [-47.2855, -22.492897], [-47.285168, -22.492768], [-47.28488, -22.492844], [-47.284751, -22.492823], [-47.284634, -22.493006], [-47.28446, -22.492977], [-47.284314, -22.492842], [-47.284198, -22.492835], [-47.284134, -22.492622], [-47.284007, -22.492466], [-47.283913, -22.49253], [-47.283604, -22.492925], [-47.283313, -22.493102]]]}, "properties": {"address": "RODOVI JOAO TOSELLO /ENGENHEIRO-SP.147, 0"}},
{"type": "Feature", "geometry": {"type": "Polygon", "coordinates": [[[-47.255011, -22.474223], [-47.258213, -22.472735], [-47.257917, -22.472188], [-47.254801, -22.473666], [-47.255011, -22.474223]]]}, "properties": {"address": "ESTRAD MUNICIPAL LIM.365, 0"}},
{"type": "Feature", "geometry": {"type": "Polygon", "coordinates": [[[-47.261769, -22.473681], [-47.258521, -22.47314], [-47.259263, -22.474543], [-47.262339, -22.474173], [-47.2634, -22.474037], [-47.267963, -22.471997], [-47.267803, -22.471578], [-47.265663, -22.471969], [-47.261769, -22.473681]]]}, "properties": {"address": "ESTRAD MUNICIPAL LIM.365, 0"}},
{"type": "Feature", "geometry": {"type": "Polygon", "coordinates": [[[-47.341986, -22.498228], [-47.343838, -22.495669], [-47.343005, -22.494704], [-47.340897, -22.497629], [-47.340789, -22.497765], [-47.340953, -22.497839], [-47.341986, -22.498228]]]}, "properties": {"address": "ESTRAD MUNICIPAL LIM.349, 0"}}]}
