{"type":"FeatureCollection","features":[{"type":"Feature","geometry":{"type":"Polygon","coordinates":[[[-54.04434,-24.66721],[-54.04423,-24.66704],[-54.04408,-24.66689],[-54.04391,-24.66677],[-54.04371,-24.6667],[-54.04343,-24.66662],[-54.04341,-24.66661],[-54.0431,-24.66653],[-54.04294,-24.66644],[-54.04289,-24.66635],[-54.0428,-24.66614],[-54.04272,-24.66589],[-54.04266,-24.66574],[-54.04258,-24.66561],[-54.04244,-24.66541],[-54.04231,-24.66527],[-54.04217,-24.66515],[-54.042,-24.66506],[-54.04182,-24.66501],[-54.04163,-24.66499],[-54.04128,-24.66499],[-54.04107,-24.66501],[-54.04088,-24.66507],[-54.04046,-24.66525],[-54.04022,-24.6654],[-54.03999,-24.66559],[-54.03952,-24.66588],[-54.03937,-24.66589],[-54.0392,-24.66589],[-54.03916,-24.66573],[-54.03909,-24.66553],[-54.03893,-24.66518],[-54.03888,-24.66489],[-54.03883,-24.66473],[-54.03876,-24.66457],[-54.03866,-24.66443],[-54.03846,-24.6642],[-54.03835,-24.66408],[-54.03822,-24.66399],[-54.03802,-24.66387],[-54.03787,-24.66379],[-54.03771,-24.66375],[-54.03752,-24.6637],[-54.03745,-24.66368],[-54.03742,-24.66358],[-54.03733,-24.66338],[-54.0372,-24.6632],[-54.03703,-24.66305],[-54.03686,-24.66294],[-54.03667,-24.66284],[-54.03648,-24.66278],[-54.03627,-24.66276],[-54.03606,-24.66279],[-54.0359,-24.66283],[-54.0357,-24.6629],[-54.03552,-24.663],[-54.03537,-24.66315],[-54.03525,-24.66332],[-54.03513,-24.66353],[-54.03493,-24.66373],[-54.03482,-24.66385],[-54.0343,-24.66456],[-54.03408,-24.66486],[-54.03405,-24.66483],[-54.03392,-24.66475],[-54.03383,-24.66471],[-54.0339,-24.66459],[-54.03399,-24.66439],[-54.03404,-24.66418],[-54.03404,-24.66397],[-54.03397,-24.66334],[-54.03395,-24.66323],[-54.03387,-24.6629],[-54.03387,-24.66287],[-54.03397,-24.66278],[-54.03435,-24.66248],[-54.03443,-24.66242],[-54.03462,-24.66224],[-54.03476,-24.66207],[-54.03493,-24.66182],[-54.03499,-24.66172],[-54.03525,-24.66122],[-54.03529,-24.66114],[-54.03545,-24.66076],[-54.03551,-24.66058],[-54.03553,-24.6604],[-54.03553,-24.66018],[-54.03552,-24.65997],[-54.03546,-24.65978],[-54.03536,-24.65959],[-54.03528,-24.65948],[-54.03517,-24.65934],[-54.03507,-24.65924],[-54.03493,-24.65912],[-54.03477,-24.65903],[-54.0346,-24.65896],[-54.03442,-24.65893],[-54.03405,-24.65891],[-54.03384,-24.65892],[-54.03371,-24.65894],[-54.03355,-24.65891],[-54.03345,-24.65888],[-54.03358,-24.65862],[-54.03366,-24.65843],[-54.03378,-24.65801],[-54.03381,-24.65783],[-54.03381,-24.65764],[-54.03378,-24.65737],[-54.03373,-24.65713],[-54.03362,-24.65691],[-54.03352,-24.65675],[-54.03342,-24.65653],[-54.03339,-24.65641],[-54.03346,-24.65536],[-54.03346,-24.65517],[-54.03341,-24.65498],[-54.03338,-24.65486],[-54.0333,-24.65469],[-54.0332,-24.65453],[-54.03315,-24.65447],[-54.03299,-24.65432],[-54.0328,-24.65421],[-54.0326,-24.65414],[-54.03247,-24.65411],[-54.03227,-24.65408],[-54.03207,-24.6541],[-54.03158,-24.65419],[-54.03117,-24.65425],[-54.03081,-24.65422],[-54.0303,-24.65409],[-54.02984,-24.65393],[-54.02962,-24.65388],[-54.02939,-24.65388],[-54.02908,-24.65392],[-54.02889,-24.65397],[-54.02871,-24.65404],[-54.02853,-24.65415],[-54.02838,-24.65425],[-54.02825,-24.65438],[-54.02815,-24.65452],[-54.02807,-24.65469],[-54.02797,-24.65498],[-54.02794,-24.65513],[-54.02745,-24.65509],[-54.02719,-24.65504],[-54.02692,-24.65492],[-54.0269,-24.65491],[-54.02662,-24.65479],[-54.02643,-24.65473],[-54.02624,-24.65472],[-54.02598,-24.65471],[-54.02571,-24.65475],[-54.02543,-24.65482],[-54.02502,-24.65494],[-54.02491,-24.65497],[-54.02446,-24.65516],[-54.02424,-24.65528],[-54.024,-24.65546],[-54.02384,-24.6556],[-54.02372,-24.65577],[-54.02364,-24.65597],[-54.0236,-24.65617],[-54.02358,-24.65642],[-54.02358,-24.65647],[-54.02357,-24.65646],[-54.02338,-24.6564],[-54.02319,-24.65638],[-54.023,-24.65639],[-54.02288,-24.65641],[-54.0227,-24.65646],[-54.02253,-24.65654],[-54.02237,-24.65666],[-54.02228,-24.65674],[-54.02224,-24.65666],[-54.02214,-24.65653],[-54.02202,-24.65642],[-54.02173,-24.65619],[-54.02157,-24.65609],[-54.0214,-24.65602],[-54.02121,-24.65598],[-54.02106,-24.65596],[-54.02086,-24.65596],[-54.02048,-24.656],[-54.0201,-24.65601],[-54.02008,-24.65601],[-54.01965,-24.65603],[-54.01947,-24.65605],[-54.0193,-24.65611],[-54.01914,-24.6562],[-54.019,-24.65631],[-54.01886,-24.65645],[-54.01873,-24.6566],[-54.01864,-24.65677],[-54.01856,-24.65695],[-54.01851,-24.65712],[-54.01845,-24.65734],[-54.01844,-24.6574],[-54.01843,-24.65745],[-54.01842,-24.65747],[-54.01836,-24.65757],[-54.01835,-24.65756],[-54.01801,-24.65744],[-54.01785,-24.65741],[-54.01769,-24.65739],[-54.01727,-24.65739],[-54.01699,-24.65742],[-54.01659,-24.65754],[-54.0164,-24.65761],[-54.01609,-24.65777],[-54.01592,-24.65788],[-54.01572,-24.65803],[-54.01559,-24.65816],[-54.01548,-24.65832],[-54.01535,-24.65855],[-54.01531,-24.65861],[-54.01521,-24.65883],[-54.01512,-24.65896],[-54.01499,-24.65908],[-54.01481,-24.65928],[-54.01467,-24.6595],[-54.01463,-24.65957],[-54.01451,-24.65968],[-54.0144,-24.6598],[-54.01428,-24.65998],[-54.01419,-24.66017],[-54.01415,-24.66038],[-54.01415,-24.66059],[-54.01421,-24.66104],[-54.01419,-24.66127],[-54.01413,-24.66159],[-54.01413,-24.66164],[-54.01409,-24.66194],[-54.01396,-24.66238],[-54.01392,-24.66264],[-54.01388,-24.66374],[-54.01388,-24.66381],[-54.01389,-24.66409],[-54.01383,-24.66434],[-54.01345,-24.66493],[-54.01333,-24.66512],[-54.0132,-24.66529],[-54.01314,-24.66536],[-54.01306,-24.66539],[-54.01269,-24.66545],[-54.01248,-24.66545],[-54.01242,-24.66544],[-54.01243,-24.6652],[-54.01247,-24.66509],[-54.01252,-24.66489],[-54.01254,-24.66469],[-54.01251,-24.66448],[-54.01244,-24.66429],[-54.01233,-24.66411],[-54.01218,-24.66392],[-54.01205,-24.66378],[-54.01189,-24.66367],[-54.01172,-24.66358],[-54.01153,-24.66354],[-54.01134,-24.66353],[-54.01105,-24.66354],[-54.01099,-24.66355],[-54.01092,-24.66356],[-54.01066,-24.66342],[-54.01044,-24.66334],[-54.01008,-24.66326],[-54.0099,-24.66323],[-54.00954,-24.66321],[-54.00934,-24.66322],[-54.00915,-24.66327],[-54.00897,-24.66335],[-54.00881,-24.66347],[-54.00868,-24.66362],[-54.00858,-24.66379],[-54.00851,-24.66398],[-54.00848,-24.66414],[-54.00835,-24.66426],[-54.00829,-24.66432],[-54.00782,-24.66487],[-54.00781,-24.66488],[-54.00734,-24.66545],[-54.00729,-24.66551],[-54.00718,-24.66566],[-54.00713,-24.66571],[-54.00711,-24.66567],[-54.00708,-24.6656],[-54.0069,-24.6653],[-54.00677,-24.66509],[-54.00661,-24.66488],[-54.00655,-24.66482],[-54.00655,-24.66481],[-54.0068,-24.66469],[-54.00701,-24.66455],[-54.00717,-24.66438],[-54.00747,-24.66397],[-54.0076,-24.66374],[-54.00781,-24.66321],[-54.00788,-24.66307],[-54.008,-24.66301],[-54.0082,-24.66287],[-54.00841,-24.66268],[-54.00856,-24.6625],[-54.00864,-24.66235],[-54.00877,-24.66236],[-54.00881,-24.66237],[-54.00881,-24.66237],[-54.00892,-24.66237],[-54.00974,-24.66233],[-54.00995,-24.6623],[-54.01014,-24.66222],[-54.01032,-24.66211],[-54.01073,-24.66177],[-54.01086,-24.66164],[-54.01097,-24.66149],[-54.01105,-24.66132],[-54.01109,-24.66113],[-54.0111,-24.66095],[-54.01107,-24.66076],[-54.01098,-24.66041],[-54.01091,-24.6602],[-54.01063,-24.65964],[-54.01064,-24.65964],[-54.01076,-24.65951],[-54.01108,-24.6591],[-54.01119,-24.65891],[-54.01127,-24.6587],[-54.01129,-24.65848],[-54.01129,-24.65809],[-54.01128,-24.65792],[-54.01123,-24.65775],[-54.01116,-24.65759],[-54.01106,-24.65745],[-54.01078,-24.65712],[-54.0106,-24.65695],[-54.01039,-24.65684],[-54.00992,-24.65664],[-54.00985,-24.65661],[-54.00934,-24.65645],[-54.00913,-24.65641],[-54.00892,-24.65641],[-54.00841,-24.65647],[-54.00824,-24.6565],[-54.00782,-24.65663],[-54.00757,-24.65674],[-54.00731,-24.6569],[-54.00723,-24.65695],[-54.00715,-24.65702],[-54.00704,-24.65696],[-54.00687,-24.6569],[-54.00669,-24.65688],[-54.00626,-24.65686],[-54.00609,-24.65687],[-54.00591,-24.65691],[-54.00575,-24.65697],[-54.00554,-24.65708],[-54.00548,-24.65711],[-54.0053,-24.65724],[-54.00507,-24.65743],[-54.00497,-24.65753],[-54.00488,-24.65752],[-54.00465,-24.65755],[-54.0036,-24.65778],[-54.00294,-24.65784],[-54.00243,-24.65788],[-54.00222,-24.65791],[-54.00203,-24.65799],[-54.00171,-24.65816],[-54.00158,-24.65825],[-54.00146,-24.65836],[-54.00106,-24.65879],[-54.00103,-24.65881],[-54.00103,-24.65881],[-54.00086,-24.65866],[-54.00066,-24.65855],[-54.00005,-24.6583],[-53.99989,-24.65825],[-53.99894,-24.65803],[-53.99874,-24.658],[-53.99722,-24.65797],[-53.99705,-24.65798],[-53.99689,-24.65802],[-53.99655,-24.65813],[-53.99638,-24.65821],[-53.99623,-24.65832],[-53.99589,-24.6586],[-53.99586,-24.65862],[-53.99555,-24.65891],[-53.99544,-24.65904],[-53.99533,-24.65898],[-53.99516,-24.65891],[-53.99499,-24.65888],[-53.9948,-24.65887],[-53.99462,-24.6589],[-53.99445,-24.65896],[-53.99424,-24.65906],[-53.99403,-24.65918],[-53.99394,-24.65925],[-53.99346,-24.65933],[-53.9924,-24.65938],[-53.99192,-24.65931],[-53.99151,-24.6592],[-53.99137,-24.65917],[-53.9909,-24.65911],[-53.99069,-24.65911],[-53.99049,-24.65915],[-53.99021,-24.65923],[-53.99001,-24.65931],[-53.98984,-24.65943],[-53.9897,-24.65959],[-53.98959,-24.65976],[-53.98953,-24.6599],[-53.98946,-24.66008],[-53.98943,-24.66027],[-53.98944,-24.66046],[-53.9895,-24.66085],[-53.98951,-24.66091],[-53.98962,-24.66146],[-53.98966,-24.66188],[-53.98961,-24.66239],[-53.98951,-24.66241],[-53.98934,-24.66247],[-53.98918,-24.66256],[-53.98899,-24.6627],[-53.98887,-24.66279],[-53.98868,-24.66298],[-53.98857,-24.66311],[-53.98824,-24.66303],[-53.98803,-24.66301],[-53.98733,-24.663],[-53.98731,-24.663],[-53.98725,-24.663],[-53.98715,-24.66272],[-53.98706,-24.66254],[-53.98691,-24.6623],[-53.98679,-24.66214],[-53.98663,-24.66201],[-53.98646,-24.66191],[-53.98627,-24.66185],[-53.98607,-24.66183],[-53.98586,-24.66183],[-53.98564,-24.66186],[-53.98543,-24.66193],[-53.98514,-24.66207],[-53.98511,-24.66187],[-53.98511,-24.66183],[-53.98496,-24.66105],[-53.98492,-24.66091],[-53.98468,-24.66023],[-53.98461,-24.66007],[-53.98451,-24.65993],[-53.98438,-24.6598],[-53.98424,-24.6597],[-53.98394,-24.65953],[-53.98378,-24.65945],[-53.98361,-24.6594],[-53.98344,-24.65939],[-53.98282,-24.65939],[-53.98261,-24.65941],[-53.98241,-24.65948],[-53.98208,-24.65963],[-53.98202,-24.65966],[-53.98196,-24.65966],[-53.98155,-24.65966],[-53.98142,-24.65967],[-53.98074,-24.65976],[-53.98057,-24.6598],[-53.98023,-24.65991],[-53.98017,-24.6596],[-53.98005,-24.65905],[-53.98,-24.65889],[-53.97993,-24.65874],[-53.97983,-24.65861],[-53.97967,-24.65842],[-53.97955,-24.6583],[-53.97954,-24.65829],[-53.97954,-24.65821],[-53.9795,-24.65802],[-53.97942,-24.65785],[-53.97931,-24.65769],[-53.97918,-24.65756],[-53.97865,-24.65713],[-53.97808,-24.65654],[-53.97796,-24.65643],[-53.97671,-24.65551],[-53.97654,-24.6554],[-53.97647,-24.65537],[-53.9764,-24.65526],[-53.97632,-24.655],[-53.97628,-24.65489],[-53.97573,-24.65365],[-53.97566,-24.65352],[-53.97524,-24.65284],[-53.97519,-24.65277],[-53.97455,-24.65191],[-53.97443,-24.65178],[-53.9743,-24.65168],[-53.97393,-24.65143],[-53.97377,-24.65135],[-53.9736,-24.65129],[-53.97342,-24.65127],[-53.9729,-24.65124],[-53.97223,-24.65114],[-53.97176,-24.65101],[-53.97145,-24.65086],[-53.97126,-24.6508],[-53.97105,-24.65077],[-53.97085,-24.65079],[-53.97065,-24.65084],[-53.97047,-24.65094],[-53.97026,-24.65108],[-53.97015,-24.65114],[-53.96999,-24.65115],[-53.96976,-24.65107],[-53.96882,-24.6506],[-53.96801,-24.65017],[-53.96784,-24.6501],[-53.96766,-24.65006],[-53.96748,-24.65005],[-53.96685,-24.65009],[-53.96669,-24.65011],[-53.96654,-24.65016],[-53.96608,-24.65035],[-53.96539,-24.6504],[-53.9649,-24.65038],[-53.96436,-24.6503],[-53.96429,-24.6503],[-53.96354,-24.65024],[-53.96278,-24.65006],[-53.9619,-24.64966],[-53.96149,-24.64941],[-53.9613,-24.64926],[-53.96113,-24.64903],[-53.96088,-24.6484],[-53.9608,-24.64826],[-53.96079,-24.64823],[-53.96078,-24.64818],[-53.96078,-24.64817],[-53.96084,-24.64798],[-53.96086,-24.64779],[-53.96085,-24.6476],[-53.9608,-24.64742],[-53.96072,-24.64725],[-53.96045,-24.64681],[-53.96024,-24.64647],[-53.96009,-24.64628],[-53.9598,-24.64599],[-53.95976,-24.64587],[-53.95968,-24.64567],[-53.95957,-24.6455],[-53.95921,-24.64509],[-53.95918,-24.64501],[-53.95919,-24.64501],[-53.95934,-24.64485],[-53.95946,-24.64467],[-53.95953,-24.64447],[-53.95969,-24.64383],[-53.95972,-24.64366],[-53.95971,-24.64348],[-53.9597,-24.6434],[-53.9598,-24.64326],[-53.9598,-24.64325],[-53.96038,-24.64238],[-53.96055,-24.64216],[-53.96064,-24.642],[-53.96071,-24.64182],[-53.96074,-24.64164],[-53.96079,-24.64097],[-53.96079,-24.64078],[-53.96075,-24.6406],[-53.96051,-24.63982],[-53.96044,-24.63965],[-53.96014,-24.63906],[-53.96012,-24.63893],[-53.9601,-24.63882],[-53.96023,-24.63858],[-53.96042,-24.63806],[-53.96046,-24.63789],[-53.96047,-24.63772],[-53.96046,-24.63755],[-53.96039,-24.63714],[-53.9604,-24.63682],[-53.96053,-24.63591],[-53.96054,-24.63584],[-53.9606,-24.63511],[-53.9606,-24.63496],[-53.96056,-24.63448],[-53.96055,-24.63437],[-53.96048,-24.63398],[-53.96048,-24.63386],[-53.96049,-24.63385],[-53.96063,-24.63374],[-53.96075,-24.6336],[-53.96084,-24.63345],[-53.96099,-24.63313],[-53.96105,-24.63297],[-53.96108,-24.63281],[-53.96108,-24.63264],[-53.96105,-24.63216],[-53.96109,-24.63156],[-53.9611,-24.6315],[-53.9611,-24.63121],[-53.96124,-24.63099],[-53.96124,-24.63099],[-53.9615,-24.63056],[-53.96166,-24.63031],[-53.96175,-24.63012],[-53.9618,-24.62991],[-53.9618,-24.6297],[-53.96176,-24.62949],[-53.96171,-24.62931],[-53.96159,-24.62905],[-53.96144,-24.62883],[-53.96125,-24.62861],[-53.96119,-24.62857],[-53.96107,-24.6283],[-53.96103,-24.62823],[-53.96063,-24.62751],[-53.96052,-24.62717],[-53.96045,-24.62701],[-53.96035,-24.62685],[-53.9601,-24.62654],[-53.96007,-24.62651],[-53.95942,-24.62577],[-53.95928,-24.62564],[-53.95904,-24.62546],[-53.95868,-24.62488],[-53.95852,-24.62469],[-53.95817,-24.62436],[-53.95816,-24.62435],[-53.95811,-24.6243],[-53.95813,-24.62421],[-53.95818,-24.62397],[-53.9582,-24.62359],[-53.9582,-24.6235],[-53.95818,-24.62303],[-53.95815,-24.62284],[-53.95808,-24.62265],[-53.95798,-24.62248],[-53.95785,-24.62233],[-53.95773,-24.62222],[-53.95765,-24.62206],[-53.95755,-24.62191],[-53.95731,-24.6216],[-53.95718,-24.62125],[-53.95708,-24.62105],[-53.95693,-24.62088],[-53.95622,-24.62019],[-53.95619,-24.62017],[-53.95581,-24.61982],[-53.95574,-24.61977],[-53.95541,-24.61952],[-53.95532,-24.61938],[-53.95517,-24.61884],[-53.95511,-24.61868],[-53.95483,-24.61811],[-53.95475,-24.61797],[-53.95464,-24.61785],[-53.95431,-24.61751],[-53.95418,-24.6174],[-53.95403,-24.61731],[-53.95387,-24.61725],[-53.95331,-24.61709],[-53.95329,-24.61709],[-53.9531,-24.61704],[-53.95288,-24.61671],[-53.95235,-24.6159],[-53.95216,-24.61569],[-53.95173,-24.61533],[-53.95155,-24.6151],[-53.95109,-24.61453],[-53.95104,-24.61447],[-53.95027,-24.61366],[-53.94963,-24.61281],[-53.94955,-24.61272],[-53.94523,-24.60824],[-53.94522,-24.60821],[-53.94517,-24.60801],[-53.94507,-24.60783],[-53.94494,-24.60767],[-53.94493,-24.60766],[-53.94491,-24.60763],[-53.94476,-24.60748],[-53.94471,-24.60745],[-53.94466,-24.60739],[-53.94451,-24.60729],[-53.94442,-24.60723],[-53.94434,-24.60718],[-53.94417,-24.60701],[-53.944,-24.60688],[-53.94381,-24.60678],[-53.9436,-24.60673],[-53.94339,-24.60672],[-53.94305,-24.60675],[-53.94293,-24.60672],[-53.94291,-24.6067],[-53.94274,-24.60629],[-53.94265,-24.60612],[-53.94253,-24.60597],[-53.94238,-24.60585],[-53.94203,-24.60561],[-53.94185,-24.60552],[-53.94167,-24.60546],[-53.9411,-24.60535],[-53.94085,-24.60527],[-53.94066,-24.60524],[-53.94048,-24.60523],[-53.94001,-24.60527],[-53.93962,-24.60528],[-53.93914,-24.60521],[-53.93796,-24.60497],[-53.93794,-24.60496],[-53.93713,-24.60481],[-53.93693,-24.60469],[-53.93687,-24.60456],[-53.93685,-24.60413],[-53.93682,-24.60396],[-53.93677,-24.6038],[-53.93668,-24.60364],[-53.93657,-24.60351],[-53.93636,-24.60328],[-53.9363,-24.603],[-53.9363,-24.603],[-53.93623,-24.60268],[-53.93621,-24.60258],[-53.93608,-24.60218],[-53.93597,-24.60195],[-53.93543,-24.60107],[-53.93539,-24.60101],[-53.93497,-24.60044],[-53.93492,-24.60018],[-53.93486,-24.60001],[-53.93478,-24.59985],[-53.93468,-24.59972],[-53.93455,-24.5996],[-53.934,-24.59918],[-53.93386,-24.59909],[-53.9337,-24.59903],[-53.93314,-24.59885],[-53.93301,-24.59881],[-53.93243,-24.59872],[-53.93198,-24.59842],[-53.93135,-24.59798],[-53.93119,-24.59782],[-53.93118,-24.59781],[-53.93054,-24.59715],[-53.93042,-24.59685],[-53.93027,-24.59636],[-53.9302,-24.59621],[-53.93012,-24.59607],[-53.93001,-24.59595],[-53.92978,-24.59572],[-53.9297,-24.59564],[-53.92947,-24.59541],[-53.92915,-24.59509],[-53.9291,-24.59502],[-53.92899,-24.59474],[-53.92901,-24.5946],[-53.929,-24.59434],[-53.92893,-24.59393],[-53.92889,-24.59343],[-53.92888,-24.59304],[-53.92886,-24.59288],[-53.92882,-24.59273],[-53.92861,-24.59216],[-53.92849,-24.59192],[-53.92806,-24.59129],[-53.928,-24.59122],[-53.92763,-24.59078],[-53.92728,-24.59006],[-53.92724,-24.58999],[-53.92703,-24.58964],[-53.92665,-24.58888],[-53.92665,-24.58888],[-53.92633,-24.58825],[-53.92612,-24.58759],[-53.92608,-24.58748],[-53.92592,-24.58711],[-53.92592,-24.58711],[-53.92602,-24.58694],[-53.92609,-24.58676],[-53.92616,-24.58652],[-53.92618,-24.5864],[-53.92625,-24.58598],[-53.92626,-24.5858],[-53.92624,-24.58563],[-53.92619,-24.58546],[-53.92598,-24.58495],[-53.92591,-24.58481],[-53.92582,-24.58468],[-53.92556,-24.58436],[-53.92543,-24.58423],[-53.92528,-24.58413],[-53.92511,-24.58405],[-53.92436,-24.5838],[-53.92389,-24.5836],[-53.92373,-24.58342],[-53.92366,-24.58334],[-53.92374,-24.58315],[-53.92381,-24.58293],[-53.92389,-24.5825],[-53.92391,-24.58234],[-53.9239,-24.58217],[-53.92383,-24.58172],[-53.92387,-24.58147],[-53.92389,-24.58132],[-53.9239,-24.58091],[-53.92388,-24.58067],[-53.9238,-24.58044],[-53.92351,-24.57985],[-53.92336,-24.57963],[-53.92294,-24.57916],[-53.92293,-24.57914],[-53.92259,-24.57879],[-53.92252,-24.57872],[-53.92214,-24.57838],[-53.92182,-24.57807],[-53.92164,-24.57788],[-53.92155,-24.57775],[-53.92143,-24.5776],[-53.92129,-24.57748],[-53.92097,-24.57726],[-53.92058,-24.57682],[-53.92039,-24.57666],[-53.91991,-24.57634],[-53.91975,-24.57626],[-53.91959,-24.5762],[-53.91941,-24.57618],[-53.91877,-24.57615],[-53.91852,-24.57611],[-53.91857,-24.57603],[-53.91866,-24.57586],[-53.91871,-24.57568],[-53.91872,-24.57549],[-53.91872,-24.57532],[-53.91915,-24.57476],[-53.9196,-24.57448],[-53.91965,-24.57446],[-53.91975,-24.57438],[-53.9206,-24.57369],[-53.92077,-24.57352],[-53.92089,-24.57332],[-53.92098,-24.57311],[-53.92105,-24.57292],[-53.92107,-24.57271],[-53.92105,-24.57251],[-53.921,-24.57221],[-53.92103,-24.57186],[-53.92103,-24.57186],[-53.92107,-24.5715],[-53.92107,-24.5713],[-53.92104,-24.5711],[-53.92096,-24.57092],[-53.92068,-24.57039],[-53.92058,-24.57025],[-53.92063,-24.57023],[-53.92135,-24.56989],[-53.9215,-24.5698],[-53.92164,-24.56969],[-53.92186,-24.56947],[-53.92197,-24.56934],[-53.92205,-24.5692],[-53.92211,-24.56904],[-53.92222,-24.56868],[-53.92226,-24.5685],[-53.92226,-24.56842],[-53.92238,-24.56844],[-53.92259,-24.56843],[-53.92279,-24.56837],[-53.92296,-24.5683],[-53.92313,-24.56822],[-53.92328,-24.56811],[-53.9234,-24.56797],[-53.9235,-24.56782],[-53.92357,-24.56765],[-53.9236,-24.56746],[-53.92363,-24.56716],[-53.92363,-24.56696],[-53.92359,-24.56677],[-53.92351,-24.56658],[-53.92339,-24.56642],[-53.92325,-24.56628],[-53.92301,-24.56609],[-53.92331,-24.56598],[-53.92334,-24.56611],[-53.92338,-24.56628],[-53.92346,-24.56644],[-53.92356,-24.56658],[-53.92368,-24.5667],[-53.92396,-24.56694],[-53.9241,-24.56704],[-53.92426,-24.56711],[-53.92443,-24.56716],[-53.92529,-24.56731],[-53.92584,-24.56743],[-53.92629,-24.56756],[-53.92647,-24.5676],[-53.92665,-24.5676],[-53.92682,-24.56757],[-53.92794,-24.56726],[-53.92807,-24.56722],[-53.92822,-24.56716],[-53.92845,-24.56761],[-53.92847,-24.56765],[-53.92866,-24.56799],[-53.92877,-24.56816],[-53.92892,-24.5683],[-53.9291,-24.56841],[-53.92929,-24.56848],[-53.92968,-24.56858],[-53.92988,-24.5686],[-53.93008,-24.56859],[-53.93028,-24.56854],[-53.93046,-24.56845],[-53.9307,-24.56829],[-53.93083,-24.5682],[-53.93122,-24.56786],[-53.93129,-24.56778],[-53.93279,-24.56614],[-53.9329,-24.566],[-53.93299,-24.56584],[-53.93304,-24.56566],[-53.93312,-24.56524],[-53.93314,-24.56504],[-53.93311,-24.56483],[-53.93304,-24.56448],[-53.933,-24.5642],[-53.93297,-24.56405],[-53.93293,-24.56394],[-53.93307,-24.5639],[-53.93311,-24.5639],[-53.93441,-24.56353],[-53.93446,-24.56352],[-53.93552,-24.56317],[-53.93573,-24.56308],[-53.93591,-24.56294],[-53.93605,-24.56277],[-53.93622,-24.5625],[-53.93632,-24.56232],[-53.93637,-24.56212],[-53.93638,-24.56191],[-53.93635,-24.5617],[-53.93628,-24.56151],[-53.93617,-24.56133],[-53.93596,-24.56107],[-53.93589,-24.56098],[-53.93579,-24.56087],[-53.93552,-24.56063],[-53.93534,-24.5605],[-53.93514,-24.56041],[-53.93432,-24.56015],[-53.93422,-24.56012],[-53.93356,-24.56],[-53.93332,-24.55987],[-53.93332,-24.55982],[-53.93334,-24.55977],[-53.93365,-24.55938],[-53.93385,-24.55918],[-53.934,-24.55912],[-53.93457,-24.55903],[-53.93477,-24.55898],[-53.93539,-24.55874],[-53.93544,-24.55873],[-53.93583,-24.55856],[-53.93645,-24.55841],[-53.9369,-24.55844],[-53.93714,-24.55842],[-53.93783,-24.55828],[-53.938,-24.55823],[-53.93843,-24.55807],[-53.93863,-24.55796],[-53.93886,-24.5578],[-53.93898,-24.5577],[-53.93908,-24.55759],[-53.93931,-24.5573],[-53.93936,-24.55722],[-53.93954,-24.55694],[-53.93985,-24.55663],[-53.94024,-24.5564],[-53.94039,-24.5563],[-53.94052,-24.55617],[-53.94063,-24.55602],[-53.9408,-24.5557],[-53.94087,-24.55554],[-53.94091,-24.55537],[-53.94092,-24.55519],[-53.9409,-24.55501],[-53.94085,-24.55484],[-53.94068,-24.55445],[-53.94058,-24.55426],[-53.94043,-24.55409],[-53.94018,-24.55387],[-53.93998,-24.55336],[-53.9399,-24.5532],[-53.93979,-24.55305],[-53.93957,-24.55282],[-53.93941,-24.55268],[-53.93922,-24.55257],[-53.93884,-24.55241],[-53.93864,-24.55235],[-53.93842,-24.55234],[-53.93812,-24.55235],[-53.93794,-24.55237],[-53.93777,-24.55243],[-53.93761,-24.55251],[-53.93744,-24.55262],[-53.93742,-24.55262],[-53.9371,-24.55246],[-53.93647,-24.55195],[-53.93601,-24.55154],[-53.93577,-24.55127],[-53.93603,-24.55114],[-53.93619,-24.55104],[-53.93633,-24.55092],[-53.93644,-24.55077],[-53.93652,-24.5506],[-53.93657,-24.55042],[-53.93661,-24.55019],[-53.93666,-24.55016],[-53.93706,-24.55],[-53.93725,-24.54989],[-53.93744,-24.54975],[-53.9376,-24.54962],[-53.93772,-24.54945],[-53.93781,-24.54931],[-53.93797,-24.5492],[-53.93811,-24.54918],[-53.93833,-24.54924],[-53.9387,-24.54942],[-53.93902,-24.54964],[-53.9396,-24.55014],[-53.93978,-24.55027],[-53.93999,-24.55035],[-53.94038,-24.55046],[-53.94039,-24.55051],[-53.94041,-24.55066],[-53.94048,-24.55093],[-53.94056,-24.55112],[-53.94067,-24.5513],[-53.94082,-24.55145],[-53.941,-24.55157],[-53.94119,-24.55164],[-53.9414,-24.55167],[-53.94159,-24.55168],[-53.94178,-24.55167],[-53.94197,-24.55163],[-53.94239,-24.55148],[-53.94258,-24.5514],[-53.94274,-24.55128],[-53.94422,-24.54993],[-53.94429,-24.54986],[-53.94468,-24.54943],[-53.94486,-24.54961],[-53.94506,-24.54975],[-53.94561,-24.55006],[-53.94577,-24.55013],[-53.94593,-24.55018],[-53.94622,-24.55023],[-53.94642,-24.55024],[-53.94705,-24.55022],[-53.94725,-24.5502],[-53.94767,-24.5501],[-53.94785,-24.55004],[-53.94801,-24.54995],[-53.94839,-24.5497],[-53.94853,-24.54958],[-53.94865,-24.54943],[-53.94875,-24.54927],[-53.94893,-24.54885],[-53.94899,-24.54865],[-53.94901,-24.54845],[-53.94901,-24.54826],[-53.94899,-24.54805],[-53.94892,-24.54785],[-53.94882,-24.54766],[-53.94868,-24.54751],[-53.94855,-24.54742],[-53.94879,-24.54693],[-53.94886,-24.547],[-53.94904,-24.5471],[-53.94923,-24.54717],[-53.94943,-24.5472],[-53.95026,-24.54722],[-53.95044,-24.5472],[-53.95061,-24.54716],[-53.95077,-24.54709],[-53.95092,-24.54699],[-53.95104,-24.54687],[-53.9512,-24.54669],[-53.95131,-24.54653],[-53.95139,-24.54634],[-53.95143,-24.54615],[-53.95143,-24.54595],[-53.95139,-24.54576],[-53.95132,-24.54557],[-53.95119,-24.54533],[-53.95107,-24.54515],[-53.95091,-24.545],[-53.95076,-24.54489],[-53.95078,-24.54487],[-53.95107,-24.54462],[-53.95117,-24.5446],[-53.9513,-24.54462],[-53.95145,-24.54464],[-53.95224,-24.54467],[-53.95242,-24.54466],[-53.9526,-24.54461],[-53.95277,-24.54454],[-53.95292,-24.54443],[-53.95305,-24.5443],[-53.95315,-24.54415],[-53.95335,-24.54379],[-53.95344,-24.54356],[-53.95347,-24.54332],[-53.95348,-24.54285],[-53.95346,-24.54266],[-53.95341,-24.54247],[-53.95332,-24.5423],[-53.9532,-24.54215],[-53.95306,-24.54202],[-53.95267,-24.54175],[-53.95243,-24.54162],[-53.95194,-24.54145],[-53.95174,-24.5414],[-53.95006,-24.54117],[-53.94951,-24.54104],[-53.94896,-24.54067],[-53.94827,-24.54003],[-53.94814,-24.53984],[-53.94811,-24.53969],[-53.94819,-24.53932],[-53.94819,-24.53926],[-53.94855,-24.53926],[-53.94865,-24.53926],[-53.94931,-24.53919],[-53.9495,-24.53915],[-53.94968,-24.53907],[-53.94984,-24.53896],[-53.94998,-24.53883],[-53.95008,-24.53866],[-53.95026,-24.53834],[-53.95033,-24.53816],[-53.95037,-24.53797],[-53.95039,-24.53776],[-53.95039,-24.53754],[-53.95034,-24.53734],[-53.95025,-24.53715],[-53.95013,-24.53698],[-53.94992,-24.53675],[-53.94979,-24.53663],[-53.94963,-24.53654],[-53.94962,-24.53653],[-53.9496,-24.5365],[-53.94954,-24.53626],[-53.94948,-24.53609],[-53.94939,-24.53593],[-53.94927,-24.53579],[-53.94912,-24.53568],[-53.94896,-24.53559],[-53.94879,-24.53554],[-53.94848,-24.53547],[-53.94838,-24.53545],[-53.94779,-24.53538],[-53.94751,-24.53527],[-53.94757,-24.53521],[-53.94786,-24.53488],[-53.9479,-24.53488],[-53.94871,-24.53492],[-53.94889,-24.53491],[-53.94908,-24.53486],[-53.94925,-24.53479],[-53.9494,-24.53468],[-53.94964,-24.53448],[-53.94979,-24.53432],[-53.9499,-24.53413],[-53.94997,-24.53393],[-53.95019,-24.53295],[-53.95019,-24.53295],[-53.9503,-24.53243],[-53.95038,-24.53235],[-53.95075,-24.53213],[-53.95075,-24.53213],[-53.95096,-24.53254],[-53.95112,-24.53277],[-53.95153,-24.53321],[-53.95169,-24.53336],[-53.95175,-24.5334],[-53.95162,-24.53356],[-53.95137,-24.53393],[-53.95126,-24.53414],[-53.95121,-24.53436],[-53.95113,-24.53499],[-53.95113,-24.53515],[-53.95115,-24.53531],[-53.95123,-24.5357],[-53.95128,-24.53589],[-53.95138,-24.53607],[-53.95151,-24.53622],[-53.95167,-24.53634],[-53.95224,-24.5367],[-53.95242,-24.5368],[-53.95262,-24.53685],[-53.95283,-24.53686],[-53.95303,-24.53683],[-53.95315,-24.53679],[-53.95319,-24.53693],[-53.95328,-24.5371],[-53.9534,-24.53725],[-53.95355,-24.53737],[-53.95372,-24.53747],[-53.9542,-24.53768],[-53.95438,-24.53774],[-53.95456,-24.53777],[-53.95475,-24.53776],[-53.95493,-24.53771],[-53.95527,-24.5376],[-53.9554,-24.53754],[-53.95574,-24.53736],[-53.95622,-24.53716],[-53.95671,-24.53717],[-53.95749,-24.53721],[-53.95887,-24.53742],[-53.95905,-24.53744],[-53.95952,-24.53743],[-53.9597,-24.5374],[-53.95988,-24.53735],[-53.96005,-24.53726],[-53.96019,-24.53714],[-53.96031,-24.537],[-53.96051,-24.53673],[-53.9606,-24.53657],[-53.96066,-24.5364],[-53.96069,-24.53622],[-53.96068,-24.53604],[-53.96065,-24.53586],[-53.96058,-24.53563],[-53.96049,-24.53543],[-53.96037,-24.53526],[-53.96011,-24.53497],[-53.96004,-24.53489],[-53.95919,-24.5341],[-53.95895,-24.53373],[-53.95878,-24.53321],[-53.95865,-24.53236],[-53.95868,-24.53185],[-53.95876,-24.53161],[-53.95906,-24.53122],[-53.95915,-24.53107],[-53.95922,-24.53091],[-53.95926,-24.53075],[-53.9593,-24.53043],[-53.9593,-24.53029],[-53.96086,-24.53037],[-53.96149,-24.53046],[-53.96225,-24.53072],[-53.96241,-24.53076],[-53.96257,-24.53077],[-53.96326,-24.53077],[-53.9634,-24.53076],[-53.96387,-24.53069],[-53.96407,-24.53064],[-53.96425,-24.53056],[-53.96441,-24.53043],[-53.9649,-24.52997],[-53.9651,-24.52981],[-53.96537,-24.52966],[-53.96577,-24.52946],[-53.96588,-24.5294],[-53.96627,-24.52914],[-53.96648,-24.52897],[-53.96664,-24.52878],[-53.96696,-24.52876],[-53.96718,-24.52871],[-53.96761,-24.52858],[-53.96801,-24.52845],[-53.9682,-24.52836],[-53.96837,-24.52824],[-53.96852,-24.52808],[-53.96869,-24.52784],[-53.9688,-24.52765],[-53.96886,-24.52745],[-53.96888,-24.52725],[-53.96886,-24.52704],[-53.96878,-24.5267],[-53.96872,-24.5265],[-53.96861,-24.52632],[-53.96848,-24.52617],[-53.96809,-24.52582],[-53.96795,-24.52571],[-53.96779,-24.52563],[-53.96663,-24.52516],[-53.96654,-24.52513],[-53.96579,-24.52491],[-53.96556,-24.52487],[-53.96533,-24.52488],[-53.96515,-24.52491],[-53.96501,-24.52485],[-53.96501,-24.52485],[-53.96325,-24.52405],[-53.96311,-24.524],[-53.96296,-24.52397],[-53.96209,-24.52386],[-53.96114,-24.52352],[-53.96109,-24.5235],[-53.9607,-24.52339],[-53.96068,-24.52335],[-53.96054,-24.52308],[-53.96042,-24.52289],[-53.96025,-24.52273],[-53.96006,-24.52262],[-53.95953,-24.52239],[-53.95939,-24.52234],[-53.95862,-24.52212],[-53.95842,-24.52209],[-53.95822,-24.52209],[-53.95737,-24.52221],[-53.95722,-24.52224],[-53.95632,-24.52251],[-53.95575,-24.52254],[-53.95523,-24.52233],[-53.95408,-24.52145],[-53.95402,-24.52141],[-53.95381,-24.52127],[-53.95364,-24.52118],[-53.95346,-24.52113],[-53.95326,-24.52111],[-53.95292,-24.52111],[-53.95274,-24.52112],[-53.95257,-24.52117],[-53.95214,-24.52133],[-53.95208,-24.52134],[-53.95214,-24.5211],[-53.95217,-24.52089],[-53.95216,-24.52067],[-53.95209,-24.52029],[-53.95204,-24.52012],[-53.95197,-24.51996],[-53.95187,-24.51982],[-53.95174,-24.5197],[-53.95126,-24.5193],[-53.95104,-24.51916],[-53.95079,-24.51904],[-53.95073,-24.51897],[-53.95258,-24.51822],[-53.95271,-24.51816],[-53.95334,-24.51778],[-53.9535,-24.51767],[-53.95363,-24.51752],[-53.95374,-24.51735],[-53.9538,-24.51717],[-53.95383,-24.51697],[-53.95382,-24.51678],[-53.95381,-24.51674],[-53.95393,-24.51672],[-53.95417,-24.51664],[-53.95487,-24.51632],[-53.95491,-24.51629],[-53.9553,-24.51609],[-53.95546,-24.51598],[-53.95559,-24.51585],[-53.9557,-24.51569],[-53.95578,-24.51551],[-53.95585,-24.51529],[-53.95589,-24.5151],[-53.95589,-24.5149],[-53.95587,-24.51476],[-53.95612,-24.51474],[-53.95631,-24.51471],[-53.95649,-24.51464],[-53.95665,-24.51454],[-53.95695,-24.51431],[-53.9571,-24.51417],[-53.95722,-24.514],[-53.9573,-24.5138],[-53.95734,-24.51359],[-53.95733,-24.51338],[-53.95732,-24.51325],[-53.95795,-24.51335],[-53.95801,-24.51335],[-53.95847,-24.51339],[-53.95848,-24.5134],[-53.9587,-24.51378],[-53.95874,-24.51385],[-53.95875,-24.51386],[-53.95863,-24.51398],[-53.95835,-24.51435],[-53.95825,-24.51453],[-53.95818,-24.51473],[-53.95815,-24.51494],[-53.95817,-24.51515],[-53.95824,-24.51535],[-53.95835,-24.5156],[-53.95819,-24.51633],[-53.95796,-24.51704],[-53.95792,-24.51725],[-53.95792,-24.51746],[-53.95797,-24.51767],[-53.95806,-24.51787],[-53.9586,-24.51875],[-53.95871,-24.5189],[-53.95885,-24.51903],[-53.95901,-24.51912],[-53.95953,-24.51938],[-53.95971,-24.5196],[-53.95991,-24.52035],[-53.95997,-24.52052],[-53.96006,-24.52067],[-53.96018,-24.52081],[-53.96071,-24.52131],[-53.96085,-24.52143],[-53.96101,-24.52152],[-53.96119,-24.52157],[-53.96198,-24.52174],[-53.96215,-24.52176],[-53.96232,-24.52175],[-53.96348,-24.5216],[-53.96363,-24.52157],[-53.96488,-24.5212],[-53.96505,-24.52114],[-53.96521,-24.52104],[-53.96534,-24.52092],[-53.96573,-24.5205],[-53.96624,-24.52007],[-53.96642,-24.51988],[-53.96654,-24.5197],[-53.96664,-24.51954],[-53.9667,-24.51936],[-53.96672,-24.51917],[-53.96671,-24.51898],[-53.96667,-24.5188],[-53.96659,-24.51863],[-53.96637,-24.51825],[-53.96629,-24.51791],[-53.96627,-24.51783],[-53.96606,-24.51721],[-53.96599,-24.51704],[-53.96589,-24.51689],[-53.96576,-24.51676],[-53.96542,-24.51647],[-53.96527,-24.51636],[-53.9651,-24.51628],[-53.96493,-24.51624],[-53.9646,-24.51619],[-53.96437,-24.51613],[-53.96421,-24.51604],[-53.96418,-24.51571],[-53.9642,-24.51507],[-53.96418,-24.51483],[-53.9641,-24.5146],[-53.96401,-24.51441],[-53.96458,-24.51424],[-53.96476,-24.51417],[-53.96493,-24.51406],[-53.96522,-24.51383],[-53.96535,-24.51369],[-53.96546,-24.51354],[-53.96553,-24.51337],[-53.96558,-24.51318],[-53.96564,-24.51273],[-53.96565,-24.51256],[-53.96562,-24.51238],[-53.96557,-24.51221],[-53.96549,-24.51206],[-53.96516,-24.51155],[-53.96502,-24.51138],[-53.96451,-24.51088],[-53.96383,-24.51003],[-53.96371,-24.5098],[-53.96366,-24.50972],[-53.96337,-24.50928],[-53.96324,-24.50912],[-53.96309,-24.509],[-53.9626,-24.50867],[-53.96251,-24.50861],[-53.96171,-24.50818],[-53.96082,-24.50763],[-53.9606,-24.50753],[-53.96004,-24.50734],[-53.96017,-24.50713],[-53.96027,-24.50695],[-53.96047,-24.5064],[-53.9605,-24.50631],[-53.96056,-24.50607],[-53.9606,-24.50587],[-53.96059,-24.50568],[-53.96054,-24.50548],[-53.96046,-24.5053],[-53.96034,-24.50514],[-53.96019,-24.50501],[-53.96002,-24.50491],[-53.95983,-24.50484],[-53.95964,-24.50481],[-53.95944,-24.50482],[-53.95864,-24.50495],[-53.95011,-24.50401],[-53.94992,-24.504],[-53.94974,-24.50404],[-53.94956,-24.5041],[-53.9494,-24.5042],[-53.94782,-24.50539],[-53.94736,-24.50573],[-53.94452,-24.50786],[-53.94334,-24.50875],[-53.94272,-24.50921],[-53.94076,-24.51068],[-53.93772,-24.51296],[-53.93666,-24.51282],[-53.93466,-24.51257],[-53.93254,-24.51231],[-53.93117,-24.51214],[-53.92917,-24.51189],[-53.92761,-24.51169],[-53.92365,-24.5112],[-53.92252,-24.51106],[-53.92242,-24.51104],[-53.92212,-24.51101],[-53.92193,-24.511],[-53.92174,-24.51104],[-53.92151,-24.5111],[-53.92025,-24.51144],[-53.92018,-24.51146],[-53.91985,-24.51155],[-53.91904,-24.51177],[-53.91806,-24.51204],[-53.91798,-24.51206],[-53.9113,-24.51388],[-53.90407,-24.51585],[-53.90283,-24.51619],[-53.89974,-24.51704],[-53.89956,-24.5171],[-53.89939,-24.5172],[-53.89925,-24.51734],[-53.89829,-24.51842],[-53.89671,-24.5202],[-53.89638,-24.52056],[-53.89575,-24.52128],[-53.89166,-24.52587],[-53.88835,-24.52497],[-53.88637,-24.52443],[-53.88485,-24.52401],[-53.88126,-24.52304],[-53.88116,-24.52301],[-53.87227,-24.52153],[-53.87031,-24.5212],[-53.8694,-24.52105],[-53.85527,-24.51069],[-53.85733,-24.5066],[-53.85733,-24.5066],[-53.85989,-24.50145],[-53.85997,-24.50124],[-53.86,-24.50102],[-53.85998,-24.5008],[-53.85904,-24.4961],[-53.85871,-24.49447],[-53.85804,-24.4911],[-53.86143,-24.48261],[-53.86379,-24.47672],[-53.86648,-24.47538],[-53.86667,-24.47528],[-53.86668,-24.47528],[-53.87059,-24.47332],[-53.8718,-24.47272],[-53.87736,-24.46998],[-53.87738,-24.46997],[-53.87932,-24.46896],[-53.88145,-24.46789],[-53.88161,-24.46779],[-53.88175,-24.46766],[-53.88186,-24.4675],[-53.88194,-24.46733],[-53.88199,-24.46714],[-53.882,-24.46695],[-53.88197,-24.46676],[-53.88191,-24.46658],[-53.88181,-24.46641],[-53.88166,-24.46621],[-53.88013,-24.46411],[-53.88004,-24.46398],[-53.87951,-24.46326],[-53.87634,-24.45889],[-53.87381,-24.45541],[-53.87367,-24.45526],[-53.8735,-24.45513],[-53.87331,-24.45505],[-53.8731,-24.455],[-53.87289,-24.45501],[-53.87111,-24.4552],[-53.86409,-24.45598],[-53.85027,-24.45204],[-53.8501,-24.452],[-53.84992,-24.452],[-53.84974,-24.45203],[-53.84958,-24.45209],[-53.84942,-24.45218],[-53.84428,-24.45584],[-53.84423,-24.45587],[-53.84162,-24.45797],[-53.8304,-24.46615],[-53.82986,-24.46651],[-53.8298,-24.46655],[-53.82857,-24.46749],[-53.82854,-24.46752],[-53.82437,-24.47102],[-53.82038,-24.47422],[-53.82026,-24.47433],[-53.82016,-24.47446],[-53.82008,-24.47461],[-53.818,-24.47947],[-53.81734,-24.48099],[-53.81586,-24.481],[-53.812,-24.481],[-53.81179,-24.48102],[-53.8116,-24.48109],[-53.81142,-24.48119],[-53.81126,-24.48133],[-53.81114,-24.48149],[-53.81105,-24.48168],[-53.80959,-24.48606],[-53.8066,-24.49504],[-53.80605,-24.49668],[-53.80602,-24.4968],[-53.80557,-24.49905],[-53.80502,-24.5018],[-53.805,-24.50196],[-53.80501,-24.50212],[-53.80535,-24.50485],[-53.80535,-24.50485],[-53.80559,-24.50679],[-53.80576,-24.50816],[-53.80591,-24.50937],[-53.80043,-24.51163],[-53.79107,-24.51551],[-53.78927,-24.51625],[-53.77762,-24.52108],[-53.77744,-24.52117],[-53.77728,-24.52131],[-53.77715,-24.52147],[-53.77706,-24.52166],[-53.77701,-24.52186],[-53.77684,-24.52302],[-53.77627,-24.527],[-53.77579,-24.53038],[-53.77503,-24.5357],[-53.77174,-24.54228],[-53.7683,-24.54916],[-53.76342,-24.55052],[-53.76293,-24.55066],[-53.75567,-24.55269],[-53.74914,-24.55452],[-53.74914,-24.55452],[-53.74554,-24.55556],[-53.74554,-24.55556],[-53.74504,-24.55571],[-53.74363,-24.55611],[-53.74346,-24.55617],[-53.74331,-24.55627],[-53.74317,-24.55639],[-53.74306,-24.55653],[-53.74254,-24.55733],[-53.74253,-24.55735],[-53.74085,-24.56006],[-53.73603,-24.56726],[-53.73602,-24.56728],[-53.73045,-24.576],[-53.71741,-24.576],[-53.71611,-24.5747],[-53.71571,-24.57429],[-53.71556,-24.57417],[-53.71539,-24.57408],[-53.71521,-24.57402],[-53.71502,-24.574],[-53.71483,-24.57401],[-53.71465,-24.57406],[-53.71448,-24.57415],[-53.71433,-24.57426],[-53.71092,-24.57737],[-53.71033,-24.57791],[-53.70997,-24.57824],[-53.70859,-24.5795],[-53.70504,-24.58274],[-53.70417,-24.58353],[-53.69277,-24.59394],[-53.69133,-24.59526],[-53.69129,-24.59529],[-53.69044,-24.59614],[-53.67929,-24.60729],[-53.67928,-24.60731],[-53.67899,-24.60761],[-53.67801,-24.60852],[-53.678,-24.60852],[-53.67637,-24.61006],[-53.67636,-24.61007],[-53.66841,-24.61769],[-53.66818,-24.6179],[-53.66818,-24.61791],[-53.6644,-24.62148],[-53.6644,-24.62148],[-53.66075,-24.62496],[-53.66022,-24.62544],[-53.6602,-24.62546],[-53.65583,-24.62964],[-53.6552,-24.63024],[-53.6516,-24.63367],[-53.64972,-24.63545],[-53.64674,-24.63829],[-53.64571,-24.63927],[-53.64571,-24.63927],[-53.63733,-24.64725],[-53.63731,-24.64727],[-53.63724,-24.64734],[-53.63656,-24.64802],[-53.6353,-24.64928],[-53.63479,-24.64978],[-53.6305,-24.65386],[-53.62738,-24.65682],[-53.62738,-24.65682],[-53.62305,-24.66094],[-53.62161,-24.66231],[-53.61836,-24.6654],[-53.61321,-24.6703],[-53.61321,-24.6703],[-53.60757,-24.67569],[-53.60097,-24.68194],[-53.60097,-24.68194],[-53.5946,-24.688],[-53.59431,-24.68828],[-53.59429,-24.68829],[-53.59322,-24.68936],[-53.5896,-24.69298],[-53.58955,-24.69304],[-53.58497,-24.69762],[-53.58431,-24.69827],[-53.58418,-24.6984],[-53.58384,-24.6987],[-53.58284,-24.6996],[-53.57433,-24.70726],[-53.57429,-24.70729],[-53.57396,-24.70763],[-53.57311,-24.70848],[-53.57058,-24.71101],[-53.57023,-24.71135],[-53.56118,-24.72041],[-53.55973,-24.72186],[-53.55816,-24.72343],[-53.55816,-24.72343],[-53.55293,-24.72869],[-53.5526,-24.72899],[-53.55257,-24.72902],[-53.55215,-24.72944],[-53.55024,-24.73135],[-53.55023,-24.73135],[-53.5481,-24.73351],[-53.54292,-24.73869],[-53.53657,-24.745],[-53.53654,-24.74503],[-53.53627,-24.74532],[-53.53611,-24.74555],[-53.53359,-24.75058],[-53.53311,-24.75155],[-53.53304,-24.75174],[-53.533,-24.75193],[-53.53301,-24.75213],[-53.53305,-24.75232],[-53.53481,-24.7576],[-53.53531,-24.75908],[-53.53705,-24.76432],[-53.53715,-24.76453],[-53.53729,-24.76471],[-53.54529,-24.77271],[-53.54542,-24.77282],[-53.54557,-24.7729],[-53.54573,-24.77296],[-53.55213,-24.77479],[-53.55248,-24.77489],[-53.55591,-24.77832],[-53.54726,-24.8174],[-53.54725,-24.81742],[-53.54604,-24.82358],[-53.54339,-24.83607],[-53.54302,-24.83779],[-53.543,-24.83798],[-53.54302,-24.83817],[-53.54307,-24.83836],[-53.54315,-24.83853],[-53.54327,-24.83868],[-53.54341,-24.83881],[-53.54358,-24.83891],[-53.54376,-24.83897],[-53.54395,-24.839],[-53.54414,-24.83899],[-53.54433,-24.83894],[-53.5445,-24.83886],[-53.54754,-24.8371],[-53.54926,-24.83609],[-53.5545,-24.83303],[-53.5565,-24.83186],[-53.55664,-24.83176],[-53.55677,-24.83164],[-53.55687,-24.8315],[-53.55694,-24.83135],[-53.55743,-24.83001],[-53.55819,-24.82794],[-53.55862,-24.82687],[-53.55864,-24.82681],[-53.55888,-24.82607],[-53.56275,-24.81558],[-53.56385,-24.8126],[-53.56393,-24.81253],[-53.56651,-24.81042],[-53.57441,-24.80395],[-53.57766,-24.80352],[-53.58506,-24.80253],[-53.58507,-24.80253],[-53.58748,-24.8022],[-53.58899,-24.80201],[-53.58899,-24.80201],[-53.59042,-24.80182],[-53.59042,-24.80182],[-53.59109,-24.80173],[-53.59727,-24.80091],[-53.60228,-24.80025],[-53.60232,-24.80025],[-53.60317,-24.80011],[-53.60372,-24.80004],[-53.60538,-24.80129],[-53.60664,-24.80223],[-53.60688,-24.80241],[-53.60736,-24.80279],[-53.60752,-24.8029],[-53.60769,-24.80297],[-53.60788,-24.80301],[-53.60807,-24.80301],[-53.60825,-24.80298],[-53.60843,-24.80291],[-53.61377,-24.80023],[-53.61587,-24.79918],[-53.61878,-24.79773],[-53.62042,-24.79691],[-53.62114,-24.79655],[-53.62169,-24.79627],[-53.62272,-24.79576],[-53.62273,-24.79576],[-53.62467,-24.79478],[-53.62645,-24.79389],[-53.62665,-24.79376],[-53.62681,-24.79358],[-53.62966,-24.78962],[-53.62966,-24.78961],[-53.63059,-24.78829],[-53.63157,-24.78693],[-53.63285,-24.78674],[-53.63403,-24.78656],[-53.63807,-24.786],[-53.65645,-24.786],[-53.65697,-24.78684],[-53.65771,-24.78802],[-53.65879,-24.78975],[-53.65913,-24.7903],[-53.66115,-24.79353],[-53.66128,-24.79369],[-53.66143,-24.79382],[-53.66161,-24.79392],[-53.6618,-24.79398],[-53.662,-24.794],[-53.668,-24.794],[-53.6682,-24.79398],[-53.66838,-24.79392],[-53.66856,-24.79383],[-53.66871,-24.79371],[-53.66951,-24.79291],[-53.67,-24.79242],[-53.6712,-24.79121],[-53.67194,-24.79048],[-53.67279,-24.78962],[-53.67584,-24.78658],[-53.67814,-24.78427],[-53.67864,-24.78378],[-53.6824,-24.78127],[-53.68407,-24.78015],[-53.68663,-24.78143],[-53.68726,-24.78175],[-53.688,-24.78212],[-53.68848,-24.78236],[-53.69037,-24.7833],[-53.69107,-24.78365],[-53.69198,-24.78411],[-53.69955,-24.78789],[-53.69972,-24.78796],[-53.69989,-24.78799],[-53.70356,-24.7884],[-53.70837,-24.78894],[-53.70889,-24.78899],[-53.70907,-24.789],[-53.70925,-24.78897],[-53.70941,-24.78891],[-53.70957,-24.78882],[-53.70971,-24.78871],[-53.71029,-24.78812],[-53.71158,-24.78684],[-53.71191,-24.78651],[-53.71237,-24.78605],[-53.71301,-24.78541],[-53.71438,-24.78679],[-53.71452,-24.78691],[-53.71468,-24.787],[-53.71485,-24.78706],[-53.71504,-24.78708],[-53.71522,-24.78708],[-53.7154,-24.78703],[-53.71557,-24.78696],[-53.71632,-24.78655],[-53.71648,-24.78659],[-53.71602,-24.78744],[-53.71595,-24.78761],[-53.71591,-24.7878],[-53.71591,-24.78799],[-53.71594,-24.78818],[-53.71601,-24.78836],[-53.71611,-24.78852],[-53.71624,-24.78866],[-53.71944,-24.79147],[-53.71961,-24.79159],[-53.7198,-24.79167],[-53.72001,-24.79171],[-53.72022,-24.79171],[-53.72094,-24.79162],[-53.72164,-24.79244],[-53.72178,-24.79258],[-53.72195,-24.79268],[-53.72214,-24.79275],[-53.72227,-24.79277],[-53.72247,-24.7932],[-53.72026,-24.79441],[-53.71758,-24.79479],[-53.71738,-24.79484],[-53.71719,-24.79493],[-53.71703,-24.79506],[-53.71563,-24.7964],[-53.71396,-24.79704],[-53.7138,-24.79712],[-53.71365,-24.79723],[-53.71352,-24.79737],[-53.71342,-24.79752],[-53.71336,-24.7977],[-53.71332,-24.79788],[-53.71332,-24.79807],[-53.7134,-24.79886],[-53.71275,-24.79903],[-53.71259,-24.79909],[-53.71044,-24.80004],[-53.70776,-24.79945],[-53.70752,-24.79942],[-53.70729,-24.79946],[-53.70418,-24.80027],[-53.70169,-24.79947],[-53.70152,-24.79943],[-53.70134,-24.79943],[-53.70117,-24.79945],[-53.701,-24.7995],[-53.69962,-24.80008],[-53.69954,-24.80011],[-53.69837,-24.80072],[-53.69819,-24.80084],[-53.69803,-24.801],[-53.6972,-24.80209],[-53.6971,-24.80225],[-53.69704,-24.80243],[-53.697,-24.80262],[-53.69701,-24.80281],[-53.69705,-24.803],[-53.69712,-24.80317],[-53.69723,-24.80333],[-53.69982,-24.80648],[-53.69948,-24.80658],[-53.69813,-24.80609],[-53.69793,-24.80604],[-53.69773,-24.80604],[-53.69754,-24.80607],[-53.69735,-24.80614],[-53.69718,-24.80624],[-53.69703,-24.80638],[-53.69692,-24.80654],[-53.69689,-24.80661],[-53.69659,-24.8066],[-53.69644,-24.80661],[-53.69629,-24.80664],[-53.69547,-24.80688],[-53.69529,-24.80696],[-53.69513,-24.80706],[-53.69499,-24.80719],[-53.69488,-24.80735],[-53.69311,-24.81044],[-53.69046,-24.81216],[-53.69032,-24.81227],[-53.6902,-24.8124],[-53.6901,-24.81256],[-53.69004,-24.81273],[-53.68957,-24.81436],[-53.68954,-24.81453],[-53.68907,-24.81926],[-53.68577,-24.82003],[-53.68559,-24.82009],[-53.68541,-24.82019],[-53.68527,-24.82032],[-53.68515,-24.82048],[-53.68506,-24.82066],[-53.68501,-24.82085],[-53.685,-24.82104],[-53.68503,-24.82124],[-53.6851,-24.82143],[-53.6852,-24.8216],[-53.68533,-24.82174],[-53.68645,-24.82275],[-53.68661,-24.82287],[-53.68679,-24.82295],[-53.68698,-24.823],[-53.68718,-24.82301],[-53.68771,-24.82298],[-53.68841,-24.82304],[-53.68859,-24.82304],[-53.68876,-24.82301],[-53.68944,-24.82282],[-53.69051,-24.82272],[-53.69052,-24.82274],[-53.69042,-24.82385],[-53.69042,-24.82393],[-53.69039,-24.82614],[-53.69041,-24.82632],[-53.69045,-24.82649],[-53.69052,-24.82665],[-53.69121,-24.82786],[-53.69107,-24.82986],[-53.68828,-24.82946],[-53.68644,-24.82748],[-53.68629,-24.82735],[-53.68613,-24.82725],[-53.68594,-24.82719],[-53.68575,-24.82716],[-53.68556,-24.82717],[-53.68537,-24.82722],[-53.6852,-24.8273],[-53.68504,-24.82741],[-53.68422,-24.82814],[-53.68242,-24.82805],[-53.68149,-24.82762],[-53.6813,-24.82755],[-53.68111,-24.82752],[-53.68091,-24.82754],[-53.67785,-24.82801],[-53.67765,-24.82806],[-53.67747,-24.82815],[-53.67731,-24.82827],[-53.67718,-24.82843],[-53.67708,-24.8286],[-53.67702,-24.82879],[-53.677,-24.82899],[-53.67702,-24.82919],[-53.67708,-24.82939],[-53.67717,-24.82956],[-53.67908,-24.83235],[-53.67831,-24.83278],[-53.67814,-24.8329],[-53.678,-24.83305],[-53.6779,-24.83323],[-53.67783,-24.83342],[-53.6778,-24.83363],[-53.67782,-24.83383],[-53.6779,-24.83429],[-53.67605,-24.83537],[-53.6759,-24.83549],[-53.67577,-24.83563],[-53.67566,-24.83579],[-53.6756,-24.83597],[-53.67556,-24.83616],[-53.67557,-24.83635],[-53.67576,-24.83802],[-53.6758,-24.8382],[-53.67586,-24.83837],[-53.67596,-24.83852],[-53.67608,-24.83865],[-53.67623,-24.83876],[-53.67764,-24.83963],[-53.67756,-24.84047],[-53.67557,-24.84129],[-53.67541,-24.84137],[-53.67526,-24.84149],[-53.67514,-24.84162],[-53.67505,-24.84178],[-53.67498,-24.84195],[-53.67484,-24.84247],[-53.67481,-24.84266],[-53.67482,-24.84285],[-53.67486,-24.84304],[-53.67493,-24.84321],[-53.67526,-24.84381],[-53.67486,-24.84397],[-53.6725,-24.84461],[-53.67169,-24.84463],[-53.6715,-24.84466],[-53.67131,-24.84472],[-53.67114,-24.84481],[-53.671,-24.84494],[-53.67088,-24.84509],[-53.67079,-24.84527],[-53.67074,-24.84545],[-53.67072,-24.84564],[-53.67074,-24.84584],[-53.6708,-24.84602],[-53.67086,-24.84616],[-53.67051,-24.84676],[-53.66944,-24.84651],[-53.66924,-24.84648],[-53.66904,-24.8465],[-53.66884,-24.84655],[-53.66866,-24.84664],[-53.66851,-24.84677],[-53.66838,-24.84693],[-53.66828,-24.8471],[-53.66807,-24.84762],[-53.66802,-24.8478],[-53.668,-24.84799],[-53.66801,-24.84817],[-53.66806,-24.84835],[-53.66814,-24.84852],[-53.66825,-24.84867],[-53.66839,-24.84879],[-53.66947,-24.84962],[-53.66963,-24.84973],[-53.66982,-24.8498],[-53.67001,-24.84983],[-53.67143,-24.84993],[-53.67141,-24.84994],[-53.67125,-24.85004],[-53.67111,-24.85017],[-53.671,-24.85033],[-53.66997,-24.8521],[-53.66988,-24.85229],[-53.66984,-24.8525],[-53.66984,-24.85271],[-53.66988,-24.85291],[-53.67098,-24.85629],[-53.67063,-24.85681],[-53.67053,-24.85698],[-53.67048,-24.85716],[-53.67045,-24.85735],[-53.67047,-24.85754],[-53.67052,-24.85773],[-53.67061,-24.8579],[-53.67131,-24.85902],[-53.67051,-24.85959],[-53.67037,-24.85972],[-53.67026,-24.85985],[-53.66966,-24.85815],[-53.66959,-24.85799],[-53.66949,-24.85784],[-53.66936,-24.85772],[-53.66922,-24.85762],[-53.66835,-24.85711],[-53.668,-24.85612],[-53.66792,-24.85595],[-53.66781,-24.8558],[-53.66768,-24.85567],[-53.66752,-24.85557],[-53.66735,-24.8555],[-53.66717,-24.85546],[-53.66698,-24.85546],[-53.6668,-24.85549],[-53.66474,-24.85603],[-53.66461,-24.85608],[-53.66148,-24.85739],[-53.66132,-24.85748],[-53.66118,-24.85759],[-53.65892,-24.85974],[-53.65878,-24.85991],[-53.65868,-24.8601],[-53.65802,-24.86175],[-53.65701,-24.86271],[-53.65688,-24.86286],[-53.65678,-24.86303],[-53.65672,-24.86322],[-53.6567,-24.86342],[-53.65671,-24.86362],[-53.65677,-24.86381],[-53.65691,-24.86416],[-53.65615,-24.86425],[-53.65595,-24.8643],[-53.65576,-24.86439],[-53.65559,-24.86451],[-53.65546,-24.86467],[-53.65535,-24.86485],[-53.65529,-24.86505],[-53.65507,-24.86613],[-53.65428,-24.86623],[-53.65179,-24.86395],[-53.65162,-24.86383],[-53.65144,-24.86375],[-53.65124,-24.8637],[-53.65104,-24.86369],[-53.65084,-24.86373],[-53.64973,-24.86404],[-53.64956,-24.8641],[-53.6494,-24.8642],[-53.64926,-24.86433],[-53.64915,-24.86448],[-53.64907,-24.86464],[-53.64902,-24.86482],[-53.649,-24.86501],[-53.64902,-24.86519],[-53.64925,-24.86636],[-53.64927,-24.86642],[-53.64884,-24.86612],[-53.64868,-24.86603],[-53.6485,-24.86597],[-53.64831,-24.86594],[-53.64812,-24.86595],[-53.64794,-24.866],[-53.64777,-24.86607],[-53.64683,-24.86661],[-53.64684,-24.86649],[-53.6468,-24.86448],[-53.64743,-24.86436],[-53.64762,-24.8643],[-53.6478,-24.86421],[-53.64796,-24.86408],[-53.64809,-24.86392],[-53.64818,-24.86375],[-53.64823,-24.86355],[-53.64866,-24.86113],[-53.64868,-24.86094],[-53.64866,-24.86076],[-53.64861,-24.86058],[-53.64852,-24.86042],[-53.64841,-24.86027],[-53.64827,-24.86015],[-53.64672,-24.859],[-53.64655,-24.8589],[-53.64637,-24.85884],[-53.64618,-24.85881],[-53.64598,-24.85881],[-53.6458,-24.85886],[-53.64562,-24.85894],[-53.64543,-24.85905],[-53.64479,-24.85873],[-53.64462,-24.85866],[-53.64445,-24.85863],[-53.64427,-24.85862],[-53.6441,-24.85865],[-53.64393,-24.85871],[-53.64349,-24.85891],[-53.64353,-24.85881],[-53.64357,-24.85861],[-53.64356,-24.85841],[-53.64352,-24.85821],[-53.64344,-24.85803],[-53.64332,-24.85786],[-53.64303,-24.85753],[-53.64289,-24.85739],[-53.64271,-24.85729],[-53.64252,-24.85722],[-53.64232,-24.85719],[-53.64212,-24.8572],[-53.64193,-24.85725],[-53.64175,-24.85734],[-53.64047,-24.85816],[-53.64046,-24.85816],[-53.63895,-24.85914],[-53.63879,-24.85926],[-53.63867,-24.85941],[-53.63857,-24.85958],[-53.63851,-24.85977],[-53.63849,-24.85996],[-53.63851,-24.86016],[-53.63856,-24.86034],[-53.63865,-24.86052],[-53.63954,-24.8619],[-53.63961,-24.86247],[-53.63951,-24.86249],[-53.63931,-24.86258],[-53.63863,-24.86299],[-53.63846,-24.86311],[-53.63836,-24.86323],[-53.63833,-24.86322],[-53.63814,-24.8632],[-53.63794,-24.86321],[-53.63728,-24.86333],[-53.63573,-24.86278],[-53.63554,-24.86273],[-53.63534,-24.86272],[-53.63515,-24.86275],[-53.63496,-24.86282],[-53.63478,-24.8629],[-53.63459,-24.86302],[-53.63444,-24.86317],[-53.63432,-24.86336],[-53.63424,-24.86356],[-53.6341,-24.86412],[-53.63407,-24.86432],[-53.63408,-24.86452],[-53.63414,-24.86472],[-53.63423,-24.8649],[-53.63447,-24.86528],[-53.63447,-24.86528],[-53.63441,-24.86547],[-53.63438,-24.86568],[-53.63439,-24.86579],[-53.63413,-24.86583],[-53.63373,-24.86549],[-53.63359,-24.86539],[-53.63344,-24.86532],[-53.63242,-24.86494],[-53.63226,-24.8649],[-53.6321,-24.86488],[-53.63193,-24.86489],[-53.63143,-24.86496],[-53.63136,-24.86497],[-53.62976,-24.86532],[-53.62971,-24.86533],[-53.62883,-24.86557],[-53.62865,-24.86564],[-53.6285,-24.86573],[-53.62836,-24.86585],[-53.62825,-24.866],[-53.62816,-24.86616],[-53.62811,-24.86633],[-53.62809,-24.86652],[-53.62808,-24.86704],[-53.62808,-24.86708],[-53.62809,-24.86774],[-53.62803,-24.86799],[-53.62786,-24.86834],[-53.62768,-24.86859],[-53.62756,-24.86849],[-53.6274,-24.86841],[-53.62722,-24.86835],[-53.62613,-24.86809],[-53.62593,-24.86807],[-53.62573,-24.86808],[-53.62553,-24.86814],[-53.62535,-24.86823],[-53.6252,-24.86836],[-53.62447,-24.8691],[-53.62435,-24.86925],[-53.62425,-24.86942],[-53.6242,-24.86961],[-53.62418,-24.8698],[-53.6242,-24.87],[-53.62426,-24.87018],[-53.62435,-24.87035],[-53.62447,-24.87051],[-53.62619,-24.87224],[-53.62665,-24.87272],[-53.62666,-24.87273],[-53.63518,-24.88132],[-53.63512,-24.89354],[-53.635,-24.918],[-53.635,-24.918],[-53.635,-24.93228],[-53.63268,-24.93305],[-53.63249,-24.93314],[-53.63233,-24.93326],[-53.63219,-24.93342],[-53.63209,-24.9336],[-53.63202,-24.93379],[-53.632,-24.934],[-53.632,-24.938],[-53.63202,-24.9382],[-53.63208,-24.9384],[-53.63218,-24.93857],[-53.63231,-24.93873],[-53.63247,-24.93885],[-53.63266,-24.93894],[-53.63285,-24.93899],[-53.63306,-24.939],[-53.63326,-24.93897],[-53.63923,-24.93737],[-53.64567,-24.93566],[-53.64793,-24.93505],[-53.66462,-24.94192],[-53.66485,-24.94199],[-53.6651,-24.942],[-53.6692,-24.9416],[-53.68465,-24.9401],[-53.68484,-24.94006],[-53.68501,-24.93999],[-53.68517,-24.93989],[-53.68531,-24.93976],[-53.68542,-24.93961],[-53.6855,-24.93944],[-53.68554,-24.93926],[-53.68556,-24.93907],[-53.68556,-24.93906],[-53.68566,-24.939],[-53.68583,-24.93888],[-53.68597,-24.93873],[-53.68608,-24.93855],[-53.68615,-24.93836],[-53.68624,-24.93797],[-53.68624,-24.93794],[-53.68639,-24.93805],[-53.68652,-24.93814],[-53.68667,-24.9382],[-53.68727,-24.93839],[-53.68852,-24.93907],[-53.68849,-24.9396],[-53.68844,-24.94001],[-53.68844,-24.9402],[-53.68847,-24.94039],[-53.68854,-24.94057],[-53.68864,-24.94073],[-53.68876,-24.94087],[-53.68892,-24.94098],[-53.6892,-24.94116],[-53.68934,-24.94123],[-53.68948,-24.94127],[-53.68955,-24.94129],[-53.68962,-24.94135],[-53.68977,-24.94147],[-53.68994,-24.94156],[-53.69012,-24.94161],[-53.69031,-24.94163],[-53.69075,-24.94162],[-53.691,-24.94159],[-53.69122,-24.9415],[-53.69142,-24.9414],[-53.69149,-24.94152],[-53.69156,-24.94162],[-53.69199,-24.94216],[-53.69211,-24.94229],[-53.69225,-24.94239],[-53.69241,-24.94247],[-53.69271,-24.94259],[-53.69289,-24.94264],[-53.69307,-24.94266],[-53.69325,-24.94264],[-53.69343,-24.94259],[-53.6936,-24.94251],[-53.69374,-24.9424],[-53.69413,-24.94205],[-53.69427,-24.94189],[-53.69437,-24.94171],[-53.69444,-24.94151],[-53.69452,-24.9411],[-53.69454,-24.94091],[-53.69453,-24.94072],[-53.69448,-24.94054],[-53.69442,-24.94042],[-53.69465,-24.94041],[-53.69485,-24.94037],[-53.69505,-24.9403],[-53.69536,-24.94015],[-53.69555,-24.94002],[-53.69572,-24.93984],[-53.69589,-24.93959],[-53.696,-24.93942],[-53.69603,-24.93945],[-53.69619,-24.93953],[-53.6967,-24.93973],[-53.69689,-24.93979],[-53.69709,-24.93981],[-53.69729,-24.93978],[-53.69749,-24.93972],[-53.69803,-24.93947],[-53.69816,-24.9394],[-53.69886,-24.93894],[-53.69906,-24.93877],[-53.69907,-24.93875],[-53.69924,-24.93884],[-53.69941,-24.93891],[-53.69959,-24.93894],[-53.69977,-24.93895],[-53.69994,-24.93892],[-53.70021,-24.93885],[-53.70042,-24.93877],[-53.7006,-24.93865],[-53.70108,-24.93826],[-53.70163,-24.938],[-53.7019,-24.93808],[-53.70209,-24.93812],[-53.70228,-24.93812],[-53.70312,-24.93803],[-53.70331,-24.93799],[-53.7035,-24.93791],[-53.70428,-24.93748],[-53.70445,-24.93756],[-53.70492,-24.93779],[-53.70511,-24.93786],[-53.70531,-24.9379],[-53.70609,-24.93794],[-53.70626,-24.93794],[-53.70643,-24.9379],[-53.70711,-24.9377],[-53.70727,-24.93764],[-53.70743,-24.93778],[-53.70762,-24.9379],[-53.70784,-24.93796],[-53.70906,-24.93818],[-53.70924,-24.9382],[-53.70943,-24.93818],[-53.7096,-24.93813],[-53.70977,-24.93805],[-53.70994,-24.93794],[-53.71011,-24.93781],[-53.71025,-24.93764],[-53.71034,-24.93745],[-53.7104,-24.93725],[-53.71041,-24.93703],[-53.7104,-24.93686],[-53.71037,-24.93667],[-53.7103,-24.93649],[-53.7102,-24.93632],[-53.71017,-24.93627],[-53.71025,-24.93628],[-53.71046,-24.93629],[-53.71067,-24.93625],[-53.71112,-24.93612],[-53.71163,-24.93738],[-53.71168,-24.93749],[-53.71163,-24.93757],[-53.71156,-24.93773],[-53.71152,-24.9379],[-53.71149,-24.93812],[-53.71148,-24.93832],[-53.71152,-24.93853],[-53.71159,-24.93872],[-53.7117,-24.93889],[-53.712,-24.93926],[-53.71205,-24.93932],[-53.71266,-24.93997],[-53.71271,-24.94001],[-53.7132,-24.94047],[-53.71336,-24.94059],[-53.71354,-24.94068],[-53.71374,-24.94073],[-53.71394,-24.94074],[-53.71422,-24.94072],[-53.7144,-24.94069],[-53.71457,-24.94063],[-53.71473,-24.94054],[-53.71487,-24.94042],[-53.71498,-24.94028],[-53.71515,-24.94004],[-53.71522,-24.93991],[-53.71533,-24.93969],[-53.71537,-24.9397],[-53.71553,-24.93974],[-53.7157,-24.93975],[-53.71587,-24.93974],[-53.71638,-24.93964],[-53.71655,-24.93959],[-53.71671,-24.93952],[-53.71685,-24.93942],[-53.71697,-24.93932],[-53.71698,-24.93969],[-53.71694,-24.94013],[-53.71694,-24.9403],[-53.71697,-24.9407],[-53.71701,-24.94091],[-53.71709,-24.9411],[-53.71721,-24.94127],[-53.71736,-24.94142],[-53.71754,-24.94152],[-53.71773,-24.94159],[-53.71794,-24.94162],[-53.71828,-24.94163],[-53.71848,-24.94162],[-53.71866,-24.94157],[-53.71883,-24.94148],[-53.7192,-24.94126],[-53.71935,-24.94115],[-53.71948,-24.941],[-53.71954,-24.9409],[-53.71955,-24.94097],[-53.71957,-24.94106],[-53.71966,-24.94143],[-53.71972,-24.94162],[-53.71981,-24.94178],[-53.71994,-24.94193],[-53.72009,-24.94205],[-53.72026,-24.94214],[-53.72045,-24.94219],[-53.72077,-24.94225],[-53.72098,-24.94226],[-53.72118,-24.94224],[-53.72137,-24.94217],[-53.72179,-24.94198],[-53.72182,-24.94199],[-53.72182,-24.94199],[-53.7222,-24.94218],[-53.72238,-24.94224],[-53.72256,-24.94227],[-53.72274,-24.94227],[-53.72292,-24.94223],[-53.72338,-24.9421],[-53.72355,-24.94203],[-53.72371,-24.94193],[-53.72385,-24.9418],[-53.72396,-24.94165],[-53.72404,-24.94148],[-53.72408,-24.9413],[-53.72429,-24.94002],[-53.7243,-24.93985],[-53.7243,-24.93951],[-53.72435,-24.93954],[-53.72455,-24.93961],[-53.72476,-24.93964],[-53.72497,-24.93962],[-53.72517,-24.93955],[-53.7252,-24.93954],[-53.72531,-24.93963],[-53.72556,-24.93979],[-53.72572,-24.93987],[-53.72589,-24.93992],[-53.72607,-24.93994],[-53.72625,-24.93993],[-53.72643,-24.93988],[-53.72677,-24.93976],[-53.72693,-24.93968],[-53.72708,-24.93958],[-53.72749,-24.93924],[-53.72763,-24.93919],[-53.72824,-24.93931],[-53.72829,-24.93932],[-53.72937,-24.93947],[-53.72956,-24.93948],[-53.72974,-24.93946],[-53.72992,-24.9394],[-53.73008,-24.9393],[-53.73023,-24.93918],[-53.73048,-24.93892],[-53.73063,-24.93873],[-53.73077,-24.93849],[-53.73083,-24.93843],[-53.73094,-24.93847],[-53.73096,-24.93848],[-53.73145,-24.93866],[-53.73173,-24.93871],[-53.73225,-24.93874],[-53.73292,-24.93882],[-53.73314,-24.93892],[-53.7332,-24.93902],[-53.73346,-24.93957],[-53.73354,-24.9397],[-53.73363,-24.93982],[-53.73388,-24.94008],[-53.73402,-24.94021],[-53.73418,-24.9403],[-53.73436,-24.94037],[-53.73455,-24.9404],[-53.73474,-24.94039],[-53.73526,-24.94032],[-53.73548,-24.94027],[-53.73568,-24.94017],[-53.73585,-24.94003],[-53.7362,-24.93967],[-53.73632,-24.93952],[-53.73662,-24.93906],[-53.73671,-24.93891],[-53.73676,-24.93874],[-53.73691,-24.93811],[-53.73706,-24.93786],[-53.73713,-24.9377],[-53.73717,-24.93754],[-53.73723,-24.93719],[-53.73725,-24.937],[-53.73757,-24.93689],[-53.73775,-24.93691],[-53.73802,-24.9369],[-53.73858,-24.9368],[-53.73874,-24.93676],[-53.7389,-24.93669],[-53.73941,-24.9364],[-53.73958,-24.93628],[-53.73971,-24.93614],[-53.73991,-24.93588],[-53.74006,-24.93582],[-53.74036,-24.9358],[-53.74057,-24.93577],[-53.74077,-24.93569],[-53.74142,-24.93534],[-53.7416,-24.93522],[-53.74194,-24.93492],[-53.74207,-24.9348],[-53.74217,-24.93465],[-53.74224,-24.93448],[-53.74228,-24.93431],[-53.74229,-24.93413],[-53.74228,-24.9338],[-53.74226,-24.93362],[-53.74221,-24.93345],[-53.74212,-24.93329],[-53.74166,-24.93258],[-53.74164,-24.93254],[-53.74103,-24.93169],[-53.74106,-24.93156],[-53.74107,-24.93135],[-53.74103,-24.93095],[-53.741,-24.93075],[-53.74096,-24.93066],[-53.74105,-24.93065],[-53.74122,-24.9306],[-53.74138,-24.93053],[-53.74152,-24.93043],[-53.74191,-24.93011],[-53.74206,-24.92996],[-53.74217,-24.92978],[-53.74224,-24.92958],[-53.74227,-24.92938],[-53.74226,-24.92917],[-53.74217,-24.92866],[-53.74213,-24.92849],[-53.74205,-24.92832],[-53.74194,-24.92818],[-53.74181,-24.92805],[-53.74166,-24.92795],[-53.74173,-24.92787],[-53.74198,-24.92743],[-53.74209,-24.92717],[-53.74221,-24.9267],[-53.74221,-24.92669],[-53.7423,-24.92634],[-53.74242,-24.9262],[-53.74275,-24.92598],[-53.74289,-24.92587],[-53.74301,-24.92573],[-53.74311,-24.92558],[-53.74317,-24.92541],[-53.7432,-24.92523],[-53.74324,-24.92473],[-53.74324,-24.9245],[-53.7432,-24.92423],[-53.74333,-24.92402],[-53.74385,-24.92351],[-53.74389,-24.92347],[-53.74438,-24.92293],[-53.74451,-24.92276],[-53.74459,-24.92257],[-53.74464,-24.92237],[-53.74464,-24.92216],[-53.74463,-24.92211],[-53.74472,-24.92215],[-53.74483,-24.9222],[-53.74561,-24.92247],[-53.74582,-24.92252],[-53.74603,-24.92252],[-53.74624,-24.92248],[-53.74625,-24.92247],[-53.74623,-24.92269],[-53.74623,-24.92289],[-53.74627,-24.92308],[-53.7464,-24.92349],[-53.74648,-24.92367],[-53.74659,-24.92383],[-53.74673,-24.92397],[-53.74692,-24.92412],[-53.7471,-24.92424],[-53.7473,-24.92431],[-53.74752,-24.92434],[-53.74773,-24.92433],[-53.74799,-24.92428],[-53.7482,-24.92421],[-53.74839,-24.92411],[-53.74864,-24.92393],[-53.74872,-24.92392],[-53.74939,-24.92386],[-53.74966,-24.9238],[-53.75015,-24.92362],[-53.75033,-24.92352],[-53.75047,-24.92342],[-53.75099,-24.92401],[-53.7511,-24.92412],[-53.75148,-24.92443],[-53.75164,-24.92455],[-53.75183,-24.92462],[-53.75202,-24.92466],[-53.75222,-24.92466],[-53.75251,-24.92463],[-53.7527,-24.92459],[-53.75288,-24.92452],[-53.75305,-24.9244],[-53.75343,-24.92408],[-53.75356,-24.92396],[-53.75366,-24.92382],[-53.75376,-24.92364],[-53.75398,-24.92349],[-53.75493,-24.92309],[-53.75597,-24.92274],[-53.75692,-24.92253],[-53.75695,-24.92252],[-53.75767,-24.92234],[-53.75845,-24.92231],[-53.75858,-24.9223],[-53.75933,-24.92217],[-53.75951,-24.92212],[-53.75969,-24.92203],[-53.76003,-24.92182],[-53.76019,-24.9217],[-53.76032,-24.92155],[-53.76041,-24.92138],[-53.7606,-24.92097],[-53.76066,-24.92076],[-53.76068,-24.92054],[-53.76067,-24.92006],[-53.76064,-24.91985],[-53.76057,-24.91965],[-53.76044,-24.91938],[-53.76043,-24.91922],[-53.76051,-24.9195],[-53.76059,-24.91968],[-53.7607,-24.91984],[-53.76084,-24.91998],[-53.7612,-24.92027],[-53.76125,-24.92031],[-53.76168,-24.92061],[-53.76182,-24.92069],[-53.76198,-24.92075],[-53.76214,-24.92079],[-53.76279,-24.92086],[-53.76301,-24.92087],[-53.76321,-24.92082],[-53.76341,-24.92074],[-53.76358,-24.92062],[-53.76372,-24.92046],[-53.76383,-24.92027],[-53.764,-24.91989],[-53.76402,-24.91983],[-53.76423,-24.91926],[-53.76428,-24.91909],[-53.7643,-24.91892],[-53.76429,-24.91875],[-53.76421,-24.91828],[-53.76417,-24.91812],[-53.7641,-24.91796],[-53.76389,-24.91758],[-53.76391,-24.91756],[-53.76436,-24.91748],[-53.76454,-24.91743],[-53.76471,-24.91735],[-53.76486,-24.91723],[-53.76514,-24.91698],[-53.76525,-24.91686],[-53.7656,-24.91643],[-53.76609,-24.91622],[-53.76612,-24.91621],[-53.76692,-24.91584],[-53.76711,-24.91573],[-53.76726,-24.91558],[-53.76758,-24.91521],[-53.7677,-24.91504],[-53.76779,-24.91484],[-53.76781,-24.91469],[-53.76801,-24.91469],[-53.76819,-24.91468],[-53.76836,-24.91463],[-53.76893,-24.91441],[-53.76911,-24.91432],[-53.76928,-24.91419],[-53.7698,-24.91368],[-53.76992,-24.91354],[-53.77001,-24.91338],[-53.77001,-24.91338],[-53.77067,-24.91313],[-53.77089,-24.91301],[-53.77169,-24.91246],[-53.77185,-24.91236],[-53.77233,-24.91288],[-53.77235,-24.9129],[-53.77294,-24.91352],[-53.77311,-24.91367],[-53.77331,-24.91377],[-53.77352,-24.91383],[-53.77408,-24.9139],[-53.77429,-24.91391],[-53.7745,-24.91387],[-53.77469,-24.9138],[-53.77535,-24.91344],[-53.77551,-24.91334],[-53.77564,-24.9132],[-53.77575,-24.91304],[-53.77583,-24.91286],[-53.77587,-24.91267],[-53.77593,-24.91209],[-53.77594,-24.91193],[-53.77592,-24.91178],[-53.77588,-24.91157],[-53.77592,-24.91153],[-53.77608,-24.91133],[-53.77713,-24.9096],[-53.77751,-24.90906],[-53.77759,-24.90892],[-53.77765,-24.90877],[-53.77783,-24.90816],[-53.77791,-24.9079],[-53.77796,-24.90784],[-53.77833,-24.90758],[-53.78003,-24.90729],[-53.78004,-24.90729],[-53.78108,-24.90711],[-53.78108,-24.90711],[-53.78158,-24.90701],[-53.78164,-24.90706],[-53.78185,-24.90733],[-53.78198,-24.90747],[-53.78214,-24.90758],[-53.78232,-24.90766],[-53.78251,-24.90771],[-53.78271,-24.90771],[-53.7829,-24.90768],[-53.7836,-24.9075],[-53.78377,-24.90743],[-53.78393,-24.90733],[-53.78407,-24.90721],[-53.7843,-24.90697],[-53.78441,-24.90682],[-53.7845,-24.90665],[-53.78461,-24.90635],[-53.78465,-24.90622],[-53.78466,-24.90622],[-53.78501,-24.90631],[-53.7852,-24.90636],[-53.78542,-24.9064],[-53.78622,-24.90644],[-53.78647,-24.90642],[-53.78743,-24.90623],[-53.78745,-24.90622],[-53.78806,-24.90609],[-53.78826,-24.90602],[-53.78843,-24.90592],[-53.78859,-24.90578],[-53.78871,-24.90562],[-53.78911,-24.90493],[-53.7892,-24.90475],[-53.78924,-24.90456],[-53.78925,-24.90436],[-53.78922,-24.90381],[-53.78919,-24.90361],[-53.78912,-24.90343],[-53.78902,-24.90327],[-53.78889,-24.90312],[-53.78865,-24.9029],[-53.78857,-24.90271],[-53.78838,-24.90204],[-53.78825,-24.90132],[-53.78873,-24.90137],[-53.79041,-24.90182],[-53.79074,-24.90202],[-53.79172,-24.90261],[-53.79173,-24.90261],[-53.79204,-24.9028],[-53.79194,-24.90295],[-53.79183,-24.90316],[-53.79162,-24.90374],[-53.79113,-24.90478],[-53.79109,-24.9049],[-53.7906,-24.90643],[-53.79055,-24.90667],[-53.79051,-24.90733],[-53.79053,-24.9076],[-53.79072,-24.90853],[-53.79078,-24.90871],[-53.79113,-24.90955],[-53.79122,-24.90972],[-53.79134,-24.90986],[-53.79149,-24.90999],[-53.79166,-24.91008],[-53.79197,-24.91021],[-53.79219,-24.91027],[-53.79242,-24.91028],[-53.79278,-24.91026],[-53.79297,-24.91023],[-53.79315,-24.91017],[-53.79331,-24.91007],[-53.79381,-24.9097],[-53.79393,-24.90959],[-53.79404,-24.90946],[-53.79453,-24.90875],[-53.79456,-24.90872],[-53.79504,-24.90867],[-53.79607,-24.90867],[-53.7962,-24.90866],[-53.7974,-24.9085],[-53.79748,-24.90849],[-53.7986,-24.90825],[-53.79874,-24.90821],[-53.79887,-24.90815],[-53.79917,-24.90798],[-53.79916,-24.90813],[-53.79918,-24.90828],[-53.7993,-24.90905],[-53.79936,-24.90924],[-53.79944,-24.90941],[-53.79956,-24.90957],[-53.7997,-24.90969],[-53.79987,-24.90979],[-53.80005,-24.90986],[-53.80042,-24.90995],[-53.80063,-24.90997],[-53.80083,-24.90996],[-53.80102,-24.90991],[-53.8012,-24.90981],[-53.80136,-24.90969],[-53.80149,-24.90953],[-53.80159,-24.90935],[-53.80171,-24.90906],[-53.80177,-24.90883],[-53.80177,-24.90881],[-53.80195,-24.90865],[-53.80199,-24.90861],[-53.80232,-24.90828],[-53.80251,-24.90815],[-53.80259,-24.90814],[-53.80301,-24.90817],[-53.8033,-24.90829],[-53.80373,-24.90856],[-53.80388,-24.90887],[-53.80384,-24.90892],[-53.80375,-24.90908],[-53.80368,-24.90925],[-53.80365,-24.90943],[-53.80362,-24.90989],[-53.80363,-24.91009],[-53.80368,-24.91029],[-53.80376,-24.91047],[-53.80388,-24.91063],[-53.80403,-24.91077],[-53.80438,-24.91102],[-53.80474,-24.91151],[-53.80497,-24.91201],[-53.8051,-24.9125],[-53.80515,-24.91275],[-53.80523,-24.91301],[-53.80543,-24.91341],[-53.80557,-24.9136],[-53.80574,-24.91377],[-53.80611,-24.91403],[-53.80631,-24.91414],[-53.80654,-24.91421],[-53.80731,-24.91432],[-53.80749,-24.91433],[-53.80766,-24.91431],[-53.80783,-24.91426],[-53.8085,-24.914],[-53.80869,-24.9139],[-53.80886,-24.91375],[-53.80929,-24.91329],[-53.80939,-24.91316],[-53.80941,-24.91318],[-53.80958,-24.91331],[-53.80978,-24.91341],[-53.80999,-24.91345],[-53.81053,-24.91351],[-53.81069,-24.91352],[-53.81086,-24.91349],[-53.81173,-24.9133],[-53.81189,-24.91324],[-53.81205,-24.91316],[-53.81219,-24.91305],[-53.8128,-24.91248],[-53.81291,-24.91235],[-53.813,-24.91222],[-53.81307,-24.91206],[-53.81332,-24.9113],[-53.81335,-24.9112],[-53.81347,-24.91065],[-53.81349,-24.91043],[-53.81348,-24.9099],[-53.81348,-24.90986],[-53.81347,-24.90956],[-53.81384,-24.90961],[-53.8139,-24.90962],[-53.81424,-24.90964],[-53.81445,-24.91076],[-53.81455,-24.91157],[-53.8143,-24.91197],[-53.81427,-24.91204],[-53.81401,-24.91254],[-53.81393,-24.91273],[-53.8139,-24.91293],[-53.8139,-24.91313],[-53.81397,-24.91361],[-53.81402,-24.91382],[-53.81411,-24.91401],[-53.81478,-24.91509],[-53.81488,-24.91532],[-53.81482,-24.91575],[-53.81482,-24.91601],[-53.81486,-24.91635],[-53.8149,-24.91652],[-53.81496,-24.91668],[-53.81506,-24.91683],[-53.81518,-24.91696],[-53.81533,-24.9171],[-53.81551,-24.91723],[-53.8157,-24.91732],[-53.81591,-24.91736],[-53.81613,-24.91736],[-53.81634,-24.91731],[-53.81669,-24.91719],[-53.81687,-24.91711],[-53.81702,-24.917],[-53.81716,-24.91686],[-53.81725,-24.91674],[-53.81729,-24.91673],[-53.8179,-24.91668],[-53.8181,-24.91665],[-53.81829,-24.91657],[-53.81845,-24.91646],[-53.8186,-24.91632],[-53.81893,-24.91591],[-53.81903,-24.91577],[-53.8191,-24.91561],[-53.81914,-24.91545],[-53.8192,-24.91509],[-53.81937,-24.91505],[-53.81997,-24.9149],[-53.82017,-24.91483],[-53.82034,-24.91471],[-53.82049,-24.91457],[-53.82061,-24.9144],[-53.82074,-24.91415],[-53.82119,-24.91388],[-53.82131,-24.91379],[-53.82205,-24.91318],[-53.82218,-24.91305],[-53.82229,-24.9129],[-53.82236,-24.91274],[-53.8224,-24.91256],[-53.82251,-24.9119],[-53.82267,-24.91118],[-53.8227,-24.91099],[-53.82269,-24.9108],[-53.82264,-24.91062],[-53.82256,-24.91044],[-53.82245,-24.91029],[-53.82231,-24.91016],[-53.82194,-24.90987],[-53.82179,-24.90977],[-53.82162,-24.9097],[-53.8208,-24.90945],[-53.82063,-24.90941],[-53.82044,-24.90941],[-53.82029,-24.90942],[-53.8206,-24.90915],[-53.82076,-24.90896],[-53.8213,-24.90816],[-53.82149,-24.90807],[-53.82205,-24.90805],[-53.82223,-24.90802],[-53.82239,-24.90797],[-53.82255,-24.90788],[-53.82269,-24.90777],[-53.82307,-24.90741],[-53.82318,-24.90728],[-53.82327,-24.90713],[-53.82333,-24.90697],[-53.82334,-24.90696],[-53.82344,-24.90691],[-53.82366,-24.90689],[-53.82399,-24.90699],[-53.82472,-24.90722],[-53.82492,-24.90726],[-53.82603,-24.90737],[-53.82617,-24.90738],[-53.82709,-24.90734],[-53.82866,-24.90782],[-53.82873,-24.90793],[-53.82889,-24.90813],[-53.82926,-24.90848],[-53.82941,-24.90859],[-53.82957,-24.90867],[-53.82974,-24.90873],[-53.82992,-24.90875],[-53.83011,-24.90873],[-53.83081,-24.90862],[-53.83096,-24.90858],[-53.8311,-24.90852],[-53.83193,-24.9081],[-53.83211,-24.90799],[-53.83225,-24.90785],[-53.83237,-24.90767],[-53.83244,-24.90748],[-53.83248,-24.90728],[-53.83252,-24.90667],[-53.83283,-24.90574],[-53.83285,-24.90565],[-53.83306,-24.90475],[-53.83322,-24.90445],[-53.8333,-24.90428],[-53.83334,-24.9041],[-53.83335,-24.90392],[-53.83332,-24.90373],[-53.83326,-24.90357],[-53.83341,-24.90362],[-53.83362,-24.90367],[-53.83382,-24.90367],[-53.83403,-24.90364],[-53.83471,-24.90343],[-53.83485,-24.90338],[-53.83499,-24.9033],[-53.8356,-24.90288],[-53.83577,-24.90273],[-53.83591,-24.90255],[-53.83606,-24.90227],[-53.83622,-24.90216],[-53.83748,-24.90168],[-53.83773,-24.90155],[-53.83819,-24.9012],[-53.83832,-24.90107],[-53.83843,-24.90093],[-53.83852,-24.90076],[-53.83857,-24.90059],[-53.83858,-24.90041],[-53.83859,-24.89982],[-53.83857,-24.89964],[-53.83853,-24.89947],[-53.83845,-24.89931],[-53.83835,-24.89916],[-53.83799,-24.89874],[-53.83786,-24.89861],[-53.8377,-24.8985],[-53.83753,-24.89843],[-53.83675,-24.89819],[-53.83657,-24.89815],[-53.83639,-24.89815],[-53.83589,-24.89818],[-53.83557,-24.89819],[-53.83496,-24.89757],[-53.83478,-24.89743],[-53.83438,-24.89718],[-53.83398,-24.89664],[-53.83385,-24.89649],[-53.8337,-24.89637],[-53.83292,-24.8959],[-53.83276,-24.89582],[-53.8326,-24.89577],[-53.83243,-24.89575],[-53.83226,-24.89576],[-53.83164,-24.89585],[-53.83143,-24.89585],[-53.83143,-24.89584],[-53.83164,-24.89521],[-53.83169,-24.89499],[-53.83168,-24.89477],[-53.83163,-24.89455],[-53.83154,-24.89431],[-53.83159,-24.8942],[-53.83165,-24.89411],[-53.83172,-24.89409],[-53.83185,-24.89412],[-53.83235,-24.89435],[-53.83236,-24.89435],[-53.83343,-24.89485],[-53.83352,-24.89488],[-53.83459,-24.89525],[-53.83479,-24.8953],[-53.83499,-24.89531],[-53.83519,-24.89527],[-53.83538,-24.8952],[-53.83587,-24.89494],[-53.83596,-24.89489],[-53.8366,-24.89446],[-53.83715,-24.89417],[-53.83767,-24.89405],[-53.83916,-24.89415],[-53.84146,-24.8943],[-53.84246,-24.89454],[-53.84316,-24.89471],[-53.84338,-24.89475],[-53.8436,-24.89472],[-53.84423,-24.8946],[-53.84442,-24.89454],[-53.8446,-24.89444],[-53.84475,-24.89431],[-53.84488,-24.89415],[-53.84497,-24.89398],[-53.84513,-24.89356],[-53.84519,-24.89331],[-53.84526,-24.89269],[-53.84525,-24.89245],[-53.84524,-24.89234],[-53.84656,-24.89272],[-53.84672,-24.89275],[-53.84688,-24.89276],[-53.84752,-24.89273],[-53.8477,-24.8927],[-53.84787,-24.89265],[-53.84803,-24.89256],[-53.8484,-24.89231],[-53.84853,-24.89221],[-53.84863,-24.8921],[-53.84922,-24.89135],[-53.84931,-24.89121],[-53.84938,-24.89105],[-53.84952,-24.89066],[-53.84956,-24.89047],[-53.84957,-24.89028],[-53.84954,-24.89009],[-53.84947,-24.88991],[-53.84937,-24.88974],[-53.84924,-24.8896],[-53.84895,-24.88933],[-53.84873,-24.88918],[-53.84812,-24.88886],[-53.84792,-24.88879],[-53.8477,-24.88876],[-53.84696,-24.88873],[-53.84685,-24.88873],[-53.84626,-24.88877],[-53.84578,-24.8886],[-53.84561,-24.88856],[-53.84532,-24.88851],[-53.84535,-24.88835],[-53.84538,-24.88815],[-53.84537,-24.88795],[-53.84531,-24.88775],[-53.84522,-24.88758],[-53.84468,-24.88675],[-53.84463,-24.88668],[-53.84413,-24.88603],[-53.84448,-24.88591],[-53.84471,-24.88579],[-53.84673,-24.8844],[-53.84674,-24.88439],[-53.84735,-24.88396],[-53.84767,-24.88386],[-53.84775,-24.88383],[-53.84836,-24.88358],[-53.84853,-24.88349],[-53.84976,-24.88269],[-53.84985,-24.88264],[-53.84989,-24.88272],[-53.85,-24.88287],[-53.85014,-24.88299],[-53.8503,-24.88309],[-53.85048,-24.88315],[-53.85066,-24.88318],[-53.85126,-24.88322],[-53.85145,-24.88321],[-53.85163,-24.88317],[-53.85181,-24.8831],[-53.85245,-24.88275],[-53.8526,-24.88265],[-53.85273,-24.88252],[-53.85284,-24.88237],[-53.85292,-24.8822],[-53.85296,-24.88202],[-53.85303,-24.88158],[-53.85303,-24.88157],[-53.85355,-24.88137],[-53.85369,-24.88131],[-53.85382,-24.88122],[-53.85428,-24.88085],[-53.85442,-24.88071],[-53.85453,-24.88055],[-53.85461,-24.88037],[-53.85465,-24.88018],[-53.85468,-24.8799],[-53.85468,-24.8797],[-53.85465,-24.87951],[-53.85458,-24.87933],[-53.85447,-24.87916],[-53.85433,-24.87902],[-53.85417,-24.87891],[-53.85399,-24.87883],[-53.8538,-24.87879],[-53.85327,-24.87874],[-53.85314,-24.87873],[-53.85309,-24.87873],[-53.85275,-24.87854],[-53.85185,-24.87798],[-53.8517,-24.8779],[-53.85153,-24.87785],[-53.85136,-24.87783],[-53.85088,-24.87781],[-53.8507,-24.87782],[-53.85052,-24.87786],[-53.85035,-24.87793],[-53.8502,-24.87804],[-53.84981,-24.87836],[-53.84981,-24.87836],[-53.84984,-24.87781],[-53.85072,-24.87647],[-53.85081,-24.87629],[-53.85087,-24.8761],[-53.85088,-24.8759],[-53.85086,-24.8757],[-53.8508,-24.87551],[-53.8507,-24.87534],[-53.85057,-24.87519],[-53.85041,-24.87507],[-53.85023,-24.87498],[-53.85004,-24.87493],[-53.84984,-24.87492],[-53.84983,-24.87492],[-53.84943,-24.87462],[-53.84912,-24.87433],[-53.84894,-24.87407],[-53.84884,-24.87387],[-53.8488,-24.87367],[-53.84874,-24.87338],[-53.84873,-24.873],[-53.84873,-24.87297],[-53.84866,-24.87153],[-53.84866,-24.87151],[-53.8486,-24.87057],[-53.84858,-24.87045],[-53.84844,-24.86974],[-53.84842,-24.86964],[-53.84836,-24.86945],[-53.84836,-24.86944],[-53.84821,-24.86895],[-53.84816,-24.86882],[-53.84645,-24.86508],[-53.84641,-24.86501],[-53.84588,-24.86406],[-53.84581,-24.86396],[-53.84525,-24.86319],[-53.84518,-24.86311],[-53.84409,-24.86194],[-53.84408,-24.86193],[-53.84222,-24.85997],[-53.83821,-24.85576],[-53.83815,-24.8557],[-53.83737,-24.85502],[-53.83725,-24.85493],[-53.83631,-24.85434],[-53.83619,-24.85427],[-53.83539,-24.85391],[-53.83529,-24.85387],[-53.83434,-24.85356],[-53.83429,-24.85354],[-53.83382,-24.85342],[-53.83372,-24.8534],[-53.83334,-24.85333],[-53.83327,-24.85332],[-53.83263,-24.85325],[-53.83256,-24.85325],[-53.83214,-24.85323],[-53.83211,-24.85323],[-53.83069,-24.85321],[-53.83069,-24.85321],[-53.8299,-24.8532],[-53.82954,-24.8532],[-53.82953,-24.8532],[-53.82589,-24.85318],[-53.82421,-24.85317],[-53.82313,-24.8531],[-53.822,-24.8529],[-53.82125,-24.85265],[-53.82043,-24.85224],[-53.81971,-24.85174],[-53.81394,-24.8471],[-53.81394,-24.84709],[-53.81262,-24.84605],[-53.81259,-24.84602],[-53.81202,-24.84561],[-53.81051,-24.84438],[-53.8105,-24.84438],[-53.80415,-24.83931],[-53.80415,-24.8393],[-53.80248,-24.83799],[-53.80248,-24.83799],[-53.79901,-24.83531],[-53.79508,-24.83219],[-53.79504,-24.83215],[-53.79497,-24.83211],[-53.79282,-24.83038],[-53.79282,-24.83038],[-53.78952,-24.82774],[-53.78849,-24.82691],[-53.78846,-24.82689],[-53.78748,-24.82614],[-53.78728,-24.82598],[-53.78672,-24.82555],[-53.78607,-24.82493],[-53.78568,-24.82448],[-53.7855,-24.82427],[-53.78493,-24.82344],[-53.78435,-24.82243],[-53.78426,-24.82224],[-53.79166,-24.81575],[-53.79181,-24.81559],[-53.79192,-24.8154],[-53.79198,-24.8152],[-53.79595,-24.79536],[-53.79719,-24.79319],[-53.79722,-24.79314],[-53.80877,-24.7697],[-53.84589,-24.74724],[-53.84719,-24.74673],[-53.85418,-24.744],[-53.85488,-24.74402],[-53.85599,-24.74441],[-53.85644,-24.74467],[-53.85649,-24.7447],[-53.85718,-24.74505],[-53.85745,-24.74514],[-53.85788,-24.74522],[-53.8581,-24.74523],[-53.85832,-24.7452],[-53.85905,-24.745],[-53.85929,-24.74491],[-53.85992,-24.74455],[-53.86006,-24.74445],[-53.86019,-24.74433],[-53.86029,-24.74419],[-53.86036,-24.74403],[-53.86055,-24.74353],[-53.86059,-24.74336],[-53.86061,-24.74319],[-53.86061,-24.74263],[-53.86059,-24.74249],[-53.86074,-24.74246],[-53.86134,-24.74252],[-53.8621,-24.7427],[-53.86232,-24.74273],[-53.86253,-24.74271],[-53.86274,-24.74264],[-53.86292,-24.74253],[-53.86337,-24.7422],[-53.86352,-24.74207],[-53.86364,-24.7419],[-53.86373,-24.74171],[-53.86382,-24.74143],[-53.86403,-24.74119],[-53.86426,-24.74111],[-53.86494,-24.74113],[-53.86516,-24.74111],[-53.86626,-24.74088],[-53.86626,-24.74088],[-53.86687,-24.74076],[-53.86789,-24.74065],[-53.86809,-24.74061],[-53.86926,-24.74023],[-53.86935,-24.7402],[-53.87009,-24.73988],[-53.87086,-24.73979],[-53.87098,-24.73977],[-53.87158,-24.73963],[-53.87243,-24.73945],[-53.87247,-24.73944],[-53.87382,-24.7391],[-53.87395,-24.73906],[-53.87474,-24.73874],[-53.87489,-24.73867],[-53.87502,-24.73857],[-53.87557,-24.7381],[-53.87561,-24.73807],[-53.87614,-24.73756],[-53.87619,-24.7375],[-53.87666,-24.73697],[-53.87731,-24.73649],[-53.87806,-24.73606],[-53.87869,-24.73589],[-53.8793,-24.73582],[-53.87976,-24.73594],[-53.8805,-24.73624],[-53.88064,-24.73638],[-53.88078,-24.73649],[-53.88092,-24.73657],[-53.88135,-24.73676],[-53.88155,-24.73683],[-53.88177,-24.73685],[-53.88251,-24.73684],[-53.88272,-24.73681],[-53.88419,-24.73647],[-53.88442,-24.73639],[-53.8856,-24.73578],[-53.88696,-24.7353],[-53.88792,-24.73499],[-53.88798,-24.73497],[-53.88891,-24.73459],[-53.8902,-24.73412],[-53.8908,-24.73395],[-53.89167,-24.73386],[-53.89167,-24.73386],[-53.8919,-24.73435],[-53.89224,-24.7352],[-53.89227,-24.7356],[-53.89222,-24.73603],[-53.89207,-24.73666],[-53.89205,-24.73682],[-53.89203,-24.73722],[-53.89204,-24.73745],[-53.89209,-24.73769],[-53.89215,-24.73791],[-53.89227,-24.73811],[-53.89241,-24.7383],[-53.89243,-24.73833],[-53.8928,-24.73879],[-53.8929,-24.7389],[-53.89325,-24.73923],[-53.89368,-24.73964],[-53.89383,-24.73976],[-53.89398,-24.73986],[-53.89401,-24.73989],[-53.89427,-24.74043],[-53.89437,-24.74059],[-53.89455,-24.74084],[-53.89478,-24.74116],[-53.89482,-24.74145],[-53.89482,-24.74145],[-53.89487,-24.74173],[-53.89491,-24.7419],[-53.89498,-24.74206],[-53.89526,-24.74256],[-53.89537,-24.74272],[-53.89551,-24.74285],[-53.89567,-24.74296],[-53.89585,-24.74303],[-53.89636,-24.74318],[-53.89659,-24.74322],[-53.89682,-24.74321],[-53.89739,-24.7431],[-53.89759,-24.74304],[-53.89838,-24.74272],[-53.89849,-24.74266],[-53.89898,-24.74238],[-53.89912,-24.74228],[-53.89924,-24.74216],[-53.89979,-24.74153],[-53.89992,-24.74132],[-53.90024,-24.74067],[-53.90053,-24.74016],[-53.90054,-24.74013],[-53.90082,-24.73961],[-53.90082,-24.7396],[-53.90103,-24.73919],[-53.90122,-24.73901],[-53.90136,-24.73885],[-53.90159,-24.73851],[-53.90167,-24.73836],[-53.90173,-24.73819],[-53.90176,-24.73802],[-53.90179,-24.73769],[-53.90183,-24.73743],[-53.90199,-24.73709],[-53.90219,-24.73674],[-53.90249,-24.73635],[-53.90261,-24.73615],[-53.90271,-24.73591],[-53.90277,-24.73574],[-53.90279,-24.73556],[-53.90278,-24.73537],[-53.90271,-24.73489],[-53.90269,-24.73477],[-53.90256,-24.73432],[-53.90244,-24.73378],[-53.90235,-24.73354],[-53.9022,-24.73326],[-53.9021,-24.73297],[-53.90203,-24.73259],[-53.90193,-24.73231],[-53.90165,-24.73177],[-53.90154,-24.7316],[-53.90141,-24.73146],[-53.90125,-24.73135],[-53.90075,-24.73108],[-53.90069,-24.73105],[-53.90016,-24.73079],[-53.90007,-24.73076],[-53.89904,-24.73039],[-53.89857,-24.73018],[-53.89878,-24.73014],[-53.8988,-24.73013],[-53.89949,-24.72998],[-53.89955,-24.72996],[-53.9001,-24.7298],[-53.90032,-24.72971],[-53.90054,-24.72958],[-53.90114,-24.72932],[-53.90117,-24.72931],[-53.90167,-24.72907],[-53.90178,-24.72902],[-53.90214,-24.72879],[-53.90218,-24.72877],[-53.90249,-24.72876],[-53.90277,-24.72872],[-53.90339,-24.72852],[-53.90417,-24.72831],[-53.90433,-24.72825],[-53.90527,-24.72782],[-53.90532,-24.72779],[-53.90587,-24.7275],[-53.90614,-24.72742],[-53.90659,-24.72738],[-53.90678,-24.72735],[-53.90696,-24.72728],[-53.90748,-24.72703],[-53.90819,-24.72675],[-53.90832,-24.72669],[-53.90902,-24.72629],[-53.90956,-24.72602],[-53.90989,-24.72588],[-53.90993,-24.72586],[-53.91037,-24.72565],[-53.91046,-24.7256],[-53.91096,-24.7253],[-53.91098,-24.72529],[-53.91142,-24.725],[-53.91166,-24.72489],[-53.91195,-24.72483],[-53.91257,-24.72479],[-53.91282,-24.72474],[-53.9134,-24.72455],[-53.91351,-24.72451],[-53.91414,-24.72422],[-53.91436,-24.72408],[-53.915,-24.72355],[-53.9151,-24.72346],[-53.91546,-24.72306],[-53.91551,-24.723],[-53.91582,-24.72261],[-53.91596,-24.7225],[-53.91631,-24.72229],[-53.91688,-24.72197],[-53.917,-24.7219],[-53.91764,-24.72142],[-53.91777,-24.72131],[-53.91826,-24.72078],[-53.91862,-24.72053],[-53.91914,-24.72041],[-53.9192,-24.7204],[-53.92006,-24.72014],[-53.92023,-24.72008],[-53.92072,-24.71983],[-53.92083,-24.71976],[-53.92119,-24.71952],[-53.92136,-24.71937],[-53.9215,-24.71922],[-53.9215,-24.71922],[-53.9217,-24.71927],[-53.92187,-24.71929],[-53.92205,-24.71928],[-53.92222,-24.71924],[-53.92281,-24.71904],[-53.92295,-24.71898],[-53.92308,-24.7189],[-53.92353,-24.71858],[-53.92362,-24.71851],[-53.92395,-24.71821],[-53.92395,-24.71821],[-53.92426,-24.71793],[-53.92437,-24.71788],[-53.92437,-24.71788],[-53.92476,-24.71801],[-53.92483,-24.71803],[-53.9253,-24.71816],[-53.92551,-24.7182],[-53.92604,-24.71823],[-53.92699,-24.7184],[-53.92736,-24.71853],[-53.9276,-24.71861],[-53.92804,-24.7189],[-53.92811,-24.71894],[-53.92853,-24.71916],[-53.92893,-24.71937],[-53.92942,-24.71973],[-53.9296,-24.71984],[-53.93018,-24.72011],[-53.93073,-24.72052],[-53.931,-24.72075],[-53.93118,-24.72094],[-53.93131,-24.72105],[-53.93202,-24.72156],[-53.93212,-24.72163],[-53.93266,-24.72193],[-53.93369,-24.72282],[-53.93378,-24.72288],[-53.93461,-24.72345],[-53.93476,-24.72354],[-53.93491,-24.72359],[-53.93507,-24.72362],[-53.9355,-24.72367],[-53.93558,-24.72367],[-53.93617,-24.72369],[-53.93635,-24.72368],[-53.93652,-24.72364],[-53.93712,-24.72343],[-53.93749,-24.72332],[-53.93769,-24.72323],[-53.93786,-24.7231],[-53.93825,-24.72274],[-53.93825,-24.72273],[-53.93846,-24.72254],[-53.9388,-24.72237],[-53.9389,-24.72231],[-53.93949,-24.72193],[-53.93955,-24.72189],[-53.93996,-24.72158],[-53.9401,-24.72145],[-53.94038,-24.72115],[-53.94038,-24.72114],[-53.94084,-24.72063],[-53.9412,-24.72032],[-53.94153,-24.72007],[-53.94162,-24.72],[-53.94187,-24.71977],[-53.94195,-24.71968],[-53.9422,-24.71938],[-53.94231,-24.71923],[-53.94238,-24.71905],[-53.94245,-24.71883],[-53.94251,-24.71889],[-53.94283,-24.71941],[-53.94304,-24.71988],[-53.94323,-24.7204],[-53.94331,-24.72058],[-53.94356,-24.72099],[-53.94393,-24.7216],[-53.94408,-24.72179],[-53.94427,-24.72194],[-53.94463,-24.72216],[-53.94484,-24.72225],[-53.94507,-24.7223],[-53.94543,-24.72233],[-53.94564,-24.72232],[-53.94585,-24.72227],[-53.94604,-24.72218],[-53.94642,-24.72194],[-53.94662,-24.72177],[-53.94691,-24.72145],[-53.94704,-24.72127],[-53.9474,-24.72064],[-53.94749,-24.72046],[-53.94759,-24.72015],[-53.94763,-24.71996],[-53.94764,-24.71976],[-53.9476,-24.71957],[-53.94751,-24.71926],[-53.94748,-24.71894],[-53.94745,-24.71814],[-53.94746,-24.7177],[-53.94746,-24.71765],[-53.94744,-24.71716],[-53.94747,-24.71696],[-53.94763,-24.71651],[-53.94796,-24.71602],[-53.94835,-24.71568],[-53.94848,-24.71554],[-53.94881,-24.7151],[-53.94894,-24.71486],[-53.94923,-24.71414],[-53.9495,-24.71347],[-53.94954,-24.71337],[-53.94961,-24.7131],[-53.94982,-24.71303],[-53.94994,-24.713],[-53.95063,-24.71299],[-53.95152,-24.7131],[-53.95221,-24.71323],[-53.95244,-24.71325],[-53.95308,-24.71323],[-53.95341,-24.71324],[-53.9535,-24.71328],[-53.95352,-24.71339],[-53.95354,-24.7135],[-53.95369,-24.71407],[-53.95374,-24.71422],[-53.95381,-24.71436],[-53.95401,-24.71469],[-53.95416,-24.71502],[-53.95427,-24.7152],[-53.95453,-24.71556],[-53.95455,-24.71561],[-53.95455,-24.71565],[-53.95454,-24.71586],[-53.95439,-24.71615],[-53.95409,-24.71666],[-53.95402,-24.7168],[-53.9538,-24.71734],[-53.95353,-24.71798],[-53.95346,-24.71822],[-53.95338,-24.71875],[-53.95337,-24.71898],[-53.95341,-24.7192],[-53.95348,-24.71946],[-53.95358,-24.71967],[-53.95372,-24.71986],[-53.95392,-24.72006],[-53.95414,-24.72023],[-53.95446,-24.72041],[-53.95471,-24.72051],[-53.95506,-24.7206],[-53.95507,-24.72065],[-53.95503,-24.72077],[-53.95497,-24.72091],[-53.95481,-24.72108],[-53.95475,-24.72115],[-53.95453,-24.72141],[-53.95439,-24.72165],[-53.95422,-24.72206],[-53.95416,-24.72227],[-53.95414,-24.7225],[-53.95418,-24.72272],[-53.95425,-24.72296],[-53.95433,-24.72315],[-53.95444,-24.72333],[-53.95459,-24.72347],[-53.95503,-24.72382],[-53.95518,-24.72392],[-53.95534,-24.72399],[-53.95592,-24.72419],[-53.95603,-24.72422],[-53.95664,-24.72435],[-53.95669,-24.72436],[-53.95748,-24.72449],[-53.95772,-24.7245],[-53.95827,-24.72446],[-53.95846,-24.72443],[-53.9589,-24.72431],[-53.95902,-24.72427],[-53.95947,-24.72409],[-53.9595,-24.72407],[-53.95992,-24.72388],[-53.96011,-24.72377],[-53.96045,-24.72351],[-53.96063,-24.72334],[-53.96103,-24.72283],[-53.96115,-24.72264],[-53.96128,-24.72237],[-53.9613,-24.72233],[-53.96168,-24.7223],[-53.96171,-24.7223],[-53.96225,-24.72223],[-53.96241,-24.7222],[-53.96256,-24.72214],[-53.96307,-24.7219],[-53.96321,-24.72182],[-53.96348,-24.72163],[-53.96362,-24.72151],[-53.96374,-24.72136],[-53.96382,-24.72119],[-53.96396,-24.72085],[-53.96402,-24.72066],[-53.96403,-24.72046],[-53.96401,-24.72026],[-53.9639,-24.71976],[-53.96385,-24.71958],[-53.96377,-24.71943],[-53.96367,-24.71928],[-53.96364,-24.71915],[-53.96364,-24.71906],[-53.96368,-24.71875],[-53.96379,-24.71834],[-53.96382,-24.71819],[-53.96382,-24.71803],[-53.96381,-24.71764],[-53.96378,-24.71744],[-53.96371,-24.71725],[-53.96353,-24.71689],[-53.96362,-24.71686],[-53.96401,-24.71671],[-53.96403,-24.7167],[-53.96452,-24.71649],[-53.96455,-24.71648],[-53.96472,-24.71666],[-53.96482,-24.71675],[-53.96496,-24.71686],[-53.96515,-24.71709],[-53.96532,-24.71725],[-53.96553,-24.71737],[-53.96589,-24.71752],[-53.96591,-24.71753],[-53.96633,-24.71769],[-53.96636,-24.71771],[-53.96638,-24.71774],[-53.96639,-24.71779],[-53.96643,-24.7179],[-53.96647,-24.71799],[-53.96645,-24.7181],[-53.96637,-24.71826],[-53.9662,-24.71847],[-53.96609,-24.71865],[-53.96592,-24.71899],[-53.96585,-24.71916],[-53.96581,-24.71935],[-53.96582,-24.71954],[-53.96585,-24.71985],[-53.96589,-24.72005],[-53.96598,-24.72024],[-53.96611,-24.72047],[-53.9662,-24.7206],[-53.96632,-24.72071],[-53.96642,-24.7208],[-53.96633,-24.72095],[-53.96623,-24.72109],[-53.96618,-24.72115],[-53.96594,-24.72129],[-53.96585,-24.72136],[-53.9655,-24.72163],[-53.96547,-24.72166],[-53.96506,-24.722],[-53.965,-24.72205],[-53.96467,-24.72238],[-53.96455,-24.72251],[-53.9644,-24.72273],[-53.96418,-24.72265],[-53.96407,-24.72261],[-53.96355,-24.72247],[-53.96337,-24.72243],[-53.96319,-24.72244],[-53.96301,-24.72247],[-53.96284,-24.72253],[-53.9624,-24.72275],[-53.96237,-24.72276],[-53.96187,-24.72303],[-53.96168,-24.72316],[-53.96143,-24.72338],[-53.96109,-24.72365],[-53.96107,-24.72366],[-53.96067,-24.72399],[-53.9606,-24.72405],[-53.96018,-24.72447],[-53.96015,-24.7245],[-53.96004,-24.72462],[-53.95993,-24.72476],[-53.95985,-24.72493],[-53.9598,-24.7251],[-53.95972,-24.72547],[-53.95971,-24.72565],[-53.95972,-24.72582],[-53.95975,-24.72603],[-53.95979,-24.7262],[-53.95987,-24.72637],[-53.96001,-24.72662],[-53.96013,-24.72678],[-53.96027,-24.72692],[-53.96064,-24.7272],[-53.96077,-24.72737],[-53.96082,-24.72743],[-53.96105,-24.72769],[-53.96116,-24.72787],[-53.96135,-24.7281],[-53.96165,-24.72836],[-53.96181,-24.72848],[-53.962,-24.72856],[-53.96241,-24.72869],[-53.96246,-24.72871],[-53.96308,-24.72888],[-53.96395,-24.72913],[-53.9644,-24.72928],[-53.96469,-24.72933],[-53.9651,-24.72934],[-53.96513,-24.72934],[-53.96631,-24.72933],[-53.96631,-24.72933],[-53.96719,-24.72932],[-53.96723,-24.72932],[-53.96796,-24.72929],[-53.96814,-24.72927],[-53.96831,-24.72921],[-53.9689,-24.72896],[-53.96919,-24.72891],[-53.96919,-24.72895],[-53.96925,-24.72912],[-53.96933,-24.72928],[-53.96944,-24.72943],[-53.96958,-24.72955],[-53.97004,-24.72988],[-53.97028,-24.73001],[-53.97108,-24.7303],[-53.97127,-24.73035],[-53.97171,-24.73041],[-53.97231,-24.73059],[-53.97243,-24.73064],[-53.9723,-24.73079],[-53.97204,-24.73097],[-53.97059,-24.7318],[-53.97046,-24.73189],[-53.96988,-24.73235],[-53.96923,-24.73284],[-53.9692,-24.73287],[-53.9689,-24.73311],[-53.96848,-24.73336],[-53.96833,-24.73347],[-53.96809,-24.73369],[-53.96796,-24.73384],[-53.96785,-24.73402],[-53.96779,-24.73422],[-53.96771,-24.73458],[-53.96769,-24.73467],[-53.96765,-24.735],[-53.96765,-24.7352],[-53.96768,-24.7354],[-53.96776,-24.73559],[-53.96787,-24.73576],[-53.96803,-24.73595],[-53.96814,-24.73606],[-53.96827,-24.73616],[-53.96837,-24.73622],[-53.9684,-24.73625],[-53.96855,-24.73638],[-53.96872,-24.73647],[-53.96891,-24.73652],[-53.96918,-24.73658],[-53.96934,-24.7366],[-53.96985,-24.73662],[-53.97012,-24.73659],[-53.97138,-24.73629],[-53.97146,-24.73627],[-53.97285,-24.73581],[-53.97297,-24.73577],[-53.97399,-24.73528],[-53.97415,-24.73518],[-53.97429,-24.73506],[-53.97441,-24.73491],[-53.97457,-24.73465],[-53.97488,-24.73423],[-53.975,-24.73423],[-53.97505,-24.73423],[-53.97634,-24.73418],[-53.97645,-24.73417],[-53.97702,-24.73409],[-53.9772,-24.73404],[-53.97737,-24.73397],[-53.97752,-24.73387],[-53.97765,-24.73374],[-53.97806,-24.73324],[-53.97844,-24.73282],[-53.9785,-24.73274],[-53.97896,-24.73212],[-53.97951,-24.73166],[-53.98,-24.73129],[-53.98038,-24.73112],[-53.98072,-24.73105],[-53.98097,-24.73096],[-53.98151,-24.73069],[-53.98165,-24.73061],[-53.98177,-24.7305],[-53.98221,-24.73006],[-53.98252,-24.72979],[-53.98272,-24.72967],[-53.98313,-24.72954],[-53.98333,-24.72945],[-53.9835,-24.72932],[-53.98364,-24.72916],[-53.98374,-24.72897],[-53.98394,-24.72848],[-53.98399,-24.72831],[-53.98401,-24.72814],[-53.984,-24.72796],[-53.98392,-24.72742],[-53.98388,-24.72724],[-53.9838,-24.72707],[-53.98369,-24.72691],[-53.98355,-24.72678],[-53.98345,-24.7267],[-53.98363,-24.72653],[-53.98374,-24.72641],[-53.98407,-24.72597],[-53.98427,-24.72574],[-53.98466,-24.72553],[-53.98519,-24.72533],[-53.9854,-24.72522],[-53.98614,-24.72471],[-53.98704,-24.72409],[-53.98745,-24.72383],[-53.98748,-24.72392],[-53.98758,-24.72414],[-53.98766,-24.72429],[-53.98776,-24.72442],[-53.98789,-24.72453],[-53.98811,-24.7247],[-53.98831,-24.72481],[-53.98886,-24.72506],[-53.98921,-24.72531],[-53.98926,-24.72534],[-53.98966,-24.72559],[-53.98988,-24.7257],[-53.99024,-24.72582],[-53.99065,-24.72598],[-53.99131,-24.72624],[-53.99195,-24.72654],[-53.99212,-24.72665],[-53.99229,-24.72678],[-53.9923,-24.72682],[-53.99214,-24.72729],[-53.99192,-24.7276],[-53.99186,-24.72769],[-53.99158,-24.72819],[-53.99126,-24.72868],[-53.99091,-24.72916],[-53.99079,-24.72937],[-53.9907,-24.72961],[-53.99063,-24.72982],[-53.99062,-24.73004],[-53.99063,-24.73022],[-53.99066,-24.73042],[-53.99073,-24.73061],[-53.99083,-24.73078],[-53.99097,-24.73093],[-53.99114,-24.73104],[-53.99132,-24.73112],[-53.9915,-24.73118],[-53.99161,-24.73121],[-53.99193,-24.73128],[-53.99212,-24.7313],[-53.99231,-24.73128],[-53.993,-24.73116],[-53.9931,-24.73114],[-53.99404,-24.73088],[-53.99413,-24.73085],[-53.99482,-24.73058],[-53.99506,-24.73055],[-53.99563,-24.7306],[-53.99594,-24.73069],[-53.9966,-24.7309],[-53.99667,-24.73091],[-53.99773,-24.73116],[-53.99779,-24.73117],[-53.99856,-24.73129],[-53.9993,-24.73156],[-53.99938,-24.73158],[-53.99979,-24.73169],[-53.99986,-24.73178],[-53.99988,-24.73181],[-54.0001,-24.73208],[-54.00026,-24.73224],[-54.00046,-24.73236],[-54.00088,-24.73255],[-54.00107,-24.73261],[-54.00126,-24.73264],[-54.00191,-24.73265],[-54.0021,-24.73264],[-54.00227,-24.7326],[-54.00244,-24.73252],[-54.00259,-24.73241],[-54.00272,-24.73228],[-54.00296,-24.73198],[-54.00308,-24.73179],[-54.00316,-24.73159],[-54.00319,-24.73137],[-54.00317,-24.73116],[-54.00307,-24.73063],[-54.00306,-24.73061],[-54.00293,-24.72998],[-54.00298,-24.72974],[-54.00317,-24.72928],[-54.00329,-24.72903],[-54.00347,-24.72881],[-54.0035,-24.72877],[-54.0039,-24.72824],[-54.00402,-24.72804],[-54.00409,-24.72782],[-54.00422,-24.72711],[-54.00423,-24.7269],[-54.00421,-24.72628],[-54.0043,-24.72578],[-54.0044,-24.72548],[-54.00442,-24.72541],[-54.00462,-24.72469],[-54.00502,-24.7241],[-54.00515,-24.72396],[-54.00531,-24.72384],[-54.00537,-24.72382],[-54.00551,-24.72384],[-54.00576,-24.72393],[-54.0061,-24.72413],[-54.00692,-24.7248],[-54.00707,-24.72497],[-54.00721,-24.72527],[-54.00726,-24.72538],[-54.00745,-24.7257],[-54.0076,-24.72597],[-54.00775,-24.7263],[-54.00779,-24.72639],[-54.00795,-24.72666],[-54.00818,-24.72734],[-54.00828,-24.72766],[-54.00834,-24.72826],[-54.00839,-24.72847],[-54.00851,-24.72882],[-54.00859,-24.72897],[-54.00868,-24.72911],[-54.0088,-24.72924],[-54.00892,-24.72934],[-54.00926,-24.72973],[-54.00938,-24.72985],[-54.00966,-24.73008],[-54.00973,-24.73021],[-54.00985,-24.73039],[-54.0103,-24.73091],[-54.01057,-24.73126],[-54.01063,-24.73133],[-54.01102,-24.73176],[-54.01128,-24.73206],[-54.01143,-24.73221],[-54.01161,-24.73232],[-54.01202,-24.73251],[-54.01217,-24.73257],[-54.01232,-24.7326],[-54.01273,-24.73266],[-54.01291,-24.73266],[-54.0131,-24.73264],[-54.0135,-24.73254],[-54.0137,-24.73246],[-54.01389,-24.73235],[-54.01404,-24.7322],[-54.01416,-24.73201],[-54.01423,-24.73181],[-54.01439,-24.73118],[-54.01441,-24.73112],[-54.01448,-24.73077],[-54.01449,-24.73068],[-54.01455,-24.73011],[-54.01464,-24.72974],[-54.01467,-24.72954],[-54.01465,-24.72934],[-54.01458,-24.72894],[-54.01451,-24.7285],[-54.0145,-24.72846],[-54.01439,-24.72792],[-54.01435,-24.72766],[-54.01469,-24.72735],[-54.01543,-24.72684],[-54.01577,-24.72663],[-54.01579,-24.72664],[-54.01586,-24.72675],[-54.01606,-24.7272],[-54.01618,-24.72865],[-54.01616,-24.7291],[-54.01616,-24.72916],[-54.01617,-24.73048],[-54.01617,-24.73156],[-54.01605,-24.73211],[-54.01588,-24.73269],[-54.01583,-24.7328],[-54.01578,-24.7328],[-54.01523,-24.73278],[-54.01461,-24.73272],[-54.01439,-24.73272],[-54.01418,-24.73277],[-54.01387,-24.73288],[-54.01369,-24.73297],[-54.01354,-24.73309],[-54.0134,-24.73323],[-54.01317,-24.73355],[-54.01307,-24.73372],[-54.01301,-24.7339],[-54.01285,-24.73455],[-54.01283,-24.73463],[-54.01264,-24.73585],[-54.01263,-24.73598],[-54.01261,-24.73647],[-54.01264,-24.73673],[-54.01268,-24.73688],[-54.01258,-24.73707],[-54.01232,-24.73742],[-54.01221,-24.73761],[-54.01214,-24.73782],[-54.01202,-24.73843],[-54.012,-24.73857],[-54.01197,-24.73915],[-54.01198,-24.73934],[-54.01202,-24.73953],[-54.01223,-24.74013],[-54.01225,-24.74058],[-54.01221,-24.74136],[-54.01221,-24.74141],[-54.01221,-24.74243],[-54.01223,-24.74264],[-54.01242,-24.74357],[-54.01249,-24.74377],[-54.01259,-24.74395],[-54.01273,-24.74411],[-54.01297,-24.74432],[-54.01312,-24.74443],[-54.01329,-24.74452],[-54.01347,-24.74457],[-54.01366,-24.74458],[-54.01385,-24.74456],[-54.0145,-24.74442],[-54.01466,-24.74437],[-54.01493,-24.74426],[-54.01553,-24.74417],[-54.01568,-24.74414],[-54.01659,-24.74387],[-54.01659,-24.74386],[-54.01757,-24.74357],[-54.01799,-24.74348],[-54.01958,-24.74325],[-54.02046,-24.74319],[-54.02124,-24.74316],[-54.0214,-24.74314],[-54.02155,-24.7431],[-54.02223,-24.74286],[-54.02242,-24.74276],[-54.02259,-24.74263],[-54.02273,-24.74245],[-54.02283,-24.74226],[-54.02334,-24.74083],[-54.02364,-24.74002],[-54.02368,-24.73986],[-54.0237,-24.7397],[-54.02369,-24.73954],[-54.02361,-24.73893],[-54.02355,-24.73872],[-54.02339,-24.73829],[-54.02326,-24.73788],[-54.02328,-24.73787],[-54.0241,-24.7377],[-54.0252,-24.73764],[-54.02556,-24.73776],[-54.02629,-24.73827],[-54.02652,-24.73882],[-54.02661,-24.73899],[-54.02673,-24.73914],[-54.02699,-24.7394],[-54.02745,-24.74041],[-54.02753,-24.74055],[-54.02763,-24.74068],[-54.02814,-24.74123],[-54.02829,-24.74136],[-54.02846,-24.74146],[-54.02865,-24.74152],[-54.02884,-24.74155],[-54.02904,-24.74154],[-54.02923,-24.74148],[-54.0294,-24.7414],[-54.02956,-24.74128],[-54.02969,-24.74113],[-54.02979,-24.74096],[-54.02985,-24.74077],[-54.02995,-24.74031],[-54.03274,-24.73382],[-54.03592,-24.72639],[-54.03598,-24.7262],[-54.036,-24.72599],[-54.03598,-24.72578],[-54.03591,-24.72559],[-54.0358,-24.72541],[-54.03566,-24.72525],[-54.03347,-24.7233],[-54.03273,-24.72265],[-54.03195,-24.72195],[-54.02666,-24.71725],[-54.02666,-24.71725],[-54.02654,-24.71714],[-54.02033,-24.71171],[-54.01969,-24.71115],[-54.02241,-24.70952],[-54.02851,-24.70586],[-54.02869,-24.70573],[-54.02883,-24.70556],[-54.02893,-24.70537],[-54.03293,-24.69537],[-54.03299,-24.69516],[-54.033,-24.69493],[-54.03296,-24.69471],[-54.03211,-24.6919],[-54.03045,-24.68634],[-54.03013,-24.68528],[-54.03571,-24.6797],[-54.03608,-24.67934],[-54.03735,-24.67806],[-54.03764,-24.67777],[-54.03883,-24.67669],[-54.04147,-24.67427],[-54.04193,-24.67384],[-54.04194,-24.67384],[-54.04209,-24.67373],[-54.04221,-24.6736],[-54.04231,-24.67344],[-54.04238,-24.67328],[-54.04242,-24.6731],[-54.04242,-24.67291],[-54.04239,-24.67273],[-54.04232,-24.67244],[-54.04227,-24.6723],[-54.04213,-24.67197],[-54.04206,-24.67183],[-54.04197,-24.67171],[-54.04178,-24.67149],[-54.04171,-24.67139],[-54.04162,-24.67121],[-54.04163,-24.67116],[-54.04167,-24.67102],[-54.04174,-24.67082],[-54.04178,-24.67065],[-54.04181,-24.67045],[-54.04187,-24.67022],[-54.04193,-24.67003],[-54.04206,-24.66994],[-54.04211,-24.66989],[-54.04234,-24.66979],[-54.04273,-24.66962],[-54.04283,-24.66956],[-54.04306,-24.66943],[-54.0432,-24.66933],[-54.04332,-24.66921],[-54.04345,-24.66905],[-54.04364,-24.66893],[-54.04388,-24.66879],[-54.04406,-24.66866],[-54.04421,-24.66849],[-54.04432,-24.66834],[-54.04442,-24.66815],[-54.04448,-24.66794],[-54.0445,-24.66773],[-54.04447,-24.66752],[-54.04439,-24.66732],[-54.04434,-24.66721]]]},"properties":{"ghs":"6g9","size":717.09,"ghs_len":3,"ghs_area":1227.7,"ghs_bytes":135269,"ghs_items":1271,"size_unit":"km","ghsval_unit":"bytes","ghs_itemsdensity":1.04,"size_unitdensity":0.58}}]}
