{"type":"FeatureCollection","features":[{"type":"Feature","geometry":{"type":"MultiPolygon","coordinates":[[[[-59.81242,-2.8125],[-59.81042,-2.816],[-59.803,-2.816],[-59.80282,-2.81602],[-59.80264,-2.81607],[-59.80247,-2.81615],[-59.78188,-2.8289],[-59.75933,-2.82106],[-59.75914,-2.82101],[-59.75895,-2.821],[-59.75876,-2.82103],[-59.75858,-2.82109],[-59.75842,-2.82119],[-59.75142,-2.82619],[-59.75127,-2.82632],[-59.75115,-2.82648],[-59.73715,-2.84948],[-59.73707,-2.84964],[-59.73702,-2.84982],[-59.737,-2.85],[-59.737,-2.8575],[-59.7254,-2.8662],[-59.72521,-2.86638],[-59.71421,-2.88038],[-59.71411,-2.88054],[-59.71404,-2.88071],[-59.71401,-2.8809],[-59.714,-2.88109],[-59.71404,-2.88127],[-59.71411,-2.88145],[-59.71421,-2.88161],[-59.72688,-2.89819],[-59.72013,-2.91844],[-59.70732,-2.93027],[-59.70719,-2.93041],[-59.70709,-2.93058],[-59.70703,-2.93076],[-59.70519,-2.9381],[-59.65387,-2.94501],[-59.65368,-2.94505],[-59.6535,-2.94514],[-59.65334,-2.94525],[-59.63655,-2.96006],[-59.62004,-2.96298],[-59.59624,-2.95703],[-59.59606,-2.957],[-59.59588,-2.95701],[-59.579,-2.95899],[-59.54722,-2.95502],[-59.53232,-2.95005],[-59.53214,-2.95001],[-59.53196,-2.95],[-59.53178,-2.95002],[-59.53161,-2.95008],[-59.52461,-2.95308],[-59.52444,-2.95317],[-59.52429,-2.9533],[-59.52417,-2.95345],[-59.52033,-2.9592],[-59.50661,-2.96508],[-59.50647,-2.96515],[-59.50635,-2.96524],[-59.49935,-2.97124],[-59.4992,-2.9714],[-59.49909,-2.97158],[-59.49902,-2.97179],[-59.499,-2.972],[-59.499,-2.98632],[-59.48463,-2.99207],[-59.48448,-2.99215],[-59.48435,-2.99224],[-59.48423,-2.99236],[-59.4543,-3.02828],[-59.43056,-3.04708],[-59.40478,-3.05303],[-59.40453,-3.05312],[-59.37253,-3.07012],[-59.37239,-3.07021],[-59.37227,-3.07032],[-59.34627,-3.09832],[-59.34617,-3.09844],[-59.3461,-3.09857],[-59.34285,-3.10545],[-59.33547,-3.11137],[-59.31911,-3.11202],[-59.31889,-3.11206],[-59.31869,-3.11213],[-59.31851,-3.11225],[-59.31835,-3.11241],[-59.31222,-3.12038],[-59.30359,-3.13093],[-59.27715,-3.12701],[-59.27693,-3.127],[-59.26193,-3.128],[-59.26178,-3.12802],[-59.26164,-3.12807],[-59.23864,-3.13707],[-59.15964,-3.16707],[-59.15946,-3.16716],[-59.1593,-3.16729],[-59.15917,-3.16744],[-59.15907,-3.16762],[-59.15902,-3.16782],[-59.159,-3.16803],[-59.15903,-3.16823],[-59.15909,-3.16842],[-59.1592,-3.1686],[-59.1622,-3.1726],[-59.16223,-3.17264],[-59.16723,-3.17864],[-59.16737,-3.17877],[-59.16752,-3.17888],[-59.1677,-3.17895],[-59.16788,-3.17899],[-59.16807,-3.179],[-59.18199,-3.178],[-59.20592,-3.18],[-59.2062,-3.17998],[-59.2212,-3.17698],[-59.22139,-3.17692],[-59.22157,-3.17682],[-59.24148,-3.16289],[-59.26423,-3.15398],[-59.35058,-3.14604],[-59.35725,-3.15366],[-59.35738,-3.15378],[-59.35753,-3.15388],[-59.3577,-3.15395],[-59.37704,-3.16],[-59.3897,-3.16395],[-59.38992,-3.164],[-59.39015,-3.16399],[-59.39037,-3.16393],[-59.47922,-3.12899],[-59.51605,-3.127],[-59.51618,-3.12698],[-59.54918,-3.12098],[-59.5494,-3.12091],[-59.57277,-3.1106],[-59.5834,-3.10591],[-59.62638,-3.08693],[-59.68329,-3.06596],[-59.70012,-3.062],[-59.71696,-3.062],[-59.76562,-3.06623],[-59.76562,-2.98828],[-59.89746,-2.98828],[-59.94141,-2.98828],[-59.98535,-2.98828],[-60.0293,-2.98828],[-60.07324,-2.98828],[-60.11719,-2.98828],[-60.11719,-3.14869],[-60.14042,-3.13791],[-60.1406,-3.1378],[-60.14075,-3.13766],[-60.14087,-3.1375],[-60.14462,-3.13093],[-60.16812,-3.12799],[-60.16834,-3.12794],[-60.16855,-3.12784],[-60.16872,-3.12769],[-60.19559,-3.09983],[-60.21042,-3.09291],[-60.22517,-3.0861],[-60.23085,-3.08348],[-60.23374,-3.08247],[-60.23877,-3.08182],[-60.24183,-3.08174],[-60.24212,-3.08176],[-60.24232,-3.08175],[-60.24251,-3.0817],[-60.24296,-3.08153],[-60.24318,-3.08142],[-60.24418,-3.08074],[-60.24426,-3.08074],[-60.24443,-3.08072],[-60.24459,-3.08067],[-60.24474,-3.0806],[-60.24489,-3.08051],[-60.24564,-3.0805],[-60.24574,-3.08068],[-60.24588,-3.08089],[-60.24601,-3.08105],[-60.24618,-3.08117],[-60.24636,-3.08126],[-60.24656,-3.08131],[-60.24676,-3.08132],[-60.24696,-3.08129],[-60.24716,-3.08122],[-60.24733,-3.08111],[-60.24749,-3.08097],[-60.24761,-3.08086],[-60.24761,-3.08086],[-60.24778,-3.08083],[-60.25284,-3.08275],[-60.25304,-3.0828],[-60.25326,-3.08281],[-60.25347,-3.08278],[-60.2539,-3.08265],[-60.25414,-3.08271],[-60.25431,-3.08273],[-60.25448,-3.08273],[-60.2549,-3.08269],[-60.25554,-3.08273],[-60.2556,-3.08277],[-60.25579,-3.08286],[-60.25599,-3.08291],[-60.25619,-3.08292],[-60.2564,-3.08289],[-60.25659,-3.08281],[-60.25677,-3.0827],[-60.25698,-3.08252],[-60.25758,-3.08242],[-60.25865,-3.08248],[-60.26053,-3.08303],[-60.26067,-3.08306],[-60.26188,-3.08325],[-60.26185,-3.08329],[-60.26177,-3.08349],[-60.26173,-3.0837],[-60.26173,-3.08391],[-60.26178,-3.08412],[-60.26214,-3.08511],[-60.26222,-3.08528],[-60.26233,-3.08543],[-60.26246,-3.08556],[-60.26262,-3.08566],[-60.26279,-3.08573],[-60.26298,-3.08577],[-60.26317,-3.08577],[-60.26331,-3.08576],[-60.26508,-3.08837],[-60.2652,-3.08852],[-60.26535,-3.08864],[-60.26551,-3.08873],[-60.26826,-3.08993],[-60.26844,-3.08999],[-60.26863,-3.09001],[-60.26883,-3.08999],[-60.26901,-3.08994],[-60.26919,-3.08986],[-60.26934,-3.08974],[-60.26947,-3.0896],[-60.27048,-3.08821],[-60.27219,-3.08881],[-60.27189,-3.09022],[-60.27187,-3.09041],[-60.27188,-3.09061],[-60.27194,-3.0908],[-60.27203,-3.09098],[-60.27216,-3.09113],[-60.27352,-3.09249],[-60.27366,-3.09261],[-60.27383,-3.0927],[-60.27401,-3.09276],[-60.2742,-3.09278],[-60.27439,-3.09277],[-60.27457,-3.09272],[-60.27474,-3.09263],[-60.2749,-3.09252],[-60.27542,-3.09205],[-60.28234,-3.09481],[-60.28696,-3.10178],[-60.28709,-3.10194],[-60.28725,-3.10206],[-60.28744,-3.10216],[-60.28764,-3.10221],[-60.28784,-3.10222],[-60.28805,-3.10219],[-60.28824,-3.10212],[-60.28842,-3.102],[-60.29169,-3.09939],[-60.29182,-3.09927],[-60.29192,-3.09913],[-60.292,-3.09897],[-60.29205,-3.0988],[-60.29486,-3.0848],[-60.31082,-3.08037],[-60.31001,-3.08688],[-60.31,-3.08709],[-60.31005,-3.0873],[-60.31013,-3.0875],[-60.31413,-3.0945],[-60.31424,-3.09465],[-60.31437,-3.09478],[-60.31453,-3.09488],[-60.32753,-3.10188],[-60.3277,-3.10195],[-60.32788,-3.10199],[-60.32806,-3.102],[-60.32824,-3.10197],[-60.33624,-3.09997],[-60.3363,-3.09995],[-60.33999,-3.09878],[-60.36607,-3.09468],[-60.38428,-3.09315],[-60.43798,-3.094],[-60.43819,-3.09398],[-60.43839,-3.09392],[-60.44539,-3.09092],[-60.44555,-3.09084],[-60.44568,-3.09073],[-60.4458,-3.0906],[-60.4548,-3.0786],[-60.4549,-3.07844],[-60.45497,-3.07826],[-60.455,-3.07807],[-60.45527,-3.07423],[-60.45601,-3.08012],[-60.45605,-3.08031],[-60.45612,-3.08048],[-60.45623,-3.08064],[-60.45636,-3.08077],[-60.46836,-3.09077],[-60.4685,-3.09087],[-60.46866,-3.09094],[-60.46875,-3.09096],[-60.46875,-2.8125],[-59.81242,-2.8125]]],[[[-60.04591,-3.16406],[-60.04718,-3.16489],[-60.0472,-3.1649],[-60.05347,-3.16885],[-60.05363,-3.16893],[-60.05381,-3.16898],[-60.05399,-3.169],[-60.05417,-3.16898],[-60.05435,-3.16894],[-60.06324,-3.1656],[-60.06735,-3.16406],[-60.04591,-3.16406]]],[[[-60.0293,-3.16406],[-59.98535,-3.16406],[-59.93266,-3.16406],[-59.93402,-3.17022],[-59.93409,-3.17041],[-59.93418,-3.17058],[-59.93431,-3.17073],[-59.93447,-3.17085],[-59.94218,-3.17567],[-59.95206,-3.20235],[-59.95215,-3.20253],[-59.95228,-3.20269],[-59.95243,-3.20282],[-59.95261,-3.20292],[-59.9528,-3.20298],[-59.953,-3.203],[-59.9532,-3.20298],[-59.95339,-3.20292],[-59.95939,-3.20035],[-59.96205,-3.20832],[-59.96214,-3.20851],[-59.96226,-3.20867],[-59.96242,-3.20881],[-59.96942,-3.21381],[-59.96958,-3.21391],[-59.96976,-3.21397],[-59.9856,-3.21793],[-59.99347,-3.22285],[-59.99365,-3.22294],[-59.99384,-3.22299],[-59.99404,-3.223],[-59.99423,-3.22297],[-59.99442,-3.22291],[-59.99459,-3.22281],[-59.99474,-3.22267],[-59.99486,-3.22251],[-60.00086,-3.21251],[-60.00094,-3.21233],[-60.00099,-3.21214],[-60.001,-3.21194],[-60.00097,-3.21174],[-60.0009,-3.21156],[-60.00079,-3.21139],[-60.00065,-3.21124],[-60.00049,-3.21113],[-60.00031,-3.21105],[-60.00011,-3.21101],[-59.99318,-3.21024],[-60.00032,-3.2031],[-60.00371,-3.19971],[-60.00384,-3.19955],[-60.00393,-3.19937],[-60.00398,-3.19917],[-60.004,-3.19897],[-60.00397,-3.19877],[-60.00391,-3.19858],[-60.0038,-3.1984],[-60.00367,-3.19825],[-60.0035,-3.19813],[-60.00332,-3.19805],[-60.00312,-3.19801],[-59.98784,-3.19621],[-59.99265,-3.18979],[-60.02344,-3.1749],[-60.02366,-3.17475],[-60.03577,-3.16406],[-60.0293,-3.16406]]]]},"properties":{"ghs":"6xm","size":0.9,"ghs_len":3,"ghs_area":2802.75,"ghs_bytes":2387161,"ghs_items":13320,"size_unit":"km2","ghsval_unit":"bytes","ghs_itemsdensity":4.75,"size_unitdensity":0}},{"type":"Feature","geometry":{"type":"MultiPolygon","coordinates":[[[[-60.07324,-2.98828],[-60.07324,-3.03223],[-60.07324,-3.07068],[-60.07324,-3.07617],[-60.07324,-3.08167],[-60.07324,-3.08716],[-60.07324,-3.09265],[-60.07324,-3.09814],[-60.07324,-3.10364],[-60.07324,-3.12012],[-60.07324,-3.14692],[-60.08512,-3.12864],[-60.09211,-3.1365],[-60.09604,-3.14929],[-60.09612,-3.14948],[-60.09624,-3.14964],[-60.09638,-3.14978],[-60.09655,-3.14989],[-60.09674,-3.14996],[-60.09693,-3.15],[-60.11193,-3.151],[-60.1121,-3.15099],[-60.11226,-3.15096],[-60.11242,-3.15091],[-60.11719,-3.14869],[-60.11719,-2.98828],[-60.07324,-2.98828]]],[[[-60.07324,-3.16082],[-60.0746,-3.1598],[-60.07473,-3.15968],[-60.07485,-3.15953],[-60.07493,-3.15937],[-60.07498,-3.1592],[-60.075,-3.15902],[-60.07499,-3.15884],[-60.07471,-3.15717],[-60.07468,-3.15701],[-60.07324,-3.14837],[-60.07324,-3.16082]]],[[[-59.76562,-3.06623],[-59.78581,-3.06799],[-59.80265,-3.07294],[-59.85849,-3.09887],[-59.8933,-3.12373],[-59.90306,-3.13602],[-59.91622,-3.15262],[-59.91636,-3.15277],[-59.91653,-3.15288],[-59.91673,-3.15296],[-59.92354,-3.15491],[-59.9321,-3.16157],[-59.93266,-3.16406],[-59.98535,-3.16406],[-59.98535,-3.14209],[-59.98535,-3.1366],[-59.98535,-3.1311],[-59.98535,-3.12561],[-59.98535,-3.12012],[-59.97437,-3.12012],[-59.94141,-3.12012],[-59.89746,-3.12012],[-59.89746,-3.07617],[-59.89746,-3.03223],[-59.89746,-2.98828],[-59.76562,-2.98828],[-59.76562,-3.06623]]]]},"properties":{"ghs":"6xmq","size":2.81,"ghs_len":4,"ghs_area":287.8,"ghs_bytes":2561798,"ghs_items":12924,"size_unit":"km2","ghsval_unit":"bytes","ghs_itemsdensity":44.91,"size_unitdensity":0.01}},{"type":"Feature","geometry":{"type":"Polygon","coordinates":[[[-60.05127,-3.12012],[-60.04028,-3.12012],[-60.0293,-3.12012],[-60.0293,-3.12561],[-60.0293,-3.1311],[-60.0293,-3.16406],[-60.03577,-3.16406],[-60.04009,-3.16025],[-60.04591,-3.16406],[-60.06735,-3.16406],[-60.07035,-3.16294],[-60.0706,-3.1628],[-60.07324,-3.16082],[-60.07324,-3.14837],[-60.07305,-3.14722],[-60.07324,-3.14692],[-60.07324,-3.12012],[-60.05127,-3.12012]]]},"properties":{"ghs":"6xmq1","size":0.6,"ghs_len":5,"ghs_area":23.4,"ghs_bytes":1235144,"ghs_items":6791,"size_unit":"km2","ghsval_unit":"bytes","ghs_itemsdensity":290.22,"size_unitdensity":0.03}},{"type":"Feature","geometry":{"type":"MultiPolygon","coordinates":[[[[-60.06226,-3.10364],[-60.06226,-3.10913],[-60.06226,-3.11462],[-60.05127,-3.11462],[-60.05127,-3.12012],[-60.07324,-3.12012],[-60.07324,-3.10364],[-60.06226,-3.10364]]],[[[-60.06226,-3.09265],[-60.06226,-3.08716],[-60.05127,-3.08716],[-60.04028,-3.08716],[-60.04028,-3.08167],[-60.0293,-3.08167],[-60.0293,-3.08716],[-60.0293,-3.09265],[-60.0293,-3.10913],[-60.04028,-3.10913],[-60.04028,-3.10364],[-60.05127,-3.10364],[-60.05127,-3.09814],[-60.06226,-3.09814],[-60.07324,-3.09814],[-60.07324,-3.09265],[-60.06226,-3.09265]]],[[[-60.06226,-3.08167],[-60.06226,-3.08716],[-60.07324,-3.08716],[-60.07324,-3.08167],[-60.06226,-3.08167]]]]},"properties":{"ghs":"6xmq3","size":1.84,"ghs_len":5,"ghs_area":11.87,"ghs_bytes":2934129,"ghs_items":14789,"size_unit":"km2","ghsval_unit":"bytes","ghs_itemsdensity":1246.05,"size_unitdensity":0.15}},{"type":"Feature","geometry":{"type":"Polygon","coordinates":[[[-60.06226,-3.10913],[-60.05127,-3.10913],[-60.05127,-3.11462],[-60.06226,-3.11462],[-60.06226,-3.10913]]]},"properties":{"ghs":"6xmq33","size":0.18,"ghs_len":6,"ghs_area":0.74,"ghs_bytes":389741,"ghs_items":2165,"size_unit":"km2","ghsval_unit":"bytes","ghs_itemsdensity":2918.64,"size_unitdensity":0.24}},{"type":"Feature","geometry":{"type":"Polygon","coordinates":[[[-60.07324,-3.09814],[-60.06226,-3.09814],[-60.06226,-3.10364],[-60.07324,-3.10364],[-60.07324,-3.09814]]]},"properties":{"ghs":"6xmq35","size":0.21,"ghs_len":6,"ghs_area":0.74,"ghs_bytes":484852,"ghs_items":2696,"size_unit":"km2","ghsval_unit":"bytes","ghs_itemsdensity":3634.45,"size_unitdensity":0.28}},{"type":"Feature","geometry":{"type":"Polygon","coordinates":[[[-60.06226,-3.10364],[-60.05127,-3.10364],[-60.05127,-3.10913],[-60.06226,-3.10913],[-60.06226,-3.10364]]]},"properties":{"ghs":"6xmq36","size":0.33,"ghs_len":6,"ghs_area":0.74,"ghs_bytes":776213,"ghs_items":4289,"size_unit":"km2","ghsval_unit":"bytes","ghs_itemsdensity":5781.99,"size_unitdensity":0.44}},{"type":"Feature","geometry":{"type":"Polygon","coordinates":[[[-60.06226,-3.09814],[-60.05127,-3.09814],[-60.05127,-3.10364],[-60.06226,-3.10364],[-60.06226,-3.09814]]]},"properties":{"ghs":"6xmq37","size":0.34,"ghs_len":6,"ghs_area":0.74,"ghs_bytes":824435,"ghs_items":4548,"size_unit":"km2","ghsval_unit":"bytes","ghs_itemsdensity":6131.11,"size_unitdensity":0.46}},{"type":"Feature","geometry":{"type":"Polygon","coordinates":[[[-60.05127,-3.11462],[-60.04028,-3.11462],[-60.04028,-3.12012],[-60.05127,-3.12012],[-60.05127,-3.11462]]]},"properties":{"ghs":"6xmq38","size":0.24,"ghs_len":6,"ghs_area":0.74,"ghs_bytes":473955,"ghs_items":2589,"size_unit":"km2","ghsval_unit":"bytes","ghs_itemsdensity":3490.26,"size_unitdensity":0.33}},{"type":"Feature","geometry":{"type":"Polygon","coordinates":[[[-60.05127,-3.10913],[-60.04028,-3.10913],[-60.04028,-3.11462],[-60.05127,-3.11462],[-60.05127,-3.10913]]]},"properties":{"ghs":"6xmq39","size":0.3,"ghs_len":6,"ghs_area":0.74,"ghs_bytes":661110,"ghs_items":3614,"size_unit":"km2","ghsval_unit":"bytes","ghs_itemsdensity":4872.05,"size_unitdensity":0.4}},{"type":"Feature","geometry":{"type":"Polygon","coordinates":[[[-60.04028,-3.11462],[-60.0293,-3.11462],[-60.0293,-3.12012],[-60.04028,-3.12012],[-60.04028,-3.11462]]]},"properties":{"ghs":"6xmq3b","size":0.23,"ghs_len":6,"ghs_area":0.74,"ghs_bytes":433936,"ghs_items":2347,"size_unit":"km2","ghsval_unit":"bytes","ghs_itemsdensity":3164.02,"size_unitdensity":0.31}},{"type":"Feature","geometry":{"type":"Polygon","coordinates":[[[-60.04028,-3.10913],[-60.0293,-3.10913],[-60.0293,-3.11462],[-60.04028,-3.11462],[-60.04028,-3.10913]]]},"properties":{"ghs":"6xmq3c","size":0.23,"ghs_len":6,"ghs_area":0.74,"ghs_bytes":472606,"ghs_items":2556,"size_unit":"km2","ghsval_unit":"bytes","ghs_itemsdensity":3445.75,"size_unitdensity":0.31}},{"type":"Feature","geometry":{"type":"Polygon","coordinates":[[[-60.05127,-3.10364],[-60.04028,-3.10364],[-60.04028,-3.10913],[-60.05127,-3.10913],[-60.05127,-3.10364]]]},"properties":{"ghs":"6xmq3d","size":0.25,"ghs_len":6,"ghs_area":0.74,"ghs_bytes":455072,"ghs_items":2492,"size_unit":"km2","ghsval_unit":"bytes","ghs_itemsdensity":3359.46,"size_unitdensity":0.34}},{"type":"Feature","geometry":{"type":"Polygon","coordinates":[[[-60.07324,-3.08716],[-60.06226,-3.08716],[-60.06226,-3.09265],[-60.07324,-3.09265],[-60.07324,-3.08716]]]},"properties":{"ghs":"6xmq3j","size":0.17,"ghs_len":6,"ghs_area":0.74,"ghs_bytes":378508,"ghs_items":1937,"size_unit":"km2","ghsval_unit":"bytes","ghs_itemsdensity":2611.22,"size_unitdensity":0.23}},{"type":"Feature","geometry":{"type":"Polygon","coordinates":[[[-60.07324,-3.07617],[-60.06226,-3.07617],[-60.06226,-3.08167],[-60.07324,-3.08167],[-60.07324,-3.07617]]]},"properties":{"ghs":"6xmq3p","size":0.18,"ghs_len":6,"ghs_area":0.74,"ghs_bytes":413005,"ghs_items":2224,"size_unit":"km2","ghsval_unit":"bytes","ghs_itemsdensity":2998.09,"size_unitdensity":0.25}},{"type":"Feature","geometry":{"type":"Polygon","coordinates":[[[-60.06226,-3.08167],[-60.05127,-3.08167],[-60.05127,-3.08716],[-60.06226,-3.08716],[-60.06226,-3.08167]]]},"properties":{"ghs":"6xmq3q","size":0.27,"ghs_len":6,"ghs_area":0.74,"ghs_bytes":574763,"ghs_items":3092,"size_unit":"km2","ghsval_unit":"bytes","ghs_itemsdensity":4168.23,"size_unitdensity":0.36}},{"type":"Feature","geometry":{"type":"Polygon","coordinates":[[[-60.06226,-3.07617],[-60.05127,-3.07617],[-60.05127,-3.08167],[-60.06226,-3.08167],[-60.06226,-3.07617]]]},"properties":{"ghs":"6xmq3r","size":0.32,"ghs_len":6,"ghs_area":0.74,"ghs_bytes":717287,"ghs_items":3872,"size_unit":"km2","ghsval_unit":"bytes","ghs_itemsdensity":5219.7,"size_unitdensity":0.43}},{"type":"Feature","geometry":{"type":"Polygon","coordinates":[[[-60.05127,-3.08167],[-60.04028,-3.08167],[-60.04028,-3.08716],[-60.05127,-3.08716],[-60.05127,-3.08167]]]},"properties":{"ghs":"6xmq3w","size":0.27,"ghs_len":6,"ghs_area":0.74,"ghs_bytes":489013,"ghs_items":2492,"size_unit":"km2","ghsval_unit":"bytes","ghs_itemsdensity":3359.39,"size_unitdensity":0.37}},{"type":"Feature","geometry":{"type":"Polygon","coordinates":[[[-60.05127,-3.07617],[-60.04028,-3.07617],[-60.04028,-3.08167],[-60.05127,-3.08167],[-60.05127,-3.07617]]]},"properties":{"ghs":"6xmq3x","size":0.3,"ghs_len":6,"ghs_area":0.74,"ghs_bytes":563643,"ghs_items":3047,"size_unit":"km2","ghsval_unit":"bytes","ghs_itemsdensity":4107.55,"size_unitdensity":0.4}},{"type":"Feature","geometry":{"type":"Polygon","coordinates":[[[-60.04028,-3.07617],[-60.0293,-3.07617],[-60.0293,-3.08167],[-60.04028,-3.08167],[-60.04028,-3.07617]]]},"properties":{"ghs":"6xmq3z","size":0.24,"ghs_len":6,"ghs_area":0.74,"ghs_bytes":441589,"ghs_items":2347,"size_unit":"km2","ghsval_unit":"bytes","ghs_itemsdensity":3163.9,"size_unitdensity":0.32}},{"type":"Feature","geometry":{"type":"Polygon","coordinates":[[[-60.01831,-3.1311],[-60.01831,-3.12561],[-60.00732,-3.12561],[-59.99634,-3.12561],[-59.99634,-3.1311],[-60.00732,-3.1311],[-60.00732,-3.1366],[-60.00732,-3.14209],[-59.99634,-3.14209],[-59.98535,-3.14209],[-59.98535,-3.16406],[-60.0293,-3.16406],[-60.0293,-3.1311],[-60.01831,-3.1311]]]},"properties":{"ghs":"6xmq4","size":2.09,"ghs_len":5,"ghs_area":16.32,"ghs_bytes":2888098,"ghs_items":15335,"size_unit":"km2","ghsval_unit":"bytes","ghs_itemsdensity":939.72,"size_unitdensity":0.13}},{"type":"Feature","geometry":{"type":"Polygon","coordinates":[[[-60.0293,-3.12561],[-60.01831,-3.12561],[-60.01831,-3.1311],[-60.0293,-3.1311],[-60.0293,-3.12561]]]},"properties":{"ghs":"6xmq4n","size":0.32,"ghs_len":6,"ghs_area":0.74,"ghs_bytes":410048,"ghs_items":2064,"size_unit":"km2","ghsval_unit":"bytes","ghs_itemsdensity":2782.53,"size_unitdensity":0.43}},{"type":"Feature","geometry":{"type":"Polygon","coordinates":[[[-60.0293,-3.12012],[-60.01831,-3.12012],[-60.01831,-3.12561],[-60.0293,-3.12561],[-60.0293,-3.12012]]]},"properties":{"ghs":"6xmq4p","size":0.28,"ghs_len":6,"ghs_area":0.74,"ghs_bytes":461142,"ghs_items":2386,"size_unit":"km2","ghsval_unit":"bytes","ghs_itemsdensity":3216.61,"size_unitdensity":0.38}},{"type":"Feature","geometry":{"type":"Polygon","coordinates":[[[-60.01831,-3.12012],[-60.00732,-3.12012],[-60.00732,-3.12561],[-60.01831,-3.12561],[-60.01831,-3.12012]]]},"properties":{"ghs":"6xmq4r","size":0.3,"ghs_len":6,"ghs_area":0.74,"ghs_bytes":433146,"ghs_items":2359,"size_unit":"km2","ghsval_unit":"bytes","ghs_itemsdensity":3180.21,"size_unitdensity":0.41}},{"type":"Feature","geometry":{"type":"Polygon","coordinates":[[[-60.00732,-3.1366],[-59.99634,-3.1366],[-59.99634,-3.14209],[-60.00732,-3.14209],[-60.00732,-3.1366]]]},"properties":{"ghs":"6xmq4s","size":0.31,"ghs_len":6,"ghs_area":0.74,"ghs_bytes":754946,"ghs_items":4151,"size_unit":"km2","ghsval_unit":"bytes","ghs_itemsdensity":5596.12,"size_unitdensity":0.42}},{"type":"Feature","geometry":{"type":"Polygon","coordinates":[[[-60.00732,-3.1311],[-59.99634,-3.1311],[-59.99634,-3.1366],[-60.00732,-3.1366],[-60.00732,-3.1311]]]},"properties":{"ghs":"6xmq4t","size":0.23,"ghs_len":6,"ghs_area":0.74,"ghs_bytes":486760,"ghs_items":2493,"size_unit":"km2","ghsval_unit":"bytes","ghs_itemsdensity":3360.89,"size_unitdensity":0.31}},{"type":"Feature","geometry":{"type":"Polygon","coordinates":[[[-59.99634,-3.1366],[-59.98535,-3.1366],[-59.98535,-3.14209],[-59.99634,-3.14209],[-59.99634,-3.1366]]]},"properties":{"ghs":"6xmq4u","size":0.21,"ghs_len":6,"ghs_area":0.74,"ghs_bytes":416404,"ghs_items":2239,"size_unit":"km2","ghsval_unit":"bytes","ghs_itemsdensity":3018.48,"size_unitdensity":0.28}},{"type":"Feature","geometry":{"type":"Polygon","coordinates":[[[-59.99634,-3.1311],[-59.98535,-3.1311],[-59.98535,-3.1366],[-59.99634,-3.1366],[-59.99634,-3.1311]]]},"properties":{"ghs":"6xmq4v","size":0.26,"ghs_len":6,"ghs_area":0.74,"ghs_bytes":411494,"ghs_items":2246,"size_unit":"km2","ghsval_unit":"bytes","ghs_itemsdensity":3027.9,"size_unitdensity":0.35}},{"type":"Feature","geometry":{"type":"Polygon","coordinates":[[[-60.00732,-3.12012],[-59.99634,-3.12012],[-59.99634,-3.12561],[-60.00732,-3.12561],[-60.00732,-3.12012]]]},"properties":{"ghs":"6xmq4x","size":0.31,"ghs_len":6,"ghs_area":0.74,"ghs_bytes":468392,"ghs_items":2524,"size_unit":"km2","ghsval_unit":"bytes","ghs_itemsdensity":3402.65,"size_unitdensity":0.41}},{"type":"Feature","geometry":{"type":"Polygon","coordinates":[[[-59.99634,-3.12561],[-59.98535,-3.12561],[-59.98535,-3.1311],[-59.99634,-3.1311],[-59.99634,-3.12561]]]},"properties":{"ghs":"6xmq4y","size":0.28,"ghs_len":6,"ghs_area":0.74,"ghs_bytes":548371,"ghs_items":3042,"size_unit":"km2","ghsval_unit":"bytes","ghs_itemsdensity":4100.99,"size_unitdensity":0.38}},{"type":"Feature","geometry":{"type":"Polygon","coordinates":[[[-59.99634,-3.12012],[-59.98535,-3.12012],[-59.98535,-3.12561],[-59.99634,-3.12561],[-59.99634,-3.12012]]]},"properties":{"ghs":"6xmq4z","size":0.29,"ghs_len":6,"ghs_area":0.74,"ghs_bytes":527516,"ghs_items":2873,"size_unit":"km2","ghsval_unit":"bytes","ghs_itemsdensity":3873.14,"size_unitdensity":0.39}},{"type":"Feature","geometry":{"type":"MultiPolygon","coordinates":[[[[-60.01831,-3.09265],[-60.01831,-3.08716],[-60.00732,-3.08716],[-60.00732,-3.08167],[-60.00732,-3.07617],[-59.99634,-3.07617],[-59.98535,-3.07617],[-59.98535,-3.08716],[-59.98535,-3.09265],[-59.98535,-3.09814],[-59.99634,-3.09814],[-59.99634,-3.09265],[-60.00732,-3.09265],[-60.00732,-3.09814],[-60.00732,-3.10364],[-60.00732,-3.10913],[-60.00732,-3.11462],[-60.01831,-3.11462],[-60.01831,-3.10913],[-60.0293,-3.10913],[-60.0293,-3.09265],[-60.01831,-3.09265]]],[[[-60.0293,-3.07617],[-60.01831,-3.07617],[-60.01831,-3.08167],[-60.01831,-3.08716],[-60.0293,-3.08716],[-60.0293,-3.08167],[-60.0293,-3.07617]]]]},"properties":{"ghs":"6xmq6","size":2.59,"ghs_len":5,"ghs_area":12.61,"ghs_bytes":2892712,"ghs_items":13025,"size_unit":"km2","ghsval_unit":"bytes","ghs_itemsdensity":1032.87,"size_unitdensity":0.21}},{"type":"Feature","geometry":{"type":"Polygon","coordinates":[[[-60.0293,-3.11462],[-60.01831,-3.11462],[-60.01831,-3.12012],[-60.0293,-3.12012],[-60.0293,-3.11462]]]},"properties":{"ghs":"6xmq60","size":0.28,"ghs_len":6,"ghs_area":0.74,"ghs_bytes":441233,"ghs_items":2298,"size_unit":"km2","ghsval_unit":"bytes","ghs_itemsdensity":3097.96,"size_unitdensity":0.38}},{"type":"Feature","geometry":{"type":"Polygon","coordinates":[[[-60.0293,-3.10913],[-60.01831,-3.10913],[-60.01831,-3.11462],[-60.0293,-3.11462],[-60.0293,-3.10913]]]},"properties":{"ghs":"6xmq61","size":0.24,"ghs_len":6,"ghs_area":0.74,"ghs_bytes":404246,"ghs_items":2120,"size_unit":"km2","ghsval_unit":"bytes","ghs_itemsdensity":2857.98,"size_unitdensity":0.33}},{"type":"Feature","geometry":{"type":"Polygon","coordinates":[[[-60.01831,-3.11462],[-60.00732,-3.11462],[-60.00732,-3.12012],[-60.01831,-3.12012],[-60.01831,-3.11462]]]},"properties":{"ghs":"6xmq62","size":0.27,"ghs_len":6,"ghs_area":0.74,"ghs_bytes":405801,"ghs_items":2164,"size_unit":"km2","ghsval_unit":"bytes","ghs_itemsdensity":2917.31,"size_unitdensity":0.36}},{"type":"Feature","geometry":{"type":"Polygon","coordinates":[[[-60.00732,-3.11462],[-59.99634,-3.11462],[-59.99634,-3.12012],[-60.00732,-3.12012],[-60.00732,-3.11462]]]},"properties":{"ghs":"6xmq68","size":0.26,"ghs_len":6,"ghs_area":0.74,"ghs_bytes":448413,"ghs_items":2414,"size_unit":"km2","ghsval_unit":"bytes","ghs_itemsdensity":3254.34,"size_unitdensity":0.35}},{"type":"Feature","geometry":{"type":"Polygon","coordinates":[[[-60.00732,-3.10913],[-59.99634,-3.10913],[-59.99634,-3.11462],[-60.00732,-3.11462],[-60.00732,-3.10913]]]},"properties":{"ghs":"6xmq69","size":0.27,"ghs_len":6,"ghs_area":0.74,"ghs_bytes":629374,"ghs_items":3403,"size_unit":"km2","ghsval_unit":"bytes","ghs_itemsdensity":4587.6,"size_unitdensity":0.37}},{"type":"Feature","geometry":{"type":"Polygon","coordinates":[[[-59.99634,-3.11462],[-59.98535,-3.11462],[-59.98535,-3.12012],[-59.99634,-3.12012],[-59.99634,-3.11462]]]},"properties":{"ghs":"6xmq6b","size":0.31,"ghs_len":6,"ghs_area":0.74,"ghs_bytes":636087,"ghs_items":3436,"size_unit":"km2","ghsval_unit":"bytes","ghs_itemsdensity":4632.11,"size_unitdensity":0.42}},{"type":"Feature","geometry":{"type":"Polygon","coordinates":[[[-59.99634,-3.10913],[-59.98535,-3.10913],[-59.98535,-3.11462],[-59.99634,-3.11462],[-59.99634,-3.10913]]]},"properties":{"ghs":"6xmq6c","size":0.27,"ghs_len":6,"ghs_area":0.74,"ghs_bytes":580454,"ghs_items":3107,"size_unit":"km2","ghsval_unit":"bytes","ghs_itemsdensity":4188.56,"size_unitdensity":0.36}},{"type":"Feature","geometry":{"type":"Polygon","coordinates":[[[-60.00732,-3.10364],[-59.99634,-3.10364],[-59.99634,-3.10913],[-60.00732,-3.10913],[-60.00732,-3.10364]]]},"properties":{"ghs":"6xmq6d","size":0.19,"ghs_len":6,"ghs_area":0.74,"ghs_bytes":389779,"ghs_items":2039,"size_unit":"km2","ghsval_unit":"bytes","ghs_itemsdensity":2748.77,"size_unitdensity":0.25}},{"type":"Feature","geometry":{"type":"Polygon","coordinates":[[[-60.00732,-3.09814],[-59.99634,-3.09814],[-59.99634,-3.10364],[-60.00732,-3.10364],[-60.00732,-3.09814]]]},"properties":{"ghs":"6xmq6e","size":0.24,"ghs_len":6,"ghs_area":0.74,"ghs_bytes":435392,"ghs_items":2224,"size_unit":"km2","ghsval_unit":"bytes","ghs_itemsdensity":2998.15,"size_unitdensity":0.32}},{"type":"Feature","geometry":{"type":"Polygon","coordinates":[[[-59.99634,-3.10364],[-59.98535,-3.10364],[-59.98535,-3.10913],[-59.99634,-3.10913],[-59.99634,-3.10364]]]},"properties":{"ghs":"6xmq6f","size":0.25,"ghs_len":6,"ghs_area":0.74,"ghs_bytes":580753,"ghs_items":3125,"size_unit":"km2","ghsval_unit":"bytes","ghs_itemsdensity":4212.8,"size_unitdensity":0.33}},{"type":"Feature","geometry":{"type":"Polygon","coordinates":[[[-59.99634,-3.09814],[-59.98535,-3.09814],[-59.98535,-3.10364],[-59.99634,-3.10364],[-59.99634,-3.09814]]]},"properties":{"ghs":"6xmq6g","size":0.23,"ghs_len":6,"ghs_area":0.74,"ghs_bytes":480211,"ghs_items":2534,"size_unit":"km2","ghsval_unit":"bytes","ghs_itemsdensity":3416.06,"size_unitdensity":0.31}},{"type":"Feature","geometry":{"type":"Polygon","coordinates":[[[-60.0293,-3.08716],[-60.01831,-3.08716],[-60.01831,-3.09265],[-60.0293,-3.09265],[-60.0293,-3.08716]]]},"properties":{"ghs":"6xmq6j","size":0.21,"ghs_len":6,"ghs_area":0.74,"ghs_bytes":315437,"ghs_items":1725,"size_unit":"km2","ghsval_unit":"bytes","ghs_itemsdensity":2325.43,"size_unitdensity":0.28}},{"type":"Feature","geometry":{"type":"Polygon","coordinates":[[[-60.01831,-3.08167],[-60.00732,-3.08167],[-60.00732,-3.08716],[-60.01831,-3.08716],[-60.01831,-3.08167]]]},"properties":{"ghs":"6xmq6q","size":0.22,"ghs_len":6,"ghs_area":0.74,"ghs_bytes":336447,"ghs_items":1452,"size_unit":"km2","ghsval_unit":"bytes","ghs_itemsdensity":1957.4,"size_unitdensity":0.29}},{"type":"Feature","geometry":{"type":"Polygon","coordinates":[[[-60.01831,-3.07617],[-60.00732,-3.07617],[-60.00732,-3.08167],[-60.01831,-3.08167],[-60.01831,-3.07617]]]},"properties":{"ghs":"6xmq6r","size":0.24,"ghs_len":6,"ghs_area":0.74,"ghs_bytes":448273,"ghs_items":2065,"size_unit":"km2","ghsval_unit":"bytes","ghs_itemsdensity":2783.75,"size_unitdensity":0.32}},{"type":"Feature","geometry":{"type":"Polygon","coordinates":[[[-60.00732,-3.09265],[-59.99634,-3.09265],[-59.99634,-3.09814],[-60.00732,-3.09814],[-60.00732,-3.09265]]]},"properties":{"ghs":"6xmq6s","size":0.2,"ghs_len":6,"ghs_area":0.74,"ghs_bytes":369634,"ghs_items":1883,"size_unit":"km2","ghsval_unit":"bytes","ghs_itemsdensity":2538.44,"size_unitdensity":0.27}},{"type":"Feature","geometry":{"type":"Polygon","coordinates":[[[-59.98535,-3.09814],[-59.98535,-3.09265],[-59.97437,-3.09265],[-59.97437,-3.08716],[-59.98535,-3.08716],[-59.98535,-3.07617],[-59.97437,-3.07617],[-59.97437,-3.08167],[-59.96338,-3.08167],[-59.96338,-3.07617],[-59.95239,-3.07617],[-59.95239,-3.08167],[-59.95239,-3.08716],[-59.94141,-3.08716],[-59.94141,-3.12012],[-59.97437,-3.12012],[-59.97437,-3.11462],[-59.97437,-3.10913],[-59.98535,-3.10913],[-59.98535,-3.10364],[-59.98535,-3.09814]]]},"properties":{"ghs":"6xmq7","size":2.78,"ghs_len":5,"ghs_area":19.29,"ghs_bytes":2984535,"ghs_items":15724,"size_unit":"km2","ghsval_unit":"bytes","ghs_itemsdensity":815.28,"size_unitdensity":0.14}},{"type":"Feature","geometry":{"type":"Polygon","coordinates":[[[-59.98535,-3.11462],[-59.97437,-3.11462],[-59.97437,-3.12012],[-59.98535,-3.12012],[-59.98535,-3.11462]]]},"properties":{"ghs":"6xmq70","size":0.3,"ghs_len":6,"ghs_area":0.74,"ghs_bytes":499670,"ghs_items":2392,"size_unit":"km2","ghsval_unit":"bytes","ghs_itemsdensity":3224.68,"size_unitdensity":0.41}},{"type":"Feature","geometry":{"type":"Polygon","coordinates":[[[-59.98535,-3.10913],[-59.97437,-3.10913],[-59.97437,-3.11462],[-59.98535,-3.11462],[-59.98535,-3.10913]]]},"properties":{"ghs":"6xmq71","size":0.25,"ghs_len":6,"ghs_area":0.74,"ghs_bytes":435294,"ghs_items":2071,"size_unit":"km2","ghsval_unit":"bytes","ghs_itemsdensity":2791.92,"size_unitdensity":0.34}},{"type":"Feature","geometry":{"type":"Polygon","coordinates":[[[-59.98535,-3.08716],[-59.97437,-3.08716],[-59.97437,-3.09265],[-59.98535,-3.09265],[-59.98535,-3.08716]]]},"properties":{"ghs":"6xmq7j","size":0.29,"ghs_len":6,"ghs_area":0.74,"ghs_bytes":615069,"ghs_items":3318,"size_unit":"km2","ghsval_unit":"bytes","ghs_itemsdensity":4472.92,"size_unitdensity":0.39}},{"type":"Feature","geometry":{"type":"Polygon","coordinates":[[[-59.97437,-3.07617],[-59.96338,-3.07617],[-59.96338,-3.08167],[-59.97437,-3.08167],[-59.97437,-3.07617]]]},"properties":{"ghs":"6xmq7r","size":0.29,"ghs_len":6,"ghs_area":0.74,"ghs_bytes":636864,"ghs_items":3486,"size_unit":"km2","ghsval_unit":"bytes","ghs_itemsdensity":4699.35,"size_unitdensity":0.38}},{"type":"Feature","geometry":{"type":"Polygon","coordinates":[[[-59.95239,-3.08167],[-59.94141,-3.08167],[-59.94141,-3.08716],[-59.95239,-3.08716],[-59.95239,-3.08167]]]},"properties":{"ghs":"6xmq7y","size":0.16,"ghs_len":6,"ghs_area":0.74,"ghs_bytes":467409,"ghs_items":2578,"size_unit":"km2","ghsval_unit":"bytes","ghs_itemsdensity":3475.32,"size_unitdensity":0.22}},{"type":"Feature","geometry":{"type":"Polygon","coordinates":[[[-59.95239,-3.07617],[-59.94141,-3.07617],[-59.94141,-3.08167],[-59.95239,-3.08167],[-59.95239,-3.07617]]]},"properties":{"ghs":"6xmq7z","size":0.18,"ghs_len":6,"ghs_area":0.74,"ghs_bytes":464246,"ghs_items":2533,"size_unit":"km2","ghsval_unit":"bytes","ghs_itemsdensity":3414.64,"size_unitdensity":0.24}},{"type":"Feature","geometry":{"type":"Polygon","coordinates":[[[-60.0293,-3.03223],[-60.0293,-3.0542],[-60.04028,-3.0542],[-60.05127,-3.0542],[-60.05127,-3.05969],[-60.04028,-3.05969],[-60.04028,-3.06519],[-60.0293,-3.06519],[-60.0293,-3.07617],[-60.04028,-3.07617],[-60.04028,-3.07068],[-60.05127,-3.07068],[-60.06226,-3.07068],[-60.07324,-3.07068],[-60.07324,-3.03223],[-60.0293,-3.03223]]]},"properties":{"ghs":"6xmq9","size":1.75,"ghs_len":5,"ghs_area":19.29,"ghs_bytes":2873499,"ghs_items":14722,"size_unit":"km2","ghsval_unit":"bytes","ghs_itemsdensity":763.3,"size_unitdensity":0.09}},{"type":"Feature","geometry":{"type":"Polygon","coordinates":[[[-60.07324,-3.07068],[-60.06226,-3.07068],[-60.06226,-3.07617],[-60.07324,-3.07617],[-60.07324,-3.07068]]]},"properties":{"ghs":"6xmq90","size":0.23,"ghs_len":6,"ghs_area":0.74,"ghs_bytes":459286,"ghs_items":2464,"size_unit":"km2","ghsval_unit":"bytes","ghs_itemsdensity":3321.61,"size_unitdensity":0.31}},{"type":"Feature","geometry":{"type":"Polygon","coordinates":[[[-60.06226,-3.07068],[-60.05127,-3.07068],[-60.05127,-3.07617],[-60.06226,-3.07617],[-60.06226,-3.07068]]]},"properties":{"ghs":"6xmq92","size":0.26,"ghs_len":6,"ghs_area":0.74,"ghs_bytes":550134,"ghs_items":2844,"size_unit":"km2","ghsval_unit":"bytes","ghs_itemsdensity":3833.87,"size_unitdensity":0.35}},{"type":"Feature","geometry":{"type":"Polygon","coordinates":[[[-60.05127,-3.07068],[-60.04028,-3.07068],[-60.04028,-3.07617],[-60.05127,-3.07617],[-60.05127,-3.07068]]]},"properties":{"ghs":"6xmq98","size":0.25,"ghs_len":6,"ghs_area":0.74,"ghs_bytes":487706,"ghs_items":2559,"size_unit":"km2","ghsval_unit":"bytes","ghs_itemsdensity":3449.68,"size_unitdensity":0.34}},{"type":"Feature","geometry":{"type":"Polygon","coordinates":[[[-60.05127,-3.0542],[-60.04028,-3.0542],[-60.04028,-3.05969],[-60.05127,-3.05969],[-60.05127,-3.0542]]]},"properties":{"ghs":"6xmq9e","size":0.26,"ghs_len":6,"ghs_area":0.74,"ghs_bytes":588469,"ghs_items":3229,"size_unit":"km2","ghsval_unit":"bytes","ghs_itemsdensity":4352.81,"size_unitdensity":0.35}},{"type":"Feature","geometry":{"type":"Polygon","coordinates":[[[-60.04028,-3.05969],[-60.0293,-3.05969],[-60.0293,-3.06519],[-60.04028,-3.06519],[-60.04028,-3.05969]]]},"properties":{"ghs":"6xmq9f","size":0.25,"ghs_len":6,"ghs_area":0.74,"ghs_bytes":544127,"ghs_items":2813,"size_unit":"km2","ghsval_unit":"bytes","ghs_itemsdensity":3792.04,"size_unitdensity":0.33}},{"type":"Feature","geometry":{"type":"Polygon","coordinates":[[[-60.04028,-3.0542],[-60.0293,-3.0542],[-60.0293,-3.05969],[-60.04028,-3.05969],[-60.04028,-3.0542]]]},"properties":{"ghs":"6xmq9g","size":0.26,"ghs_len":6,"ghs_area":0.74,"ghs_bytes":592419,"ghs_items":3209,"size_unit":"km2","ghsval_unit":"bytes","ghs_itemsdensity":4325.85,"size_unitdensity":0.35}},{"type":"Feature","geometry":{"type":"Polygon","coordinates":[[[-60.0293,-2.98828],[-60.0293,-3.03223],[-60.07324,-3.03223],[-60.07324,-2.98828],[-60.0293,-2.98828]]]},"properties":{"ghs":"6xmqc","size":0.84,"ghs_len":5,"ghs_area":23.74,"ghs_bytes":1832913,"ghs_items":10438,"size_unit":"km2","ghsval_unit":"bytes","ghs_itemsdensity":439.69,"size_unitdensity":0.04}},{"type":"Feature","geometry":{"type":"Polygon","coordinates":[[[-60.0293,-3.05969],[-60.0293,-3.0542],[-60.0293,-3.03223],[-60.01831,-3.03223],[-60.00732,-3.03223],[-60.00732,-3.03772],[-60.00732,-3.04321],[-60.00732,-3.04871],[-60.00732,-3.0542],[-59.99634,-3.0542],[-59.99634,-3.04871],[-59.98535,-3.04871],[-59.98535,-3.07617],[-59.99634,-3.07617],[-59.99634,-3.07068],[-59.99634,-3.06519],[-60.00732,-3.06519],[-60.00732,-3.07068],[-60.00732,-3.07617],[-60.01831,-3.07617],[-60.0293,-3.07617],[-60.0293,-3.06519],[-60.0293,-3.05969]],[[-60.01831,-3.0542],[-60.01831,-3.05969],[-60.00732,-3.05969],[-60.00732,-3.0542],[-60.01831,-3.0542]]]},"properties":{"ghs":"6xmqd","size":1.96,"ghs_len":5,"ghs_area":16.32,"ghs_bytes":2761994,"ghs_items":14157,"size_unit":"km2","ghsval_unit":"bytes","ghs_itemsdensity":867.46,"size_unitdensity":0.12}},{"type":"Feature","geometry":{"type":"Polygon","coordinates":[[[-60.01831,-3.0542],[-60.00732,-3.0542],[-60.00732,-3.05969],[-60.01831,-3.05969],[-60.01831,-3.0542]]]},"properties":{"ghs":"6xmqd7","size":0.13,"ghs_len":6,"ghs_area":0.74,"ghs_bytes":257542,"ghs_items":1288,"size_unit":"km2","ghsval_unit":"bytes","ghs_itemsdensity":1736.27,"size_unitdensity":0.18}},{"type":"Feature","geometry":{"type":"Polygon","coordinates":[[[-60.00732,-3.07068],[-59.99634,-3.07068],[-59.99634,-3.07617],[-60.00732,-3.07617],[-60.00732,-3.07068]]]},"properties":{"ghs":"6xmqd8","size":0.18,"ghs_len":6,"ghs_area":0.74,"ghs_bytes":298185,"ghs_items":1527,"size_unit":"km2","ghsval_unit":"bytes","ghs_itemsdensity":2058.48,"size_unitdensity":0.25}},{"type":"Feature","geometry":{"type":"Polygon","coordinates":[[[-60.00732,-3.06519],[-59.99634,-3.06519],[-59.99634,-3.07068],[-60.00732,-3.07068],[-60.00732,-3.06519]]]},"properties":{"ghs":"6xmqd9","size":0.19,"ghs_len":6,"ghs_area":0.74,"ghs_bytes":278608,"ghs_items":1444,"size_unit":"km2","ghsval_unit":"bytes","ghs_itemsdensity":1946.58,"size_unitdensity":0.25}},{"type":"Feature","geometry":{"type":"Polygon","coordinates":[[[-60.00732,-3.04871],[-59.99634,-3.04871],[-59.99634,-3.0542],[-60.00732,-3.0542],[-60.00732,-3.04871]]]},"properties":{"ghs":"6xmqds","size":0.11,"ghs_len":6,"ghs_area":0.74,"ghs_bytes":265050,"ghs_items":1490,"size_unit":"km2","ghsval_unit":"bytes","ghs_itemsdensity":2008.56,"size_unitdensity":0.15}},{"type":"Feature","geometry":{"type":"Polygon","coordinates":[[[-60.00732,-3.04321],[-59.99634,-3.04321],[-59.99634,-3.04871],[-60.00732,-3.04871],[-60.00732,-3.04321]]]},"properties":{"ghs":"6xmqdt","size":0.18,"ghs_len":6,"ghs_area":0.74,"ghs_bytes":444791,"ghs_items":2491,"size_unit":"km2","ghsval_unit":"bytes","ghs_itemsdensity":3357.92,"size_unitdensity":0.24}},{"type":"Feature","geometry":{"type":"Polygon","coordinates":[[[-59.99634,-3.04321],[-59.98535,-3.04321],[-59.98535,-3.04871],[-59.99634,-3.04871],[-59.99634,-3.04321]]]},"properties":{"ghs":"6xmqdv","size":0.12,"ghs_len":6,"ghs_area":0.74,"ghs_bytes":292341,"ghs_items":1644,"size_unit":"km2","ghsval_unit":"bytes","ghs_itemsdensity":2216.15,"size_unitdensity":0.16}},{"type":"Feature","geometry":{"type":"Polygon","coordinates":[[[-60.00732,-3.03772],[-59.99634,-3.03772],[-59.99634,-3.04321],[-60.00732,-3.04321],[-60.00732,-3.03772]]]},"properties":{"ghs":"6xmqdw","size":0.15,"ghs_len":6,"ghs_area":0.74,"ghs_bytes":329334,"ghs_items":1775,"size_unit":"km2","ghsval_unit":"bytes","ghs_itemsdensity":2392.73,"size_unitdensity":0.2}},{"type":"Feature","geometry":{"type":"Polygon","coordinates":[[[-60.00732,-3.03223],[-59.99634,-3.03223],[-59.99634,-3.03772],[-60.00732,-3.03772],[-60.00732,-3.03223]]]},"properties":{"ghs":"6xmqdx","size":0.18,"ghs_len":6,"ghs_area":0.74,"ghs_bytes":330339,"ghs_items":1817,"size_unit":"km2","ghsval_unit":"bytes","ghs_itemsdensity":2449.33,"size_unitdensity":0.25}},{"type":"Feature","geometry":{"type":"Polygon","coordinates":[[[-59.99634,-3.03772],[-59.98535,-3.03772],[-59.98535,-3.04321],[-59.99634,-3.04321],[-59.99634,-3.03772]]]},"properties":{"ghs":"6xmqdy","size":0.15,"ghs_len":6,"ghs_area":0.74,"ghs_bytes":394095,"ghs_items":2223,"size_unit":"km2","ghsval_unit":"bytes","ghs_itemsdensity":2996.64,"size_unitdensity":0.2}},{"type":"Feature","geometry":{"type":"Polygon","coordinates":[[[-59.99634,-3.03223],[-59.98535,-3.03223],[-59.98535,-3.03772],[-59.99634,-3.03772],[-59.99634,-3.03223]]]},"properties":{"ghs":"6xmqdz","size":0.18,"ghs_len":6,"ghs_area":0.74,"ghs_bytes":255764,"ghs_items":1383,"size_unit":"km2","ghsval_unit":"bytes","ghs_itemsdensity":1864.3,"size_unitdensity":0.25}},{"type":"Feature","geometry":{"type":"Polygon","coordinates":[[[-59.98535,-3.04321],[-59.98535,-3.03772],[-59.98535,-3.03223],[-59.95239,-3.03223],[-59.95239,-3.03772],[-59.96338,-3.03772],[-59.96338,-3.04321],[-59.97437,-3.04321],[-59.97437,-3.04871],[-59.96338,-3.04871],[-59.96338,-3.0542],[-59.96338,-3.05969],[-59.96338,-3.06519],[-59.96338,-3.07068],[-59.96338,-3.07617],[-59.97437,-3.07617],[-59.98535,-3.07617],[-59.98535,-3.04871],[-59.98535,-3.04321]]]},"properties":{"ghs":"6xmqe","size":1.49,"ghs_len":5,"ghs_area":11.87,"ghs_bytes":2702499,"ghs_items":14266,"size_unit":"km2","ghsval_unit":"bytes","ghs_itemsdensity":1201.94,"size_unitdensity":0.13}},{"type":"Feature","geometry":{"type":"Polygon","coordinates":[[[-59.96338,-3.07068],[-59.95239,-3.07068],[-59.95239,-3.07617],[-59.96338,-3.07617],[-59.96338,-3.07068]]]},"properties":{"ghs":"6xmqe8","size":0.2,"ghs_len":6,"ghs_area":0.74,"ghs_bytes":398039,"ghs_items":2090,"size_unit":"km2","ghsval_unit":"bytes","ghs_itemsdensity":2817.44,"size_unitdensity":0.28}},{"type":"Feature","geometry":{"type":"Polygon","coordinates":[[[-59.96338,-3.06519],[-59.95239,-3.06519],[-59.95239,-3.07068],[-59.96338,-3.07068],[-59.96338,-3.06519]]]},"properties":{"ghs":"6xmqe9","size":0.17,"ghs_len":6,"ghs_area":0.74,"ghs_bytes":386103,"ghs_items":2034,"size_unit":"km2","ghsval_unit":"bytes","ghs_itemsdensity":2741.93,"size_unitdensity":0.24}},{"type":"Feature","geometry":{"type":"Polygon","coordinates":[[[-59.95239,-3.07068],[-59.94141,-3.07068],[-59.94141,-3.07617],[-59.95239,-3.07617],[-59.95239,-3.07068]]]},"properties":{"ghs":"6xmqeb","size":0.28,"ghs_len":6,"ghs_area":0.74,"ghs_bytes":691163,"ghs_items":3717,"size_unit":"km2","ghsval_unit":"bytes","ghs_itemsdensity":5010.72,"size_unitdensity":0.37}},{"type":"Feature","geometry":{"type":"Polygon","coordinates":[[[-59.95239,-3.06519],[-59.94141,-3.06519],[-59.94141,-3.07068],[-59.95239,-3.07068],[-59.95239,-3.06519]]]},"properties":{"ghs":"6xmqec","size":0.27,"ghs_len":6,"ghs_area":0.74,"ghs_bytes":633783,"ghs_items":3395,"size_unit":"km2","ghsval_unit":"bytes","ghs_itemsdensity":4576.63,"size_unitdensity":0.36}},{"type":"Feature","geometry":{"type":"Polygon","coordinates":[[[-59.96338,-3.05969],[-59.95239,-3.05969],[-59.95239,-3.06519],[-59.96338,-3.06519],[-59.96338,-3.05969]]]},"properties":{"ghs":"6xmqed","size":0.24,"ghs_len":6,"ghs_area":0.74,"ghs_bytes":546094,"ghs_items":2895,"size_unit":"km2","ghsval_unit":"bytes","ghs_itemsdensity":3902.58,"size_unitdensity":0.33}},{"type":"Feature","geometry":{"type":"Polygon","coordinates":[[[-59.96338,-3.0542],[-59.95239,-3.0542],[-59.95239,-3.05969],[-59.96338,-3.05969],[-59.96338,-3.0542]]]},"properties":{"ghs":"6xmqee","size":0.22,"ghs_len":6,"ghs_area":0.74,"ghs_bytes":536864,"ghs_items":2948,"size_unit":"km2","ghsval_unit":"bytes","ghs_itemsdensity":3974.01,"size_unitdensity":0.3}},{"type":"Feature","geometry":{"type":"Polygon","coordinates":[[[-59.95239,-3.05969],[-59.94141,-3.05969],[-59.94141,-3.06519],[-59.95239,-3.06519],[-59.95239,-3.05969]]]},"properties":{"ghs":"6xmqef","size":0.28,"ghs_len":6,"ghs_area":0.74,"ghs_bytes":597204,"ghs_items":3246,"size_unit":"km2","ghsval_unit":"bytes","ghs_itemsdensity":4375.75,"size_unitdensity":0.38}},{"type":"Feature","geometry":{"type":"Polygon","coordinates":[[[-59.95239,-3.0542],[-59.94141,-3.0542],[-59.94141,-3.05969],[-59.95239,-3.05969],[-59.95239,-3.0542]]]},"properties":{"ghs":"6xmqeg","size":0.21,"ghs_len":6,"ghs_area":0.74,"ghs_bytes":592188,"ghs_items":3279,"size_unit":"km2","ghsval_unit":"bytes","ghs_itemsdensity":4420.21,"size_unitdensity":0.28}},{"type":"Feature","geometry":{"type":"Polygon","coordinates":[[[-59.97437,-3.04321],[-59.96338,-3.04321],[-59.96338,-3.04871],[-59.97437,-3.04871],[-59.97437,-3.04321]]]},"properties":{"ghs":"6xmqem","size":0.22,"ghs_len":6,"ghs_area":0.74,"ghs_bytes":399087,"ghs_items":2047,"size_unit":"km2","ghsval_unit":"bytes","ghs_itemsdensity":2759.4,"size_unitdensity":0.29}},{"type":"Feature","geometry":{"type":"Polygon","coordinates":[[[-59.96338,-3.04871],[-59.95239,-3.04871],[-59.95239,-3.0542],[-59.96338,-3.0542],[-59.96338,-3.04871]]]},"properties":{"ghs":"6xmqes","size":0.2,"ghs_len":6,"ghs_area":0.74,"ghs_bytes":546425,"ghs_items":3021,"size_unit":"km2","ghsval_unit":"bytes","ghs_itemsdensity":4072.4,"size_unitdensity":0.28}},{"type":"Feature","geometry":{"type":"Polygon","coordinates":[[[-59.96338,-3.04321],[-59.95239,-3.04321],[-59.95239,-3.04871],[-59.96338,-3.04871],[-59.96338,-3.04321]]]},"properties":{"ghs":"6xmqet","size":0.24,"ghs_len":6,"ghs_area":0.74,"ghs_bytes":557857,"ghs_items":2983,"size_unit":"km2","ghsval_unit":"bytes","ghs_itemsdensity":4021.15,"size_unitdensity":0.32}},{"type":"Feature","geometry":{"type":"Polygon","coordinates":[[[-59.95239,-3.04871],[-59.94141,-3.04871],[-59.94141,-3.0542],[-59.95239,-3.0542],[-59.95239,-3.04871]]]},"properties":{"ghs":"6xmqeu","size":0.23,"ghs_len":6,"ghs_area":0.74,"ghs_bytes":576020,"ghs_items":3155,"size_unit":"km2","ghsval_unit":"bytes","ghs_itemsdensity":4253.03,"size_unitdensity":0.31}},{"type":"Feature","geometry":{"type":"Polygon","coordinates":[[[-59.95239,-3.04321],[-59.94141,-3.04321],[-59.94141,-3.04871],[-59.95239,-3.04871],[-59.95239,-3.04321]]]},"properties":{"ghs":"6xmqev","size":0.26,"ghs_len":6,"ghs_area":0.74,"ghs_bytes":584164,"ghs_items":3179,"size_unit":"km2","ghsval_unit":"bytes","ghs_itemsdensity":4285.36,"size_unitdensity":0.35}},{"type":"Feature","geometry":{"type":"Polygon","coordinates":[[[-59.96338,-3.03772],[-59.95239,-3.03772],[-59.95239,-3.04321],[-59.96338,-3.04321],[-59.96338,-3.03772]]]},"properties":{"ghs":"6xmqew","size":0.19,"ghs_len":6,"ghs_area":0.74,"ghs_bytes":425475,"ghs_items":2260,"size_unit":"km2","ghsval_unit":"bytes","ghs_itemsdensity":3046.52,"size_unitdensity":0.26}},{"type":"Feature","geometry":{"type":"Polygon","coordinates":[[[-59.95239,-3.03772],[-59.94141,-3.03772],[-59.94141,-3.04321],[-59.95239,-3.04321],[-59.95239,-3.03772]]]},"properties":{"ghs":"6xmqey","size":0.23,"ghs_len":6,"ghs_area":0.74,"ghs_bytes":574345,"ghs_items":3149,"size_unit":"km2","ghsval_unit":"bytes","ghs_itemsdensity":4244.9,"size_unitdensity":0.31}},{"type":"Feature","geometry":{"type":"Polygon","coordinates":[[[-59.95239,-3.03223],[-59.94141,-3.03223],[-59.94141,-3.03772],[-59.95239,-3.03772],[-59.95239,-3.03223]]]},"properties":{"ghs":"6xmqez","size":0.18,"ghs_len":6,"ghs_area":0.74,"ghs_bytes":468996,"ghs_items":2478,"size_unit":"km2","ghsval_unit":"bytes","ghs_itemsdensity":3340.37,"size_unitdensity":0.24}},{"type":"Feature","geometry":{"type":"Polygon","coordinates":[[[-59.97437,-3.02124],[-59.96338,-3.02124],[-59.96338,-3.02673],[-59.97437,-3.02673],[-59.97437,-3.02124]]]},"properties":{"ghs":"6xmqg3","size":0.18,"ghs_len":6,"ghs_area":0.74,"ghs_bytes":520338,"ghs_items":2827,"size_unit":"km2","ghsval_unit":"bytes","ghs_itemsdensity":3810.78,"size_unitdensity":0.24}},{"type":"Feature","geometry":{"type":"MultiPolygon","coordinates":[[[[-59.98535,-2.98828],[-59.98535,-2.99927],[-59.99634,-2.99927],[-59.99634,-3.00476],[-60.00732,-3.00476],[-60.00732,-3.01025],[-60.00732,-3.01575],[-60.01831,-3.01575],[-60.01831,-3.02124],[-60.00732,-3.02124],[-60.00732,-3.02673],[-60.01831,-3.02673],[-60.01831,-3.03223],[-60.0293,-3.03223],[-60.0293,-2.98828],[-59.98535,-2.98828]]],[[[-59.99634,-3.02124],[-60.00732,-3.02124],[-60.00732,-3.01575],[-59.99634,-3.01575],[-59.99634,-3.02124]]]]},"properties":{"ghs":"6xmqf","size":1.14,"ghs_len":5,"ghs_area":14.84,"ghs_bytes":2862308,"ghs_items":15989,"size_unit":"km2","ghsval_unit":"bytes","ghs_itemsdensity":1077.64,"size_unitdensity":0.08}},{"type":"Feature","geometry":{"type":"Polygon","coordinates":[[[-60.01831,-3.02673],[-60.00732,-3.02673],[-60.00732,-3.03223],[-60.01831,-3.03223],[-60.01831,-3.02673]]]},"properties":{"ghs":"6xmqf2","size":0.2,"ghs_len":6,"ghs_area":0.74,"ghs_bytes":523427,"ghs_items":2939,"size_unit":"km2","ghsval_unit":"bytes","ghs_itemsdensity":3961.78,"size_unitdensity":0.27}},{"type":"Feature","geometry":{"type":"Polygon","coordinates":[[[-60.01831,-3.01575],[-60.00732,-3.01575],[-60.00732,-3.02124],[-60.01831,-3.02124],[-60.01831,-3.01575]]]},"properties":{"ghs":"6xmqf6","size":0.09,"ghs_len":6,"ghs_area":0.74,"ghs_bytes":262699,"ghs_items":1534,"size_unit":"km2","ghsval_unit":"bytes","ghs_itemsdensity":2067.82,"size_unitdensity":0.12}},{"type":"Feature","geometry":{"type":"Polygon","coordinates":[[[-60.00732,-3.02673],[-59.99634,-3.02673],[-59.99634,-3.03223],[-60.00732,-3.03223],[-60.00732,-3.02673]]]},"properties":{"ghs":"6xmqf8","size":0.24,"ghs_len":6,"ghs_area":0.74,"ghs_bytes":577651,"ghs_items":3175,"size_unit":"km2","ghsval_unit":"bytes","ghs_itemsdensity":4279.91,"size_unitdensity":0.32}},{"type":"Feature","geometry":{"type":"Polygon","coordinates":[[[-60.00732,-3.02124],[-59.99634,-3.02124],[-59.99634,-3.02673],[-60.00732,-3.02673],[-60.00732,-3.02124]]]},"properties":{"ghs":"6xmqf9","size":0.19,"ghs_len":6,"ghs_area":0.74,"ghs_bytes":456281,"ghs_items":2449,"size_unit":"km2","ghsval_unit":"bytes","ghs_itemsdensity":3301.24,"size_unitdensity":0.25}},{"type":"Feature","geometry":{"type":"Polygon","coordinates":[[[-59.99634,-3.02673],[-59.98535,-3.02673],[-59.98535,-3.03223],[-59.99634,-3.03223],[-59.99634,-3.02673]]]},"properties":{"ghs":"6xmqfb","size":0.17,"ghs_len":6,"ghs_area":0.74,"ghs_bytes":376230,"ghs_items":2053,"size_unit":"km2","ghsval_unit":"bytes","ghs_itemsdensity":2767.45,"size_unitdensity":0.23}},{"type":"Feature","geometry":{"type":"Polygon","coordinates":[[[-59.99634,-3.02124],[-59.98535,-3.02124],[-59.98535,-3.02673],[-59.99634,-3.02673],[-59.99634,-3.02124]]]},"properties":{"ghs":"6xmqfc","size":0.17,"ghs_len":6,"ghs_area":0.74,"ghs_bytes":360985,"ghs_items":1871,"size_unit":"km2","ghsval_unit":"bytes","ghs_itemsdensity":2522.1,"size_unitdensity":0.23}},{"type":"Feature","geometry":{"type":"Polygon","coordinates":[[[-60.00732,-3.01025],[-59.99634,-3.01025],[-59.99634,-3.01575],[-60.00732,-3.01575],[-60.00732,-3.01025]]]},"properties":{"ghs":"6xmqfe","size":0.12,"ghs_len":6,"ghs_area":0.74,"ghs_bytes":337279,"ghs_items":1861,"size_unit":"km2","ghsval_unit":"bytes","ghs_itemsdensity":2508.6,"size_unitdensity":0.16}},{"type":"Feature","geometry":{"type":"Polygon","coordinates":[[[-59.99634,-3.01575],[-59.98535,-3.01575],[-59.98535,-3.02124],[-59.99634,-3.02124],[-59.99634,-3.01575]]]},"properties":{"ghs":"6xmqff","size":0.15,"ghs_len":6,"ghs_area":0.74,"ghs_bytes":365660,"ghs_items":1947,"size_unit":"km2","ghsval_unit":"bytes","ghs_itemsdensity":2624.53,"size_unitdensity":0.2}},{"type":"Feature","geometry":{"type":"Polygon","coordinates":[[[-59.99634,-3.01025],[-59.98535,-3.01025],[-59.98535,-3.01575],[-59.99634,-3.01575],[-59.99634,-3.01025]]]},"properties":{"ghs":"6xmqfg","size":0.16,"ghs_len":6,"ghs_area":0.74,"ghs_bytes":445805,"ghs_items":2468,"size_unit":"km2","ghsval_unit":"bytes","ghs_itemsdensity":3326.82,"size_unitdensity":0.22}},{"type":"Feature","geometry":{"type":"Polygon","coordinates":[[[-60.00732,-3.00476],[-59.99634,-3.00476],[-59.99634,-3.01025],[-60.00732,-3.01025],[-60.00732,-3.00476]]]},"properties":{"ghs":"6xmqfs","size":0.14,"ghs_len":6,"ghs_area":0.74,"ghs_bytes":423539,"ghs_items":2376,"size_unit":"km2","ghsval_unit":"bytes","ghs_itemsdensity":3202.79,"size_unitdensity":0.19}},{"type":"Feature","geometry":{"type":"Polygon","coordinates":[[[-59.99634,-3.00476],[-59.98535,-3.00476],[-59.98535,-3.01025],[-59.99634,-3.01025],[-59.99634,-3.00476]]]},"properties":{"ghs":"6xmqfu","size":0.14,"ghs_len":6,"ghs_area":0.74,"ghs_bytes":424586,"ghs_items":2336,"size_unit":"km2","ghsval_unit":"bytes","ghs_itemsdensity":3148.87,"size_unitdensity":0.19}},{"type":"Feature","geometry":{"type":"Polygon","coordinates":[[[-59.99634,-2.99927],[-59.98535,-2.99927],[-59.98535,-3.00476],[-59.99634,-3.00476],[-59.99634,-2.99927]]]},"properties":{"ghs":"6xmqfv","size":0.11,"ghs_len":6,"ghs_area":0.74,"ghs_bytes":372417,"ghs_items":2169,"size_unit":"km2","ghsval_unit":"bytes","ghs_itemsdensity":2923.75,"size_unitdensity":0.15}},{"type":"Feature","geometry":{"type":"MultiPolygon","coordinates":[[[[-59.97437,-3.02673],[-59.96338,-3.02673],[-59.95239,-3.02673],[-59.95239,-3.03223],[-59.98535,-3.03223],[-59.98535,-3.02673],[-59.97437,-3.02673]]],[[[-59.98535,-2.98828],[-59.94141,-2.98828],[-59.94141,-3.01025],[-59.95239,-3.01025],[-59.95239,-3.01575],[-59.96338,-3.01575],[-59.96338,-3.01025],[-59.97437,-3.01025],[-59.97437,-3.00476],[-59.98535,-3.00476],[-59.98535,-2.99927],[-59.98535,-2.98828]]]]},"properties":{"ghs":"6xmqg","size":1.13,"ghs_len":5,"ghs_area":14.1,"ghs_bytes":2833552,"ghs_items":15409,"size_unit":"km2","ghsval_unit":"bytes","ghs_itemsdensity":1093.21,"size_unitdensity":0.08}},{"type":"Feature","geometry":{"type":"Polygon","coordinates":[[[-59.98535,-3.02124],[-59.97437,-3.02124],[-59.97437,-3.02673],[-59.98535,-3.02673],[-59.98535,-3.02124]]]},"properties":{"ghs":"6xmqg1","size":0.17,"ghs_len":6,"ghs_area":0.74,"ghs_bytes":398750,"ghs_items":2144,"size_unit":"km2","ghsval_unit":"bytes","ghs_itemsdensity":2890.1,"size_unitdensity":0.23}},{"type":"Feature","geometry":{"type":"Polygon","coordinates":[[[-59.98535,-3.01575],[-59.97437,-3.01575],[-59.97437,-3.02124],[-59.98535,-3.02124],[-59.98535,-3.01575]]]},"properties":{"ghs":"6xmqg4","size":0.18,"ghs_len":6,"ghs_area":0.74,"ghs_bytes":393999,"ghs_items":2159,"size_unit":"km2","ghsval_unit":"bytes","ghs_itemsdensity":2910.31,"size_unitdensity":0.25}},{"type":"Feature","geometry":{"type":"Polygon","coordinates":[[[-59.98535,-3.01025],[-59.97437,-3.01025],[-59.97437,-3.01575],[-59.98535,-3.01575],[-59.98535,-3.01025]]]},"properties":{"ghs":"6xmqg5","size":0.16,"ghs_len":6,"ghs_area":0.74,"ghs_bytes":445322,"ghs_items":2439,"size_unit":"km2","ghsval_unit":"bytes","ghs_itemsdensity":3287.73,"size_unitdensity":0.22}},{"type":"Feature","geometry":{"type":"Polygon","coordinates":[[[-59.97437,-3.01575],[-59.96338,-3.01575],[-59.96338,-3.02124],[-59.97437,-3.02124],[-59.97437,-3.01575]]]},"properties":{"ghs":"6xmqg6","size":0.19,"ghs_len":6,"ghs_area":0.74,"ghs_bytes":463583,"ghs_items":2514,"size_unit":"km2","ghsval_unit":"bytes","ghs_itemsdensity":3388.84,"size_unitdensity":0.25}},{"type":"Feature","geometry":{"type":"Polygon","coordinates":[[[-59.97437,-3.01025],[-59.96338,-3.01025],[-59.96338,-3.01575],[-59.97437,-3.01575],[-59.97437,-3.01025]]]},"properties":{"ghs":"6xmqg7","size":0.2,"ghs_len":6,"ghs_area":0.74,"ghs_bytes":456159,"ghs_items":2471,"size_unit":"km2","ghsval_unit":"bytes","ghs_itemsdensity":3330.86,"size_unitdensity":0.27}},{"type":"Feature","geometry":{"type":"Polygon","coordinates":[[[-59.96338,-3.02124],[-59.95239,-3.02124],[-59.95239,-3.02673],[-59.96338,-3.02673],[-59.96338,-3.02124]]]},"properties":{"ghs":"6xmqg9","size":0.23,"ghs_len":6,"ghs_area":0.74,"ghs_bytes":441633,"ghs_items":2321,"size_unit":"km2","ghsval_unit":"bytes","ghs_itemsdensity":3128.7,"size_unitdensity":0.31}},{"type":"Feature","geometry":{"type":"Polygon","coordinates":[[[-59.95239,-3.02673],[-59.94141,-3.02673],[-59.94141,-3.03223],[-59.95239,-3.03223],[-59.95239,-3.02673]]]},"properties":{"ghs":"6xmqgb","size":0.13,"ghs_len":6,"ghs_area":0.74,"ghs_bytes":440479,"ghs_items":2521,"size_unit":"km2","ghsval_unit":"bytes","ghs_itemsdensity":3398.31,"size_unitdensity":0.18}},{"type":"Feature","geometry":{"type":"Polygon","coordinates":[[[-59.95239,-3.02124],[-59.94141,-3.02124],[-59.94141,-3.02673],[-59.95239,-3.02673],[-59.95239,-3.02124]]]},"properties":{"ghs":"6xmqgc","size":0.15,"ghs_len":6,"ghs_area":0.74,"ghs_bytes":413814,"ghs_items":2327,"size_unit":"km2","ghsval_unit":"bytes","ghs_itemsdensity":3136.79,"size_unitdensity":0.2}},{"type":"Feature","geometry":{"type":"Polygon","coordinates":[[[-59.96338,-3.01575],[-59.95239,-3.01575],[-59.95239,-3.02124],[-59.96338,-3.02124],[-59.96338,-3.01575]]]},"properties":{"ghs":"6xmqgd","size":0.11,"ghs_len":6,"ghs_area":0.74,"ghs_bytes":355116,"ghs_items":1997,"size_unit":"km2","ghsval_unit":"bytes","ghs_itemsdensity":2691.93,"size_unitdensity":0.15}},{"type":"Feature","geometry":{"type":"Polygon","coordinates":[[[-59.95239,-3.01575],[-59.94141,-3.01575],[-59.94141,-3.02124],[-59.95239,-3.02124],[-59.95239,-3.01575]]]},"properties":{"ghs":"6xmqgf","size":0.19,"ghs_len":6,"ghs_area":0.74,"ghs_bytes":553071,"ghs_items":3102,"size_unit":"km2","ghsval_unit":"bytes","ghs_itemsdensity":4181.46,"size_unitdensity":0.25}},{"type":"Feature","geometry":{"type":"Polygon","coordinates":[[[-59.95239,-3.01025],[-59.94141,-3.01025],[-59.94141,-3.01575],[-59.95239,-3.01575],[-59.95239,-3.01025]]]},"properties":{"ghs":"6xmqgg","size":0.15,"ghs_len":6,"ghs_area":0.74,"ghs_bytes":470365,"ghs_items":2699,"size_unit":"km2","ghsval_unit":"bytes","ghs_itemsdensity":3638.2,"size_unitdensity":0.21}},{"type":"Feature","geometry":{"type":"Polygon","coordinates":[[[-59.98535,-3.00476],[-59.97437,-3.00476],[-59.97437,-3.01025],[-59.98535,-3.01025],[-59.98535,-3.00476]]]},"properties":{"ghs":"6xmqgh","size":0.15,"ghs_len":6,"ghs_area":0.74,"ghs_bytes":411447,"ghs_items":2123,"size_unit":"km2","ghsval_unit":"bytes","ghs_itemsdensity":2861.75,"size_unitdensity":0.2}},{"type":"Feature","geometry":{"type":"Polygon","coordinates":[[[-59.94141,-3.08167],[-59.94141,-3.07617],[-59.93042,-3.07617],[-59.91943,-3.07617],[-59.89746,-3.07617],[-59.89746,-3.12012],[-59.94141,-3.12012],[-59.94141,-3.08716],[-59.94141,-3.08167]]]},"properties":{"ghs":"6xmqk","size":0.8,"ghs_len":5,"ghs_area":23.74,"ghs_bytes":1248031,"ghs_items":6859,"size_unit":"km2","ghsval_unit":"bytes","ghs_itemsdensity":288.95,"size_unitdensity":0.03}},{"type":"Feature","geometry":{"type":"MultiPolygon","coordinates":[[[[-59.93042,-3.07068],[-59.93042,-3.07617],[-59.94141,-3.07617],[-59.94141,-3.07068],[-59.93042,-3.07068]]],[[[-59.93042,-3.03223],[-59.93042,-3.03772],[-59.94141,-3.03772],[-59.94141,-3.03223],[-59.93042,-3.03223]]],[[[-59.89746,-3.07617],[-59.91943,-3.07617],[-59.91943,-3.07068],[-59.91943,-3.06519],[-59.91943,-3.05969],[-59.93042,-3.05969],[-59.93042,-3.0542],[-59.93042,-3.04871],[-59.93042,-3.04321],[-59.93042,-3.03772],[-59.91943,-3.03772],[-59.91943,-3.03223],[-59.89746,-3.03223],[-59.89746,-3.07617]]]]},"properties":{"ghs":"6xmqs","size":1.08,"ghs_len":5,"ghs_area":16.32,"ghs_bytes":2586706,"ghs_items":14712,"size_unit":"km2","ghsval_unit":"bytes","ghs_itemsdensity":901.47,"size_unitdensity":0.07}},{"type":"Feature","geometry":{"type":"Polygon","coordinates":[[[-59.94141,-3.06519],[-59.93042,-3.06519],[-59.93042,-3.07068],[-59.94141,-3.07068],[-59.94141,-3.06519]]]},"properties":{"ghs":"6xmqs1","size":0.18,"ghs_len":6,"ghs_area":0.74,"ghs_bytes":448719,"ghs_items":2411,"size_unit":"km2","ghsval_unit":"bytes","ghs_itemsdensity":3250.15,"size_unitdensity":0.24}},{"type":"Feature","geometry":{"type":"Polygon","coordinates":[[[-59.93042,-3.07068],[-59.91943,-3.07068],[-59.91943,-3.07617],[-59.93042,-3.07617],[-59.93042,-3.07068]]]},"properties":{"ghs":"6xmqs2","size":0.16,"ghs_len":6,"ghs_area":0.74,"ghs_bytes":455313,"ghs_items":2553,"size_unit":"km2","ghsval_unit":"bytes","ghs_itemsdensity":3441.59,"size_unitdensity":0.22}},{"type":"Feature","geometry":{"type":"Polygon","coordinates":[[[-59.93042,-3.06519],[-59.91943,-3.06519],[-59.91943,-3.07068],[-59.93042,-3.07068],[-59.93042,-3.06519]]]},"properties":{"ghs":"6xmqs3","size":0.16,"ghs_len":6,"ghs_area":0.74,"ghs_bytes":517145,"ghs_items":2887,"size_unit":"km2","ghsval_unit":"bytes","ghs_itemsdensity":3891.82,"size_unitdensity":0.22}},{"type":"Feature","geometry":{"type":"Polygon","coordinates":[[[-59.94141,-3.05969],[-59.93042,-3.05969],[-59.93042,-3.06519],[-59.94141,-3.06519],[-59.94141,-3.05969]]]},"properties":{"ghs":"6xmqs4","size":0.18,"ghs_len":6,"ghs_area":0.74,"ghs_bytes":544187,"ghs_items":3077,"size_unit":"km2","ghsval_unit":"bytes","ghs_itemsdensity":4147.93,"size_unitdensity":0.24}},{"type":"Feature","geometry":{"type":"Polygon","coordinates":[[[-59.94141,-3.0542],[-59.93042,-3.0542],[-59.93042,-3.05969],[-59.94141,-3.05969],[-59.94141,-3.0542]]]},"properties":{"ghs":"6xmqs5","size":0.16,"ghs_len":6,"ghs_area":0.74,"ghs_bytes":493030,"ghs_items":2873,"size_unit":"km2","ghsval_unit":"bytes","ghs_itemsdensity":3872.91,"size_unitdensity":0.22}},{"type":"Feature","geometry":{"type":"Polygon","coordinates":[[[-59.93042,-3.05969],[-59.91943,-3.05969],[-59.91943,-3.06519],[-59.93042,-3.06519],[-59.93042,-3.05969]]]},"properties":{"ghs":"6xmqs6","size":0.15,"ghs_len":6,"ghs_area":0.74,"ghs_bytes":497288,"ghs_items":2839,"size_unit":"km2","ghsval_unit":"bytes","ghs_itemsdensity":3827.09,"size_unitdensity":0.2}},{"type":"Feature","geometry":{"type":"Polygon","coordinates":[[[-59.94141,-3.04871],[-59.93042,-3.04871],[-59.93042,-3.0542],[-59.94141,-3.0542],[-59.94141,-3.04871]]]},"properties":{"ghs":"6xmqsh","size":0.2,"ghs_len":6,"ghs_area":0.74,"ghs_bytes":543120,"ghs_items":3111,"size_unit":"km2","ghsval_unit":"bytes","ghs_itemsdensity":4193.72,"size_unitdensity":0.27}},{"type":"Feature","geometry":{"type":"Polygon","coordinates":[[[-59.94141,-3.04321],[-59.93042,-3.04321],[-59.93042,-3.04871],[-59.94141,-3.04871],[-59.94141,-3.04321]]]},"properties":{"ghs":"6xmqsj","size":0.18,"ghs_len":6,"ghs_area":0.74,"ghs_bytes":496397,"ghs_items":2821,"size_unit":"km2","ghsval_unit":"bytes","ghs_itemsdensity":3802.77,"size_unitdensity":0.25}},{"type":"Feature","geometry":{"type":"Polygon","coordinates":[[[-59.94141,-3.03772],[-59.93042,-3.03772],[-59.93042,-3.04321],[-59.94141,-3.04321],[-59.94141,-3.03772]]]},"properties":{"ghs":"6xmqsn","size":0.19,"ghs_len":6,"ghs_area":0.74,"ghs_bytes":442163,"ghs_items":2516,"size_unit":"km2","ghsval_unit":"bytes","ghs_itemsdensity":3391.61,"size_unitdensity":0.26}},{"type":"Feature","geometry":{"type":"Polygon","coordinates":[[[-59.93042,-3.03223],[-59.91943,-3.03223],[-59.91943,-3.03772],[-59.93042,-3.03772],[-59.93042,-3.03223]]]},"properties":{"ghs":"6xmqsr","size":0.17,"ghs_len":6,"ghs_area":0.74,"ghs_bytes":484500,"ghs_items":2759,"size_unit":"km2","ghsval_unit":"bytes","ghs_itemsdensity":3719.16,"size_unitdensity":0.23}},{"type":"Feature","geometry":{"type":"Polygon","coordinates":[[[-59.94141,-3.01575],[-59.94141,-3.01025],[-59.94141,-2.98828],[-59.89746,-2.98828],[-59.89746,-3.03223],[-59.91943,-3.03223],[-59.93042,-3.03223],[-59.93042,-3.02673],[-59.94141,-3.02673],[-59.94141,-3.02124],[-59.94141,-3.01575]]]},"properties":{"ghs":"6xmqu","size":0.97,"ghs_len":5,"ghs_area":23,"ghs_bytes":2665820,"ghs_items":15301,"size_unit":"km2","ghsval_unit":"bytes","ghs_itemsdensity":665.34,"size_unitdensity":0.04}},{"type":"Feature","geometry":{"type":"Polygon","coordinates":[[[-59.94141,-3.02673],[-59.93042,-3.02673],[-59.93042,-3.03223],[-59.94141,-3.03223],[-59.94141,-3.02673]]]},"properties":{"ghs":"6xmqu0","size":0.19,"ghs_len":6,"ghs_area":0.74,"ghs_bytes":492187,"ghs_items":2769,"size_unit":"km2","ghsval_unit":"bytes","ghs_itemsdensity":3732.62,"size_unitdensity":0.26}}]}
