{"type":"FeatureCollection","features":[{"type":"Feature","geometry":{"type":"Polygon","coordinates":[[[-43.54018,-19.61585],[-43.54311,-19.60119],[-43.54313,-19.60099],[-43.54311,-19.6008],[-43.54114,-19.59092],[-43.54213,-19.57205],[-43.54212,-19.57183],[-43.54206,-19.57163],[-43.54197,-19.57144],[-43.53797,-19.56544],[-43.53783,-19.56528],[-43.53767,-19.56515],[-43.53748,-19.56506],[-43.53728,-19.565],[-43.53707,-19.565],[-43.53686,-19.56503],[-43.53088,-19.56674],[-43.52917,-19.55907],[-43.53197,-19.55162],[-43.54373,-19.54279],[-43.54388,-19.54266],[-43.54399,-19.54251],[-43.54408,-19.54233],[-43.54412,-19.54214],[-43.54413,-19.54195],[-43.54411,-19.54176],[-43.54404,-19.54158],[-43.53804,-19.52858],[-43.53795,-19.52842],[-43.53783,-19.52828],[-43.53769,-19.52816],[-43.52894,-19.52233],[-43.52305,-19.5086],[-43.52297,-19.50844],[-43.52285,-19.5083],[-43.52271,-19.50818],[-43.52255,-19.50809],[-43.52238,-19.50802],[-43.51501,-19.50618],[-43.51412,-19.50083],[-43.51407,-19.50063],[-43.51397,-19.50045],[-43.49907,-19.47759],[-43.49411,-19.45676],[-43.49404,-19.45658],[-43.49394,-19.45641],[-43.49381,-19.45626],[-43.49365,-19.45614],[-43.49348,-19.45605],[-43.49328,-19.45601],[-43.49309,-19.456],[-43.49289,-19.45602],[-43.48954,-19.45686],[-43.48693,-19.45339],[-43.48681,-19.45326],[-43.48666,-19.45315],[-43.4865,-19.45306],[-43.48632,-19.45301],[-43.48613,-19.45299],[-43.48221,-19.45299],[-43.48312,-19.44029],[-43.487,-19.43349],[-43.48708,-19.43331],[-43.48713,-19.43312],[-43.48713,-19.43292],[-43.4871,-19.43272],[-43.48702,-19.43254],[-43.48691,-19.43237],[-43.48318,-19.4277],[-43.48413,-19.42012],[-43.48413,-19.41994],[-43.48411,-19.41976],[-43.48405,-19.41959],[-43.48396,-19.41943],[-43.48384,-19.41929],[-43.48284,-19.41829],[-43.4827,-19.41817],[-43.48254,-19.41808],[-43.48237,-19.41802],[-43.48219,-19.418],[-43.48201,-19.418],[-43.48183,-19.41804],[-43.45983,-19.42504],[-43.45966,-19.42512],[-43.4595,-19.42522],[-43.45937,-19.42535],[-43.45926,-19.42551],[-43.45919,-19.42568],[-43.4573,-19.43133],[-43.44461,-19.43914],[-43.44446,-19.43925],[-43.44434,-19.43939],[-43.44424,-19.43954],[-43.44418,-19.43971],[-43.44414,-19.43989],[-43.44414,-19.44007],[-43.44417,-19.44025],[-43.44805,-19.45482],[-43.4446,-19.45999],[-43.43642,-19.45999],[-43.42819,-19.45485],[-43.42103,-19.45038],[-43.41911,-19.4408],[-43.41906,-19.44061],[-43.41896,-19.44044],[-43.41884,-19.44028],[-43.41868,-19.44016],[-43.41851,-19.44007],[-43.41832,-19.44001],[-43.41812,-19.43999],[-43.41792,-19.44002],[-43.40433,-19.44293],[-43.38803,-19.43238],[-43.38711,-19.4278],[-43.38705,-19.4276],[-43.38695,-19.42742],[-43.38682,-19.42726],[-43.38665,-19.42714],[-43.38647,-19.42705],[-43.38626,-19.427],[-43.38606,-19.427],[-43.36006,-19.429],[-43.35985,-19.42904],[-43.35965,-19.42912],[-43.35948,-19.42924],[-43.34448,-19.44224],[-43.34433,-19.4424],[-43.34422,-19.44258],[-43.34416,-19.44278],[-43.34413,-19.44299],[-43.34413,-19.44799],[-43.34416,-19.4482],[-43.34422,-19.4484],[-43.34433,-19.44858],[-43.34447,-19.44874],[-43.34464,-19.44886],[-43.35164,-19.45286],[-43.35179,-19.45294],[-43.35196,-19.45298],[-43.35213,-19.45299],[-43.35957,-19.45299],[-43.36181,-19.45674],[-43.35853,-19.45919],[-43.3584,-19.45932],[-43.35829,-19.45946],[-43.35821,-19.45962],[-43.35816,-19.45979],[-43.35813,-19.45997],[-43.35815,-19.46015],[-43.36001,-19.47225],[-43.35289,-19.47402],[-43.35271,-19.47409],[-43.35255,-19.47418],[-43.35241,-19.47431],[-43.35229,-19.47446],[-43.3522,-19.47463],[-43.35215,-19.47481],[-43.35213,-19.47499],[-43.35213,-19.48283],[-43.35044,-19.48791],[-43.34224,-19.487],[-43.34205,-19.487],[-43.34186,-19.48703],[-43.34168,-19.4871],[-43.34152,-19.48721],[-43.34138,-19.48734],[-43.34126,-19.4875],[-43.34119,-19.48768],[-43.33827,-19.49642],[-43.33153,-19.5022],[-43.32807,-19.50449],[-43.32799,-19.50447],[-43.32696,-19.50425],[-43.32679,-19.50423],[-43.32662,-19.50424],[-43.32632,-19.50427],[-43.32614,-19.50431],[-43.32597,-19.50439],[-43.32582,-19.50449],[-43.32559,-19.50468],[-43.32543,-19.50484],[-43.32531,-19.50503],[-43.3252,-19.50526],[-43.3249,-19.50572],[-43.32442,-19.5064],[-43.32432,-19.50656],[-43.32426,-19.50674],[-43.32417,-19.50711],[-43.32415,-19.50729],[-43.32416,-19.50747],[-43.32421,-19.50788],[-43.32422,-19.50796],[-43.32432,-19.50839],[-43.32438,-19.50859],[-43.32449,-19.50877],[-43.32466,-19.509],[-43.32404,-19.509],[-43.32388,-19.50902],[-43.32308,-19.50915],[-43.32306,-19.50915],[-43.32239,-19.50927],[-43.3222,-19.50933],[-43.32203,-19.50942],[-43.32187,-19.50954],[-43.32167,-19.50974],[-43.32152,-19.50993],[-43.32146,-19.51003],[-43.32136,-19.50999],[-43.32092,-19.50979],[-43.32092,-19.50978],[-43.32039,-19.50954],[-43.31969,-19.50917],[-43.31968,-19.50917],[-43.31895,-19.50879],[-43.31902,-19.50855],[-43.31908,-19.50824],[-43.31909,-19.50798],[-43.31906,-19.5076],[-43.31904,-19.50749],[-43.31893,-19.50694],[-43.31889,-19.5068],[-43.31874,-19.5064],[-43.31868,-19.50617],[-43.31867,-19.50602],[-43.31869,-19.50571],[-43.31879,-19.50525],[-43.31905,-19.50441],[-43.31908,-19.5043],[-43.31919,-19.50372],[-43.31921,-19.50356],[-43.3192,-19.50339],[-43.31916,-19.50323],[-43.31907,-19.50293],[-43.319,-19.50277],[-43.31891,-19.50263],[-43.31879,-19.5025],[-43.31854,-19.50227],[-43.31859,-19.5022],[-43.31868,-19.50205],[-43.31875,-19.50189],[-43.31883,-19.50164],[-43.31887,-19.50139],[-43.3189,-19.50088],[-43.31893,-19.50021],[-43.31896,-19.49959],[-43.31896,-19.49951],[-43.31894,-19.49852],[-43.31892,-19.49838],[-43.31888,-19.49814],[-43.31883,-19.49794],[-43.31873,-19.49775],[-43.31859,-19.49759],[-43.31836,-19.49736],[-43.3182,-19.49723],[-43.31802,-19.49714],[-43.31783,-19.49709],[-43.31735,-19.49701],[-43.31715,-19.49699],[-43.31696,-19.49702],[-43.31662,-19.49709],[-43.31617,-19.49712],[-43.31571,-19.4971],[-43.31547,-19.49704],[-43.31503,-19.49679],[-43.31508,-19.49672],[-43.3152,-19.49652],[-43.3154,-19.49605],[-43.31547,-19.4958],[-43.31551,-19.49553],[-43.31562,-19.49536],[-43.31569,-19.49522],[-43.31584,-19.49483],[-43.31589,-19.49468],[-43.31592,-19.49452],[-43.31595,-19.494],[-43.31594,-19.4938],[-43.31588,-19.4934],[-43.31581,-19.49314],[-43.31566,-19.4928],[-43.31557,-19.49263],[-43.31545,-19.49249],[-43.3153,-19.49237],[-43.31514,-19.49226],[-43.31499,-19.49218],[-43.31482,-19.49212],[-43.3147,-19.49209],[-43.31449,-19.49206],[-43.31445,-19.49206],[-43.31439,-19.49186],[-43.31438,-19.49182],[-43.3139,-19.49025],[-43.31384,-19.49008],[-43.31371,-19.48984],[-43.3136,-19.48966],[-43.31345,-19.48952],[-43.31327,-19.4894],[-43.31297,-19.48925],[-43.3128,-19.48918],[-43.31263,-19.48915],[-43.31245,-19.48914],[-43.31234,-19.48915],[-43.31229,-19.48901],[-43.3122,-19.48885],[-43.31199,-19.48855],[-43.31184,-19.48838],[-43.31132,-19.48791],[-43.31125,-19.48785],[-43.31101,-19.48766],[-43.31083,-19.48756],[-43.31064,-19.48749],[-43.31043,-19.48746],[-43.31018,-19.48745],[-43.31,-19.48746],[-43.30982,-19.48751],[-43.30965,-19.48758],[-43.30939,-19.48773],[-43.30923,-19.48785],[-43.30889,-19.48815],[-43.30876,-19.48828],[-43.30849,-19.48864],[-43.30815,-19.48891],[-43.30815,-19.48891],[-43.30774,-19.48925],[-43.3077,-19.48928],[-43.30761,-19.48936],[-43.30744,-19.48895],[-43.30742,-19.4889],[-43.3071,-19.48824],[-43.30701,-19.48786],[-43.307,-19.48766],[-43.30702,-19.48757],[-43.30726,-19.48713],[-43.30732,-19.48699],[-43.30736,-19.48684],[-43.30741,-19.48654],[-43.30743,-19.48633],[-43.3074,-19.48612],[-43.30733,-19.48591],[-43.30731,-19.48589],[-43.3079,-19.48527],[-43.30838,-19.48492],[-43.30865,-19.48483],[-43.30876,-19.48479],[-43.30931,-19.48455],[-43.31015,-19.48429],[-43.31024,-19.48425],[-43.31072,-19.48404],[-43.31091,-19.48394],[-43.31107,-19.48379],[-43.31124,-19.48361],[-43.31136,-19.48343],[-43.31145,-19.48323],[-43.31153,-19.48294],[-43.31157,-19.48271],[-43.3116,-19.48234],[-43.3116,-19.48221],[-43.31157,-19.48187],[-43.31153,-19.48166],[-43.31144,-19.48134],[-43.31143,-19.48117],[-43.31145,-19.48085],[-43.31145,-19.48067],[-43.31141,-19.48049],[-43.31126,-19.48001],[-43.3112,-19.47985],[-43.31112,-19.47971],[-43.31094,-19.47948],[-43.31081,-19.47933],[-43.31065,-19.47921],[-43.31046,-19.47912],[-43.31027,-19.47907],[-43.30966,-19.47899],[-43.3096,-19.47899],[-43.30911,-19.47895],[-43.30883,-19.47897],[-43.30862,-19.47901],[-43.30845,-19.47907],[-43.30829,-19.47915],[-43.30819,-19.47921],[-43.30805,-19.47925],[-43.30776,-19.47926],[-43.30714,-19.47927],[-43.30667,-19.4792],[-43.30665,-19.4792],[-43.30568,-19.47908],[-43.30548,-19.47908],[-43.30472,-19.47914],[-43.30452,-19.47917],[-43.30419,-19.47927],[-43.30398,-19.47935],[-43.30379,-19.47948],[-43.30364,-19.47965],[-43.30341,-19.47999],[-43.30329,-19.48019],[-43.30314,-19.48059],[-43.30308,-19.48081],[-43.30303,-19.48116],[-43.30294,-19.48135],[-43.30288,-19.48142],[-43.30257,-19.48166],[-43.30204,-19.482],[-43.30196,-19.48205],[-43.3014,-19.48249],[-43.30122,-19.48266],[-43.30078,-19.48322],[-43.29978,-19.48421],[-43.29971,-19.4843],[-43.29924,-19.48488],[-43.29919,-19.48494],[-43.29878,-19.48556],[-43.29869,-19.48572],[-43.29863,-19.4859],[-43.2986,-19.48605],[-43.29859,-19.48605],[-43.29847,-19.48595],[-43.29835,-19.48587],[-43.29779,-19.48557],[-43.29707,-19.48518],[-43.29686,-19.4851],[-43.29663,-19.48506],[-43.2964,-19.48505],[-43.29616,-19.48507],[-43.29594,-19.48515],[-43.29566,-19.48528],[-43.29549,-19.48538],[-43.2949,-19.48581],[-43.29477,-19.48593],[-43.29451,-19.48621],[-43.29438,-19.48638],[-43.29429,-19.48657],[-43.29426,-19.48672],[-43.29414,-19.48677],[-43.2937,-19.48695],[-43.29354,-19.48692],[-43.29336,-19.4869],[-43.29317,-19.48692],[-43.29296,-19.48696],[-43.29191,-19.48706],[-43.29094,-19.48711],[-43.29025,-19.4871],[-43.29004,-19.48711],[-43.28983,-19.48718],[-43.2895,-19.48732],[-43.28944,-19.48735],[-43.28937,-19.48738],[-43.28937,-19.48738],[-43.28914,-19.48736],[-43.28906,-19.48734],[-43.28871,-19.48712],[-43.28845,-19.48684],[-43.28828,-19.4866],[-43.28815,-19.4862],[-43.28812,-19.48611],[-43.28788,-19.48557],[-43.28788,-19.48554],[-43.28789,-19.48553],[-43.28804,-19.48523],[-43.28809,-19.48512],[-43.2882,-19.48479],[-43.28826,-19.48455],[-43.28828,-19.4844],[-43.28835,-19.48427],[-43.28866,-19.48387],[-43.28875,-19.48372],[-43.28882,-19.48355],[-43.28886,-19.48338],[-43.28886,-19.4832],[-43.28885,-19.48292],[-43.28881,-19.4827],[-43.28877,-19.48257],[-43.28893,-19.48252],[-43.28911,-19.48245],[-43.28927,-19.48234],[-43.28941,-19.48221],[-43.28954,-19.48206],[-43.28967,-19.48194],[-43.28988,-19.48187],[-43.28989,-19.48187],[-43.2903,-19.48173],[-43.29053,-19.48162],[-43.29088,-19.48139],[-43.29102,-19.48128],[-43.29114,-19.48114],[-43.29123,-19.48099],[-43.2913,-19.48082],[-43.29138,-19.48053],[-43.29149,-19.48029],[-43.29155,-19.48012],[-43.29157,-19.47995],[-43.29157,-19.47978],[-43.29153,-19.47945],[-43.29152,-19.47919],[-43.2916,-19.47889],[-43.29161,-19.47887],[-43.29172,-19.47843],[-43.29175,-19.47821],[-43.29175,-19.47781],[-43.29174,-19.47763],[-43.2917,-19.47746],[-43.29161,-19.47721],[-43.29152,-19.47703],[-43.2914,-19.47687],[-43.29125,-19.47673],[-43.29096,-19.47653],[-43.29088,-19.47648],[-43.29068,-19.47636],[-43.2905,-19.47628],[-43.2903,-19.47624],[-43.2901,-19.47624],[-43.28991,-19.47627],[-43.28958,-19.47637],[-43.28931,-19.47649],[-43.28889,-19.47677],[-43.28879,-19.47684],[-43.2885,-19.47709],[-43.28842,-19.47715],[-43.28831,-19.47727],[-43.28824,-19.4773],[-43.28786,-19.47736],[-43.28751,-19.47736],[-43.2869,-19.47727],[-43.28689,-19.47727],[-43.28688,-19.4769],[-43.28685,-19.47674],[-43.28676,-19.4763],[-43.28673,-19.47593],[-43.28675,-19.47563],[-43.28691,-19.475],[-43.28708,-19.47459],[-43.28713,-19.47443],[-43.28716,-19.47427],[-43.28717,-19.47402],[-43.28718,-19.47397],[-43.28719,-19.47291],[-43.28718,-19.47276],[-43.28712,-19.4723],[-43.28705,-19.47181],[-43.28706,-19.4717],[-43.28706,-19.4717],[-43.28763,-19.47192],[-43.28771,-19.47195],[-43.28841,-19.47216],[-43.28895,-19.47241],[-43.28952,-19.47274],[-43.28993,-19.47307],[-43.29,-19.47312],[-43.29053,-19.47349],[-43.29077,-19.4736],[-43.29122,-19.47376],[-43.29145,-19.47381],[-43.29185,-19.47385],[-43.29209,-19.47384],[-43.29235,-19.4738],[-43.29249,-19.47377],[-43.29263,-19.47372],[-43.2929,-19.47359],[-43.29307,-19.47349],[-43.29322,-19.47336],[-43.29366,-19.47286],[-43.29417,-19.47239],[-43.2943,-19.47223],[-43.29441,-19.47206],[-43.2945,-19.47184],[-43.29456,-19.47164],[-43.29458,-19.47143],[-43.29456,-19.47122],[-43.29452,-19.47105],[-43.29445,-19.47083],[-43.29438,-19.47068],[-43.2943,-19.47044],[-43.29419,-19.4702],[-43.29405,-19.46999],[-43.29409,-19.46965],[-43.29418,-19.46919],[-43.29434,-19.46872],[-43.29461,-19.46822],[-43.29463,-19.46819],[-43.29488,-19.46769],[-43.29496,-19.46745],[-43.29504,-19.46706],[-43.29506,-19.46684],[-43.29503,-19.46663],[-43.29491,-19.46612],[-43.29486,-19.46547],[-43.29483,-19.46532],[-43.2947,-19.46477],[-43.29461,-19.46429],[-43.29462,-19.46405],[-43.29462,-19.46403],[-43.29462,-19.46389],[-43.29464,-19.46386],[-43.29513,-19.46321],[-43.29522,-19.46307],[-43.29541,-19.46271],[-43.29543,-19.46268],[-43.29557,-19.46264],[-43.29561,-19.46263],[-43.29578,-19.46258],[-43.29595,-19.46251],[-43.2961,-19.46242],[-43.29623,-19.46229],[-43.29634,-19.46215],[-43.29643,-19.46201],[-43.29651,-19.46185],[-43.29656,-19.46168],[-43.29658,-19.46151],[-43.29659,-19.46123],[-43.29657,-19.46102],[-43.29651,-19.46082],[-43.29641,-19.46063],[-43.29627,-19.46047],[-43.29614,-19.46035],[-43.29606,-19.46028],[-43.29576,-19.46005],[-43.29539,-19.45967],[-43.29518,-19.45952],[-43.29465,-19.45921],[-43.29443,-19.45912],[-43.2942,-19.45908],[-43.29387,-19.45906],[-43.29381,-19.45907],[-43.29381,-19.45904],[-43.29379,-19.45884],[-43.29374,-19.45866],[-43.29364,-19.45843],[-43.29355,-19.45826],[-43.29343,-19.4581],[-43.29328,-19.45798],[-43.29311,-19.45789],[-43.29292,-19.45783],[-43.29274,-19.45779],[-43.29257,-19.45777],[-43.2924,-19.45778],[-43.29213,-19.45782],[-43.292,-19.45785],[-43.29195,-19.45771],[-43.29188,-19.45753],[-43.29178,-19.45738],[-43.29167,-19.45724],[-43.29143,-19.45701],[-43.29127,-19.45688],[-43.29097,-19.45669],[-43.29076,-19.45659],[-43.29053,-19.45653],[-43.29013,-19.4565],[-43.28998,-19.45649],[-43.28945,-19.45652],[-43.28937,-19.45653],[-43.28935,-19.45654],[-43.28932,-19.45646],[-43.2892,-19.45629],[-43.28905,-19.45615],[-43.28888,-19.45604],[-43.28869,-19.45597],[-43.28849,-19.45594],[-43.28833,-19.45593],[-43.28812,-19.45594],[-43.28791,-19.456],[-43.28773,-19.4561],[-43.28754,-19.45622],[-43.28737,-19.45637],[-43.28703,-19.45672],[-43.28702,-19.45673],[-43.28673,-19.45704],[-43.28665,-19.45711],[-43.28645,-19.45719],[-43.28626,-19.45723],[-43.28592,-19.45723],[-43.28526,-19.45721],[-43.2851,-19.45722],[-43.28478,-19.45727],[-43.28458,-19.45732],[-43.28438,-19.45742],[-43.28416,-19.45756],[-43.28401,-19.45768],[-43.28388,-19.45783],[-43.28379,-19.458],[-43.28369,-19.45821],[-43.28364,-19.45837],[-43.28361,-19.45854],[-43.28358,-19.45898],[-43.28354,-19.4591],[-43.2835,-19.45916],[-43.28339,-19.4593],[-43.28331,-19.45947],[-43.28306,-19.46015],[-43.28291,-19.46044],[-43.2826,-19.46083],[-43.28246,-19.46096],[-43.28241,-19.46095],[-43.28226,-19.46084],[-43.28203,-19.46064],[-43.28186,-19.46038],[-43.28176,-19.46016],[-43.28171,-19.45994],[-43.2817,-19.45961],[-43.28166,-19.45938],[-43.28151,-19.45884],[-43.28145,-19.45867],[-43.28136,-19.45852],[-43.28109,-19.45815],[-43.28099,-19.45803],[-43.28087,-19.45793],[-43.2806,-19.45772],[-43.28035,-19.4575],[-43.28023,-19.45741],[-43.2801,-19.45734],[-43.2797,-19.45716],[-43.27955,-19.4571],[-43.27939,-19.45707],[-43.27922,-19.45707],[-43.27891,-19.45708],[-43.27882,-19.45708],[-43.27876,-19.45706],[-43.27863,-19.45697],[-43.27847,-19.45689],[-43.2783,-19.45684],[-43.27814,-19.4568],[-43.27792,-19.45678],[-43.2777,-19.4568],[-43.27749,-19.45687],[-43.27727,-19.45697],[-43.27713,-19.45706],[-43.277,-19.45716],[-43.27689,-19.45729],[-43.2768,-19.4574],[-43.27649,-19.45774],[-43.27618,-19.45793],[-43.27571,-19.45815],[-43.27497,-19.45832],[-43.27456,-19.45838],[-43.27455,-19.45838],[-43.27451,-19.45834],[-43.27421,-19.45786],[-43.27379,-19.45716],[-43.27373,-19.45707],[-43.27347,-19.45672],[-43.27336,-19.4566],[-43.27323,-19.45649],[-43.27298,-19.45632],[-43.27283,-19.45624],[-43.27266,-19.45618],[-43.27249,-19.45615],[-43.27218,-19.45613],[-43.27192,-19.45615],[-43.27169,-19.45619],[-43.27161,-19.45619],[-43.27136,-19.4561],[-43.2706,-19.4557],[-43.27056,-19.45568],[-43.26978,-19.4553],[-43.26955,-19.45522],[-43.26919,-19.45515],[-43.26901,-19.45513],[-43.26883,-19.45514],[-43.26848,-19.45519],[-43.26801,-19.45516],[-43.26745,-19.45502],[-43.26668,-19.45467],[-43.26596,-19.45424],[-43.26573,-19.45413],[-43.26511,-19.45395],[-43.26482,-19.45391],[-43.2644,-19.45391],[-43.26413,-19.45394],[-43.26344,-19.45414],[-43.26271,-19.45431],[-43.26215,-19.45437],[-43.26213,-19.45436],[-43.26202,-19.45431],[-43.26173,-19.45403],[-43.26129,-19.45351],[-43.26093,-19.45306],[-43.26041,-19.45215],[-43.25995,-19.45133],[-43.25988,-19.45123],[-43.25973,-19.45102],[-43.25959,-19.45087],[-43.25942,-19.45075],[-43.25924,-19.45067],[-43.25904,-19.45063],[-43.25877,-19.4506],[-43.25856,-19.4506],[-43.25836,-19.45064],[-43.25816,-19.4507],[-43.25796,-19.45071],[-43.25767,-19.45062],[-43.25738,-19.45057],[-43.25704,-19.45057],[-43.2569,-19.45058],[-43.25654,-19.45063],[-43.25626,-19.45071],[-43.25599,-19.45083],[-43.2558,-19.45094],[-43.25564,-19.45109],[-43.25552,-19.45127],[-43.25544,-19.45147],[-43.25536,-19.45176],[-43.25533,-19.45195],[-43.25533,-19.45216],[-43.25538,-19.45235],[-43.25545,-19.45251],[-43.25542,-19.45256],[-43.2554,-19.45258],[-43.25537,-19.45259],[-43.25511,-19.45276],[-43.25495,-19.45289],[-43.25482,-19.45305],[-43.25455,-19.45346],[-43.25428,-19.45385],[-43.25415,-19.454],[-43.25414,-19.454],[-43.25387,-19.4539],[-43.25349,-19.45374],[-43.25349,-19.45374],[-43.25307,-19.45358],[-43.25264,-19.45336],[-43.25246,-19.4533],[-43.25192,-19.45315],[-43.25171,-19.45311],[-43.25138,-19.4531],[-43.2511,-19.45312],[-43.25072,-19.45321],[-43.25051,-19.45329],[-43.2501,-19.45349],[-43.24987,-19.45365],[-43.24981,-19.4537],[-43.24973,-19.45358],[-43.24942,-19.45318],[-43.24931,-19.45306],[-43.249,-19.45276],[-43.24887,-19.45266],[-43.24873,-19.45258],[-43.24842,-19.45243],[-43.24832,-19.45231],[-43.24815,-19.45217],[-43.2479,-19.452],[-43.24775,-19.45192],[-43.2476,-19.45187],[-43.24731,-19.45179],[-43.24705,-19.45176],[-43.24678,-19.45176],[-43.24621,-19.45174],[-43.2461,-19.45175],[-43.24579,-19.45177],[-43.24557,-19.45182],[-43.24536,-19.45191],[-43.24515,-19.45203],[-43.24501,-19.45213],[-43.24489,-19.45226],[-43.24479,-19.4524],[-43.24466,-19.45264],[-43.24465,-19.45265],[-43.24465,-19.45264],[-43.24448,-19.45237],[-43.2444,-19.45227],[-43.24419,-19.452],[-43.24408,-19.4519],[-43.24397,-19.45181],[-43.24376,-19.45167],[-43.24355,-19.45156],[-43.24336,-19.4515],[-43.24299,-19.45128],[-43.24252,-19.45096],[-43.24206,-19.45055],[-43.24206,-19.45054],[-43.24158,-19.45013],[-43.24132,-19.44976],[-43.24105,-19.44931],[-43.24092,-19.44901],[-43.24084,-19.44868],[-43.2408,-19.44855],[-43.24071,-19.44831],[-43.24063,-19.44816],[-43.24053,-19.44802],[-43.24041,-19.4479],[-43.24022,-19.44774],[-43.24,-19.44761],[-43.23972,-19.44748],[-43.23951,-19.44741],[-43.23928,-19.44739],[-43.23895,-19.4474],[-43.23888,-19.4474],[-43.23847,-19.44744],[-43.23823,-19.44749],[-43.23801,-19.44759],[-43.23786,-19.4477],[-43.23745,-19.44764],[-43.2371,-19.44758],[-43.23689,-19.44752],[-43.2368,-19.4475],[-43.23646,-19.44743],[-43.23632,-19.4474],[-43.23622,-19.44733],[-43.23605,-19.44721],[-43.23591,-19.44703],[-43.2359,-19.44701],[-43.23567,-19.44674],[-43.2356,-19.44662],[-43.23551,-19.44644],[-43.2354,-19.44626],[-43.23525,-19.44611],[-43.23508,-19.44599],[-43.2349,-19.4459],[-43.23476,-19.44583],[-43.2346,-19.44579],[-43.2342,-19.44572],[-43.23384,-19.44564],[-43.23363,-19.44555],[-43.233,-19.44507],[-43.23296,-19.44504],[-43.23233,-19.44462],[-43.23229,-19.44458],[-43.23225,-19.44439],[-43.23223,-19.4443],[-43.23218,-19.44412],[-43.23218,-19.44411],[-43.23222,-19.44396],[-43.23226,-19.44375],[-43.23228,-19.4434],[-43.23227,-19.44322],[-43.2322,-19.44259],[-43.23215,-19.44237],[-43.23206,-19.44214],[-43.23207,-19.44199],[-43.23206,-19.44178],[-43.23201,-19.44157],[-43.23192,-19.44138],[-43.23176,-19.44114],[-43.23169,-19.44104],[-43.23156,-19.44089],[-43.23155,-19.44073],[-43.23149,-19.44055],[-43.23137,-19.44025],[-43.23116,-19.43952],[-43.23116,-19.4395],[-43.23095,-19.43884],[-43.2309,-19.43845],[-43.23088,-19.43836],[-43.2308,-19.43801],[-43.23074,-19.43782],[-43.23064,-19.43765],[-43.2305,-19.4375],[-43.23032,-19.43733],[-43.23017,-19.43722],[-43.2298,-19.43699],[-43.22972,-19.4369],[-43.22947,-19.43656],[-43.22935,-19.43642],[-43.22921,-19.43631],[-43.22896,-19.43614],[-43.22879,-19.43592],[-43.22865,-19.43577],[-43.22849,-19.43565],[-43.2283,-19.43557],[-43.22811,-19.43551],[-43.22798,-19.43546],[-43.22781,-19.4354],[-43.22772,-19.43539],[-43.22768,-19.43536],[-43.22732,-19.43513],[-43.22726,-19.4351],[-43.22671,-19.4348],[-43.22654,-19.43472],[-43.22616,-19.4346],[-43.22603,-19.43457],[-43.22568,-19.4345],[-43.22555,-19.43449],[-43.22526,-19.43448],[-43.22508,-19.43449],[-43.22491,-19.43453],[-43.22411,-19.43479],[-43.22392,-19.43488],[-43.22332,-19.43523],[-43.22286,-19.43549],[-43.22249,-19.43564],[-43.22212,-19.43569],[-43.22194,-19.43568],[-43.22172,-19.4357],[-43.2211,-19.43581],[-43.22083,-19.43589],[-43.2204,-19.43611],[-43.22022,-19.43622],[-43.21996,-19.43643],[-43.2199,-19.43646],[-43.21986,-19.43637],[-43.21973,-19.43617],[-43.2196,-19.436],[-43.21942,-19.43586],[-43.21921,-19.43572],[-43.2192,-19.43564],[-43.21914,-19.43548],[-43.219,-19.43517],[-43.21892,-19.43502],[-43.21881,-19.43489],[-43.21868,-19.43477],[-43.21853,-19.43469],[-43.21823,-19.43454],[-43.21808,-19.43448],[-43.21775,-19.43438],[-43.21778,-19.43428],[-43.21782,-19.43403],[-43.21783,-19.4338],[-43.21781,-19.43358],[-43.21774,-19.43336],[-43.21763,-19.43317],[-43.21753,-19.43303],[-43.21756,-19.43289],[-43.21757,-19.43271],[-43.21755,-19.43253],[-43.2175,-19.43225],[-43.21745,-19.43208],[-43.21738,-19.43192],[-43.21727,-19.43177],[-43.21714,-19.43165],[-43.21652,-19.43116],[-43.21635,-19.43105],[-43.21564,-19.43069],[-43.21504,-19.43026],[-43.21503,-19.43025],[-43.2141,-19.42959],[-43.21403,-19.42954],[-43.21301,-19.42895],[-43.21286,-19.42887],[-43.21283,-19.42886],[-43.21291,-19.42875],[-43.21318,-19.42857],[-43.21349,-19.42839],[-43.21364,-19.42828],[-43.21377,-19.42815],[-43.21387,-19.42799],[-43.21394,-19.42782],[-43.21405,-19.42746],[-43.21409,-19.42729],[-43.21409,-19.42712],[-43.21409,-19.42691],[-43.21414,-19.42653],[-43.21414,-19.42647],[-43.21421,-19.4256],[-43.21421,-19.42556],[-43.21425,-19.42457],[-43.21424,-19.42436],[-43.21412,-19.42369],[-43.21407,-19.42352],[-43.214,-19.42336],[-43.2139,-19.42322],[-43.21377,-19.42309],[-43.21345,-19.42282],[-43.21326,-19.4227],[-43.21306,-19.42262],[-43.21284,-19.42258],[-43.21262,-19.4226],[-43.21225,-19.42267],[-43.21209,-19.42272],[-43.21193,-19.42279],[-43.21174,-19.4229],[-43.2117,-19.42291],[-43.21145,-19.42285],[-43.21124,-19.42282],[-43.21103,-19.42284],[-43.20999,-19.42303],[-43.20983,-19.42308],[-43.20895,-19.42341],[-43.20869,-19.42349],[-43.20856,-19.4233],[-43.20852,-19.42325],[-43.20824,-19.42288],[-43.20812,-19.42275],[-43.20797,-19.42264],[-43.2078,-19.42256],[-43.20762,-19.42251],[-43.20725,-19.42244],[-43.20707,-19.42243],[-43.20688,-19.42244],[-43.20671,-19.4225],[-43.20654,-19.42258],[-43.20606,-19.42289],[-43.20589,-19.42302],[-43.20575,-19.42319],[-43.20546,-19.42365],[-43.20512,-19.4239],[-43.20469,-19.42396],[-43.20448,-19.42395],[-43.20435,-19.42383],[-43.20425,-19.42355],[-43.20423,-19.42271],[-43.20421,-19.42252],[-43.20416,-19.42234],[-43.20407,-19.42218],[-43.2038,-19.42176],[-43.20366,-19.42159],[-43.20349,-19.42146],[-43.20298,-19.42114],[-43.20283,-19.42106],[-43.20266,-19.42101],[-43.20249,-19.42099],[-43.20232,-19.421],[-43.20159,-19.42109],[-43.2014,-19.42114],[-43.20122,-19.42122],[-43.20106,-19.42133],[-43.20044,-19.42188],[-43.20031,-19.42201],[-43.20021,-19.42217],[-43.20014,-19.42234],[-43.2001,-19.42252],[-43.20003,-19.4232],[-43.20003,-19.42338],[-43.20006,-19.42356],[-43.20012,-19.42373],[-43.20021,-19.42389],[-43.20033,-19.42403],[-43.21187,-19.43516],[-43.20928,-19.43948],[-43.20919,-19.43967],[-43.20914,-19.43988],[-43.20914,-19.44009],[-43.20918,-19.44029],[-43.20926,-19.44049],[-43.20939,-19.44066],[-43.21739,-19.44966],[-43.21754,-19.4498],[-43.21771,-19.4499],[-43.23162,-19.45639],[-43.21457,-19.48007],[-43.19365,-19.48342],[-43.18998,-19.48401],[-43.18979,-19.48405],[-43.18963,-19.48413],[-43.18947,-19.48424],[-43.18935,-19.48438],[-43.18924,-19.48454],[-43.18917,-19.48471],[-43.18914,-19.4849],[-43.18914,-19.48508],[-43.18917,-19.48527],[-43.18924,-19.48544],[-43.19224,-19.49144],[-43.19233,-19.49159],[-43.19244,-19.49172],[-43.19258,-19.49183],[-43.19273,-19.49191],[-43.2005,-19.49536],[-43.19537,-19.50134],[-43.19526,-19.5015],[-43.19518,-19.50168],[-43.19514,-19.50187],[-43.19514,-19.50207],[-43.19517,-19.50226],[-43.19524,-19.50244],[-43.19999,-19.51195],[-43.19728,-19.51648],[-43.19719,-19.51666],[-43.19715,-19.51684],[-43.19713,-19.51704],[-43.19716,-19.51723],[-43.19723,-19.51741],[-43.19732,-19.51758],[-43.19745,-19.51772],[-43.1976,-19.51784],[-43.20522,-19.5226],[-43.20605,-19.52759],[-43.2012,-19.53164],[-43.19384,-19.52429],[-43.19368,-19.52416],[-43.19349,-19.52406],[-43.19329,-19.52401],[-43.19308,-19.524],[-43.17408,-19.525],[-43.17392,-19.52502],[-43.17376,-19.52507],[-43.1591,-19.53093],[-43.14445,-19.52605],[-43.14429,-19.52601],[-43.14413,-19.52599],[-43.14313,-19.52599],[-43.14295,-19.52601],[-43.14276,-19.52607],[-43.14259,-19.52615],[-43.14244,-19.52627],[-43.14232,-19.52641],[-43.13785,-19.53268],[-43.13163,-19.52913],[-43.13146,-19.52905],[-43.13127,-19.529],[-43.13108,-19.529],[-43.13089,-19.52902],[-43.12689,-19.53002],[-43.1267,-19.5301],[-43.12652,-19.5302],[-43.12637,-19.53035],[-43.12626,-19.53052],[-43.12618,-19.53071],[-43.12332,-19.54023],[-43.11578,-19.54306],[-43.1156,-19.54315],[-43.11543,-19.54328],[-43.1153,-19.54344],[-43.11521,-19.54362],[-43.10935,-19.55827],[-43.10369,-19.5611],[-43.10353,-19.5612],[-43.10339,-19.56132],[-43.10328,-19.56147],[-43.1032,-19.56164],[-43.10315,-19.56182],[-43.10313,-19.56201],[-43.10315,-19.56219],[-43.10391,-19.56599],[-43.09975,-19.56599],[-43.09603,-19.55855],[-43.09593,-19.55839],[-43.0958,-19.55825],[-43.09565,-19.55814],[-43.09548,-19.55806],[-43.0953,-19.55801],[-43.09511,-19.558],[-43.09492,-19.55802],[-43.09474,-19.55808],[-43.08813,-19.56091],[-43.08153,-19.55808],[-43.08133,-19.55801],[-43.08112,-19.55799],[-43.08092,-19.55802],[-43.08072,-19.55808],[-43.06972,-19.56308],[-43.06954,-19.56319],[-43.06938,-19.56334],[-43.06926,-19.56351],[-43.06918,-19.56371],[-43.06914,-19.56392],[-43.06824,-19.57564],[-43.06345,-19.57405],[-43.06327,-19.574],[-43.06309,-19.574],[-43.06291,-19.57402],[-43.06274,-19.57408],[-43.06258,-19.57416],[-43.05658,-19.57816],[-43.05641,-19.5783],[-43.05628,-19.57848],[-43.05619,-19.57868],[-43.05614,-19.57889],[-43.05414,-19.59789],[-43.05414,-19.5981],[-43.05418,-19.5983],[-43.05426,-19.59849],[-43.05438,-19.59865],[-43.06117,-19.60641],[-43.06209,-19.61655],[-43.05751,-19.62021],[-43.05737,-19.62035],[-43.05726,-19.6205],[-43.05719,-19.62068],[-43.05519,-19.62668],[-43.05514,-19.62688],[-43.05514,-19.62709],[-43.05518,-19.6273],[-43.05526,-19.62749],[-43.05539,-19.62766],[-43.05554,-19.6278],[-43.05572,-19.62791],[-43.0664,-19.63276],[-43.07324,-19.64644],[-43.07334,-19.6466],[-43.07347,-19.64674],[-43.08304,-19.65536],[-43.08215,-19.6598],[-43.08213,-19.66002],[-43.08216,-19.66024],[-43.08224,-19.66044],[-43.08607,-19.66811],[-43.08416,-19.67575],[-43.08414,-19.67594],[-43.08414,-19.67613],[-43.08418,-19.67631],[-43.08426,-19.67648],[-43.08437,-19.67664],[-43.0845,-19.67677],[-43.08465,-19.67687],[-43.08483,-19.67695],[-43.08501,-19.67699],[-43.09935,-19.67878],[-43.0954,-19.6843],[-43.09051,-19.68821],[-43.09037,-19.68835],[-43.09026,-19.6885],[-43.09019,-19.68867],[-43.09014,-19.68886],[-43.09014,-19.68905],[-43.09016,-19.68923],[-43.09023,-19.68941],[-43.09032,-19.68958],[-43.09517,-19.69637],[-43.09709,-19.71268],[-43.09137,-19.71934],[-43.09127,-19.7195],[-43.09119,-19.71967],[-43.09114,-19.71986],[-43.09114,-19.72005],[-43.09116,-19.72023],[-43.09123,-19.72041],[-43.09132,-19.72058],[-43.09145,-19.72072],[-43.09159,-19.72084],[-43.09176,-19.72092],[-43.09195,-19.72098],[-43.09213,-19.721],[-43.10372,-19.721],[-43.11013,-19.72741],[-43.11013,-19.733],[-43.11015,-19.73318],[-43.11021,-19.73337],[-43.11029,-19.73353],[-43.11041,-19.73368],[-43.11055,-19.73381],[-43.11071,-19.7339],[-43.11089,-19.73397],[-43.11108,-19.73399],[-43.11127,-19.73399],[-43.13256,-19.73108],[-43.13524,-19.73644],[-43.13533,-19.73659],[-43.13545,-19.73673],[-43.13559,-19.73684],[-43.13575,-19.73692],[-43.13592,-19.73697],[-43.14992,-19.73997],[-43.15011,-19.73999],[-43.1503,-19.73998],[-43.15598,-19.73903],[-43.16134,-19.74171],[-43.16391,-19.74858],[-43.1456,-19.76015],[-43.14545,-19.76027],[-43.14532,-19.76042],[-43.14522,-19.76059],[-43.14516,-19.76077],[-43.14513,-19.76097],[-43.14515,-19.76116],[-43.1452,-19.76135],[-43.14529,-19.76152],[-43.1454,-19.76168],[-43.14555,-19.76181],[-43.14572,-19.76191],[-43.15637,-19.76675],[-43.15921,-19.77339],[-43.15931,-19.77356],[-43.15943,-19.77371],[-43.15958,-19.77383],[-43.16558,-19.77783],[-43.16575,-19.77792],[-43.16594,-19.77798],[-43.16613,-19.77799],[-43.16632,-19.77798],[-43.1868,-19.77408],[-43.18896,-19.77624],[-43.18721,-19.78062],[-43.18715,-19.78081],[-43.18713,-19.781],[-43.18715,-19.7812],[-43.18721,-19.78138],[-43.1873,-19.78155],[-43.18743,-19.7817],[-43.19443,-19.7887],[-43.19459,-19.78883],[-43.19477,-19.78893],[-43.19497,-19.78898],[-43.19518,-19.78899],[-43.21777,-19.78806],[-43.21796,-19.78804],[-43.21815,-19.78797],[-43.21832,-19.78787],[-43.21846,-19.78774],[-43.21858,-19.78759],[-43.21866,-19.78741],[-43.21881,-19.78703],[-43.21913,-19.78663],[-43.21928,-19.7865],[-43.2193,-19.78651],[-43.21988,-19.78678],[-43.21995,-19.78681],[-43.22076,-19.78712],[-43.22078,-19.78713],[-43.22124,-19.78729],[-43.22141,-19.78734],[-43.22158,-19.78735],[-43.22175,-19.78734],[-43.22217,-19.78727],[-43.22234,-19.78722],[-43.22249,-19.78715],[-43.22263,-19.78706],[-43.22317,-19.78663],[-43.2233,-19.7865],[-43.2234,-19.78636],[-43.22384,-19.78561],[-43.22391,-19.78547],[-43.22395,-19.78532],[-43.22412,-19.78456],[-43.22414,-19.78436],[-43.22412,-19.78415],[-43.22406,-19.78384],[-43.22707,-19.78135],[-43.23043,-19.7847],[-43.23058,-19.78483],[-43.23076,-19.78492],[-43.23096,-19.78498],[-43.23116,-19.78499],[-43.23136,-19.78497],[-43.23155,-19.78491],[-43.24003,-19.78105],[-43.25169,-19.78397],[-43.25186,-19.78399],[-43.25204,-19.78399],[-43.25221,-19.78395],[-43.25238,-19.78389],[-43.25253,-19.7838],[-43.25637,-19.78092],[-43.27237,-19.77697],[-43.27258,-19.77689],[-43.27858,-19.77389],[-43.27876,-19.77377],[-43.27891,-19.77362],[-43.27903,-19.77344],[-43.28375,-19.764],[-43.28813,-19.764],[-43.28835,-19.76397],[-43.28856,-19.7639],[-43.28874,-19.76379],[-43.2889,-19.76364],[-43.29867,-19.75191],[-43.31432,-19.74898],[-43.31449,-19.74893],[-43.31465,-19.74885],[-43.32465,-19.74285],[-43.32484,-19.7427],[-43.33084,-19.7367],[-43.33096,-19.73656],[-43.33105,-19.7364],[-43.33111,-19.73623],[-43.33113,-19.73605],[-43.33113,-19.73587],[-43.33017,-19.72824],[-43.33197,-19.72555],[-43.33203,-19.72544],[-43.33503,-19.71944],[-43.3351,-19.71926],[-43.33513,-19.71907],[-43.33513,-19.71888],[-43.33509,-19.71869],[-43.33501,-19.71852],[-43.32901,-19.70752],[-43.32899,-19.70748],[-43.32518,-19.70112],[-43.32885,-19.6938],[-43.34247,-19.68894],[-43.34265,-19.68885],[-43.3428,-19.68874],[-43.34294,-19.68859],[-43.34304,-19.68842],[-43.3431,-19.68824],[-43.34313,-19.68805],[-43.34312,-19.68785],[-43.34308,-19.68766],[-43.34299,-19.68748],[-43.34288,-19.68733],[-43.33517,-19.67877],[-43.35888,-19.67603],[-43.36458,-19.67983],[-43.36475,-19.67992],[-43.36494,-19.67998],[-43.36513,-19.67999],[-43.36533,-19.67998],[-43.36552,-19.67992],[-43.36569,-19.67983],[-43.37138,-19.67603],[-43.37763,-19.67681],[-43.37796,-19.67686],[-43.37797,-19.67686],[-43.38701,-19.67799],[-43.38717,-19.67799],[-43.38734,-19.67797],[-43.38749,-19.67793],[-43.40049,-19.67293],[-43.40065,-19.67285],[-43.40078,-19.67275],[-43.4075,-19.66699],[-43.41313,-19.66699],[-43.41319,-19.66699],[-43.43148,-19.66603],[-43.43621,-19.67738],[-43.4363,-19.67755],[-43.43643,-19.6777],[-43.43658,-19.67783],[-43.43675,-19.67792],[-43.43694,-19.67798],[-43.44689,-19.67997],[-43.46385,-19.68495],[-43.46406,-19.68499],[-43.46428,-19.68498],[-43.46448,-19.68493],[-43.46467,-19.68484],[-43.46484,-19.6847],[-43.47084,-19.6787],[-43.47098,-19.67854],[-43.47107,-19.67834],[-43.47112,-19.67814],[-43.47202,-19.67187],[-43.48429,-19.66998],[-43.48445,-19.66994],[-43.48461,-19.66987],[-43.48476,-19.66978],[-43.48488,-19.66966],[-43.49288,-19.66066],[-43.493,-19.6605],[-43.49308,-19.66031],[-43.49313,-19.66012],[-43.49407,-19.65256],[-43.50269,-19.64653],[-43.50721,-19.65738],[-43.50731,-19.65756],[-43.50744,-19.65771],[-43.5076,-19.65784],[-43.50778,-19.65793],[-43.50797,-19.65798],[-43.50818,-19.65799],[-43.50838,-19.65797],[-43.51238,-19.65697],[-43.51255,-19.6569],[-43.51272,-19.65681],[-43.51286,-19.65668],[-43.51297,-19.65654],[-43.51306,-19.65637],[-43.51311,-19.65619],[-43.51404,-19.65155],[-43.52376,-19.64378],[-43.52389,-19.64365],[-43.524,-19.6435],[-43.52407,-19.64334],[-43.52412,-19.64316],[-43.52413,-19.64298],[-43.52411,-19.6428],[-43.52406,-19.64262],[-43.52236,-19.63837],[-43.54058,-19.6259],[-43.54345,-19.62494],[-43.54362,-19.62487],[-43.54378,-19.62476],[-43.54391,-19.62462],[-43.54402,-19.62446],[-43.54409,-19.62429],[-43.54413,-19.6241],[-43.54413,-19.62391],[-43.5441,-19.62372],[-43.54403,-19.62355],[-43.54018,-19.61585]]]},"properties":{"ghs":"7h","size":476.25,"ghs_len":2,"ghs_area":1278.36,"ghs_bytes":1049855,"ghs_items":5119,"size_unit":"km","ghsval_unit":"bytes","ghs_itemsdensity":4,"size_unitdensity":0.37}}]}
