{"type":"FeatureCollection","features":[{"type":"Feature","geometry":{"type":"Polygon","coordinates":[[[-48.86695,-27.00268],[-48.86686,-27.00249],[-48.86674,-27.00232],[-48.85631,-26.99095],[-48.85587,-26.99047],[-48.85094,-26.97666],[-48.85089,-26.97655],[-48.84489,-26.96455],[-48.8448,-26.9644],[-48.84467,-26.96426],[-48.84453,-26.96415],[-48.84436,-26.96407],[-48.84418,-26.96402],[-48.844,-26.964],[-48.814,-26.964],[-48.81377,-26.96403],[-48.80222,-26.9668],[-48.80089,-26.96608],[-48.80082,-26.96605],[-48.79985,-26.96561],[-48.79982,-26.9656],[-48.79894,-26.96524],[-48.79661,-26.96405],[-48.79597,-26.96365],[-48.79574,-26.96354],[-48.79513,-26.96334],[-48.79463,-26.9631],[-48.79402,-26.96268],[-48.79366,-26.96213],[-48.79323,-26.96132],[-48.7932,-26.96127],[-48.7929,-26.96076],[-48.7928,-26.96063],[-48.79085,-26.95835],[-48.79084,-26.95834],[-48.7891,-26.95634],[-48.7888,-26.95601],[-48.78826,-26.95539],[-48.7876,-26.95452],[-48.78758,-26.95451],[-48.78713,-26.95395],[-48.78701,-26.95382],[-48.78688,-26.95372],[-48.78642,-26.95344],[-48.78622,-26.95334],[-48.78516,-26.95298],[-48.78507,-26.95296],[-48.78403,-26.9527],[-48.78377,-26.95268],[-48.78239,-26.95271],[-48.78236,-26.95271],[-48.78157,-26.95274],[-48.78138,-26.95277],[-48.78119,-26.95284],[-48.78039,-26.95322],[-48.77802,-26.95367],[-48.77684,-26.9537],[-48.77608,-26.95365],[-48.77583,-26.95348],[-48.77546,-26.95305],[-48.77531,-26.95291],[-48.77417,-26.95202],[-48.77339,-26.95107],[-48.77336,-26.95103],[-48.77278,-26.95039],[-48.77265,-26.95027],[-48.77249,-26.95017],[-48.77174,-26.94978],[-48.77159,-26.94972],[-48.77143,-26.94968],[-48.77013,-26.9495],[-48.77013,-26.9495],[-48.76935,-26.94939],[-48.76885,-26.94911],[-48.76842,-26.94866],[-48.76787,-26.94806],[-48.76784,-26.94803],[-48.76376,-26.94393],[-48.76372,-26.94389],[-48.76175,-26.94211],[-48.76138,-26.94173],[-48.76118,-26.94136],[-48.76029,-26.93809],[-48.76005,-26.93691],[-48.76004,-26.93643],[-48.7653,-26.93289],[-48.76539,-26.93282],[-48.77753,-26.92249],[-48.77766,-26.92236],[-48.77776,-26.9222],[-48.77872,-26.92041],[-48.78087,-26.91927],[-48.78106,-26.91914],[-48.78299,-26.91742],[-48.78436,-26.91707],[-48.78441,-26.91706],[-48.7866,-26.91639],[-48.78678,-26.91631],[-48.78695,-26.91619],[-48.78709,-26.91605],[-48.7872,-26.91588],[-48.78727,-26.91569],[-48.7873,-26.9155],[-48.78729,-26.9153],[-48.78725,-26.9151],[-48.78694,-26.91421],[-48.78687,-26.91406],[-48.78679,-26.91393],[-48.78598,-26.91288],[-48.78598,-26.91288],[-48.78314,-26.90922],[-48.78093,-26.90527],[-48.77977,-26.90319],[-48.77977,-26.90318],[-48.77848,-26.90091],[-48.7784,-26.90079],[-48.77802,-26.90029],[-48.77787,-26.90013],[-48.7729,-26.89596],[-48.7726,-26.89567],[-48.77245,-26.89555],[-48.77229,-26.89546],[-48.77211,-26.89541],[-48.77193,-26.89539],[-48.77192,-26.89539],[-48.7718,-26.89528],[-48.77164,-26.89517],[-48.77146,-26.89507],[-48.77124,-26.89497],[-48.77092,-26.89488],[-48.77049,-26.89463],[-48.77049,-26.89463],[-48.77043,-26.89459],[-48.77001,-26.89434],[-48.76983,-26.89425],[-48.76963,-26.8942],[-48.76943,-26.8942],[-48.76928,-26.89422],[-48.76924,-26.89415],[-48.76906,-26.89388],[-48.76896,-26.89374],[-48.76882,-26.89362],[-48.76874,-26.89357],[-48.76866,-26.89343],[-48.76853,-26.89329],[-48.76823,-26.89301],[-48.76808,-26.89286],[-48.76804,-26.89278],[-48.76792,-26.8926],[-48.76776,-26.89245],[-48.76758,-26.89234],[-48.76745,-26.89228],[-48.76752,-26.89215],[-48.76758,-26.89196],[-48.7676,-26.89177],[-48.7676,-26.89155],[-48.7676,-26.89151],[-48.76757,-26.89039],[-48.76755,-26.8902],[-48.76749,-26.89002],[-48.7674,-26.88985],[-48.76728,-26.88971],[-48.76713,-26.88959],[-48.7657,-26.88862],[-48.76432,-26.88742],[-48.76353,-26.88613],[-48.76295,-26.88448],[-48.76302,-26.88274],[-48.76336,-26.88053],[-48.76337,-26.88044],[-48.7636,-26.8763],[-48.7636,-26.87617],[-48.76322,-26.87149],[-48.76303,-26.86795],[-48.76311,-26.86487],[-48.76355,-26.86171],[-48.76356,-26.86162],[-48.76369,-26.85897],[-48.76367,-26.85871],[-48.76328,-26.85698],[-48.76323,-26.85683],[-48.76317,-26.85669],[-48.7625,-26.85557],[-48.7624,-26.85542],[-48.76227,-26.8553],[-48.76213,-26.8552],[-48.76103,-26.85459],[-48.76079,-26.85449],[-48.75968,-26.8542],[-48.75945,-26.85417],[-48.75789,-26.85414],[-48.75763,-26.85416],[-48.75424,-26.85499],[-48.75414,-26.85502],[-48.75164,-26.85591],[-48.7512,-26.85599],[-48.74919,-26.85634],[-48.74588,-26.85652],[-48.74455,-26.85614],[-48.74236,-26.85497],[-48.7404,-26.85356],[-48.73807,-26.85096],[-48.73714,-26.84937],[-48.73649,-26.8477],[-48.73595,-26.84527],[-48.73559,-26.8428],[-48.73557,-26.84269],[-48.73516,-26.8411],[-48.7351,-26.84093],[-48.73475,-26.84017],[-48.7345,-26.83964],[-48.7344,-26.83947],[-48.73427,-26.83933],[-48.73309,-26.83826],[-48.73298,-26.83817],[-48.73174,-26.83731],[-48.7316,-26.83723],[-48.73146,-26.83718],[-48.73039,-26.83685],[-48.73021,-26.83682],[-48.73004,-26.83681],[-48.72804,-26.83693],[-48.7278,-26.83697],[-48.72636,-26.83743],[-48.72617,-26.83751],[-48.72432,-26.83857],[-48.72427,-26.8386],[-48.72213,-26.84],[-48.72198,-26.84011],[-48.72082,-26.84122],[-48.72067,-26.84135],[-48.72058,-26.84146],[-48.71954,-26.84279],[-48.71922,-26.84318],[-48.71913,-26.84333],[-48.71874,-26.84406],[-48.71808,-26.84528],[-48.71801,-26.84545],[-48.7176,-26.84671],[-48.71756,-26.84689],[-48.71737,-26.84832],[-48.71737,-26.84861],[-48.71769,-26.85069],[-48.71799,-26.85275],[-48.71802,-26.85287],[-48.7186,-26.855],[-48.71869,-26.85523],[-48.71975,-26.85707],[-48.71977,-26.85712],[-48.72144,-26.85973],[-48.72148,-26.85978],[-48.72319,-26.86213],[-48.72447,-26.86397],[-48.72521,-26.86519],[-48.72553,-26.86628],[-48.72551,-26.86802],[-48.72522,-26.86972],[-48.72468,-26.87155],[-48.72364,-26.87344],[-48.72209,-26.87514],[-48.72073,-26.87613],[-48.71931,-26.87668],[-48.71779,-26.87668],[-48.71567,-26.87618],[-48.71369,-26.87553],[-48.71208,-26.87449],[-48.71166,-26.87408],[-48.71068,-26.87314],[-48.70916,-26.87129],[-48.70764,-26.86863],[-48.70759,-26.86856],[-48.70637,-26.8668],[-48.70618,-26.86659],[-48.70468,-26.86537],[-48.70461,-26.86532],[-48.70294,-26.86417],[-48.70277,-26.86408],[-48.70106,-26.86333],[-48.70093,-26.86329],[-48.69919,-26.86279],[-48.69906,-26.86276],[-48.69669,-26.86243],[-48.69647,-26.86243],[-48.69401,-26.86264],[-48.69384,-26.86267],[-48.69368,-26.86272],[-48.69201,-26.86347],[-48.69181,-26.86359],[-48.69022,-26.86481],[-48.69012,-26.8649],[-48.68855,-26.86647],[-48.68839,-26.86668],[-48.68756,-26.86816],[-48.68748,-26.86834],[-48.68743,-26.86853],[-48.68722,-26.87033],[-48.68722,-26.8706],[-48.68744,-26.87198],[-48.6875,-26.87221],[-48.68827,-26.87408],[-48.68828,-26.87409],[-48.6895,-26.87697],[-48.6895,-26.87697],[-48.69031,-26.87884],[-48.69048,-26.87945],[-48.69051,-26.87999],[-48.6904,-26.88118],[-48.69003,-26.88221],[-48.68913,-26.88369],[-48.68822,-26.88478],[-48.68718,-26.88556],[-48.68554,-26.88585],[-48.68382,-26.88582],[-48.68205,-26.88528],[-48.6812,-26.88474],[-48.67628,-26.88159],[-48.67616,-26.88152],[-48.67475,-26.88087],[-48.67456,-26.88081],[-48.67275,-26.88038],[-48.67257,-26.88036],[-48.67094,-26.88028],[-48.67079,-26.88029],[-48.66932,-26.88045],[-48.66916,-26.88048],[-48.6677,-26.88089],[-48.66753,-26.88096],[-48.66737,-26.88106],[-48.66582,-26.88225],[-48.66563,-26.88244],[-48.66439,-26.88409],[-48.6643,-26.88422],[-48.66424,-26.88436],[-48.66377,-26.88574],[-48.66372,-26.88598],[-48.66361,-26.88722],[-48.66361,-26.88737],[-48.66363,-26.88752],[-48.66387,-26.88861],[-48.66392,-26.88878],[-48.664,-26.88894],[-48.66455,-26.8898],[-48.66466,-26.88993],[-48.66479,-26.89005],[-48.66583,-26.89083],[-48.6659,-26.89088],[-48.66675,-26.89141],[-48.66763,-26.89197],[-48.66812,-26.89236],[-48.66861,-26.89277],[-48.66918,-26.89342],[-48.66942,-26.89406],[-48.66947,-26.89466],[-48.66902,-26.89565],[-48.66885,-26.89601],[-48.66804,-26.89706],[-48.66758,-26.89739],[-48.66606,-26.89796],[-48.66005,-26.89907],[-48.65998,-26.89909],[-48.65848,-26.89947],[-48.65832,-26.89953],[-48.65656,-26.90031],[-48.65637,-26.90042],[-48.65496,-26.90148],[-48.65488,-26.90155],[-48.65309,-26.90321],[-48.65302,-26.90328],[-48.65085,-26.90575],[-48.65082,-26.90579],[-48.64992,-26.90694],[-48.6491,-26.90797],[-48.64882,-26.90824],[-48.64699,-26.90988],[-48.64515,-26.9109],[-48.64339,-26.91178],[-48.64151,-26.91231],[-48.63934,-26.91269],[-48.63584,-26.91291],[-48.63404,-26.91274],[-48.63384,-26.91274],[-48.63365,-26.91278],[-48.63346,-26.91286],[-48.6333,-26.91297],[-48.63316,-26.91312],[-48.63245,-26.91402],[-48.63235,-26.91414],[-48.63224,-26.91429],[-48.63216,-26.91446],[-48.63211,-26.91465],[-48.6321,-26.91484],[-48.63211,-26.91496],[-48.63214,-26.91516],[-48.63221,-26.91536],[-48.63232,-26.91553],[-48.63241,-26.91564],[-48.63256,-26.91579],[-48.63273,-26.91591],[-48.63286,-26.91598],[-48.63313,-26.91607],[-48.63361,-26.91617],[-48.63374,-26.91619],[-48.63438,-26.91623],[-48.63444,-26.91623],[-48.63532,-26.91623],[-48.63537,-26.91623],[-48.63612,-26.91618],[-48.63619,-26.91618],[-48.6397,-26.91572],[-48.63974,-26.91582],[-48.63994,-26.91621],[-48.64004,-26.9165],[-48.6401,-26.91688],[-48.64012,-26.91695],[-48.6402,-26.9173],[-48.64018,-26.91758],[-48.64018,-26.91777],[-48.64022,-26.91796],[-48.64025,-26.91807],[-48.64025,-26.91808],[-48.64025,-26.91811],[-48.64018,-26.91859],[-48.64009,-26.91897],[-48.64008,-26.91906],[-48.64005,-26.91922],[-48.64002,-26.91923],[-48.63986,-26.9193],[-48.63975,-26.91936],[-48.6396,-26.91945],[-48.63947,-26.91957],[-48.63942,-26.91964],[-48.6393,-26.91969],[-48.63914,-26.9198],[-48.639,-26.91994],[-48.63889,-26.9201],[-48.63881,-26.92028],[-48.63877,-26.92048],[-48.63877,-26.92056],[-48.63841,-26.92046],[-48.63831,-26.92041],[-48.63813,-26.92034],[-48.63794,-26.92031],[-48.63774,-26.92029],[-48.63753,-26.92029],[-48.63732,-26.92034],[-48.63713,-26.92043],[-48.63697,-26.92056],[-48.63683,-26.92072],[-48.63674,-26.92085],[-48.63664,-26.92103],[-48.63663,-26.92104],[-48.63595,-26.9212],[-48.63578,-26.92125],[-48.63563,-26.92133],[-48.6355,-26.92144],[-48.63534,-26.92158],[-48.63526,-26.92165],[-48.63479,-26.92208],[-48.63466,-26.92222],[-48.63456,-26.92239],[-48.63449,-26.92257],[-48.63446,-26.92276],[-48.63445,-26.92297],[-48.6344,-26.92297],[-48.63424,-26.92299],[-48.63407,-26.92303],[-48.63395,-26.92308],[-48.63376,-26.92317],[-48.63359,-26.92331],[-48.63346,-26.92348],[-48.63336,-26.92367],[-48.63331,-26.92387],[-48.63329,-26.92399],[-48.63329,-26.92425],[-48.63331,-26.9244],[-48.63336,-26.92461],[-48.6334,-26.9247],[-48.63295,-26.92552],[-48.63295,-26.92552],[-48.63287,-26.92566],[-48.63208,-26.92685],[-48.63096,-26.92795],[-48.63061,-26.92812],[-48.63049,-26.92816],[-48.63033,-26.92812],[-48.63016,-26.9281],[-48.63004,-26.9281],[-48.62996,-26.92811],[-48.62992,-26.9281],[-48.62972,-26.92809],[-48.62972,-26.92809],[-48.62962,-26.92799],[-48.62948,-26.92788],[-48.62931,-26.9278],[-48.62913,-26.92776],[-48.62899,-26.92774],[-48.62879,-26.92768],[-48.62866,-26.92766],[-48.62861,-26.92763],[-48.62844,-26.92757],[-48.62844,-26.92757],[-48.62841,-26.92756],[-48.62823,-26.92751],[-48.62806,-26.92748],[-48.62788,-26.9275],[-48.6277,-26.92754],[-48.62761,-26.92757],[-48.62742,-26.92766],[-48.62741,-26.92767],[-48.62733,-26.92764],[-48.62727,-26.92764],[-48.62725,-26.92754],[-48.62717,-26.92737],[-48.62707,-26.92722],[-48.62701,-26.92714],[-48.62684,-26.92699],[-48.62664,-26.92687],[-48.62652,-26.92682],[-48.62651,-26.92681],[-48.62638,-26.92669],[-48.62629,-26.92653],[-48.62616,-26.92638],[-48.62599,-26.92626],[-48.62587,-26.92619],[-48.6257,-26.92611],[-48.62552,-26.92606],[-48.62538,-26.92605],[-48.62532,-26.92602],[-48.62521,-26.92598],[-48.62496,-26.92588],[-48.62487,-26.92585],[-48.62454,-26.92569],[-48.6243,-26.92557],[-48.6242,-26.92541],[-48.62406,-26.92526],[-48.62399,-26.9252],[-48.62394,-26.92512],[-48.62382,-26.92499],[-48.62368,-26.92489],[-48.62357,-26.92482],[-48.62349,-26.92477],[-48.62348,-26.92476],[-48.62331,-26.92465],[-48.62314,-26.92458],[-48.62301,-26.92455],[-48.62295,-26.92451],[-48.62265,-26.92438],[-48.62245,-26.92432],[-48.62225,-26.92429],[-48.62204,-26.92431],[-48.62194,-26.92433],[-48.62172,-26.92441],[-48.62153,-26.92452],[-48.62149,-26.92455],[-48.62148,-26.92455],[-48.62128,-26.9246],[-48.62113,-26.92465],[-48.62094,-26.92474],[-48.62078,-26.92487],[-48.62064,-26.92503],[-48.62054,-26.92521],[-48.62048,-26.92542],[-48.62048,-26.92547],[-48.62046,-26.92549],[-48.62039,-26.92566],[-48.62035,-26.92585],[-48.62035,-26.92603],[-48.62038,-26.92622],[-48.6204,-26.9263],[-48.62047,-26.92648],[-48.62057,-26.92665],[-48.62058,-26.92665],[-48.62059,-26.92669],[-48.62071,-26.92683],[-48.62075,-26.92688],[-48.62077,-26.92691],[-48.62088,-26.92705],[-48.62113,-26.92732],[-48.62123,-26.92742],[-48.62136,-26.9275],[-48.62141,-26.92753],[-48.62153,-26.92768],[-48.6217,-26.92781],[-48.62177,-26.92786],[-48.6219,-26.928],[-48.62205,-26.92813],[-48.62223,-26.92821],[-48.62238,-26.92827],[-48.62245,-26.92834],[-48.6226,-26.92843],[-48.62292,-26.9286],[-48.62302,-26.92865],[-48.6231,-26.92868],[-48.62313,-26.92885],[-48.6232,-26.92903],[-48.62331,-26.9292],[-48.62342,-26.92933],[-48.62343,-26.92934],[-48.62333,-26.92945],[-48.62323,-26.92963],[-48.62317,-26.92982],[-48.62315,-26.93001],[-48.62314,-26.93005],[-48.62312,-26.93024],[-48.62314,-26.93043],[-48.62317,-26.93053],[-48.62316,-26.93057],[-48.62314,-26.93066],[-48.62312,-26.93085],[-48.62314,-26.93103],[-48.62316,-26.93113],[-48.62322,-26.93133],[-48.62332,-26.93151],[-48.6234,-26.93163],[-48.62354,-26.93179],[-48.62372,-26.93192],[-48.62392,-26.93201],[-48.62413,-26.93205],[-48.62434,-26.93207],[-48.6245,-26.93207],[-48.62467,-26.93204],[-48.6248,-26.932],[-48.62486,-26.93216],[-48.62487,-26.93218],[-48.62496,-26.93242],[-48.62504,-26.93258],[-48.62515,-26.93272],[-48.62535,-26.93295],[-48.62536,-26.93302],[-48.62536,-26.93305],[-48.62547,-26.93357],[-48.62548,-26.93362],[-48.62563,-26.93418],[-48.6257,-26.93464],[-48.62571,-26.93466],[-48.62586,-26.93549],[-48.62587,-26.93552],[-48.626,-26.9361],[-48.62602,-26.93618],[-48.62611,-26.93647],[-48.62612,-26.93652],[-48.6261,-26.9368],[-48.6261,-26.93689],[-48.62611,-26.9372],[-48.62612,-26.93732],[-48.62617,-26.93763],[-48.62618,-26.9377],[-48.62625,-26.93799],[-48.62625,-26.93802],[-48.62636,-26.93846],[-48.62647,-26.93892],[-48.62647,-26.93892],[-48.62655,-26.93925],[-48.6266,-26.93949],[-48.6266,-26.93964],[-48.62661,-26.93972],[-48.62662,-26.93982],[-48.62666,-26.93999],[-48.6267,-26.94008],[-48.62678,-26.94057],[-48.62679,-26.94061],[-48.62688,-26.94105],[-48.62691,-26.94176],[-48.62692,-26.94186],[-48.62752,-26.9457],[-48.62795,-26.94999],[-48.62814,-26.95293],[-48.62828,-26.95526],[-48.6281,-26.95633],[-48.62778,-26.95747],[-48.62737,-26.95865],[-48.62689,-26.9595],[-48.62681,-26.95969],[-48.62676,-26.95989],[-48.62676,-26.96009],[-48.6268,-26.96029],[-48.62688,-26.96048],[-48.627,-26.96065],[-48.62715,-26.96079],[-48.62732,-26.96089],[-48.62738,-26.96092],[-48.62746,-26.96096],[-48.62766,-26.96103],[-48.62788,-26.96109],[-48.62811,-26.9611],[-48.62822,-26.96109],[-48.62826,-26.96109],[-48.62848,-26.9611],[-48.62869,-26.96106],[-48.6289,-26.961],[-48.62916,-26.96089],[-48.62922,-26.96085],[-48.62933,-26.96084],[-48.6295,-26.96082],[-48.62971,-26.96078],[-48.6299,-26.96071],[-48.63029,-26.96054],[-48.63053,-26.96048],[-48.63053,-26.96047],[-48.63092,-26.96036],[-48.63109,-26.96029],[-48.63152,-26.96008],[-48.63162,-26.96002],[-48.63209,-26.9597],[-48.63223,-26.95959],[-48.63235,-26.95945],[-48.63263,-26.95906],[-48.63275,-26.95884],[-48.63293,-26.95835],[-48.63298,-26.95819],[-48.63311,-26.95756],[-48.6333,-26.95685],[-48.6333,-26.95683],[-48.63336,-26.95661],[-48.63336,-26.95657],[-48.63341,-26.95637],[-48.63349,-26.956],[-48.63351,-26.95578],[-48.63351,-26.95566],[-48.63353,-26.95562],[-48.63355,-26.95562],[-48.63369,-26.95558],[-48.6337,-26.95558],[-48.63405,-26.9556],[-48.63425,-26.9556],[-48.63444,-26.95555],[-48.63479,-26.95544],[-48.63494,-26.95543],[-48.6354,-26.95546],[-48.63565,-26.95545],[-48.63666,-26.95527],[-48.63714,-26.95521],[-48.63716,-26.95521],[-48.63722,-26.95522],[-48.63742,-26.95523],[-48.6376,-26.95522],[-48.63767,-26.95528],[-48.63769,-26.9553],[-48.63768,-26.9554],[-48.63767,-26.95556],[-48.63766,-26.9557],[-48.63766,-26.95589],[-48.6377,-26.95608],[-48.63777,-26.95626],[-48.63788,-26.95642],[-48.63801,-26.95655],[-48.63819,-26.95671],[-48.63836,-26.95682],[-48.63867,-26.95699],[-48.63886,-26.95708],[-48.63907,-26.95712],[-48.63928,-26.95711],[-48.63969,-26.95706],[-48.63989,-26.95701],[-48.64002,-26.95696],[-48.64005,-26.95695],[-48.64005,-26.95695],[-48.64006,-26.95695],[-48.64012,-26.95693],[-48.64017,-26.95691],[-48.64018,-26.95691],[-48.64029,-26.95687],[-48.64046,-26.95679],[-48.64096,-26.9565],[-48.64111,-26.95651],[-48.64129,-26.95648],[-48.64188,-26.95635],[-48.642,-26.95633],[-48.64203,-26.95642],[-48.64213,-26.95658],[-48.64225,-26.95672],[-48.6424,-26.95684],[-48.64242,-26.95685],[-48.64241,-26.95703],[-48.64241,-26.95711],[-48.64241,-26.95737],[-48.64243,-26.95757],[-48.64249,-26.95776],[-48.64258,-26.95793],[-48.64271,-26.95809],[-48.64286,-26.95821],[-48.64299,-26.95829],[-48.64319,-26.95839],[-48.64341,-26.95845],[-48.64373,-26.95849],[-48.64379,-26.9585],[-48.64386,-26.95854],[-48.64412,-26.95879],[-48.64437,-26.95907],[-48.64452,-26.95921],[-48.6447,-26.95932],[-48.6449,-26.95938],[-48.64511,-26.9594],[-48.64532,-26.95938],[-48.64556,-26.95933],[-48.64574,-26.95927],[-48.64592,-26.95941],[-48.64607,-26.9595],[-48.64624,-26.95957],[-48.64643,-26.9596],[-48.64661,-26.9596],[-48.64668,-26.95959],[-48.64678,-26.95961],[-48.64697,-26.95962],[-48.64717,-26.95958],[-48.64729,-26.95954],[-48.64738,-26.95956],[-48.64751,-26.95956],[-48.64759,-26.95958],[-48.64767,-26.95972],[-48.64778,-26.95986],[-48.64793,-26.95998],[-48.64809,-26.96007],[-48.64834,-26.96018],[-48.64856,-26.96025],[-48.64862,-26.96026],[-48.64866,-26.96028],[-48.64882,-26.96033],[-48.64888,-26.96038],[-48.64904,-26.96046],[-48.64913,-26.9605],[-48.64914,-26.96051],[-48.64929,-26.96064],[-48.64932,-26.96066],[-48.6495,-26.96089],[-48.64961,-26.96102],[-48.64974,-26.96112],[-48.64984,-26.96119],[-48.6501,-26.9615],[-48.65021,-26.96162],[-48.65032,-26.96172],[-48.65047,-26.96183],[-48.65064,-26.96191],[-48.65067,-26.96192],[-48.65072,-26.96197],[-48.65089,-26.96213],[-48.65102,-26.96223],[-48.65113,-26.96228],[-48.65114,-26.96229],[-48.65127,-26.96239],[-48.65141,-26.96247],[-48.65182,-26.96264],[-48.65195,-26.96269],[-48.65215,-26.96274],[-48.65218,-26.96276],[-48.65225,-26.96279],[-48.65228,-26.96287],[-48.65229,-26.96289],[-48.6523,-26.96298],[-48.65236,-26.96316],[-48.65244,-26.96332],[-48.65256,-26.96346],[-48.65261,-26.96352],[-48.65267,-26.96359],[-48.65269,-26.96363],[-48.65277,-26.96379],[-48.65288,-26.96393],[-48.65302,-26.96405],[-48.65317,-26.96414],[-48.65346,-26.96428],[-48.6537,-26.96465],[-48.65382,-26.9648],[-48.65397,-26.96493],[-48.65414,-26.96502],[-48.65423,-26.96506],[-48.65425,-26.96511],[-48.65433,-26.96528],[-48.65445,-26.96543],[-48.65459,-26.96556],[-48.65475,-26.96566],[-48.65493,-26.96572],[-48.65512,-26.96575],[-48.65538,-26.96577],[-48.65552,-26.96576],[-48.65585,-26.96574],[-48.65618,-26.96581],[-48.65629,-26.96582],[-48.65631,-26.9659],[-48.65641,-26.96609],[-48.65652,-26.96626],[-48.65653,-26.96631],[-48.65661,-26.96651],[-48.65673,-26.96669],[-48.65688,-26.96683],[-48.65712,-26.96701],[-48.65727,-26.96711],[-48.65744,-26.96717],[-48.6576,-26.96722],[-48.6578,-26.96726],[-48.65789,-26.96726],[-48.65795,-26.9673],[-48.65812,-26.96737],[-48.65818,-26.96738],[-48.65821,-26.96745],[-48.65833,-26.96765],[-48.6585,-26.96782],[-48.65867,-26.96795],[-48.65884,-26.96806],[-48.65902,-26.96813],[-48.65922,-26.96816],[-48.6593,-26.96816],[-48.6594,-26.96829],[-48.65956,-26.96843],[-48.65974,-26.96853],[-48.65993,-26.96859],[-48.66013,-26.96861],[-48.66034,-26.96859],[-48.66136,-26.96838],[-48.66159,-26.96831],[-48.66179,-26.96818],[-48.66272,-26.96743],[-48.66286,-26.9673],[-48.66297,-26.96715],[-48.66304,-26.96698],[-48.66309,-26.9668],[-48.66331,-26.9653],[-48.66438,-26.96404],[-48.67459,-26.9696],[-48.6746,-26.9696],[-48.6824,-26.97376],[-48.68245,-26.97378],[-48.68264,-26.97386],[-48.68284,-26.9739],[-48.68305,-26.97389],[-48.68325,-26.97385],[-48.68343,-26.97376],[-48.6836,-26.97364],[-48.68365,-26.97359],[-48.6851,-26.97227],[-48.687,-26.97354],[-48.687,-26.974],[-48.68702,-26.97421],[-48.68709,-26.97441],[-48.6872,-26.9746],[-48.68734,-26.97475],[-48.69135,-26.97826],[-48.69297,-26.97968],[-48.70414,-26.98945],[-48.71093,-26.9954],[-48.71001,-27.00186],[-48.71,-27.00206],[-48.71003,-27.00225],[-48.7101,-27.00244],[-48.71021,-27.00261],[-48.71395,-27.00748],[-48.72021,-27.01561],[-48.72035,-27.01576],[-48.72052,-27.01588],[-48.72071,-27.01596],[-48.74647,-27.02388],[-48.75294,-27.03035],[-48.75201,-27.03686],[-48.752,-27.03707],[-48.75204,-27.03728],[-48.75212,-27.03748],[-48.75224,-27.03765],[-48.7524,-27.0378],[-48.76373,-27.0463],[-48.76211,-27.04955],[-48.76204,-27.04973],[-48.762,-27.04992],[-48.76201,-27.05011],[-48.76204,-27.05029],[-48.76212,-27.05047],[-48.76222,-27.05062],[-48.76622,-27.05562],[-48.76635,-27.05576],[-48.7665,-27.05587],[-48.76668,-27.05595],[-48.7754,-27.05892],[-48.776,-27.07703],[-48.77602,-27.07722],[-48.77608,-27.0774],[-48.77617,-27.07756],[-48.77629,-27.07771],[-48.77829,-27.07971],[-48.78307,-27.08449],[-48.78502,-27.09518],[-48.78507,-27.09536],[-48.78515,-27.09553],[-48.78527,-27.09568],[-48.78541,-27.09581],[-48.78558,-27.09591],[-48.78576,-27.09597],[-48.78976,-27.09697],[-48.78996,-27.097],[-48.79016,-27.09699],[-48.79036,-27.09693],[-48.8051,-27.0912],[-48.80836,-27.08993],[-48.80855,-27.08984],[-48.80871,-27.08971],[-48.82441,-27.074],[-48.837,-27.074],[-48.83718,-27.07398],[-48.83735,-27.07394],[-48.83752,-27.07386],[-48.83766,-27.07375],[-48.83779,-27.07362],[-48.83788,-27.07347],[-48.83865,-27.07202],[-48.83919,-27.07133],[-48.83994,-27.07089],[-48.84004,-27.07082],[-48.84196,-27.06934],[-48.84387,-27.06882],[-48.84519,-27.06848],[-48.84538,-27.0684],[-48.84555,-27.0683],[-48.84569,-27.06816],[-48.84581,-27.06799],[-48.84589,-27.06781],[-48.84664,-27.06541],[-48.84668,-27.06523],[-48.84678,-27.0644],[-48.84718,-27.06408],[-48.84732,-27.06395],[-48.84743,-27.0638],[-48.84751,-27.06363],[-48.84805,-27.06212],[-48.84854,-27.06128],[-48.84854,-27.06127],[-48.84924,-27.06006],[-48.84928,-27.05998],[-48.85006,-27.05832],[-48.85011,-27.05829],[-48.85024,-27.05815],[-48.85031,-27.05806],[-48.85037,-27.05806],[-48.85054,-27.05804],[-48.85067,-27.058],[-48.85087,-27.05794],[-48.85105,-27.05783],[-48.8512,-27.05768],[-48.85132,-27.05751],[-48.85135,-27.05744],[-48.85147,-27.05728],[-48.85156,-27.05711],[-48.85162,-27.05691],[-48.85163,-27.05686],[-48.85163,-27.05682],[-48.85169,-27.05673],[-48.85176,-27.05658],[-48.85187,-27.05646],[-48.85196,-27.05631],[-48.85197,-27.05629],[-48.85198,-27.05628],[-48.85198,-27.05628],[-48.85203,-27.05624],[-48.85216,-27.05618],[-48.85229,-27.05609],[-48.85236,-27.05604],[-48.85249,-27.0559],[-48.8526,-27.05575],[-48.85267,-27.05558],[-48.85271,-27.0554],[-48.85272,-27.05528],[-48.85275,-27.05525],[-48.85285,-27.05508],[-48.85291,-27.0549],[-48.85292,-27.05489],[-48.85293,-27.05488],[-48.85304,-27.05482],[-48.85319,-27.05469],[-48.85332,-27.05453],[-48.85339,-27.05438],[-48.85346,-27.05428],[-48.85353,-27.05415],[-48.85353,-27.05415],[-48.85356,-27.05413],[-48.85374,-27.05399],[-48.85377,-27.05394],[-48.85386,-27.05388],[-48.85391,-27.05383],[-48.85407,-27.05373],[-48.8541,-27.0537],[-48.85418,-27.05366],[-48.85435,-27.05358],[-48.85446,-27.05351],[-48.85448,-27.05351],[-48.85456,-27.05348],[-48.85469,-27.05343],[-48.85475,-27.05344],[-48.85485,-27.05344],[-48.85512,-27.05341],[-48.85515,-27.0534],[-48.8552,-27.0534],[-48.85538,-27.05336],[-48.85555,-27.05328],[-48.8557,-27.05317],[-48.85583,-27.05304],[-48.85594,-27.05289],[-48.85601,-27.05272],[-48.85604,-27.05263],[-48.85609,-27.05241],[-48.85608,-27.0522],[-48.85607,-27.05206],[-48.85603,-27.05189],[-48.85601,-27.05181],[-48.85597,-27.0517],[-48.85598,-27.05166],[-48.85601,-27.05154],[-48.85604,-27.05134],[-48.85602,-27.05114],[-48.856,-27.05107],[-48.856,-27.05103],[-48.85596,-27.05083],[-48.85593,-27.05074],[-48.8559,-27.05067],[-48.8559,-27.0506],[-48.85588,-27.05051],[-48.85597,-27.0504],[-48.856,-27.05037],[-48.85601,-27.05036],[-48.85618,-27.05031],[-48.85633,-27.05022],[-48.85647,-27.05013],[-48.85664,-27.04999],[-48.85677,-27.04982],[-48.85686,-27.04962],[-48.85693,-27.04942],[-48.85698,-27.04922],[-48.85698,-27.04901],[-48.85695,-27.04881],[-48.85687,-27.04862],[-48.85675,-27.04845],[-48.85661,-27.04831],[-48.85658,-27.04829],[-48.85656,-27.04821],[-48.85647,-27.048],[-48.85633,-27.04782],[-48.85626,-27.04774],[-48.85613,-27.04763],[-48.856,-27.04753],[-48.85607,-27.04739],[-48.8561,-27.04729],[-48.85615,-27.04723],[-48.85622,-27.04711],[-48.8563,-27.04696],[-48.85634,-27.04683],[-48.85652,-27.04684],[-48.85659,-27.04684],[-48.85666,-27.04685],[-48.8567,-27.04685],[-48.85684,-27.04687],[-48.85739,-27.04698],[-48.8576,-27.047],[-48.8578,-27.04698],[-48.85799,-27.04691],[-48.85817,-27.04681],[-48.85832,-27.04668],[-48.85845,-27.04652],[-48.85851,-27.04642],[-48.8586,-27.04635],[-48.85883,-27.04614],[-48.85898,-27.04597],[-48.85903,-27.04588],[-48.85922,-27.04586],[-48.85934,-27.04582],[-48.85951,-27.04576],[-48.85972,-27.04566],[-48.85977,-27.04564],[-48.85998,-27.04552],[-48.8602,-27.04536],[-48.86029,-27.04527],[-48.86042,-27.04512],[-48.86051,-27.04496],[-48.86052,-27.04494],[-48.8607,-27.04498],[-48.86091,-27.04499],[-48.86112,-27.04495],[-48.86123,-27.04491],[-48.86143,-27.04483],[-48.8616,-27.0447],[-48.86161,-27.04469],[-48.86175,-27.0446],[-48.8618,-27.04461],[-48.86181,-27.04461],[-48.86235,-27.04468],[-48.86244,-27.04469],[-48.86261,-27.04469],[-48.8628,-27.04468],[-48.86298,-27.04463],[-48.86316,-27.04455],[-48.86331,-27.04444],[-48.86334,-27.04441],[-48.86349,-27.04425],[-48.86359,-27.04407],[-48.86366,-27.04387],[-48.86368,-27.04365],[-48.86367,-27.04356],[-48.86356,-27.04067],[-48.86361,-27.04062],[-48.86375,-27.04046],[-48.86379,-27.04041],[-48.86384,-27.04041],[-48.86405,-27.04033],[-48.86424,-27.04021],[-48.86444,-27.04004],[-48.86461,-27.0399],[-48.86471,-27.03981],[-48.86485,-27.03966],[-48.86496,-27.03952],[-48.86504,-27.03937],[-48.8651,-27.0392],[-48.86512,-27.03902],[-48.86512,-27.03885],[-48.8651,-27.03875],[-48.8651,-27.03875],[-48.86513,-27.03856],[-48.86514,-27.03837],[-48.86512,-27.03825],[-48.86513,-27.03824],[-48.86516,-27.03803],[-48.86515,-27.03783],[-48.86509,-27.03763],[-48.865,-27.03745],[-48.86487,-27.03729],[-48.86471,-27.03716],[-48.86453,-27.03706],[-48.86417,-27.03692],[-48.86411,-27.0369],[-48.86409,-27.03666],[-48.86407,-27.03653],[-48.86404,-27.03637],[-48.86399,-27.03622],[-48.8639,-27.036],[-48.86389,-27.03597],[-48.86388,-27.03595],[-48.86391,-27.03584],[-48.86392,-27.03564],[-48.8639,-27.03545],[-48.86383,-27.03526],[-48.86376,-27.03509],[-48.86379,-27.03502],[-48.8639,-27.03501],[-48.86407,-27.03497],[-48.86424,-27.03489],[-48.86439,-27.03479],[-48.86452,-27.03467],[-48.86459,-27.03459],[-48.8647,-27.03442],[-48.86478,-27.03423],[-48.86482,-27.03402],[-48.86482,-27.03382],[-48.86481,-27.03374],[-48.86474,-27.03346],[-48.86474,-27.03346],[-48.86471,-27.03331],[-48.86467,-27.03316],[-48.86459,-27.03297],[-48.86447,-27.0328],[-48.86432,-27.03266],[-48.86415,-27.03255],[-48.86395,-27.03248],[-48.86341,-27.03234],[-48.86303,-27.03225],[-48.8629,-27.03222],[-48.86233,-27.03215],[-48.86222,-27.03215],[-48.86143,-27.03214],[-48.86141,-27.03214],[-48.86117,-27.03215],[-48.86084,-27.03213],[-48.86062,-27.03214],[-48.86007,-27.03224],[-48.86005,-27.03224],[-48.85951,-27.03235],[-48.8595,-27.03235],[-48.85852,-27.03254],[-48.85794,-27.03252],[-48.85782,-27.0325],[-48.85778,-27.03243],[-48.85765,-27.0322],[-48.85765,-27.03213],[-48.85763,-27.03198],[-48.85755,-27.03164],[-48.8575,-27.03136],[-48.85741,-27.03109],[-48.85727,-27.0308],[-48.85719,-27.03067],[-48.85709,-27.03054],[-48.85686,-27.03031],[-48.85685,-27.0303],[-48.85656,-27.03002],[-48.85623,-27.02965],[-48.85603,-27.02933],[-48.85589,-27.02915],[-48.85511,-27.02837],[-48.85505,-27.02832],[-48.85474,-27.02805],[-48.85444,-27.02776],[-48.8544,-27.02772],[-48.85404,-27.0274],[-48.85376,-27.02703],[-48.85375,-27.02702],[-48.85363,-27.02687],[-48.85547,-27.02588],[-48.85568,-27.02573],[-48.86968,-27.01273],[-48.86981,-27.01259],[-48.8699,-27.01243],[-48.86997,-27.01225],[-48.87,-27.01206],[-48.86999,-27.01187],[-48.86995,-27.01168],[-48.86695,-27.00268]]]},"properties":{"ghs":"6gj","size":926.79,"ghs_len":3,"ghs_area":299.07,"ghs_bytes":681617,"ghs_items":6676,"size_unit":"km","ghsval_unit":"bytes","ghs_itemsdensity":22.32,"size_unitdensity":3.1}}]}
