{"type":"FeatureCollection","features":[{"type":"Feature","geometry":{"type":"Polygon","coordinates":[[[-51.25013,-29.88419],[-51.24996,-29.88309],[-51.24993,-29.88294],[-51.24987,-29.8828],[-51.24884,-29.88068],[-51.24869,-29.88045],[-51.24681,-29.87835],[-51.24669,-29.87824],[-51.24656,-29.87816],[-51.24374,-29.87651],[-51.24367,-29.87647],[-51.24341,-29.87635],[-51.24034,-29.87487],[-51.23643,-29.87268],[-51.23541,-29.87167],[-51.23491,-29.8698],[-51.23495,-29.86726],[-51.23495,-29.86719],[-51.23487,-29.86533],[-51.23481,-29.86505],[-51.23426,-29.86348],[-51.23417,-29.86329],[-51.23405,-29.86313],[-51.23228,-29.86124],[-51.23212,-29.8611],[-51.23194,-29.861],[-51.23174,-29.86094],[-51.23154,-29.86092],[-51.22543,-29.861],[-51.20768,-29.86125],[-51.20763,-29.86125],[-51.20672,-29.86131],[-51.20637,-29.86133],[-51.20077,-29.86139],[-51.20071,-29.86139],[-51.19852,-29.86155],[-51.19833,-29.8615],[-51.19813,-29.86148],[-51.19557,-29.86138],[-51.19411,-29.86128],[-51.19404,-29.86128],[-51.19331,-29.86128],[-51.19324,-29.86128],[-51.19254,-29.86133],[-51.19253,-29.86133],[-51.19213,-29.86136],[-51.19191,-29.86139],[-51.19166,-29.86147],[-51.19141,-29.86158],[-51.19107,-29.86179],[-51.19105,-29.86181],[-51.19064,-29.86207],[-51.19053,-29.86215],[-51.18909,-29.86339],[-51.18899,-29.86345],[-51.18873,-29.86356],[-51.1876,-29.86394],[-51.18648,-29.86426],[-51.18415,-29.8648],[-51.1831,-29.86502],[-51.18306,-29.86503],[-51.18209,-29.86527],[-51.18162,-29.86537],[-51.18144,-29.86543],[-51.1812,-29.86553],[-51.18109,-29.86558],[-51.18108,-29.86559],[-51.18106,-29.86559],[-51.18092,-29.86553],[-51.18067,-29.86547],[-51.18054,-29.86545],[-51.18036,-29.86542],[-51.18024,-29.86537],[-51.18006,-29.86531],[-51.17988,-29.86529],[-51.17953,-29.86528],[-51.17924,-29.86524],[-51.17903,-29.86523],[-51.17858,-29.86526],[-51.17845,-29.86528],[-51.17803,-29.86537],[-51.1779,-29.86541],[-51.17765,-29.8655],[-51.17759,-29.86551],[-51.17756,-29.8655],[-51.1775,-29.86548],[-51.17701,-29.86516],[-51.17642,-29.86475],[-51.17596,-29.86443],[-51.17504,-29.86375],[-51.17504,-29.86375],[-51.17291,-29.86219],[-51.17288,-29.86218],[-51.17267,-29.86203],[-51.17214,-29.86165],[-51.17213,-29.86165],[-51.17093,-29.86081],[-51.16949,-29.85979],[-51.16946,-29.85977],[-51.16869,-29.85926],[-51.16804,-29.85876],[-51.16796,-29.85871],[-51.16742,-29.85838],[-51.1674,-29.85837],[-51.16693,-29.85809],[-51.16675,-29.85801],[-51.16656,-29.85796],[-51.16593,-29.85788],[-51.16569,-29.85787],[-51.16522,-29.85792],[-51.16513,-29.85793],[-51.16459,-29.85803],[-51.16438,-29.8581],[-51.16393,-29.8583],[-51.16381,-29.85836],[-51.16334,-29.85865],[-51.16323,-29.85873],[-51.16261,-29.85925],[-51.16153,-29.8601],[-51.16148,-29.86014],[-51.16088,-29.86068],[-51.16048,-29.86096],[-51.15994,-29.86116],[-51.15898,-29.86139],[-51.15756,-29.86166],[-51.15748,-29.86167],[-51.15675,-29.86187],[-51.15657,-29.86193],[-51.15641,-29.86204],[-51.15627,-29.86217],[-51.15609,-29.86237],[-51.15504,-29.86286],[-51.15485,-29.86287],[-51.15403,-29.86267],[-51.15381,-29.86264],[-51.15324,-29.86262],[-51.15308,-29.86263],[-51.15223,-29.86275],[-51.15207,-29.86278],[-51.15113,-29.86308],[-51.15103,-29.86312],[-51.15086,-29.86319],[-51.14997,-29.86358],[-51.14986,-29.86364],[-51.14982,-29.86367],[-51.14923,-29.86343],[-51.14901,-29.86336],[-51.14865,-29.86331],[-51.14846,-29.8633],[-51.14795,-29.86331],[-51.14767,-29.86337],[-51.14754,-29.86341],[-51.14742,-29.86346],[-51.14725,-29.86354],[-51.14709,-29.86364],[-51.14695,-29.86376],[-51.14692,-29.8638],[-51.14689,-29.86377],[-51.14667,-29.86365],[-51.14652,-29.86358],[-51.14636,-29.86353],[-51.14619,-29.86351],[-51.14603,-29.86351],[-51.14583,-29.86353],[-51.14563,-29.86359],[-51.14551,-29.86364],[-51.14535,-29.86372],[-51.14521,-29.86384],[-51.145,-29.86404],[-51.14487,-29.86416],[-51.14481,-29.86417],[-51.14442,-29.86408],[-51.14392,-29.86394],[-51.14383,-29.86392],[-51.14339,-29.86384],[-51.14312,-29.86379],[-51.14294,-29.86376],[-51.14287,-29.86377],[-51.14277,-29.86362],[-51.14272,-29.86357],[-51.14259,-29.86345],[-51.14244,-29.86336],[-51.14227,-29.8633],[-51.1422,-29.86328],[-51.14203,-29.86324],[-51.14186,-29.86324],[-51.14172,-29.86325],[-51.14153,-29.86328],[-51.14134,-29.86335],[-51.14104,-29.86349],[-51.141,-29.86346],[-51.14088,-29.86333],[-51.14073,-29.8632],[-51.14054,-29.86308],[-51.14034,-29.863],[-51.1402,-29.86296],[-51.14,-29.86293],[-51.1398,-29.86294],[-51.13967,-29.86296],[-51.13947,-29.86301],[-51.13929,-29.8631],[-51.13902,-29.86326],[-51.13878,-29.86304],[-51.13855,-29.86288],[-51.13808,-29.86266],[-51.13789,-29.86259],[-51.13769,-29.86256],[-51.13748,-29.86257],[-51.13688,-29.86267],[-51.1368,-29.86268],[-51.13668,-29.86271],[-51.13661,-29.8627],[-51.13644,-29.86269],[-51.13628,-29.86271],[-51.13579,-29.86281],[-51.13571,-29.86283],[-51.13526,-29.86297],[-51.13506,-29.86305],[-51.1347,-29.86325],[-51.13456,-29.86334],[-51.13447,-29.86331],[-51.13429,-29.86327],[-51.13411,-29.86327],[-51.13396,-29.86329],[-51.13396,-29.86329],[-51.13378,-29.86327],[-51.1336,-29.86328],[-51.13346,-29.8633],[-51.13329,-29.86334],[-51.13313,-29.86341],[-51.13306,-29.86345],[-51.13295,-29.86346],[-51.1329,-29.86347],[-51.13288,-29.86345],[-51.13279,-29.86339],[-51.13258,-29.86326],[-51.13228,-29.86305],[-51.13223,-29.86302],[-51.13144,-29.86257],[-51.1313,-29.86251],[-51.13121,-29.86247],[-51.13103,-29.86242],[-51.13085,-29.86241],[-51.1307,-29.86242],[-51.13067,-29.86241],[-51.13056,-29.86238],[-51.13032,-29.86234],[-51.13019,-29.86234],[-51.12997,-29.86236],[-51.12975,-29.86242],[-51.12966,-29.86246],[-51.12952,-29.86254],[-51.12939,-29.86264],[-51.12932,-29.86271],[-51.12919,-29.86286],[-51.12909,-29.86304],[-51.12903,-29.86318],[-51.12896,-29.86341],[-51.12893,-29.86356],[-51.12893,-29.86357],[-51.12887,-29.86373],[-51.12884,-29.86389],[-51.12883,-29.86406],[-51.12884,-29.86419],[-51.12888,-29.86441],[-51.12897,-29.86463],[-51.129,-29.86467],[-51.12902,-29.86475],[-51.12904,-29.8648],[-51.12902,-29.8648],[-51.12884,-29.86485],[-51.12857,-29.86494],[-51.12841,-29.86502],[-51.12826,-29.86513],[-51.12814,-29.86526],[-51.12805,-29.86539],[-51.12803,-29.86541],[-51.12789,-29.86553],[-51.12778,-29.86567],[-51.12769,-29.86584],[-51.12765,-29.86597],[-51.12752,-29.86603],[-51.12746,-29.86606],[-51.12689,-29.86635],[-51.12653,-29.86649],[-51.12631,-29.86657],[-51.12612,-29.86664],[-51.12593,-29.86651],[-51.12584,-29.86642],[-51.12572,-29.86627],[-51.12552,-29.86601],[-51.12539,-29.86587],[-51.12524,-29.86576],[-51.12507,-29.86568],[-51.12488,-29.86563],[-51.12468,-29.8656],[-51.12449,-29.86558],[-51.12431,-29.8656],[-51.1242,-29.86564],[-51.12359,-29.86528],[-51.12342,-29.8652],[-51.12324,-29.86515],[-51.12305,-29.86514],[-51.1226,-29.86515],[-51.12207,-29.86511],[-51.12188,-29.86511],[-51.1217,-29.86515],[-51.12153,-29.86522],[-51.12123,-29.86538],[-51.12107,-29.86548],[-51.12094,-29.8656],[-51.12083,-29.86575],[-51.12075,-29.86592],[-51.12072,-29.86602],[-51.12045,-29.8663],[-51.11963,-29.86712],[-51.11903,-29.86758],[-51.11893,-29.86767],[-51.11745,-29.86917],[-51.11741,-29.86921],[-51.11596,-29.87088],[-51.11586,-29.87102],[-51.11578,-29.87117],[-51.11573,-29.87134],[-51.11571,-29.87151],[-51.11565,-29.8743],[-51.11566,-29.87447],[-51.11569,-29.87462],[-51.11592,-29.87535],[-51.11599,-29.87552],[-51.11627,-29.87605],[-51.11633,-29.87616],[-51.11667,-29.87663],[-51.1167,-29.87668],[-51.10513,-29.90208],[-51.10507,-29.90225],[-51.10504,-29.90242],[-51.10504,-29.9026],[-51.10508,-29.90278],[-51.10515,-29.90295],[-51.10663,-29.90586],[-51.10614,-29.90647],[-51.10603,-29.90665],[-51.10595,-29.90685],[-51.10567,-29.90796],[-51.10564,-29.90816],[-51.10565,-29.90836],[-51.1057,-29.90855],[-51.10579,-29.90873],[-51.10591,-29.90889],[-51.10606,-29.90902],[-51.10634,-29.90922],[-51.1065,-29.90932],[-51.10668,-29.90938],[-51.10687,-29.90941],[-51.10689,-29.90941],[-51.10694,-29.90947],[-51.10708,-29.9096],[-51.10723,-29.9097],[-51.10738,-29.90979],[-51.10754,-29.90986],[-51.1076,-29.90987],[-51.1076,-29.90987],[-51.10776,-29.90997],[-51.10794,-29.91004],[-51.10812,-29.91008],[-51.10846,-29.91011],[-51.10864,-29.91011],[-51.10874,-29.91016],[-51.10892,-29.9102],[-51.10933,-29.91027],[-51.10955,-29.91029],[-51.10976,-29.91025],[-51.10997,-29.91017],[-51.11025,-29.91002],[-51.11041,-29.90991],[-51.11055,-29.90977],[-51.11055,-29.90977],[-51.1106,-29.90975],[-51.11075,-29.90964],[-51.11085,-29.90956],[-51.11107,-29.90964],[-51.1112,-29.90967],[-51.11121,-29.90995],[-51.11124,-29.91016],[-51.11131,-29.91035],[-51.11142,-29.91053],[-51.11156,-29.91068],[-51.11173,-29.9108],[-51.11192,-29.91088],[-51.11258,-29.91108],[-51.11261,-29.91121],[-51.11257,-29.91138],[-51.11254,-29.91158],[-51.11256,-29.91178],[-51.11261,-29.91198],[-51.1127,-29.91216],[-51.11283,-29.91232],[-51.11294,-29.91241],[-51.11293,-29.91276],[-51.11289,-29.91286],[-51.11285,-29.91304],[-51.11283,-29.91323],[-51.11285,-29.91341],[-51.11291,-29.91359],[-51.113,-29.91376],[-51.11311,-29.9139],[-51.11313,-29.91391],[-51.11301,-29.91405],[-51.11291,-29.91423],[-51.1129,-29.91428],[-51.11286,-29.9143],[-51.11274,-29.91446],[-51.11265,-29.91464],[-51.11259,-29.91484],[-51.11258,-29.91504],[-51.11261,-29.91579],[-51.11264,-29.91599],[-51.1127,-29.91618],[-51.11281,-29.91635],[-51.11287,-29.91642],[-51.11288,-29.91649],[-51.11293,-29.91668],[-51.11302,-29.91686],[-51.11315,-29.91702],[-51.11331,-29.91715],[-51.11343,-29.91723],[-51.11338,-29.91768],[-51.11338,-29.91786],[-51.11342,-29.91804],[-51.11348,-29.91821],[-51.11358,-29.91837],[-51.1137,-29.91851],[-51.11384,-29.91862],[-51.11391,-29.91865],[-51.11393,-29.91869],[-51.11406,-29.91883],[-51.1141,-29.91887],[-51.11417,-29.91903],[-51.11424,-29.91918],[-51.11448,-29.91956],[-51.11444,-29.91966],[-51.11442,-29.91986],[-51.11443,-29.92006],[-51.11449,-29.92025],[-51.11467,-29.92071],[-51.11476,-29.92088],[-51.11488,-29.92104],[-51.11504,-29.92116],[-51.11517,-29.92124],[-51.11547,-29.92166],[-51.11562,-29.92182],[-51.1158,-29.92195],[-51.11601,-29.92204],[-51.11644,-29.92216],[-51.11656,-29.92229],[-51.11673,-29.9224],[-51.11691,-29.92248],[-51.11712,-29.92253],[-51.1172,-29.92253],[-51.11724,-29.92267],[-51.11731,-29.92285],[-51.1173,-29.92287],[-51.11727,-29.92305],[-51.11727,-29.92322],[-51.11729,-29.9234],[-51.11738,-29.92371],[-51.11745,-29.92391],[-51.11757,-29.92409],[-51.11808,-29.92472],[-51.11821,-29.92485],[-51.11835,-29.92495],[-51.11851,-29.92503],[-51.11874,-29.92511],[-51.11897,-29.92539],[-51.11911,-29.92554],[-51.11921,-29.92561],[-51.11928,-29.92569],[-51.11941,-29.92581],[-51.11955,-29.92591],[-51.11971,-29.926],[-51.11989,-29.92605],[-51.12007,-29.92607],[-51.12042,-29.92607],[-51.12048,-29.9261],[-51.1205,-29.92616],[-51.12052,-29.9262],[-51.12052,-29.92624],[-51.12053,-29.92646],[-51.1206,-29.92667],[-51.12071,-29.92686],[-51.12098,-29.92724],[-51.12103,-29.92737],[-51.12099,-29.92751],[-51.12097,-29.92771],[-51.12099,-29.9279],[-51.12105,-29.92809],[-51.12114,-29.92827],[-51.12127,-29.92842],[-51.12144,-29.92858],[-51.12149,-29.92873],[-51.12158,-29.92889],[-51.12162,-29.92894],[-51.12168,-29.92909],[-51.12171,-29.92912],[-51.1217,-29.92928],[-51.12173,-29.92947],[-51.12178,-29.92964],[-51.12187,-29.9298],[-51.12194,-29.9299],[-51.12207,-29.93035],[-51.12214,-29.93055],[-51.12226,-29.93073],[-51.12242,-29.93087],[-51.1226,-29.93099],[-51.1228,-29.93106],[-51.12282,-29.93106],[-51.12285,-29.9311],[-51.12304,-29.93129],[-51.1233,-29.93149],[-51.12344,-29.93158],[-51.1236,-29.93165],[-51.12376,-29.93169],[-51.12399,-29.93172],[-51.12399,-29.93172],[-51.124,-29.93175],[-51.124,-29.93175],[-51.12402,-29.93196],[-51.12408,-29.93215],[-51.12418,-29.93233],[-51.12429,-29.93246],[-51.12431,-29.93261],[-51.12438,-29.9328],[-51.12449,-29.93298],[-51.12463,-29.93312],[-51.1248,-29.93324],[-51.12499,-29.93332],[-51.12519,-29.93338],[-51.12525,-29.93339],[-51.12534,-29.9335],[-51.12495,-29.93464],[-51.12464,-29.93495],[-51.12455,-29.93507],[-51.12447,-29.9352],[-51.12418,-29.93577],[-51.12411,-29.93595],[-51.12408,-29.93614],[-51.12408,-29.93634],[-51.12412,-29.93653],[-51.1242,-29.93671],[-51.1243,-29.93685],[-51.12423,-29.93702],[-51.1242,-29.93707],[-51.12405,-29.93719],[-51.1239,-29.93733],[-51.12378,-29.93751],[-51.1237,-29.9377],[-51.12367,-29.93791],[-51.12364,-29.93827],[-51.12364,-29.93847],[-51.12367,-29.93866],[-51.12366,-29.93867],[-51.12357,-29.93884],[-51.12352,-29.93902],[-51.1235,-29.93921],[-51.1235,-29.93954],[-51.12352,-29.93972],[-51.12357,-29.9399],[-51.12365,-29.94006],[-51.12376,-29.94021],[-51.12392,-29.94039],[-51.12405,-29.94051],[-51.1242,-29.94061],[-51.12436,-29.94068],[-51.12454,-29.94071],[-51.12482,-29.94075],[-51.12488,-29.94083],[-51.12507,-29.94105],[-51.12515,-29.94112],[-51.12516,-29.94113],[-51.12528,-29.94128],[-51.12542,-29.9414],[-51.12559,-29.94149],[-51.12566,-29.94152],[-51.12569,-29.94172],[-51.12576,-29.94192],[-51.12578,-29.94197],[-51.12578,-29.942],[-51.12579,-29.94221],[-51.12583,-29.94232],[-51.12573,-29.94239],[-51.1256,-29.94254],[-51.12549,-29.94271],[-51.12543,-29.94289],[-51.1254,-29.94308],[-51.12533,-29.94317],[-51.12523,-29.94335],[-51.12516,-29.94355],[-51.12514,-29.94375],[-51.12505,-29.94386],[-51.12495,-29.94402],[-51.1249,-29.94421],[-51.12487,-29.9444],[-51.12489,-29.94459],[-51.12494,-29.94477],[-51.12498,-29.94489],[-51.12506,-29.94504],[-51.12516,-29.94519],[-51.12525,-29.94527],[-51.12526,-29.94535],[-51.12531,-29.94546],[-51.12529,-29.94551],[-51.12529,-29.94571],[-51.12532,-29.94591],[-51.12534,-29.94599],[-51.12541,-29.94617],[-51.12551,-29.94633],[-51.12564,-29.94647],[-51.12579,-29.94659],[-51.12581,-29.9467],[-51.12586,-29.94688],[-51.1259,-29.94695],[-51.12587,-29.94699],[-51.12577,-29.94717],[-51.12575,-29.9472],[-51.12565,-29.9473],[-51.12553,-29.94745],[-51.12545,-29.94762],[-51.1254,-29.94781],[-51.12538,-29.948],[-51.12539,-29.94848],[-51.12541,-29.94866],[-51.12547,-29.94884],[-51.1255,-29.94889],[-51.12548,-29.94892],[-51.12539,-29.94908],[-51.12534,-29.94926],[-51.12532,-29.94945],[-51.12534,-29.94963],[-51.12535,-29.94973],[-51.1254,-29.9499],[-51.12547,-29.95005],[-51.12557,-29.95019],[-51.1257,-29.95032],[-51.12575,-29.95036],[-51.12567,-29.95089],[-51.12483,-29.95183],[-51.12473,-29.95196],[-51.12465,-29.95212],[-51.1246,-29.95228],[-51.12458,-29.95245],[-51.12458,-29.95259],[-51.12459,-29.95279],[-51.12465,-29.95299],[-51.12474,-29.95318],[-51.12498,-29.95353],[-51.12509,-29.95368],[-51.12524,-29.9538],[-51.1253,-29.95383],[-51.12527,-29.95392],[-51.12523,-29.95411],[-51.12523,-29.9543],[-51.12526,-29.95448],[-51.12533,-29.95466],[-51.12543,-29.95482],[-51.12556,-29.95495],[-51.12571,-29.95507],[-51.12587,-29.95515],[-51.12606,-29.9552],[-51.12686,-29.95534],[-51.12734,-29.95565],[-51.12741,-29.95575],[-51.12745,-29.95596],[-51.12746,-29.95656],[-51.12749,-29.95678],[-51.12756,-29.95698],[-51.12791,-29.95768],[-51.12799,-29.95783],[-51.12811,-29.95796],[-51.12854,-29.95839],[-51.12872,-29.95853],[-51.12927,-29.95886],[-51.12944,-29.95895],[-51.13131,-29.95963],[-51.13186,-29.96008],[-51.13258,-29.96104],[-51.13274,-29.96122],[-51.13311,-29.96152],[-51.13332,-29.96165],[-51.13367,-29.96182],[-51.13383,-29.96188],[-51.13399,-29.96191],[-51.13437,-29.96195],[-51.13453,-29.96196],[-51.13468,-29.96194],[-51.13504,-29.96186],[-51.13521,-29.96181],[-51.13537,-29.96173],[-51.13569,-29.96153],[-51.13583,-29.96143],[-51.13671,-29.96063],[-51.13678,-29.96056],[-51.13805,-29.95915],[-51.13851,-29.95888],[-51.13984,-29.95858],[-51.13993,-29.95855],[-51.14021,-29.95846],[-51.14024,-29.95853],[-51.14032,-29.95867],[-51.14174,-29.96074],[-51.14184,-29.96086],[-51.1422,-29.96123],[-51.14233,-29.96135],[-51.14249,-29.96144],[-51.14266,-29.96151],[-51.14289,-29.96157],[-51.14309,-29.96162],[-51.14331,-29.96165],[-51.14353,-29.96164],[-51.14399,-29.96155],[-51.14417,-29.9615],[-51.14483,-29.96125],[-51.14489,-29.96122],[-51.14583,-29.96078],[-51.14651,-29.96064],[-51.147,-29.96063],[-51.14711,-29.96067],[-51.14747,-29.96119],[-51.14758,-29.96132],[-51.14771,-29.96142],[-51.14871,-29.96214],[-51.14908,-29.96254],[-51.14917,-29.96273],[-51.14921,-29.9629],[-51.14904,-29.9642],[-51.14903,-29.9644],[-51.14906,-29.9646],[-51.14924,-29.96521],[-51.14929,-29.96537],[-51.14937,-29.96551],[-51.14972,-29.96601],[-51.14981,-29.96613],[-51.14992,-29.96623],[-51.1504,-29.9666],[-51.15057,-29.96671],[-51.15077,-29.96679],[-51.1518,-29.96705],[-51.15264,-29.96751],[-51.15278,-29.96757],[-51.15381,-29.96795],[-51.15398,-29.96799],[-51.15415,-29.96801],[-51.15479,-29.96801],[-51.15497,-29.96799],[-51.15513,-29.96795],[-51.15529,-29.96787],[-51.15562,-29.96768],[-51.15578,-29.96757],[-51.15591,-29.96742],[-51.15602,-29.96725],[-51.15636,-29.96655],[-51.15642,-29.96637],[-51.15645,-29.96619],[-51.1565,-29.96556],[-51.15687,-29.96564],[-51.15697,-29.96566],[-51.15785,-29.96576],[-51.15803,-29.96588],[-51.15826,-29.96645],[-51.15839,-29.96668],[-51.15906,-29.96756],[-51.15918,-29.96769],[-51.15932,-29.9678],[-51.15948,-29.96788],[-51.16012,-29.96814],[-51.16035,-29.9682],[-51.16059,-29.96821],[-51.16144,-29.96813],[-51.16162,-29.9681],[-51.16179,-29.96804],[-51.16195,-29.96794],[-51.16323,-29.96701],[-51.1639,-29.96667],[-51.16421,-29.96661],[-51.16448,-29.9666],[-51.1645,-29.9666],[-51.16526,-29.96774],[-51.16541,-29.96792],[-51.16559,-29.96805],[-51.16589,-29.96823],[-51.16604,-29.9683],[-51.1662,-29.96835],[-51.16636,-29.96837],[-51.16671,-29.96838],[-51.16692,-29.96836],[-51.16711,-29.96831],[-51.16814,-29.96789],[-51.1682,-29.96788],[-51.16841,-29.96789],[-51.17053,-29.96834],[-51.17064,-29.96835],[-51.17127,-29.96842],[-51.17139,-29.96842],[-51.17325,-29.9684],[-51.17558,-29.9686],[-51.1765,-29.96869],[-51.17769,-29.96881],[-51.18296,-29.96988],[-51.18321,-29.9699],[-51.18408,-29.96985],[-51.18424,-29.96983],[-51.18708,-29.96918],[-51.18834,-29.96917],[-51.18995,-29.96937],[-51.19508,-29.97001],[-51.19618,-29.97029],[-51.19723,-29.97076],[-51.19938,-29.97211],[-51.19996,-29.9726],[-51.20013,-29.97271],[-51.20031,-29.97278],[-51.2005,-29.97282],[-51.2007,-29.97282],[-51.20089,-29.97278],[-51.20107,-29.97271],[-51.20124,-29.9726],[-51.20271,-29.97138],[-51.20274,-29.97135],[-51.20447,-29.96981],[-51.2046,-29.96966],[-51.2047,-29.96949],[-51.20558,-29.96766],[-51.20653,-29.9668],[-51.20812,-29.96576],[-51.20875,-29.96539],[-51.20938,-29.96529],[-51.21071,-29.96535],[-51.21351,-29.96593],[-51.21729,-29.96762],[-51.21853,-29.96833],[-51.2187,-29.96841],[-51.21888,-29.96846],[-51.21906,-29.96847],[-51.21925,-29.96845],[-51.21943,-29.96839],[-51.22063,-29.96787],[-51.22078,-29.96779],[-51.22092,-29.96768],[-51.22103,-29.96755],[-51.22287,-29.96513],[-51.2229,-29.96509],[-51.22645,-29.95992],[-51.22806,-29.95786],[-51.22816,-29.95771],[-51.22823,-29.95755],[-51.22827,-29.95737],[-51.2286,-29.95468],[-51.23146,-29.94327],[-51.23416,-29.93929],[-51.23424,-29.93914],[-51.23583,-29.93566],[-51.23736,-29.93334],[-51.23745,-29.93317],[-51.23867,-29.93018],[-51.23897,-29.92946],[-51.2403,-29.92734],[-51.24219,-29.92564],[-51.24344,-29.9249],[-51.24429,-29.92439],[-51.24447,-29.92426],[-51.24461,-29.92408],[-51.24526,-29.92312],[-51.24534,-29.92296],[-51.2454,-29.92279],[-51.24542,-29.92261],[-51.24542,-29.92244],[-51.24525,-29.9211],[-51.2452,-29.9209],[-51.24511,-29.92072],[-51.24499,-29.92055],[-51.24401,-29.91947],[-51.24388,-29.91932],[-51.24368,-29.91916],[-51.24227,-29.91824],[-51.2414,-29.91716],[-51.24142,-29.91631],[-51.24269,-29.91509],[-51.24494,-29.91357],[-51.24506,-29.91347],[-51.2467,-29.91195],[-51.24682,-29.91181],[-51.24798,-29.91021],[-51.24805,-29.91009],[-51.24856,-29.90913],[-51.24883,-29.90864],[-51.2489,-29.90847],[-51.24896,-29.90828],[-51.24896,-29.90827],[-51.24942,-29.90679],[-51.24946,-29.90657],[-51.24945,-29.90634],[-51.24915,-29.90437],[-51.24907,-29.9041],[-51.24832,-29.90249],[-51.2484,-29.90171],[-51.24907,-29.90051],[-51.24916,-29.90031],[-51.24955,-29.899],[-51.24958,-29.89882],[-51.24958,-29.89862],[-51.24941,-29.89684],[-51.24937,-29.89663],[-51.24882,-29.8949],[-51.24883,-29.8945],[-51.24884,-29.89437],[-51.24885,-29.89385],[-51.24966,-29.89166],[-51.24969,-29.89155],[-51.25012,-29.88976],[-51.25014,-29.88958],[-51.25014,-29.88939],[-51.24981,-29.88701],[-51.25018,-29.88478],[-51.25019,-29.88462],[-51.25018,-29.88446],[-51.25013,-29.88419]]]},"properties":{"ghs":"6fe","size":939.52,"ghs_len":3,"ghs_area":136.35,"ghs_bytes":777478,"ghs_items":6472,"size_unit":"km","ghsval_unit":"bytes","ghs_itemsdensity":47.47,"size_unitdensity":6.89}}]}
