{"type": "FeatureCollection", "features": [
{"type": "Feature", "geometry": {"type": "Polygon", "coordinates": [[[-60.048253, -2.72063], [-60.048203, -2.721046], [-60.048556, -2.721095], [-60.04861, -2.720683], [-60.048253, -2.72063]]]}, "properties": {"address": "ROD BR 174, 0"}},
{"type": "Feature", "geometry": {"type": "Polygon", "coordinates": [[[-60.022313, -2.784124], [-60.018437, -2.781994], [-60.016489, -2.790039], [-60.01662, -2.790111], [-60.020391, -2.791113], [-60.022313, -2.784124]]]}, "properties": {"address": "ROD BR 174, 0"}},
{"type": "Feature", "geometry": {"type": "Polygon", "coordinates": [[[-60.034088, -2.791149], [-60.03269, -2.790206], [-60.027367, -2.791056], [-60.027024, -2.794486], [-60.03597, -2.795275], [-60.03588, -2.791889], [-60.034088, -2.791149]]]}, "properties": {"address": "ROD BR 174, 6"}},
{"type": "Feature", "geometry": {"type": "Polygon", "coordinates": [[[-60.038213, -2.718887], [-60.037075, -2.725056], [-60.045044, -2.72512], [-60.04593, -2.719077], [-60.038213, -2.718887]]]}, "properties": {"address": "ROD BR 174, 0"}},
{"type": "Feature", "geometry": {"type": "Polygon", "coordinates": [[[-60.049426, -2.719876], [-60.049377, -2.720289], [-60.049742, -2.720333], [-60.049782, -2.719919], [-60.049426, -2.719876]]]}, "properties": {"address": "ROD BR 174, 0"}},
{"type": "Feature", "geometry": {"type": "Polygon", "coordinates": [[[-60.056693, -2.764454], [-60.056442, -2.764743], [-60.055723, -2.764816], [-60.054824, -2.764129], [-60.053602, -2.763948], [-60.051733, -2.776997], [-60.052273, -2.776382], [-60.053315, -2.775659], [-60.053782, -2.775406], [-60.054537, -2.775479], [-60.058455, -2.764129], [-60.056693, -2.764454]]]}, "properties": {"address": "ROD BR 174, 0"}},
{"type": "Feature", "geometry": {"type": "Polygon", "coordinates": [[[-59.893952, -2.726158], [-59.894729, -2.730465], [-59.900891, -2.728629], [-59.90193, -2.726034], [-59.893952, -2.726158]]]}, "properties": {"address": "AVN TORQUATO TAPAJÓS, 0"}},
{"type": "Feature", "geometry": {"type": "Polygon", "coordinates": [[[-59.923505, -2.777955], [-59.9258, -2.782015], [-59.933757, -2.779485], [-59.931824, -2.775313], [-59.931823, -2.775313], [-59.923505, -2.777955]]]}, "properties": {"address": "AVN TORQUATO TAPAJÓS, 0"}},
{"type": "Feature", "geometry": {"type": "Polygon", "coordinates": [[[-60.049573, -2.71935], [-60.050019, -2.719411], [-60.050097, -2.718827], [-60.049646, -2.718804], [-60.049573, -2.71935]]]}, "properties": {"address": "ROD BR 174, 0"}},
{"type": "Feature", "geometry": {"type": "Polygon", "coordinates": [[[-60.045071, -2.764097], [-60.045072, -2.76472], [-60.045521, -2.764722], [-60.04552, -2.764098], [-60.045071, -2.764097]]]}, "properties": {"address": "ROD BR 174, 0"}},
{"type": "Feature", "geometry": {"type": "Polygon", "coordinates": [[[-60.043272, -2.764711], [-60.043277, -2.764095], [-60.042828, -2.764092], [-60.042833, -2.764711], [-60.043272, -2.764711]]]}, "properties": {"address": "ROD BR 174, 0"}},
{"type": "Feature", "geometry": {"type": "Polygon", "coordinates": [[[-60.042827, -2.763311], [-60.042825, -2.764031], [-60.043275, -2.764032], [-60.043279, -2.76333], [-60.042827, -2.763311]]]}, "properties": {"address": "ROD BR 174, 0"}},
{"type": "Feature", "geometry": {"type": "Polygon", "coordinates": [[[-60.045074, -2.76659], [-60.045522, -2.76659], [-60.045521, -2.765689], [-60.045075, -2.765685], [-60.045074, -2.76659]]]}, "properties": {"address": "ROD BR 174, 0"}},
{"type": "Feature", "geometry": {"type": "Polygon", "coordinates": [[[-60.042827, -2.765677], [-60.042825, -2.766585], [-60.043262, -2.766575], [-60.043278, -2.765678], [-60.042827, -2.765677]]]}, "properties": {"address": "ROD BR 174, 0"}},
{"type": "Feature", "geometry": {"type": "Polygon", "coordinates": [[[-60.041806, -2.764017], [-60.041992, -2.764015], [-60.041987, -2.76333], [-60.039775, -2.763181], [-60.039596, -2.764896], [-60.039932, -2.764906], [-60.040382, -2.764912], [-60.040826, -2.764928], [-60.041276, -2.764938], [-60.041769, -2.764951], [-60.041806, -2.764017]]]}, "properties": {"address": "ROD BR 174, 0"}},
{"type": "Feature", "geometry": {"type": "Polygon", "coordinates": [[[-60.037531, -2.766952], [-60.037524, -2.767404], [-60.038163, -2.767373], [-60.038178, -2.766965], [-60.037531, -2.766952]]]}, "properties": {"address": "ROD BR 174, 0"}},
{"type": "Feature", "geometry": {"type": "Polygon", "coordinates": [[[-60.040391, -2.765646], [-60.039931, -2.765629], [-60.039935, -2.766515], [-60.040383, -2.766528], [-60.040391, -2.765646]]]}, "properties": {"address": "ROD BR 174, 0"}},
{"type": "Feature", "geometry": {"type": "Polygon", "coordinates": [[[-60.044177, -2.764716], [-60.044175, -2.765622], [-60.044618, -2.765622], [-60.044627, -2.764719], [-60.044177, -2.764716]]]}, "properties": {"address": "ROD BR 174, 0"}},
{"type": "Feature", "geometry": {"type": "Polygon", "coordinates": [[[-60.044626, -2.765683], [-60.044177, -2.765688], [-60.044175, -2.766591], [-60.044625, -2.766588], [-60.044626, -2.765683]]]}, "properties": {"address": "ROD BR 174, 0"}},
{"type": "Feature", "geometry": {"type": "Polygon", "coordinates": [[[-60.041276, -2.764938], [-60.041277, -2.7656], [-60.04177, -2.765613], [-60.041769, -2.764951], [-60.041276, -2.764938]]]}, "properties": {"address": "ROD BR 174, 0"}},
{"type": "Feature", "geometry": {"type": "Polygon", "coordinates": [[[-60.038883, -2.763142], [-60.038823, -2.763898], [-60.039235, -2.763912], [-60.039301, -2.763161], [-60.038883, -2.763142]]]}, "properties": {"address": "ROD BR 174, 0"}},
{"type": "Feature", "geometry": {"type": "Polygon", "coordinates": [[[-60.045521, -2.765626], [-60.045521, -2.764722], [-60.045072, -2.76472], [-60.045067, -2.765624], [-60.045521, -2.765626]]]}, "properties": {"address": "ROD BR 174, 0"}},
{"type": "Feature", "geometry": {"type": "Polygon", "coordinates": [[[-60.046415, -2.767553], [-60.046421, -2.766592], [-60.045522, -2.76659], [-60.045074, -2.76659], [-60.044625, -2.766588], [-60.044175, -2.766591], [-60.043717, -2.766583], [-60.043262, -2.766575], [-60.042825, -2.766585], [-60.042823, -2.767046], [-60.042821, -2.767513], [-60.046415, -2.767553]]]}, "properties": {"address": "ROD BR 174, 0"}},
{"type": "Feature", "geometry": {"type": "Polygon", "coordinates": [[[-60.040383, -2.766528], [-60.039935, -2.766515], [-60.039945, -2.767416], [-60.040393, -2.767421], [-60.040383, -2.766528]]]}, "properties": {"address": "ROD BR 174, 0"}},
{"type": "Feature", "geometry": {"type": "Polygon", "coordinates": [[[-60.043727, -2.763348], [-60.043279, -2.76333], [-60.043275, -2.764032], [-60.043723, -2.764033], [-60.043727, -2.763348]]]}, "properties": {"address": "ROD BR 174, 0"}},
{"type": "Feature", "geometry": {"type": "Polygon", "coordinates": [[[-60.028296, -2.776303], [-60.036522, -2.776235], [-60.036494, -2.77357], [-60.028321, -2.773596], [-60.028296, -2.776303]]]}, "properties": {"address": "ROD BR 174, 0"}},
{"type": "Feature", "geometry": {"type": "Polygon", "coordinates": [[[-60.090383, -2.802835], [-60.090629, -2.803343], [-60.090637, -2.803961], [-60.09064, -2.804215], [-60.090647, -2.804787], [-60.090784, -2.805806], [-60.091566, -2.805941], [-60.091808, -2.805978], [-60.093986, -2.806216], [-60.093462, -2.803844], [-60.093399, -2.802247], [-60.09018, -2.802434], [-60.090383, -2.802835]]]}, "properties": {"address": "RAM DO PAU ROSA, 0"}},
{"type": "Feature", "geometry": {"type": "Polygon", "coordinates": [[[-60.048728, -2.719782], [-60.048657, -2.720195], [-60.049014, -2.720239], [-60.049069, -2.719828], [-60.048728, -2.719782]]]}, "properties": {"address": "ROD BR 174, 0"}},
{"type": "Feature", "geometry": {"type": "Polygon", "coordinates": [[[-59.954919, -2.774462], [-59.949074, -2.781741], [-59.950429, -2.783459], [-59.956403, -2.776338], [-59.954919, -2.774462]]]}, "properties": {"address": "AVN TORQUATO TAPAJÓS, 0"}},
{"type": "Feature", "geometry": {"type": "Polygon", "coordinates": [[[-60.03143, -2.730845], [-60.031599, -2.718572], [-60.028421, -2.718626], [-60.028549, -2.730294], [-60.03143, -2.730845]]]}, "properties": {"address": "ROD BR 174, 0"}},
{"type": "Feature", "geometry": {"type": "Polygon", "coordinates": [[[-59.873273, -2.805108], [-59.879688, -2.812227], [-59.880307, -2.810905], [-59.876953, -2.806483], [-59.876085, -2.804969], [-59.87484, -2.802703], [-59.873273, -2.805108]]]}, "properties": {"address": "AVN TORQUATO TAPAJÓS, 0"}},
{"type": "Feature", "geometry": {"type": "Polygon", "coordinates": [[[-60.051862, -2.722064], [-60.052212, -2.722118], [-60.052266, -2.721706], [-60.051916, -2.721652], [-60.051862, -2.722064]]]}, "properties": {"address": "ROD BR 174, 0"}},
{"type": "Feature", "geometry": {"type": "Polygon", "coordinates": [[[-59.883769, -2.791429], [-59.883754, -2.790543], [-59.884955, -2.788594], [-59.884956, -2.786187], [-59.885735, -2.784323], [-59.886276, -2.783454], [-59.891332, -2.785106], [-59.89063, -2.785748], [-59.890894, -2.790619], [-59.901509, -2.785599], [-59.900988, -2.784568], [-59.902188, -2.77952], [-59.902842, -2.780334], [-59.903081, -2.780814], [-59.907298, -2.781873], [-59.90801, -2.781885], [-59.908029, -2.781884], [-59.908027, -2.757533], [-59.899379, -2.756412], [-59.896583, -2.76418], [-59.891999, -2.762753], [-59.890895, -2.763748], [-59.891064, -2.765093], [-59.891136, -2.767033], [-59.89099, -2.768637], [-59.892018, -2.770705], [-59.892049, -2.77178], [-59.892064, -2.772319], [-59.891424, -2.773472], [-59.89017, -2.774805], [-59.889853, -2.775729], [-59.886882, -2.780767], [-59.885303, -2.782701], [-59.883886, -2.782705], [-59.883097, -2.784058], [-59.883223, -2.785799], [-59.88393, -2.786166], [-59.884075, -2.787624], [-59.883871, -2.789063], [-59.883054, -2.790141], [-59.882555, -2.790265], [-59.881777, -2.791933], [-59.882972, -2.793436], [-59.883769, -2.791429]]]}, "properties": {"address": "AVN TORQUATO TAPAJÓS, 0"}},
{"type": "Feature", "geometry": {"type": "Polygon", "coordinates": [[[-60.100671, -2.770086], [-60.085486, -2.771268], [-60.085268, -2.771968], [-60.084752, -2.772635], [-60.083728, -2.773337], [-60.082964, -2.774332], [-60.083189, -2.775709], [-60.100787, -2.774371], [-60.100671, -2.770086]]]}, "properties": {"address": "RAM RAINHA DOS APOSTOLO, 0"}},
{"type": "Feature", "geometry": {"type": "Polygon", "coordinates": [[[-59.873273, -2.805108], [-59.871511, -2.806512], [-59.879161, -2.813898], [-59.879688, -2.812227], [-59.873273, -2.805108]]]}, "properties": {"address": "AVN TORQUATO TAPAJÓS, 0"}},
{"type": "Feature", "geometry": {"type": "Polygon", "coordinates": [[[-60.040836, -2.767426], [-60.041288, -2.767431], [-60.041286, -2.766551], [-60.040834, -2.766542], [-60.040836, -2.767426]]]}, "properties": {"address": "ROD BR 174, 0"}},
{"type": "Feature", "geometry": {"type": "Polygon", "coordinates": [[[-60.041879, -2.764087], [-60.041885, -2.764706], [-60.042382, -2.76471], [-60.042833, -2.764711], [-60.042828, -2.764092], [-60.041879, -2.764087]]]}, "properties": {"address": "ROD BR 174, 0"}},
{"type": "Feature", "geometry": {"type": "Polygon", "coordinates": [[[-60.039688, -2.763908], [-60.039775, -2.763181], [-60.039301, -2.763161], [-60.039235, -2.763912], [-60.039688, -2.763908]]]}, "properties": {"address": "ROD BR 174, 0"}},
{"type": "Feature", "geometry": {"type": "Polygon", "coordinates": [[[-60.084276, -2.801975], [-60.083945, -2.802797], [-60.093399, -2.802247], [-60.093376, -2.801681], [-60.084276, -2.801975]]]}, "properties": {"address": "RAM DO PAU ROSA, 0"}},
{"type": "Feature", "geometry": {"type": "Polygon", "coordinates": [[[-60.049609, -2.778359], [-60.050814, -2.777857], [-60.050959, -2.77777], [-60.051131, -2.777653], [-60.051289, -2.777516], [-60.051542, -2.777298], [-60.051642, -2.777157], [-60.051733, -2.776997], [-60.053495, -2.763941], [-60.048773, -2.757363], [-60.048692, -2.778808], [-60.04872, -2.778707], [-60.049609, -2.778359]]]}, "properties": {"address": "ROD BR 174, 0"}},
{"type": "Feature", "geometry": {"type": "Polygon", "coordinates": [[[-60.034511, -2.410296], [-60.041306, -2.413325], [-60.041607, -2.411682], [-60.034883, -2.408657], [-60.034875, -2.408659], [-60.034882, -2.408659], [-60.034511, -2.410296]]]}, "properties": {"address": "ROD BR 174, 0"}},
{"type": "Feature", "geometry": {"type": "Polygon", "coordinates": [[[-60.051205, -2.722543], [-60.051137, -2.722953], [-60.051492, -2.723013], [-60.051559, -2.722602], [-60.051205, -2.722543]]]}, "properties": {"address": "ROD BR 174, 0"}},
{"type": "Feature", "geometry": {"type": "Polygon", "coordinates": [[[-60.049992, -2.721293], [-60.050348, -2.721341], [-60.050402, -2.720929], [-60.050046, -2.720881], [-60.049992, -2.721293]]]}, "properties": {"address": "ROD BR 174, 0"}},
{"type": "Feature", "geometry": {"type": "Polygon", "coordinates": [[[-60.042827, -2.763311], [-60.041987, -2.76333], [-60.041992, -2.764015], [-60.042825, -2.764031], [-60.042827, -2.763311]]]}, "properties": {"address": "ROD BR 174, 0"}},
{"type": "Feature", "geometry": {"type": "Polygon", "coordinates": [[[-60.0388, -2.504127], [-60.092216, -2.512962], [-60.13869, -2.471328], [-60.098455, -2.459936], [-60.092445, -2.484821], [-60.073252, -2.480636], [-60.07071, -2.503196], [-60.036949, -2.493894], [-60.0388, -2.504127]]]}, "properties": {"address": "ROD BR 174, 0"}},
{"type": "Feature", "geometry": {"type": "Polygon", "coordinates": [[[-60.041852, -2.767442], [-60.041865, -2.766562], [-60.041286, -2.766551], [-60.041288, -2.767431], [-60.041852, -2.767442]]]}, "properties": {"address": "ROD BR 174, 0"}},
{"type": "Feature", "geometry": {"type": "Polygon", "coordinates": [[[-60.040381, -2.765573], [-60.040382, -2.764912], [-60.039932, -2.764906], [-60.039937, -2.765564], [-60.040381, -2.765573]]]}, "properties": {"address": "ROD BR 174, 0"}},
{"type": "Feature", "geometry": {"type": "Polygon", "coordinates": [[[-60.048295, -2.718734], [-60.047663, -2.718707], [-60.047612, -2.719085], [-60.048236, -2.719169], [-60.048295, -2.718734]]]}, "properties": {"address": "ROD BR 174, 0"}},
{"type": "Feature", "geometry": {"type": "Polygon", "coordinates": [[[-60.041924, -2.766122], [-60.042826, -2.766128], [-60.042827, -2.765677], [-60.041921, -2.765677], [-60.041924, -2.766122]]]}, "properties": {"address": "ROD BR 174, 0"}},
{"type": "Feature", "geometry": {"type": "Polygon", "coordinates": [[[-60.080079, -2.724292], [-60.080574, -2.724561], [-60.080669, -2.726594], [-60.081494, -2.727252], [-60.081121, -2.727767], [-60.080753, -2.731036], [-60.079424, -2.731566], [-60.079201, -2.732289], [-60.07808, -2.732834], [-60.077949, -2.73428], [-60.078334, -2.734834], [-60.077637, -2.735365], [-60.078178, -2.736086], [-60.07827, -2.73708], [-60.077687, -2.737578], [-60.077824, -2.738075], [-60.079, -2.738167], [-60.078903, -2.738704], [-60.080365, -2.741016], [-60.080169, -2.741953], [-60.081253, -2.744209], [-60.079684, -2.745478], [-60.079955, -2.746109], [-60.079464, -2.74733], [-60.079736, -2.748143], [-60.079389, -2.748691], [-60.080222, -2.748542], [-60.080581, -2.748721], [-60.081971, -2.747634], [-60.083636, -2.747237], [-60.086058, -2.745831], [-60.087357, -2.744427], [-60.088122, -2.744922], [-60.090323, -2.744961], [-60.090683, -2.745232], [-60.091894, -2.744596], [-60.092836, -2.744006], [-60.095037, -2.74391], [-60.095575, -2.743728], [-60.095666, -2.74418], [-60.096697, -2.744415], [-60.096831, -2.743918], [-60.096976, -2.744012], [-60.097739, -2.743806], [-60.097746, -2.739191], [-60.097739, -2.737283], [-60.097639, -2.734032], [-60.097524, -2.730263], [-60.097403, -2.727245], [-60.097297, -2.724633], [-60.079628, -2.722082], [-60.080346, -2.722552], [-60.080079, -2.724292]]]}, "properties": {"address": "ROD BR 174, 0"}},
{"type": "Feature", "geometry": {"type": "Polygon", "coordinates": [[[-60.049014, -2.720239], [-60.049377, -2.720289], [-60.049425, -2.719876], [-60.049069, -2.719828], [-60.049014, -2.720239]]]}, "properties": {"address": "ROD BR 174, 0"}},
{"type": "Feature", "geometry": {"type": "Polygon", "coordinates": [[[-60.037459, -2.792681], [-60.037639, -2.792689], [-60.03756, -2.791924], [-60.036505, -2.792105], [-60.036522, -2.792738], [-60.036969, -2.792692], [-60.03745, -2.792862], [-60.037459, -2.792681]]]}, "properties": {"address": "ROD BR 174, 0"}},
{"type": "Feature", "geometry": {"type": "Polygon", "coordinates": [[[-60.04842, -2.71932], [-60.048364, -2.719732], [-60.048728, -2.719782], [-60.048776, -2.719369], [-60.04842, -2.71932]]]}, "properties": {"address": "ROD BR 174, 0"}},
{"type": "Feature", "geometry": {"type": "Polygon", "coordinates": [[[-59.907951, -2.803231], [-59.907952, -2.803415], [-59.908454, -2.803431], [-59.909833, -2.803298], [-59.910625, -2.803517], [-59.910632, -2.803429], [-59.907968, -2.796688], [-59.907951, -2.803231]]]}, "properties": {"address": "AVN TORQUATO TAPAJÓS, 0"}},
{"type": "Feature", "geometry": {"type": "Polygon", "coordinates": [[[-60.044175, -2.764034], [-60.044623, -2.764037], [-60.044624, -2.76339], [-60.044175, -2.76337], [-60.044175, -2.764034]]]}, "properties": {"address": "ROD BR 174, 0"}},
{"type": "Feature", "geometry": {"type": "Polygon", "coordinates": [[[-59.872889, -2.717489], [-59.865581, -2.733196], [-59.867599, -2.733968], [-59.874261, -2.717489], [-59.872889, -2.717489]]]}, "properties": {"address": "AVN TORQUATO TAPAJÓS, 0"}},
{"type": "Feature", "geometry": {"type": "Polygon", "coordinates": [[[-60.045073, -2.763409], [-60.045072, -2.764037], [-60.045522, -2.764032], [-60.045524, -2.76341], [-60.045073, -2.763409]]]}, "properties": {"address": "ROD BR 174, 0"}},
{"type": "Feature", "geometry": {"type": "Polygon", "coordinates": [[[-60.054015, -2.731045], [-60.054787, -2.726516], [-60.046653, -2.723556], [-60.04578, -2.73024], [-60.054015, -2.731045]]]}, "properties": {"address": "ROD BR 174, 0"}},
{"type": "Feature", "geometry": {"type": "Polygon", "coordinates": [[[-60.057675, -2.722198], [-60.05773, -2.721786], [-60.057373, -2.721738], [-60.057319, -2.72215], [-60.057675, -2.722198]]]}, "properties": {"address": "ROD BR 174, 0"}},
{"type": "Feature", "geometry": {"type": "Polygon", "coordinates": [[[-60.041924, -2.766122], [-60.041926, -2.766577], [-60.042825, -2.766585], [-60.042826, -2.766128], [-60.041924, -2.766122]]]}, "properties": {"address": "ROD BR 174, 0"}},
{"type": "Feature", "geometry": {"type": "Polygon", "coordinates": [[[-60.054682, -2.722502], [-60.055032, -2.722556], [-60.055086, -2.722144], [-60.054737, -2.72209], [-60.054682, -2.722502]]]}, "properties": {"address": "ROD BR 174, 0"}},
{"type": "Feature", "geometry": {"type": "Polygon", "coordinates": [[[-60.047117, -2.720987], [-60.04706, -2.721398], [-60.047949, -2.721531], [-60.048007, -2.72112], [-60.047117, -2.720987]]]}, "properties": {"address": "ROD BR 174, 0"}},
{"type": "Feature", "geometry": {"type": "Polygon", "coordinates": [[[-59.927552, -2.785216], [-59.935493, -2.782801], [-59.933853, -2.779535], [-59.925868, -2.781964], [-59.927552, -2.785216]]]}, "properties": {"address": "AVN TORQUATO TAPAJÓS, 0"}},
{"type": "Feature", "geometry": {"type": "Polygon", "coordinates": [[[-60.039308, -2.794472], [-60.039634, -2.793827], [-60.039475, -2.79375], [-60.03915, -2.794394], [-60.039308, -2.794472]]]}, "properties": {"address": "ROD BR 174, 13"}},
{"type": "Feature", "geometry": {"type": "Polygon", "coordinates": [[[-60.047549, -2.720534], [-60.04749, -2.720948], [-60.047848, -2.720997], [-60.047899, -2.720581], [-60.047549, -2.720534]]]}, "properties": {"address": "ROD BR 174, 0"}},
{"type": "Feature", "geometry": {"type": "Polygon", "coordinates": [[[-60.050129, -2.722365], [-60.050054, -2.722774], [-60.050417, -2.722834], [-60.050485, -2.722424], [-60.050129, -2.722365]]]}, "properties": {"address": "ROD BR 174, 0"}},
{"type": "Feature", "geometry": {"type": "Polygon", "coordinates": [[[-60.054333, -2.722448], [-60.054682, -2.722502], [-60.054737, -2.72209], [-60.054387, -2.722036], [-60.054333, -2.722448]]]}, "properties": {"address": "ROD BR 174, 0"}},
{"type": "Feature", "geometry": {"type": "Polygon", "coordinates": [[[-60.045972, -2.765629], [-60.045972, -2.764725], [-60.045521, -2.764722], [-60.045521, -2.765626], [-60.045972, -2.765629]]]}, "properties": {"address": "ROD BR 174, 0"}},
{"type": "Feature", "geometry": {"type": "Polygon", "coordinates": [[[-60.041883, -2.765611], [-60.042377, -2.765613], [-60.042382, -2.76471], [-60.041885, -2.764706], [-60.041883, -2.765611]]]}, "properties": {"address": "ROD BR 174, 0"}},
{"type": "Feature", "geometry": {"type": "Polygon", "coordinates": [[[-59.931932, -2.773001], [-59.931938, -2.775266], [-59.932861, -2.777389], [-59.942642, -2.773757], [-59.940103, -2.770603], [-59.931932, -2.773001]]]}, "properties": {"address": "AVN TORQUATO TAPAJÓS, 0"}},
{"type": "Feature", "geometry": {"type": "Polygon", "coordinates": [[[-60.044618, -2.765622], [-60.045067, -2.765624], [-60.045072, -2.76472], [-60.044627, -2.764719], [-60.044618, -2.765622]]]}, "properties": {"address": "ROD BR 174, 0"}},
{"type": "Feature", "geometry": {"type": "Polygon", "coordinates": [[[-60.048052, -2.719692], [-60.048364, -2.719732], [-60.04842, -2.71932], [-60.048108, -2.719279], [-60.048052, -2.719692]]]}, "properties": {"address": "ROD BR 174, 0"}},
{"type": "Feature", "geometry": {"type": "Polygon", "coordinates": [[[-60.041286, -2.766551], [-60.041278, -2.765658], [-60.040834, -2.765652], [-60.040834, -2.766542], [-60.041286, -2.766551]]]}, "properties": {"address": "ROD BR 174, 0"}},
{"type": "Feature", "geometry": {"type": "MultiPolygon", "coordinates": [[[[-59.931079, -2.759082], [-59.931059, -2.75902], [-59.921137, -2.759391], [-59.920957, -2.760052], [-59.919698, -2.761137], [-59.919293, -2.761725], [-59.919023, -2.762322], [-59.918933, -2.762865], [-59.919293, -2.763715], [-59.921181, -2.765704], [-59.921748, -2.766374], [-59.922188, -2.767133], [-59.922682, -2.768458], [-59.933301, -2.761847], [-59.931061, -2.759022], [-59.931079, -2.759082]]], [[[-59.93106, -2.75902], [-59.931059, -2.75902], [-59.931061, -2.759022], [-59.93106, -2.75902]]]]}, "properties": {"address": "AVN TORQUATO TAPAJÓS, 0"}},
{"type": "Feature", "geometry": {"type": "Polygon", "coordinates": [[[-60.010061, -2.765368], [-60.012478, -2.767126], [-60.015082, -2.763424], [-60.014859, -2.763237], [-60.014561, -2.762788], [-60.014263, -2.762302], [-60.013743, -2.76204], [-60.013482, -2.762152], [-60.013445, -2.762451], [-60.013631, -2.7629], [-60.013557, -2.763349], [-60.012218, -2.764134], [-60.011176, -2.764172], [-60.010061, -2.765368]]]}, "properties": {"address": "ROD BR 174, 0"}},
{"type": "Feature", "geometry": {"type": "Polygon", "coordinates": [[[-60.046416, -2.763432], [-60.045524, -2.76341], [-60.045522, -2.764032], [-60.046419, -2.764035], [-60.046416, -2.763432]]]}, "properties": {"address": "ROD BR 174, 0"}},
{"type": "Feature", "geometry": {"type": "Polygon", "coordinates": [[[-60.041921, -2.767505], [-60.042821, -2.767513], [-60.042823, -2.767046], [-60.041927, -2.767029], [-60.041921, -2.767505]]]}, "properties": {"address": "ROD BR 174, 0"}},
{"type": "Feature", "geometry": {"type": "Polygon", "coordinates": [[[-60.038354, -2.763117], [-60.03829, -2.763892], [-60.038823, -2.763898], [-60.038883, -2.763142], [-60.038354, -2.763117]]]}, "properties": {"address": "ROD BR 174, 0"}},
{"type": "Feature", "geometry": {"type": "Polygon", "coordinates": [[[-60.070237, -2.800548], [-60.070765, -2.800387], [-60.070263, -2.790395], [-60.06811, -2.791198], [-60.068109, -2.791202], [-60.070237, -2.800548]]]}, "properties": {"address": "ROD BR 174, 0"}},
{"type": "Feature", "geometry": {"type": "Polygon", "coordinates": [[[-60.047389, -2.719938], [-60.047877, -2.720013], [-60.047928, -2.7196], [-60.04744, -2.719526], [-60.047389, -2.719938]]]}, "properties": {"address": "ROD BR 174, 0"}},
{"type": "Feature", "geometry": {"type": "Polygon", "coordinates": [[[-60.016116, -2.716069], [-60.013169, -2.715984], [-60.013253, -2.721263], [-60.015864, -2.721376], [-60.016116, -2.716069]]]}, "properties": {"address": "ROD BR 174, ?"}},
{"type": "Feature", "geometry": {"type": "Polygon", "coordinates": [[[-59.898318, -2.746105], [-59.900872, -2.735959], [-59.899941, -2.735879], [-59.898663, -2.735578], [-59.897001, -2.742172], [-59.896252, -2.745217], [-59.898318, -2.746105]]]}, "properties": {"address": "AVN TORQUATO TAPAJÓS, 0"}},
{"type": "Feature", "geometry": {"type": "Polygon", "coordinates": [[[-60.038546, -2.766971], [-60.038178, -2.766965], [-60.038163, -2.767373], [-60.038527, -2.767381], [-60.038546, -2.766971]]]}, "properties": {"address": "ROD BR 174, 0"}},
{"type": "Feature", "geometry": {"type": "Polygon", "coordinates": [[[-60.026402, -2.806472], [-60.026106, -2.809166], [-60.035494, -2.810363], [-60.0358, -2.807819], [-60.026402, -2.806472]]]}, "properties": {"address": "ROD BR 174, 0"}},
{"type": "Feature", "geometry": {"type": "Polygon", "coordinates": [[[-60.090405, -2.80288], [-60.090382, -2.802834], [-60.090278, -2.802627], [-60.09018, -2.802434], [-60.083945, -2.802797], [-60.083697, -2.803602], [-60.083262, -2.803929], [-60.082914, -2.803857], [-60.082732, -2.803786], [-60.082517, -2.803702], [-60.082552, -2.804126], [-60.082501, -2.804448], [-60.08245, -2.804754], [-60.082454, -2.804987], [-60.082499, -2.805361], [-60.082542, -2.805718], [-60.082572, -2.80596], [-60.082677, -2.806385], [-60.082777, -2.806787], [-60.083, -2.807158], [-60.085508, -2.806638], [-60.086152, -2.807473], [-60.086415, -2.807317], [-60.08673, -2.807226], [-60.087491, -2.807101], [-60.087781, -2.807003], [-60.088352, -2.806514], [-60.08884, -2.80624], [-60.08938, -2.806142], [-60.090126, -2.806052], [-60.090784, -2.805806], [-60.090647, -2.804787], [-60.090629, -2.803343], [-60.090405, -2.80288]]]}, "properties": {"address": "RAM DO PAU ROSA, 0"}},
{"type": "Feature", "geometry": {"type": "Polygon", "coordinates": [[[-59.933674, -2.808442], [-59.933706, -2.808622], [-59.934204, -2.808459], [-59.934154, -2.808286], [-59.933674, -2.808442]]]}, "properties": {"address": "AVN TORQUATO TAPAJÓS, 0"}},
{"type": "Feature", "geometry": {"type": "Polygon", "coordinates": [[[-60.049631, -2.721245], [-60.049987, -2.721293], [-60.050041, -2.720881], [-60.049685, -2.720833], [-60.049631, -2.721245]]]}, "properties": {"address": "ROD BR 174, 0"}},
{"type": "Feature", "geometry": {"type": "Polygon", "coordinates": [[[-59.982931, -2.728354], [-59.982465, -2.742074], [-59.98438, -2.744642], [-59.985557, -2.744526], [-59.986419, -2.744529], [-59.987479, -2.728326], [-59.982931, -2.728354]]]}, "properties": {"address": "ROD BR 174, 0"}},
{"type": "Feature", "geometry": {"type": "Polygon", "coordinates": [[[-60.050019, -2.719411], [-60.050464, -2.719471], [-60.050548, -2.71885], [-60.0501, -2.718827], [-60.050097, -2.718827], [-60.050019, -2.719411]]]}, "properties": {"address": "ROD BR 174, 0"}},
{"type": "Feature", "geometry": {"type": "Polygon", "coordinates": [[[-60.023344, -2.758399], [-60.019077, -2.768866], [-60.019546, -2.768942], [-60.019877, -2.769249], [-60.020398, -2.769408], [-60.020771, -2.76949], [-60.02137, -2.769463], [-60.024169, -2.758756], [-60.023344, -2.758399]]]}, "properties": {"address": "ROD BR 174, 0"}},
{"type": "Feature", "geometry": {"type": "Polygon", "coordinates": [[[-60.087781, -2.807003], [-60.087491, -2.807101], [-60.08696, -2.807188], [-60.086415, -2.807317], [-60.086152, -2.807473], [-60.085508, -2.806638], [-60.083099, -2.80713], [-60.08308, -2.80729], [-60.08384, -2.807358], [-60.084209, -2.807389], [-60.084369, -2.807739], [-60.084331, -2.808363], [-60.084299, -2.808889], [-60.083765, -2.808861], [-60.083739, -2.809167], [-60.094654, -2.809243], [-60.093986, -2.806216], [-60.091787, -2.805976], [-60.090784, -2.805806], [-60.090126, -2.806052], [-60.08938, -2.806142], [-60.08884, -2.80624], [-60.088352, -2.806514], [-60.087956, -2.806853], [-60.087781, -2.807003]]]}, "properties": {"address": "RAM DO PAU ROSA, 0"}},
{"type": "Feature", "geometry": {"type": "Polygon", "coordinates": [[[-60.018123, -2.728397], [-60.017139, -2.734382], [-60.018988, -2.735535], [-60.019755, -2.729878], [-60.019777, -2.729812], [-60.018123, -2.728397]]]}, "properties": {"address": "ROD BR 174, 0"}},
{"type": "Feature", "geometry": {"type": "Polygon", "coordinates": [[[-60.044625, -2.766588], [-60.045074, -2.76659], [-60.045075, -2.765685], [-60.044626, -2.765683], [-60.044625, -2.766588]]]}, "properties": {"address": "ROD BR 174, 0"}},
{"type": "Feature", "geometry": {"type": "Polygon", "coordinates": [[[-60.040828, -2.765582], [-60.041277, -2.7656], [-60.041276, -2.764938], [-60.040826, -2.764928], [-60.040828, -2.765582]]]}, "properties": {"address": "ROD BR 174, 0"}},
{"type": "Feature", "geometry": {"type": "Polygon", "coordinates": [[[-60.048912, -2.721142], [-60.048967, -2.72073], [-60.04861, -2.720683], [-60.048556, -2.721095], [-60.048912, -2.721142]]]}, "properties": {"address": "ROD BR 174, 0"}},
{"type": "Feature", "geometry": {"type": "Polygon", "coordinates": [[[-60.038816, -2.764003], [-60.038749, -2.764838], [-60.039235, -2.76484], [-60.039303, -2.764007], [-60.038816, -2.764003]]]}, "properties": {"address": "ROD BR 174, 0"}},
{"type": "Feature", "geometry": {"type": "Polygon", "coordinates": [[[-59.930342, -2.740387], [-59.936509, -2.737648], [-59.935744, -2.735415], [-59.929306, -2.736964], [-59.930342, -2.740387]]]}, "properties": {"address": "AVN TORQUATO TAPAJÓS, 178"}},
{"type": "Feature", "geometry": {"type": "Polygon", "coordinates": [[[-60.044177, -2.765688], [-60.043728, -2.76568], [-60.043717, -2.766583], [-60.044175, -2.766591], [-60.044177, -2.765688]]]}, "properties": {"address": "ROD BR 174, 0"}},
{"type": "Feature", "geometry": {"type": "Polygon", "coordinates": [[[-60.027523, -2.787397], [-60.027367, -2.791056], [-60.03269, -2.790206], [-60.034088, -2.791149], [-60.036051, -2.79196], [-60.035925, -2.787966], [-60.027496, -2.787168], [-60.027523, -2.787397]]]}, "properties": {"address": "ROD BR 174, 6"}},
{"type": "Feature", "geometry": {"type": "Polygon", "coordinates": [[[-60.047021, -2.720458], [-60.046965, -2.720882], [-60.04749, -2.720948], [-60.047549, -2.720534], [-60.047021, -2.720458]]]}, "properties": {"address": "ROD BR 174, 0"}},
{"type": "Feature", "geometry": {"type": "Polygon", "coordinates": [[[-60.050485, -2.722424], [-60.050417, -2.722834], [-60.050782, -2.722894], [-60.05085, -2.722484], [-60.050485, -2.722424]]]}, "properties": {"address": "ROD BR 174, 0"}},
{"type": "Feature", "geometry": {"type": "Polygon", "coordinates": [[[-60.049636, -2.721246], [-60.04969, -2.720834], [-60.049318, -2.720789], [-60.04928, -2.721199], [-60.049636, -2.721246]]]}, "properties": {"address": "ROD BR 174, 0"}},
{"type": "Feature", "geometry": {"type": "Polygon", "coordinates": [[[-60.048362, -2.719732], [-60.048297, -2.720149], [-60.048657, -2.720195], [-60.048728, -2.719782], [-60.048362, -2.719732]]]}, "properties": {"address": "ROD BR 174, 0"}},
{"type": "Feature", "geometry": {"type": "Polygon", "coordinates": [[[-60.03889, -2.767429], [-60.038933, -2.766979], [-60.038546, -2.766971], [-60.038527, -2.767381], [-60.03889, -2.767429]]]}, "properties": {"address": "ROD BR 174, 0"}},
{"type": "Feature", "geometry": {"type": "Polygon", "coordinates": [[[-60.041278, -2.765658], [-60.041286, -2.766551], [-60.041865, -2.766562], [-60.041871, -2.765678], [-60.041278, -2.765658]]]}, "properties": {"address": "ROD BR 174, 0"}},
{"type": "Feature", "geometry": {"type": "Polygon", "coordinates": [[[-60.043278, -2.765678], [-60.043262, -2.766575], [-60.043717, -2.766583], [-60.043728, -2.76568], [-60.043278, -2.765678]]]}, "properties": {"address": "ROD BR 174, 0"}},
{"type": "Feature", "geometry": {"type": "Polygon", "coordinates": [[[-60.043277, -2.765614], [-60.043272, -2.764711], [-60.042833, -2.764711], [-60.042828, -2.765612], [-60.043277, -2.765614]]]}, "properties": {"address": "ROD BR 174, 0"}},
{"type": "Feature", "geometry": {"type": "Polygon", "coordinates": [[[-60.070168, -2.741129], [-60.06931, -2.740831], [-60.068878, -2.741713], [-60.06739, -2.742994], [-60.065002, -2.742996], [-60.06375, -2.742455], [-60.062798, -2.742041], [-60.060683, -2.741105], [-60.058576, -2.740319], [-60.056591, -2.745152], [-60.069547, -2.751015], [-60.071265, -2.756003], [-60.080291, -2.756124], [-60.080381, -2.756125], [-60.080418, -2.755565], [-60.080822, -2.754706], [-60.079995, -2.754453], [-60.079383, -2.754842], [-60.079248, -2.752599], [-60.079608, -2.752373], [-60.079338, -2.751921], [-60.07887, -2.751831], [-60.079338, -2.751469], [-60.078753, -2.750745], [-60.078645, -2.749751], [-60.078438, -2.749118], [-60.078708, -2.748213], [-60.078528, -2.747806], [-60.079068, -2.747399], [-60.078798, -2.746947], [-60.078843, -2.746061], [-60.079337, -2.745518], [-60.078994, -2.745074], [-60.07023, -2.741129], [-60.078932, -2.745073], [-60.070168, -2.741129]]]}, "properties": {"address": "ROD BR 174, 0"}},
{"type": "Feature", "geometry": {"type": "Polygon", "coordinates": [[[-60.038816, -2.764003], [-60.038269, -2.764], [-60.038208, -2.764828], [-60.038749, -2.764838], [-60.038816, -2.764003]]]}, "properties": {"address": "ROD BR 174, 0"}},
{"type": "Feature", "geometry": {"type": "Polygon", "coordinates": [[[-60.022613, -2.77068], [-60.022898, -2.770718], [-60.023232, -2.770764], [-60.023547, -2.770628], [-60.023691, -2.770339], [-60.023852, -2.770179], [-60.023891, -2.77004], [-60.026691, -2.76002], [-60.025735, -2.759518], [-60.025732, -2.759522], [-60.022613, -2.77068]]]}, "properties": {"address": "ROD BR 174, 0"}},
{"type": "Feature", "geometry": {"type": "Polygon", "coordinates": [[[-60.04373, -2.764714], [-60.043724, -2.764097], [-60.043277, -2.764095], [-60.043272, -2.764711], [-60.04373, -2.764714]]]}, "properties": {"address": "ROD BR 174, 0"}},
{"type": "Feature", "geometry": {"type": "Polygon", "coordinates": [[[-60.042823, -2.767046], [-60.042825, -2.766585], [-60.041926, -2.766577], [-60.041927, -2.767029], [-60.042823, -2.767046]]]}, "properties": {"address": "ROD BR 174, 0"}},
{"type": "Feature", "geometry": {"type": "Polygon", "coordinates": [[[-60.039596, -2.764896], [-60.039513, -2.765556], [-60.039937, -2.765564], [-60.039932, -2.764906], [-60.039596, -2.764896]]]}, "properties": {"address": "ROD BR 174, 0"}},
{"type": "Feature", "geometry": {"type": "Polygon", "coordinates": [[[-60.031596, -2.71917], [-60.031568, -2.730496], [-60.036021, -2.719282], [-60.031596, -2.71917]]]}, "properties": {"address": "ROD BR 174, 0"}},
{"type": "Feature", "geometry": {"type": "Polygon", "coordinates": [[[-60.019876, -2.729879], [-60.018994, -2.73546], [-60.021616, -2.736874], [-60.021649, -2.736008], [-60.022017, -2.73171], [-60.019876, -2.729879]]]}, "properties": {"address": "ROD BR 174, 0"}},
{"type": "Feature", "geometry": {"type": "Polygon", "coordinates": [[[-60.044177, -2.764716], [-60.04373, -2.764714], [-60.043725, -2.765616], [-60.044175, -2.765622], [-60.044177, -2.764716]]]}, "properties": {"address": "ROD BR 174, 0"}},
{"type": "Feature", "geometry": {"type": "Polygon", "coordinates": [[[-60.054145, -2.722419], [-60.05409, -2.722832], [-60.054803, -2.722928], [-60.054856, -2.722529], [-60.054708, -2.722506], [-60.054358, -2.722452], [-60.054145, -2.722419]]]}, "properties": {"address": "ROD BR 174, 0"}},
{"type": "Feature", "geometry": {"type": "Polygon", "coordinates": [[[-60.043725, -2.765616], [-60.04373, -2.764714], [-60.043272, -2.764711], [-60.043277, -2.765614], [-60.043725, -2.765616]]]}, "properties": {"address": "ROD BR 174, 0"}},
{"type": "Feature", "geometry": {"type": "Polygon", "coordinates": [[[-60.045091, -2.731416], [-60.045327, -2.729883], [-60.036094, -2.728699], [-60.035814, -2.730441], [-60.045091, -2.731416]]]}, "properties": {"address": "ROD BR 174, 0"}},
{"type": "Feature", "geometry": {"type": "Polygon", "coordinates": [[[-59.918292, -2.722895], [-59.917303, -2.726194], [-59.925543, -2.725353], [-59.924656, -2.722479], [-59.918292, -2.722895]]]}, "properties": {"address": "AVN TORQUATO TAPAJÓS, 54"}},
{"type": "Feature", "geometry": {"type": "Polygon", "coordinates": [[[-60.045972, -2.764101], [-60.045972, -2.764725], [-60.046421, -2.764727], [-60.04642, -2.764102], [-60.045972, -2.764101]]]}, "properties": {"address": "ROD BR 174, 0"}},
{"type": "Feature", "geometry": {"type": "Polygon", "coordinates": [[[-60.127057, -2.799671], [-60.130935, -2.807933], [-60.131383, -2.807793], [-60.132055, -2.807908], [-60.13284, -2.808414], [-60.133176, -2.808341], [-60.133468, -2.80784], [-60.129759, -2.798802], [-60.127057, -2.799671]]]}, "properties": {"address": "ROD BR 174, 0"}},
{"type": "Feature", "geometry": {"type": "Polygon", "coordinates": [[[-60.013191, -2.77895], [-60.012401, -2.781917], [-60.014122, -2.782242], [-60.014767, -2.779818], [-60.013191, -2.77895]]]}, "properties": {"address": "ROD BR 174, 0"}},
{"type": "Feature", "geometry": {"type": "Polygon", "coordinates": [[[-60.047899, -2.720581], [-60.047848, -2.720997], [-60.048203, -2.721046], [-60.048253, -2.72063], [-60.047899, -2.720581]]]}, "properties": {"address": "ROD BR 174, 0"}},
{"type": "Feature", "geometry": {"type": "Polygon", "coordinates": [[[-60.02754, -2.768816], [-60.02754, -2.773193], [-60.035561, -2.773373], [-60.03562, -2.770884], [-60.02754, -2.768816]]]}, "properties": {"address": "ROD BR 174, 0"}},
{"type": "Feature", "geometry": {"type": "Polygon", "coordinates": [[[-60.046416, -2.76563], [-60.046421, -2.764727], [-60.045972, -2.764725], [-60.045972, -2.765629], [-60.046416, -2.76563]]]}, "properties": {"address": "ROD BR 174, 0"}},
{"type": "Feature", "geometry": {"type": "Polygon", "coordinates": [[[-60.054857, -2.812956], [-60.055317, -2.808366], [-60.043235, -2.807156], [-60.043024, -2.809412], [-60.037199, -2.808916], [-60.036919, -2.811107], [-60.054857, -2.812956]]]}, "properties": {"address": "ROD BR 174, 0"}},
{"type": "Feature", "geometry": {"type": "Polygon", "coordinates": [[[-60.074632, -2.808399], [-60.074834, -2.810421], [-60.083775, -2.809519], [-60.083573, -2.807496], [-60.074632, -2.808399]]]}, "properties": {"address": "ROD BR 174, 0"}},
{"type": "Feature", "geometry": {"type": "Polygon", "coordinates": [[[-59.903713, -2.797521], [-59.908031, -2.797457], [-59.908029, -2.781884], [-59.90801, -2.781885], [-59.907298, -2.781873], [-59.903081, -2.780814], [-59.902842, -2.780334], [-59.902188, -2.77952], [-59.900988, -2.784568], [-59.901509, -2.785599], [-59.890894, -2.790619], [-59.89063, -2.785748], [-59.891332, -2.785106], [-59.886276, -2.783454], [-59.885735, -2.784323], [-59.884956, -2.786187], [-59.884955, -2.788594], [-59.883754, -2.790543], [-59.883769, -2.791429], [-59.882972, -2.793436], [-59.903713, -2.797521]]]}, "properties": {"address": "AVN TORQUATO TAPAJÓS, 0"}},
{"type": "Feature", "geometry": {"type": "Polygon", "coordinates": [[[-59.954423, -2.721431], [-59.958834, -2.724898], [-59.959984, -2.723631], [-59.957199, -2.720634], [-59.954423, -2.721431]]]}, "properties": {"address": "AVN TORQUATO TAPAJÓS, 0"}},
{"type": "Feature", "geometry": {"type": "Polygon", "coordinates": [[[-60.045971, -2.766591], [-60.045972, -2.765687], [-60.045521, -2.765689], [-60.045522, -2.76659], [-60.045971, -2.766591]]]}, "properties": {"address": "ROD BR 174, 0"}},
{"type": "Feature", "geometry": {"type": "Polygon", "coordinates": [[[-60.042377, -2.765613], [-60.042828, -2.765612], [-60.042833, -2.764711], [-60.042382, -2.76471], [-60.042377, -2.765613]]]}, "properties": {"address": "ROD BR 174, 0"}},
{"type": "Feature", "geometry": {"type": "Polygon", "coordinates": [[[-60.051512, -2.72201], [-60.051862, -2.722064], [-60.051916, -2.721652], [-60.051566, -2.721598], [-60.051512, -2.72201]]]}, "properties": {"address": "ROD BR 174, 0"}},
{"type": "Feature", "geometry": {"type": "Polygon", "coordinates": [[[-60.045521, -2.764722], [-60.045972, -2.764725], [-60.045972, -2.764101], [-60.04552, -2.764098], [-60.045521, -2.764722]]]}, "properties": {"address": "ROD BR 174, 0"}},
{"type": "Feature", "geometry": {"type": "Polygon", "coordinates": [[[-60.011662, -2.77804], [-60.009999, -2.784383], [-60.011672, -2.784683], [-60.013191, -2.77895], [-60.011662, -2.77804]]]}, "properties": {"address": "ROD BR 174, 0"}},
{"type": "Feature", "geometry": {"type": "Polygon", "coordinates": [[[-60.069844, -2.723657], [-60.079239, -2.72371], [-60.079437, -2.723711], [-60.07933, -2.72348], [-60.079152, -2.722938], [-60.079287, -2.722685], [-60.079261, -2.722351], [-60.079351, -2.722035], [-60.079136, -2.721899], [-60.078778, -2.721536], [-60.078239, -2.721445], [-60.077942, -2.721652], [-60.077628, -2.72147], [-60.077268, -2.721533], [-60.076855, -2.721396], [-60.076505, -2.721504], [-60.07628, -2.721377], [-60.076235, -2.721647], [-60.076055, -2.72171], [-60.07583, -2.721619], [-60.075642, -2.721619], [-60.075426, -2.721573], [-60.075093, -2.721798], [-60.075067, -2.721482], [-60.074951, -2.721193], [-60.07479, -2.720948], [-60.074574, -2.720848], [-60.074287, -2.720938], [-60.074152, -2.720802], [-60.073838, -2.720621], [-60.073695, -2.720322], [-60.073299, -2.720529], [-60.07294, -2.720347], [-60.072662, -2.720238], [-60.072456, -2.720211], [-60.072079, -2.719785], [-60.071891, -2.719505], [-60.071451, -2.719531], [-60.071056, -2.719385], [-60.070877, -2.71915], [-60.070717, -2.718417], [-60.069883, -2.717721], [-60.069882, -2.717811], [-60.069844, -2.723657]]]}, "properties": {"address": "ROD BR 174, 0"}},
{"type": "Feature", "geometry": {"type": "Polygon", "coordinates": [[[-60.007399, -2.793674], [-60.007258, -2.794197], [-60.008141, -2.794419], [-60.008572, -2.794646], [-60.009005, -2.794484], [-60.009201, -2.794964], [-60.009651, -2.795082], [-60.010291, -2.79475], [-60.010904, -2.794598], [-60.011073, -2.794089], [-60.011626, -2.791806], [-60.008001, -2.791399], [-60.007399, -2.793674]]]}, "properties": {"address": "ROD BR 174, 0"}},
{"type": "Feature", "geometry": {"type": "Polygon", "coordinates": [[[-60.02218, -2.731166], [-60.021678, -2.736896], [-60.023597, -2.737991], [-60.023969, -2.732743], [-60.02218, -2.731166]]]}, "properties": {"address": "ROD BR 174, 0"}},
{"type": "Feature", "geometry": {"type": "Polygon", "coordinates": [[[-60.052214, -2.722123], [-60.052564, -2.722176], [-60.052618, -2.721764], [-60.052268, -2.721711], [-60.052214, -2.722123]]]}, "properties": {"address": "ROD BR 174, 0"}},
{"type": "Feature", "geometry": {"type": "Polygon", "coordinates": [[[-60.037546, -2.715947], [-60.031442, -2.730839], [-60.033694, -2.731594], [-60.038196, -2.716047], [-60.037546, -2.715947]]]}, "properties": {"address": "ROD BR 174, 0"}},
{"type": "Feature", "geometry": {"type": "Polygon", "coordinates": [[[-59.996993, -2.716208], [-59.997148, -2.728395], [-60.000076, -2.728328], [-59.999958, -2.716364], [-59.996993, -2.716208]]]}, "properties": {"address": "ROD BR 174, 0"}},
{"type": "Feature", "geometry": {"type": "Polygon", "coordinates": [[[-60.039931, -2.765629], [-60.039509, -2.765624], [-60.039485, -2.766531], [-60.039935, -2.766515], [-60.039931, -2.765629]]]}, "properties": {"address": "ROD BR 174, 0"}},
{"type": "Feature", "geometry": {"type": "Polygon", "coordinates": [[[-59.977045, -2.716357], [-59.977237, -2.725459], [-59.979174, -2.726634], [-59.979213, -2.716308], [-59.977045, -2.716357]]]}, "properties": {"address": "ROD BR 174, 0"}},
{"type": "Feature", "geometry": {"type": "Polygon", "coordinates": [[[-59.859202, -2.724555], [-59.861024, -2.717252], [-59.858464, -2.717283], [-59.857113, -2.72384], [-59.856962, -2.724464], [-59.857432, -2.72438], [-59.857723, -2.724374], [-59.858019, -2.724397], [-59.858493, -2.724518], [-59.858825, -2.724602], [-59.859007, -2.724664], [-59.859161, -2.724718], [-59.859202, -2.724555]]]}, "properties": {"address": "AVN TORQUATO TAPAJÓS, 0"}},
{"type": "Feature", "geometry": {"type": "Polygon", "coordinates": [[[-60.044174, -2.764099], [-60.044177, -2.764716], [-60.044627, -2.764719], [-60.044622, -2.764098], [-60.044174, -2.764099]]]}, "properties": {"address": "ROD BR 174, 0"}},
{"type": "Feature", "geometry": {"type": "Polygon", "coordinates": [[[-60.040383, -2.766528], [-60.040393, -2.767421], [-60.040836, -2.767426], [-60.040834, -2.766542], [-60.040383, -2.766528]]]}, "properties": {"address": "ROD BR 174, 0"}},
{"type": "Feature", "geometry": {"type": "Polygon", "coordinates": [[[-60.027323, -2.787122], [-60.027496, -2.787168], [-60.035685, -2.787943], [-60.035747, -2.785602], [-60.027539, -2.784729], [-60.027323, -2.787122]]]}, "properties": {"address": "ROD BR 174, 0"}},
{"type": "Feature", "geometry": {"type": "Polygon", "coordinates": [[[-59.913959, -2.737383], [-59.928509, -2.734962], [-59.927993, -2.733246], [-59.914855, -2.734376], [-59.913959, -2.737383]]]}, "properties": {"address": "AVN TORQUATO TAPAJÓS, 0"}},
{"type": "Feature", "geometry": {"type": "Polygon", "coordinates": [[[-60.062743, -2.77778], [-60.062417, -2.777889], [-60.061221, -2.777881], [-60.060434, -2.777686], [-60.060058, -2.777397], [-60.059613, -2.777037], [-60.059343, -2.77678], [-60.059352, -2.776833], [-60.061929, -2.792601], [-60.064941, -2.791462], [-60.062678, -2.777836], [-60.06275, -2.777824], [-60.062743, -2.77778]]]}, "properties": {"address": "ROD BR 174, 0"}},
{"type": "Feature", "geometry": {"type": "Polygon", "coordinates": [[[-59.906926, -2.738188], [-59.904114, -2.737524], [-59.904063, -2.737512], [-59.901303, -2.744009], [-59.90081, -2.74517], [-59.900062, -2.746932], [-59.9021, -2.747609], [-59.90307, -2.747607], [-59.906926, -2.738188]]]}, "properties": {"address": "AVN TORQUATO TAPAJÓS, 0"}},
{"type": "Feature", "geometry": {"type": "Polygon", "coordinates": [[[-60.037097, -2.767262], [-60.037524, -2.767404], [-60.037531, -2.766952], [-60.038214, -2.766966], [-60.038574, -2.766972], [-60.038933, -2.766979], [-60.039379, -2.766988], [-60.039427, -2.765607], [-60.039486, -2.764843], [-60.039197, -2.764839], [-60.038709, -2.764836], [-60.038208, -2.764828], [-60.038269, -2.764], [-60.03829, -2.763892], [-60.038354, -2.763117], [-60.037401, -2.763075], [-60.037097, -2.767262]]]}, "properties": {"address": "ROD BR 174, 0"}},
{"type": "Feature", "geometry": {"type": "Polygon", "coordinates": [[[-59.923557, -2.777806], [-59.931903, -2.775267], [-59.931762, -2.772882], [-59.923629, -2.775356], [-59.923466, -2.776586], [-59.923557, -2.777806]]]}, "properties": {"address": "AVN TORQUATO TAPAJÓS, 0"}},
{"type": "Feature", "geometry": {"type": "Polygon", "coordinates": [[[-60.023263, -2.758436], [-60.02328, -2.758365], [-60.017733, -2.767119], [-60.018356, -2.768045], [-60.018428, -2.768615], [-60.018695, -2.768864], [-60.019121, -2.76881], [-60.023263, -2.758436]]]}, "properties": {"address": "ROD BR 174, 0"}},
{"type": "Feature", "geometry": {"type": "Polygon", "coordinates": [[[-60.037306, -2.801869], [-60.037233, -2.8043], [-60.045948, -2.804872], [-60.045847, -2.801848], [-60.037306, -2.801869]]]}, "properties": {"address": "ROD BR 174, 0"}},
{"type": "Feature", "geometry": {"type": "Polygon", "coordinates": [[[-60.043724, -2.764097], [-60.04373, -2.764714], [-60.044177, -2.764716], [-60.044174, -2.764099], [-60.043724, -2.764097]]]}, "properties": {"address": "ROD BR 174, 0"}},
{"type": "Feature", "geometry": {"type": "Polygon", "coordinates": [[[-60.073244, -2.799544], [-60.073447, -2.803516], [-60.082614, -2.803363], [-60.081449, -2.800562], [-60.081803, -2.800154], [-60.08236, -2.800154], [-60.082816, -2.799747], [-60.083626, -2.799441], [-60.083677, -2.798423], [-60.083018, -2.797303], [-60.082056, -2.797252], [-60.081499, -2.797455], [-60.081296, -2.796946], [-60.073244, -2.799544]]]}, "properties": {"address": "ROD BR 174, 0"}},
{"type": "Feature", "geometry": {"type": "Polygon", "coordinates": [[[-60.040964, -2.269022], [-60.045018, -2.301282], [-60.053999, -2.298218], [-60.06247, -2.295285], [-60.063428, -2.295011], [-60.072309, -2.292339], [-60.109838, -2.280671], [-60.108405, -2.252935], [-60.040964, -2.269022]]]}, "properties": {"address": "ROD BR 174, 0"}},
{"type": "Feature", "geometry": {"type": "Polygon", "coordinates": [[[-60.048745, -2.718757], [-60.048295, -2.718734], [-60.048236, -2.719169], [-60.048682, -2.71923], [-60.048745, -2.718757]]]}, "properties": {"address": "ROD BR 174, 0"}},
{"type": "Feature", "geometry": {"type": "Polygon", "coordinates": [[[-60.048745, -2.718757], [-60.048682, -2.71923], [-60.049128, -2.71929], [-60.049195, -2.718789], [-60.048745, -2.718757]]]}, "properties": {"address": "ROD BR 174, 0"}},
{"type": "Feature", "geometry": {"type": "Polygon", "coordinates": [[[-60.049979, -2.723183], [-60.050341, -2.723236], [-60.050417, -2.722834], [-60.050054, -2.722774], [-60.049979, -2.723183]]]}, "properties": {"address": "ROD BR 174, 0"}},
{"type": "Feature", "geometry": {"type": "Polygon", "coordinates": [[[-60.044623, -2.764037], [-60.045072, -2.764037], [-60.045073, -2.763409], [-60.044624, -2.76339], [-60.044623, -2.764037]]]}, "properties": {"address": "ROD BR 174, 0"}},
{"type": "Feature", "geometry": {"type": "Polygon", "coordinates": [[[-59.994401, -2.798189], [-59.994334, -2.798357], [-59.994543, -2.798369], [-59.994675, -2.798376], [-59.995134, -2.798471], [-59.995551, -2.798561], [-59.995866, -2.798637], [-59.996318, -2.798886], [-59.996766, -2.799133], [-59.99715, -2.79946], [-59.997735, -2.799979], [-59.998289, -2.800471], [-59.999434, -2.801181], [-59.999533, -2.801213], [-60.000183, -2.801429], [-60.000689, -2.801992], [-60.001046, -2.802624], [-60.001209, -2.803094], [-60.001236, -2.802915], [-60.002858, -2.792092], [-60.002901, -2.791695], [-60.002794, -2.791858], [-60.002659, -2.791514], [-60.002299, -2.791089], [-60.002524, -2.790818], [-60.002389, -2.790411], [-60.002542, -2.790275], [-60.002515, -2.790166], [-60.002299, -2.79032], [-60.002093, -2.790293], [-60.001895, -2.790022], [-60.001715, -2.789913], [-60.001625, -2.789642], [-60.00167, -2.789371], [-60.001553, -2.789325], [-60.0014, -2.789551], [-60.001202, -2.789479], [-60.000819, -2.788931], [-60.000636, -2.789009], [-60.000474, -2.788873], [-60.000294, -2.788937], [-60.000078, -2.788828], [-59.999781, -2.788692], [-59.999529, -2.788448], [-59.999331, -2.788195], [-59.999242, -2.788014], [-59.998927, -2.788105], [-59.998936, -2.787833], [-59.99875, -2.787919], [-59.998594, -2.787924], [-59.998484, -2.787826], [-59.998457, -2.787982], [-59.994401, -2.798189]]]}, "properties": {"address": "ROD BR 174, 0"}},
{"type": "Feature", "geometry": {"type": "Polygon", "coordinates": [[[-60.066433, -2.763725], [-60.066111, -2.76368], [-60.06564, -2.76349], [-60.065399, -2.763587], [-60.065305, -2.764037], [-60.0652, -2.764172], [-60.06494, -2.764108], [-60.064926, -2.76391], [-60.064339, -2.763841], [-60.063988, -2.763762], [-60.063776, -2.763849], [-60.063665, -2.763669], [-60.063401, -2.763572], [-60.063011, -2.763624], [-60.058698, -2.777166], [-60.059073, -2.777468], [-60.059848, -2.777653], [-60.061046, -2.777666], [-60.061384, -2.777565], [-60.061769, -2.777532], [-60.062539, -2.777733], [-60.063034, -2.777599], [-60.066433, -2.763725]]]}, "properties": {"address": "ROD BR 174, 0"}},
{"type": "Feature", "geometry": {"type": "Polygon", "coordinates": [[[-60.040383, -2.766528], [-60.040834, -2.766542], [-60.040834, -2.765652], [-60.040391, -2.765646], [-60.040383, -2.766528]]]}, "properties": {"address": "ROD BR 174, 0"}},
{"type": "Feature", "geometry": {"type": "Polygon", "coordinates": [[[-60.071868, -2.778732], [-60.071952, -2.779554], [-60.080228, -2.776426], [-60.080419, -2.775188], [-60.079709, -2.774242], [-60.0801, -2.774048], [-60.080147, -2.773761], [-60.079395, -2.772315], [-60.079001, -2.771902], [-60.071868, -2.778732]]]}, "properties": {"address": "RAM RAINHA DOS APOSTOLO, 0"}},
{"type": "Feature", "geometry": {"type": "Polygon", "coordinates": [[[-60.05085, -2.722484], [-60.050782, -2.722894], [-60.051137, -2.722953], [-60.051205, -2.722543], [-60.05085, -2.722484]]]}, "properties": {"address": "ROD BR 174, 0"}},
{"type": "Feature", "geometry": {"type": "Polygon", "coordinates": [[[-60.051559, -2.722602], [-60.051492, -2.723013], [-60.051847, -2.723072], [-60.051914, -2.722662], [-60.051559, -2.722602]]]}, "properties": {"address": "ROD BR 174, 0"}},
{"type": "Feature", "geometry": {"type": "Polygon", "coordinates": [[[-60.051296, -2.721974], [-60.051512, -2.72201], [-60.051566, -2.721598], [-60.051208, -2.721543], [-60.051154, -2.721955], [-60.051296, -2.721974]]]}, "properties": {"address": "ROD BR 174, 0"}},
{"type": "Feature", "geometry": {"type": "Polygon", "coordinates": [[[-60.039935, -2.766515], [-60.039485, -2.766531], [-60.039447, -2.767396], [-60.039945, -2.767416], [-60.039935, -2.766515]]]}, "properties": {"address": "ROD BR 174, 0"}},
{"type": "Feature", "geometry": {"type": "Polygon", "coordinates": [[[-60.046421, -2.766592], [-60.046416, -2.765689], [-60.045972, -2.765687], [-60.045971, -2.766591], [-60.046421, -2.766592]]]}, "properties": {"address": "ROD BR 174, 0"}},
{"type": "Feature", "geometry": {"type": "Polygon", "coordinates": [[[-60.049782, -2.719919], [-60.049742, -2.720334], [-60.050106, -2.720378], [-60.050147, -2.719964], [-60.049782, -2.719919]]]}, "properties": {"address": "ROD BR 174, 0"}},
{"type": "Feature", "geometry": {"type": "Polygon", "coordinates": [[[-60.045192, -2.732388], [-60.044665, -2.735487], [-60.05268, -2.736897], [-60.05321, -2.733274], [-60.045192, -2.732388]]]}, "properties": {"address": "ROD BR 174, 0"}},
{"type": "Feature", "geometry": {"type": "Polygon", "coordinates": [[[-60.038933, -2.766979], [-60.03889, -2.767429], [-60.03933, -2.767425], [-60.039379, -2.766988], [-60.038933, -2.766979]]]}, "properties": {"address": "ROD BR 174, 0"}},
{"type": "Feature", "geometry": {"type": "Polygon", "coordinates": [[[-60.048868, -2.712358], [-60.059825, -2.712001], [-60.059723, -2.70961], [-60.049101, -2.709803], [-60.049113, -2.709834], [-60.049087, -2.7098], [-60.048868, -2.712358]]]}, "properties": {"address": "ROD BR 174, S/Nº"}},
{"type": "Feature", "geometry": {"type": "Polygon", "coordinates": [[[-59.97289, -2.768209], [-59.973525, -2.770468], [-59.983, -2.769142], [-59.982365, -2.768749], [-59.980631, -2.768037], [-59.979117, -2.766318], [-59.97289, -2.768209]]]}, "properties": {"address": "AVN TORQUATO TAPAJÓS, 0"}},
{"type": "Feature", "geometry": {"type": "Polygon", "coordinates": [[[-60.043727, -2.763348], [-60.043723, -2.764033], [-60.044175, -2.764034], [-60.044175, -2.76337], [-60.043727, -2.763348]]]}, "properties": {"address": "ROD BR 174, 0"}},
{"type": "Feature", "geometry": {"type": "Polygon", "coordinates": [[[-60.040828, -2.765582], [-60.040826, -2.764928], [-60.040382, -2.764912], [-60.040381, -2.765573], [-60.040828, -2.765582]]]}, "properties": {"address": "ROD BR 174, 0"}},
{"type": "Feature", "geometry": {"type": "Polygon", "coordinates": [[[-60.025935, -2.739393], [-60.024783, -2.738834], [-60.018946, -2.747446], [-60.01909, -2.747543], [-60.019234, -2.747543], [-60.019427, -2.747471], [-60.019523, -2.747448], [-60.019811, -2.747738], [-60.01993, -2.747835], [-60.020171, -2.747691], [-60.020507, -2.747692], [-60.02118, -2.74779], [-60.026823, -2.739927], [-60.025935, -2.739393]]]}, "properties": {"address": "ROD BR 174, 0"}},
{"type": "Feature", "geometry": {"type": "Polygon", "coordinates": [[[-60.07265, -2.77931], [-60.073167, -2.784127], [-60.083512, -2.783201], [-60.083828, -2.783236], [-60.083513, -2.782476], [-60.08345, -2.782133], [-60.083444, -2.781603], [-60.083378, -2.780939], [-60.083288, -2.780234], [-60.083036, -2.779619], [-60.082838, -2.778986], [-60.082613, -2.778606], [-60.082433, -2.778063], [-60.082208, -2.777448], [-60.082136, -2.777005], [-60.081984, -2.776752], [-60.081687, -2.776779], [-60.081336, -2.776508], [-60.081217, -2.776028], [-60.080923, -2.776141], [-60.07265, -2.77931]]]}, "properties": {"address": "RAM RAINHA DOS APOSTOLO, 0"}},
{"type": "Feature", "geometry": {"type": "Polygon", "coordinates": [[[-60.082302, -2.774361], [-60.083728, -2.778553], [-60.10016, -2.777233], [-60.099933, -2.773585], [-60.082302, -2.774361]]]}, "properties": {"address": "RAM RAINHA DOS APOSTOLO, 0"}},
{"type": "Feature", "geometry": {"type": "Polygon", "coordinates": [[[-60.077754, -2.7693], [-60.077776, -2.769526], [-60.078203, -2.770136], [-60.078068, -2.770701], [-60.078091, -2.771492], [-60.078405, -2.771944], [-60.082967, -2.771311], [-60.083304, -2.770926], [-60.083079, -2.770565], [-60.082608, -2.770339], [-60.082383, -2.769932], [-60.082225, -2.76939], [-60.08218, -2.768396], [-60.082113, -2.767537], [-60.077754, -2.7693]]]}, "properties": {"address": "RAM RAINHA DOS APOSTOLO, 0"}},
{"type": "Feature", "geometry": {"type": "Polygon", "coordinates": [[[-60.044622, -2.764098], [-60.044627, -2.764719], [-60.045072, -2.76472], [-60.045071, -2.764097], [-60.044622, -2.764098]]]}, "properties": {"address": "ROD BR 174, 0"}},
{"type": "Feature", "geometry": {"type": "Polygon", "coordinates": [[[-60.050891, -2.722333], [-60.051241, -2.722387], [-60.051295, -2.721975], [-60.050946, -2.721921], [-60.050891, -2.722333]]]}, "properties": {"address": "ROD BR 174, 0"}},
{"type": "Feature", "geometry": {"type": "Polygon", "coordinates": [[[-59.886076, -2.751952], [-59.88929, -2.752978], [-59.891435, -2.744533], [-59.890907, -2.743365], [-59.890801, -2.74209], [-59.890907, -2.740604], [-59.891013, -2.738799], [-59.891118, -2.737206], [-59.891013, -2.735932], [-59.890168, -2.734339], [-59.886076, -2.751952]]]}, "properties": {"address": "AVN TORQUATO TAPAJÓS, 0"}},
{"type": "Feature", "geometry": {"type": "Polygon", "coordinates": [[[-60.039592, -2.764013], [-60.039303, -2.764007], [-60.039235, -2.76484], [-60.039486, -2.764843], [-60.039592, -2.764013]]]}, "properties": {"address": "ROD BR 174, 0"}}]}
