{"type":"FeatureCollection","features":[{"type":"Feature","geometry":{"type":"MultiPolygon","coordinates":[[[[-35.28925,-5.75783],[-35.28927,-5.75772],[-35.28969,-5.75431],[-35.28979,-5.75353],[-35.2898,-5.75336],[-35.2898,-5.75325],[-35.2905,-5.74719],[-35.29083,-5.74428],[-35.29137,-5.73962],[-35.2922,-5.73282],[-35.29221,-5.73275],[-35.29223,-5.73227],[-35.29223,-5.73211],[-35.29218,-5.73164],[-35.29216,-5.73152],[-35.29209,-5.7312],[-35.29206,-5.7311],[-35.29197,-5.73083],[-35.29194,-5.73076],[-35.2918,-5.73042],[-35.29174,-5.73031],[-35.29156,-5.73],[-35.29148,-5.72987],[-35.29125,-5.72959],[-35.2912,-5.72953],[-35.29091,-5.72923],[-35.29084,-5.72916],[-35.28924,-5.72779],[-35.28922,-5.72777],[-35.28809,-5.72684],[-35.28809,-5.75684],[-35.28809,-5.76266],[-35.28925,-5.75783]]],[[[-35.2881,-5.76322],[-35.28811,-5.76304],[-35.28809,-5.76287],[-35.28809,-5.76326],[-35.2881,-5.76322]]],[[[-35.27224,-5.71224],[-35.27222,-5.71221],[-35.27207,-5.71203],[-35.27206,-5.71202],[-35.27116,-5.71094],[-35.27112,-5.71088],[-35.2711,-5.71086],[-35.27052,-5.71014],[-35.2705,-5.71012],[-35.27004,-5.70959],[-35.26927,-5.70865],[-35.26888,-5.70813],[-35.26869,-5.70786],[-35.26828,-5.70725],[-35.2678,-5.70645],[-35.26731,-5.70547],[-35.26729,-5.7054],[-35.26729,-5.70538],[-35.26726,-5.70528],[-35.26721,-5.70516],[-35.2667,-5.70406],[-35.26662,-5.70389],[-35.26661,-5.70386],[-35.26637,-5.70338],[-35.26629,-5.70321],[-35.26623,-5.70306],[-35.2662,-5.703],[-35.2661,-5.70278],[-35.26607,-5.70273],[-35.26596,-5.70254],[-35.26596,-5.70253],[-35.26586,-5.70237],[-35.26583,-5.70231],[-35.26573,-5.70214],[-35.26559,-5.70199],[-35.26543,-5.70187],[-35.26525,-5.70179],[-35.26505,-5.70175],[-35.26485,-5.70174],[-35.26465,-5.70178],[-35.26446,-5.70185],[-35.26301,-5.70261],[-35.26286,-5.70272],[-35.2618,-5.70355],[-35.26175,-5.7036],[-35.26069,-5.70456],[-35.26028,-5.70486],[-35.26012,-5.705],[-35.25956,-5.70562],[-35.25924,-5.70589],[-35.25888,-5.70611],[-35.25866,-5.70628],[-35.25838,-5.70658],[-35.25806,-5.70682],[-35.25803,-5.70685],[-35.25753,-5.70725],[-35.25748,-5.7073],[-35.25676,-5.70797],[-35.25637,-5.70832],[-35.25617,-5.70842],[-35.25614,-5.70843],[-35.25563,-5.7087],[-35.25474,-5.70916],[-35.25459,-5.70922],[-35.25431,-5.70915],[-35.25418,-5.70913],[-35.25379,-5.70909],[-35.2535,-5.709],[-35.25331,-5.70896],[-35.25287,-5.70891],[-35.25265,-5.70891],[-35.25244,-5.70896],[-35.25214,-5.70906],[-35.25202,-5.70911],[-35.25181,-5.70907],[-35.2512,-5.7089],[-35.25101,-5.70886],[-35.25083,-5.70887],[-35.25064,-5.7089],[-35.25028,-5.70901],[-35.24962,-5.7092],[-35.2494,-5.7093],[-35.2487,-5.7097],[-35.24865,-5.70973],[-35.24792,-5.71021],[-35.24783,-5.71027],[-35.24755,-5.7105],[-35.2475,-5.71056],[-35.24738,-5.71067],[-35.24715,-5.7107],[-35.24692,-5.71075],[-35.24654,-5.71089],[-35.24639,-5.71096],[-35.24625,-5.71105],[-35.24613,-5.71116],[-35.24591,-5.71142],[-35.24582,-5.71153],[-35.24574,-5.71167],[-35.24558,-5.71202],[-35.24551,-5.71224],[-35.24549,-5.71246],[-35.24552,-5.71268],[-35.24557,-5.71289],[-35.27273,-5.71289],[-35.27224,-5.71224]]],[[[-35.2002,-5.75684],[-35.2002,-5.75075],[-35.20013,-5.75073],[-35.20012,-5.75073],[-35.20001,-5.7506],[-35.19984,-5.75047],[-35.19973,-5.7504],[-35.19953,-5.75031],[-35.19938,-5.75028],[-35.19936,-5.75023],[-35.19924,-5.7501],[-35.1991,-5.74998],[-35.19894,-5.7499],[-35.19884,-5.74986],[-35.19866,-5.7498],[-35.19853,-5.74978],[-35.19852,-5.74976],[-35.19838,-5.74962],[-35.19822,-5.7495],[-35.19803,-5.74943],[-35.19794,-5.7494],[-35.19775,-5.74936],[-35.19756,-5.74935],[-35.19746,-5.74937],[-35.19736,-5.74932],[-35.1972,-5.74928],[-35.19707,-5.74926],[-35.19686,-5.74924],[-35.19666,-5.74927],[-35.19646,-5.74934],[-35.19638,-5.74938],[-35.1963,-5.74943],[-35.19506,-5.74991],[-35.19428,-5.7502],[-35.19413,-5.75027],[-35.19399,-5.75037],[-35.19387,-5.75049],[-35.19385,-5.75052],[-35.19382,-5.75054],[-35.19367,-5.75066],[-35.19355,-5.75082],[-35.19346,-5.75099],[-35.19341,-5.75118],[-35.1934,-5.75138],[-35.1934,-5.75153],[-35.19343,-5.75174],[-35.1935,-5.75195],[-35.19353,-5.75201],[-35.19351,-5.75223],[-35.1935,-5.75236],[-35.19352,-5.75278],[-35.19355,-5.75301],[-35.19357,-5.75308],[-35.19355,-5.75338],[-35.19355,-5.75352],[-35.19361,-5.75442],[-35.19358,-5.75446],[-35.19351,-5.75462],[-35.19339,-5.75491],[-35.19334,-5.7551],[-35.19333,-5.75529],[-35.19333,-5.75583],[-35.19332,-5.75596],[-35.19331,-5.75599],[-35.19324,-5.75618],[-35.19321,-5.75639],[-35.19322,-5.7566],[-35.19328,-5.7568],[-35.1933,-5.75684],[-35.2002,-5.75684]]]]},"properties":{"ghs":"7ny","size":0.08,"ghs_len":3,"ghs_area":3.45,"ghs_bytes":17884,"ghs_items":85,"size_unit":"km2","ghsval_unit":"bytes","ghs_itemsdensity":24.62,"size_unitdensity":0.02}},{"type":"Feature","geometry":{"type":"MultiPolygon","coordinates":[[[[-35.2002,-5.83923],[-35.2002,-5.82825],[-35.2002,-5.82275],[-35.2002,-5.81726],[-35.2002,-5.81177],[-35.2002,-5.80627],[-35.2002,-5.80078],[-35.17911,-5.80078],[-35.17933,-5.80191],[-35.17951,-5.80283],[-35.17936,-5.80393],[-35.17935,-5.80418],[-35.17942,-5.80482],[-35.17974,-5.80802],[-35.17974,-5.80804],[-35.17991,-5.80944],[-35.18001,-5.81038],[-35.18001,-5.81079],[-35.18002,-5.81094],[-35.18005,-5.81108],[-35.18012,-5.81128],[-35.18011,-5.81174],[-35.18011,-5.81179],[-35.18013,-5.81228],[-35.18012,-5.81276],[-35.18012,-5.8128],[-35.18014,-5.81418],[-35.18014,-5.81422],[-35.1802,-5.8154],[-35.1802,-5.81542],[-35.18024,-5.81593],[-35.18024,-5.81598],[-35.18035,-5.81687],[-35.18021,-5.81816],[-35.18021,-5.81832],[-35.18022,-5.81853],[-35.18023,-5.8186],[-35.18035,-5.81961],[-35.18038,-5.82028],[-35.18044,-5.82266],[-35.18044,-5.82273],[-35.18064,-5.82498],[-35.18038,-5.827],[-35.18037,-5.82714],[-35.18039,-5.82942],[-35.18038,-5.8295],[-35.18017,-5.83034],[-35.18015,-5.83057],[-35.18017,-5.8308],[-35.18036,-5.83165],[-35.18036,-5.83336],[-35.18036,-5.83337],[-35.18038,-5.8358],[-35.18038,-5.83584],[-35.18046,-5.8374],[-35.18017,-5.83855],[-35.17985,-5.83887],[-35.17971,-5.83903],[-35.17962,-5.83922],[-35.17957,-5.83943],[-35.17956,-5.83964],[-35.1796,-5.84033],[-35.17958,-5.84039],[-35.17956,-5.84058],[-35.17957,-5.84077],[-35.17991,-5.84278],[-35.17991,-5.84283],[-35.17989,-5.84473],[-35.2002,-5.84473],[-35.2002,-5.83923]]],[[[-35.17514,-5.90117],[-35.17517,-5.90118],[-35.17588,-5.90121],[-35.1761,-5.9012],[-35.1763,-5.90114],[-35.17649,-5.90104],[-35.18073,-5.89812],[-35.18076,-5.89811],[-35.18921,-5.89188],[-35.18949,-5.8917],[-35.18961,-5.89161],[-35.18966,-5.89156],[-35.19031,-5.89106],[-35.19058,-5.89085],[-35.19077,-5.89071],[-35.19077,-5.8907],[-35.19122,-5.89035],[-35.19168,-5.89],[-35.19216,-5.88964],[-35.19219,-5.88961],[-35.19264,-5.88925],[-35.19271,-5.88919],[-35.19284,-5.88907],[-35.19317,-5.88882],[-35.19337,-5.88867],[-35.17822,-5.88867],[-35.16724,-5.88867],[-35.15625,-5.88867],[-35.15625,-5.89983],[-35.17514,-5.90117]]]]},"properties":{"ghs":"7nyy","size":0.66,"ghs_len":4,"ghs_area":15.08,"ghs_bytes":1398065,"ghs_items":5600,"size_unit":"km2","ghsval_unit":"bytes","ghs_itemsdensity":371.46,"size_unitdensity":0.04}},{"type":"Feature","geometry":{"type":"Polygon","coordinates":[[[-35.24414,-5.79529],[-35.23315,-5.79529],[-35.23315,-5.80078],[-35.24414,-5.80078],[-35.24414,-5.79529]]]},"properties":{"ghs":"7nyzn0","size":0.28,"ghs_len":6,"ghs_area":0.74,"ghs_bytes":776090,"ghs_items":3416,"size_unit":"km2","ghsval_unit":"bytes","ghs_itemsdensity":4621.53,"size_unitdensity":0.38}},{"type":"Feature","geometry":{"type":"Polygon","coordinates":[[[-35.25513,-5.72388],[-35.24414,-5.72388],[-35.24414,-5.72937],[-35.25513,-5.72937],[-35.25513,-5.72388]]]},"properties":{"ghs":"7nyzmv","size":0.21,"ghs_len":6,"ghs_area":0.74,"ghs_bytes":546273,"ghs_items":2153,"size_unit":"km2","ghsval_unit":"bytes","ghs_itemsdensity":2912.45,"size_unitdensity":0.29}},{"type":"Feature","geometry":{"type":"Polygon","coordinates":[[[-35.2002,-5.75684],[-35.24414,-5.75684],[-35.24414,-5.75134],[-35.23315,-5.75134],[-35.23315,-5.74585],[-35.23315,-5.74036],[-35.23315,-5.73486],[-35.23315,-5.72937],[-35.24414,-5.72937],[-35.24414,-5.72388],[-35.24414,-5.71428],[-35.24395,-5.71441],[-35.24382,-5.7145],[-35.24345,-5.71484],[-35.24314,-5.71509],[-35.24303,-5.71519],[-35.24275,-5.7155],[-35.24268,-5.71558],[-35.24263,-5.71564],[-35.24259,-5.71561],[-35.24251,-5.71557],[-35.24243,-5.71551],[-35.2423,-5.7154],[-35.24211,-5.71529],[-35.2419,-5.71522],[-35.24169,-5.7152],[-35.24141,-5.71521],[-35.24127,-5.71522],[-35.24084,-5.71528],[-35.24064,-5.71511],[-35.24055,-5.71505],[-35.24017,-5.71479],[-35.24015,-5.71473],[-35.24008,-5.71456],[-35.23998,-5.71441],[-35.23985,-5.71428],[-35.2397,-5.71418],[-35.23954,-5.71409],[-35.23933,-5.71401],[-35.2391,-5.71397],[-35.23903,-5.71396],[-35.23852,-5.71361],[-35.23828,-5.71348],[-35.23811,-5.71342],[-35.23792,-5.71337],[-35.23773,-5.71336],[-35.23754,-5.71339],[-35.23733,-5.71343],[-35.23713,-5.71351],[-35.23695,-5.71362],[-35.23667,-5.71383],[-35.2365,-5.71401],[-35.23632,-5.71423],[-35.23625,-5.71428],[-35.23612,-5.71439],[-35.23581,-5.71469],[-35.23578,-5.71472],[-35.2356,-5.71492],[-35.2351,-5.71528],[-35.23503,-5.71534],[-35.23466,-5.71566],[-35.23464,-5.71567],[-35.23449,-5.71581],[-35.23437,-5.71587],[-35.23414,-5.71593],[-35.23395,-5.716],[-35.23377,-5.71611],[-35.23367,-5.71619],[-35.23353,-5.71633],[-35.23341,-5.71648],[-35.23333,-5.71666],[-35.23306,-5.71748],[-35.2328,-5.71818],[-35.23277,-5.71822],[-35.23275,-5.71823],[-35.23259,-5.71837],[-35.23247,-5.71854],[-35.23236,-5.71871],[-35.23234,-5.71875],[-35.23225,-5.71892],[-35.23217,-5.71912],[-35.23217,-5.71912],[-35.23209,-5.71913],[-35.23191,-5.71919],[-35.23174,-5.71929],[-35.23165,-5.71935],[-35.2315,-5.71949],[-35.23137,-5.71966],[-35.23129,-5.71984],[-35.23124,-5.72005],[-35.23124,-5.72011],[-35.23119,-5.72013],[-35.23102,-5.7202],[-35.23086,-5.72031],[-35.23078,-5.7204],[-35.23069,-5.72047],[-35.23055,-5.7206],[-35.23044,-5.72076],[-35.2304,-5.72082],[-35.23035,-5.72084],[-35.23018,-5.72096],[-35.23003,-5.72111],[-35.22987,-5.72131],[-35.22978,-5.72144],[-35.22971,-5.72158],[-35.22966,-5.72174],[-35.2295,-5.72194],[-35.2294,-5.72212],[-35.22932,-5.72229],[-35.22928,-5.72242],[-35.22908,-5.72249],[-35.22897,-5.7225],[-35.22882,-5.72252],[-35.22867,-5.72257],[-35.22847,-5.72266],[-35.22842,-5.72268],[-35.22822,-5.72277],[-35.22808,-5.72286],[-35.22796,-5.72296],[-35.22787,-5.72304],[-35.22782,-5.72307],[-35.22765,-5.72319],[-35.2275,-5.72334],[-35.22746,-5.7234],[-35.22743,-5.72342],[-35.22737,-5.72347],[-35.22729,-5.72352],[-35.22715,-5.72363],[-35.22702,-5.72375],[-35.227,-5.72379],[-35.2268,-5.72388],[-35.22663,-5.72401],[-35.22649,-5.72418],[-35.22639,-5.72437],[-35.22634,-5.72449],[-35.2263,-5.72463],[-35.22628,-5.72472],[-35.22621,-5.72501],[-35.22619,-5.72512],[-35.22612,-5.72513],[-35.22606,-5.72515],[-35.22604,-5.72515],[-35.2258,-5.72521],[-35.22571,-5.72525],[-35.22553,-5.72534],[-35.22538,-5.72546],[-35.22525,-5.72561],[-35.22515,-5.72578],[-35.22509,-5.72596],[-35.22507,-5.72616],[-35.22507,-5.72624],[-35.225,-5.72631],[-35.2249,-5.72645],[-35.22486,-5.72653],[-35.22482,-5.72661],[-35.22478,-5.72668],[-35.22472,-5.72688],[-35.22469,-5.72708],[-35.22471,-5.72729],[-35.22477,-5.72748],[-35.22487,-5.72766],[-35.225,-5.72782],[-35.22501,-5.72782],[-35.21287,-5.73814],[-35.21286,-5.73815],[-35.21246,-5.7385],[-35.21243,-5.73853],[-35.2121,-5.73884],[-35.21187,-5.73906],[-35.21141,-5.73949],[-35.21122,-5.73965],[-35.21113,-5.73973],[-35.211,-5.73986],[-35.21082,-5.74003],[-35.21074,-5.7401],[-35.21055,-5.74025],[-35.21023,-5.74048],[-35.21015,-5.74054],[-35.20986,-5.7408],[-35.20978,-5.74071],[-35.20974,-5.74067],[-35.20954,-5.74046],[-35.20937,-5.74027],[-35.20934,-5.74024],[-35.20909,-5.73999],[-35.20908,-5.73998],[-35.20868,-5.73959],[-35.20865,-5.73956],[-35.20851,-5.73942],[-35.20835,-5.73932],[-35.20817,-5.73925],[-35.20798,-5.73921],[-35.20779,-5.73922],[-35.2076,-5.73925],[-35.20742,-5.73933],[-35.20658,-5.73977],[-35.20658,-5.73978],[-35.20622,-5.73997],[-35.20616,-5.74],[-35.20595,-5.74014],[-35.20587,-5.74019],[-35.20582,-5.74022],[-35.20575,-5.74027],[-35.20556,-5.74045],[-35.2055,-5.74052],[-35.2054,-5.74068],[-35.20533,-5.7408],[-35.20493,-5.74153],[-35.20364,-5.74153],[-35.20345,-5.74155],[-35.20327,-5.7416],[-35.2031,-5.74168],[-35.20295,-5.7418],[-35.20283,-5.74194],[-35.20273,-5.7421],[-35.20267,-5.74228],[-35.20264,-5.74247],[-35.2026,-5.74315],[-35.2026,-5.74322],[-35.20262,-5.74488],[-35.20237,-5.74854],[-35.20182,-5.7497],[-35.20098,-5.75067],[-35.20067,-5.75095],[-35.20065,-5.75094],[-35.20046,-5.75084],[-35.20034,-5.75079],[-35.2002,-5.75075],[-35.2002,-5.75684]]]},"properties":{"ghs":"7nyzq","size":1.01,"ghs_len":5,"ghs_area":12.03,"ghs_bytes":2883357,"ghs_items":12590,"size_unit":"km2","ghsval_unit":"bytes","ghs_itemsdensity":1046.25,"size_unitdensity":0.08}},{"type":"Feature","geometry":{"type":"Polygon","coordinates":[[[-35.2002,-5.80078],[-35.2002,-5.78979],[-35.18921,-5.78979],[-35.18921,-5.7843],[-35.2002,-5.7843],[-35.2002,-5.75684],[-35.1933,-5.75684],[-35.19333,-5.75689],[-35.19333,-5.75692],[-35.19339,-5.75709],[-35.19343,-5.75721],[-35.19364,-5.76097],[-35.19362,-5.76137],[-35.19364,-5.76159],[-35.1937,-5.76179],[-35.1938,-5.76198],[-35.19394,-5.76214],[-35.1943,-5.76248],[-35.19443,-5.76259],[-35.19458,-5.76267],[-35.19474,-5.76274],[-35.1948,-5.76285],[-35.19486,-5.76293],[-35.19486,-5.76295],[-35.19485,-5.76309],[-35.19481,-5.76316],[-35.19479,-5.7632],[-35.19452,-5.76337],[-35.19437,-5.76349],[-35.19424,-5.76364],[-35.19415,-5.76381],[-35.19409,-5.76399],[-35.19403,-5.76426],[-35.194,-5.76447],[-35.19402,-5.76467],[-35.19408,-5.76487],[-35.19457,-5.76605],[-35.19451,-5.76762],[-35.19451,-5.76775],[-35.19428,-5.769],[-35.19396,-5.76957],[-35.19388,-5.76977],[-35.19384,-5.76998],[-35.19385,-5.77019],[-35.1939,-5.7704],[-35.19396,-5.77058],[-35.19391,-5.77071],[-35.19385,-5.7709],[-35.19383,-5.77111],[-35.19383,-5.77153],[-35.19369,-5.77205],[-35.19367,-5.77215],[-35.19359,-5.77263],[-35.1934,-5.77297],[-35.19307,-5.77335],[-35.19297,-5.77349],[-35.19289,-5.77365],[-35.19285,-5.77382],[-35.19283,-5.77399],[-35.1928,-5.77612],[-35.19273,-5.77619],[-35.19262,-5.77631],[-35.19252,-5.77646],[-35.19244,-5.77662],[-35.19239,-5.7768],[-35.19238,-5.77699],[-35.1924,-5.77717],[-35.19249,-5.7776],[-35.1925,-5.7777],[-35.19246,-5.77781],[-35.1924,-5.778],[-35.19239,-5.77819],[-35.19239,-5.77878],[-35.19223,-5.77933],[-35.1922,-5.7795],[-35.19217,-5.7798],[-35.19217,-5.77989],[-35.19216,-5.78003],[-35.19205,-5.78073],[-35.19188,-5.78131],[-35.19181,-5.78143],[-35.19148,-5.78183],[-35.19142,-5.78187],[-35.19138,-5.78186],[-35.19122,-5.78174],[-35.19103,-5.78163],[-35.19082,-5.78156],[-35.1906,-5.78153],[-35.19041,-5.78154],[-35.19023,-5.78155],[-35.19005,-5.7816],[-35.18989,-5.78169],[-35.18974,-5.7818],[-35.18962,-5.78193],[-35.18931,-5.78235],[-35.18919,-5.78251],[-35.18907,-5.78272],[-35.18901,-5.78292],[-35.18882,-5.78309],[-35.18808,-5.7838],[-35.18793,-5.78398],[-35.18783,-5.7842],[-35.18779,-5.78431],[-35.18774,-5.78452],[-35.18774,-5.78473],[-35.18778,-5.78493],[-35.18786,-5.78513],[-35.18798,-5.7853],[-35.18814,-5.78544],[-35.18817,-5.78547],[-35.18834,-5.78557],[-35.18851,-5.78563],[-35.18854,-5.78563],[-35.18854,-5.78566],[-35.18853,-5.78578],[-35.18838,-5.78601],[-35.18835,-5.78605],[-35.18831,-5.78613],[-35.18823,-5.78608],[-35.18803,-5.78601],[-35.18782,-5.78598],[-35.18774,-5.78597],[-35.18754,-5.78598],[-35.18735,-5.78603],[-35.18717,-5.78612],[-35.18702,-5.78624],[-35.18688,-5.78638],[-35.18678,-5.78655],[-35.18672,-5.78674],[-35.18669,-5.78694],[-35.18671,-5.78713],[-35.18672,-5.78721],[-35.18676,-5.78738],[-35.18684,-5.78755],[-35.18695,-5.78769],[-35.18708,-5.78782],[-35.18753,-5.78818],[-35.18746,-5.78831],[-35.18687,-5.7893],[-35.18648,-5.78982],[-35.18646,-5.78982],[-35.18627,-5.7898],[-35.18595,-5.78954],[-35.18577,-5.78943],[-35.18558,-5.78936],[-35.18543,-5.78932],[-35.18523,-5.78928],[-35.18503,-5.78929],[-35.18483,-5.78934],[-35.18465,-5.78943],[-35.18449,-5.78955],[-35.18435,-5.7897],[-35.18425,-5.78988],[-35.18419,-5.79007],[-35.18417,-5.79027],[-35.18419,-5.79047],[-35.18425,-5.79067],[-35.18429,-5.79077],[-35.1844,-5.79097],[-35.18457,-5.79115],[-35.18473,-5.79129],[-35.18465,-5.79148],[-35.18424,-5.79187],[-35.18415,-5.79185],[-35.18329,-5.79168],[-35.18311,-5.79166],[-35.18293,-5.79168],[-35.18275,-5.79173],[-35.18195,-5.79203],[-35.18177,-5.79212],[-35.18161,-5.79224],[-35.18148,-5.7924],[-35.18138,-5.79257],[-35.18132,-5.79277],[-35.18104,-5.79419],[-35.18089,-5.79487],[-35.18088,-5.79493],[-35.18055,-5.79707],[-35.18031,-5.79746],[-35.18021,-5.79754],[-35.17982,-5.79764],[-35.17966,-5.7977],[-35.1795,-5.79779],[-35.17937,-5.7979],[-35.17897,-5.79829],[-35.17885,-5.79843],[-35.17876,-5.79859],[-35.1787,-5.79877],[-35.17868,-5.79895],[-35.17869,-5.79914],[-35.17873,-5.79932],[-35.1788,-5.79949],[-35.17888,-5.79963],[-35.17911,-5.80078],[-35.2002,-5.80078]]]},"properties":{"ghs":"7nyzp","size":1.02,"ghs_len":5,"ghs_area":5.14,"ghs_bytes":2597523,"ghs_items":10499,"size_unit":"km2","ghsval_unit":"bytes","ghs_itemsdensity":2044.45,"size_unitdensity":0.2}},{"type":"Feature","geometry":{"type":"MultiPolygon","coordinates":[[[[-35.22217,-5.78979],[-35.22217,-5.79529],[-35.23315,-5.79529],[-35.24414,-5.79529],[-35.24414,-5.75684],[-35.2002,-5.75684],[-35.2002,-5.7843],[-35.21118,-5.7843],[-35.21118,-5.78979],[-35.22217,-5.78979]]],[[[-35.2002,-5.78979],[-35.2002,-5.80078],[-35.21118,-5.80078],[-35.21118,-5.79529],[-35.21118,-5.78979],[-35.2002,-5.78979]]]]},"properties":{"ghs":"7nyzn","size":1.36,"ghs_len":5,"ghs_area":19.96,"ghs_bytes":2839401,"ghs_items":11145,"size_unit":"km2","ghsval_unit":"bytes","ghs_itemsdensity":558.43,"size_unitdensity":0.07}},{"type":"Feature","geometry":{"type":"Polygon","coordinates":[[[-35.24414,-5.72388],[-35.25513,-5.72388],[-35.25513,-5.72937],[-35.26611,-5.72937],[-35.26611,-5.73486],[-35.26611,-5.74036],[-35.2771,-5.74036],[-35.2771,-5.74585],[-35.2771,-5.75134],[-35.2771,-5.75684],[-35.28809,-5.75684],[-35.28809,-5.72684],[-35.28759,-5.72644],[-35.28747,-5.72635],[-35.287,-5.72607],[-35.28692,-5.72603],[-35.28317,-5.72421],[-35.28317,-5.72421],[-35.28016,-5.72276],[-35.28001,-5.7227],[-35.27985,-5.72267],[-35.27985,-5.72267],[-35.27912,-5.72233],[-35.27883,-5.72217],[-35.27881,-5.72217],[-35.27859,-5.72205],[-35.27854,-5.72202],[-35.27823,-5.72182],[-35.27814,-5.72175],[-35.27803,-5.72165],[-35.27791,-5.72157],[-35.27778,-5.72148],[-35.27764,-5.72137],[-35.27729,-5.72105],[-35.27699,-5.72068],[-35.27679,-5.72044],[-35.27648,-5.71997],[-35.27628,-5.71962],[-35.2761,-5.71928],[-35.27547,-5.71792],[-35.27468,-5.71618],[-35.27466,-5.71614],[-35.27411,-5.71503],[-35.27408,-5.71497],[-35.27381,-5.71452],[-35.2738,-5.71449],[-35.27338,-5.71381],[-35.27336,-5.71379],[-35.27319,-5.71353],[-35.27318,-5.71352],[-35.27291,-5.71312],[-35.27288,-5.71308],[-35.27273,-5.71289],[-35.24557,-5.71289],[-35.24558,-5.71291],[-35.24564,-5.71314],[-35.24528,-5.71339],[-35.24518,-5.71346],[-35.2446,-5.71399],[-35.24414,-5.71428],[-35.24414,-5.72388]]]},"properties":{"ghs":"7nyzm","size":1,"ghs_len":5,"ghs_area":11.6,"ghs_bytes":2619663,"ghs_items":11203,"size_unit":"km2","ghsval_unit":"bytes","ghs_itemsdensity":966.08,"size_unitdensity":0.09}},{"type":"Feature","geometry":{"type":"Polygon","coordinates":[[[-35.28809,-5.76287],[-35.28808,-5.76286],[-35.28806,-5.76276],[-35.28809,-5.76266],[-35.28809,-5.75684],[-35.2771,-5.75684],[-35.26611,-5.75684],[-35.25513,-5.75684],[-35.24414,-5.75684],[-35.24414,-5.79529],[-35.24414,-5.80078],[-35.25455,-5.80078],[-35.25404,-5.79914],[-35.25392,-5.79889],[-35.25324,-5.79783],[-35.25307,-5.79681],[-35.25268,-5.79436],[-35.25278,-5.79121],[-35.25276,-5.79097],[-35.25221,-5.78837],[-35.25208,-5.78775],[-35.25201,-5.78754],[-35.25092,-5.78515],[-35.25088,-5.78508],[-35.24966,-5.78291],[-35.24952,-5.78272],[-35.24867,-5.78182],[-35.24875,-5.78163],[-35.24938,-5.78005],[-35.24988,-5.77882],[-35.24996,-5.77862],[-35.25002,-5.77851],[-35.25023,-5.77827],[-35.25044,-5.77811],[-35.25066,-5.778],[-35.25133,-5.77771],[-35.25138,-5.77768],[-35.25213,-5.77731],[-35.25305,-5.77694],[-35.25369,-5.77671],[-35.25533,-5.7762],[-35.25537,-5.77618],[-35.25759,-5.77537],[-35.2576,-5.77537],[-35.26156,-5.7739],[-35.26314,-5.77332],[-35.25513,-5.77332],[-35.25513,-5.76782],[-35.25513,-5.76233],[-35.26611,-5.76233],[-35.26611,-5.76782],[-35.26611,-5.77221],[-35.26702,-5.77187],[-35.2675,-5.77171],[-35.2675,-5.7717],[-35.26815,-5.77148],[-35.2682,-5.77146],[-35.26878,-5.77123],[-35.27463,-5.76903],[-35.27475,-5.76899],[-35.27477,-5.76898],[-35.27603,-5.76848],[-35.27772,-5.76781],[-35.28005,-5.76694],[-35.28008,-5.76693],[-35.28008,-5.76693],[-35.28017,-5.76689],[-35.2832,-5.76575],[-35.28426,-5.76536],[-35.28428,-5.76535],[-35.28697,-5.76428],[-35.28708,-5.76423],[-35.28746,-5.76402],[-35.28759,-5.76395],[-35.28774,-5.76384],[-35.28787,-5.76372],[-35.28798,-5.76357],[-35.28805,-5.7634],[-35.28809,-5.76326],[-35.28809,-5.76287]]]},"properties":{"ghs":"7nyzj","size":1.11,"ghs_len":5,"ghs_area":8.84,"ghs_bytes":2971253,"ghs_items":12433,"size_unit":"km2","ghsval_unit":"bytes","ghs_itemsdensity":1407.06,"size_unitdensity":0.13}},{"type":"Feature","geometry":{"type":"MultiPolygon","coordinates":[[[[-35.22217,-5.83923],[-35.22217,-5.84473],[-35.24414,-5.84473],[-35.24414,-5.83374],[-35.23315,-5.83374],[-35.22217,-5.83374],[-35.22217,-5.83923]]],[[[-35.24414,-5.82275],[-35.24414,-5.81726],[-35.23315,-5.81726],[-35.23315,-5.82275],[-35.24414,-5.82275]]],[[[-35.22217,-5.82825],[-35.23315,-5.82825],[-35.23315,-5.82275],[-35.22217,-5.82275],[-35.22217,-5.81726],[-35.21118,-5.81726],[-35.21118,-5.82275],[-35.21118,-5.82825],[-35.2002,-5.82825],[-35.2002,-5.83923],[-35.21118,-5.83923],[-35.21118,-5.83374],[-35.22217,-5.83374],[-35.22217,-5.82825]]]]},"properties":{"ghs":"7nyyy","size":1.53,"ghs_len":5,"ghs_area":8.13,"ghs_bytes":2845501,"ghs_items":10267,"size_unit":"km2","ghsval_unit":"bytes","ghs_itemsdensity":1262.82,"size_unitdensity":0.19}},{"type":"Feature","geometry":{"type":"Polygon","coordinates":[[[-35.2002,-5.87769],[-35.2002,-5.87219],[-35.2002,-5.8667],[-35.2002,-5.86121],[-35.2002,-5.85571],[-35.2002,-5.85022],[-35.2002,-5.84473],[-35.17989,-5.84473],[-35.17985,-5.8478],[-35.17985,-5.84782],[-35.17985,-5.85354],[-35.1796,-5.85564],[-35.1796,-5.8557],[-35.17931,-5.8605],[-35.17902,-5.86242],[-35.17876,-5.86371],[-35.17848,-5.86492],[-35.17847,-5.86495],[-35.17819,-5.86638],[-35.17796,-5.86727],[-35.17766,-5.86816],[-35.17722,-5.86947],[-35.17665,-5.871],[-35.176,-5.87236],[-35.17599,-5.87236],[-35.17526,-5.87388],[-35.17471,-5.8748],[-35.17466,-5.87489],[-35.17435,-5.87555],[-35.17381,-5.87648],[-35.17326,-5.8773],[-35.17309,-5.87749],[-35.173,-5.87761],[-35.17253,-5.87832],[-35.17187,-5.87904],[-35.17099,-5.87999],[-35.17043,-5.8805],[-35.16981,-5.88099],[-35.16938,-5.88132],[-35.16877,-5.88179],[-35.16842,-5.88199],[-35.16763,-5.88237],[-35.16686,-5.88266],[-35.16637,-5.88277],[-35.16586,-5.88284],[-35.16552,-5.88282],[-35.16552,-5.88282],[-35.16556,-5.88263],[-35.16557,-5.88245],[-35.16554,-5.88226],[-35.16548,-5.88208],[-35.16545,-5.88201],[-35.16534,-5.88184],[-35.1652,-5.88168],[-35.16503,-5.88157],[-35.16495,-5.88153],[-35.16489,-5.88143],[-35.16477,-5.88128],[-35.16362,-5.88014],[-35.16348,-5.88003],[-35.16334,-5.87994],[-35.16317,-5.87988],[-35.16289,-5.87981],[-35.16269,-5.87951],[-35.16256,-5.87936],[-35.1623,-5.87911],[-35.16216,-5.879],[-35.16199,-5.87891],[-35.16181,-5.87885],[-35.16163,-5.87883],[-35.15983,-5.8788],[-35.15964,-5.87881],[-35.15945,-5.87887],[-35.15928,-5.87895],[-35.15843,-5.87949],[-35.15831,-5.87958],[-35.15767,-5.88013],[-35.15665,-5.88072],[-35.15627,-5.88087],[-35.15625,-5.88088],[-35.15625,-5.88867],[-35.16724,-5.88867],[-35.16724,-5.88318],[-35.17822,-5.88318],[-35.17822,-5.88867],[-35.19337,-5.88867],[-35.19373,-5.88841],[-35.19373,-5.8884],[-35.19426,-5.888],[-35.19427,-5.88799],[-35.19524,-5.88724],[-35.19524,-5.88723],[-35.2002,-5.8833],[-35.2002,-5.87769]]]},"properties":{"ghs":"7nyyx","size":1.35,"ghs_len":5,"ghs_area":13.25,"ghs_bytes":2903213,"ghs_items":10358,"size_unit":"km2","ghsval_unit":"bytes","ghs_itemsdensity":781.49,"size_unitdensity":0.1}},{"type":"Feature","geometry":{"type":"MultiPolygon","coordinates":[[[[-35.24414,-5.84473],[-35.22217,-5.84473],[-35.22217,-5.85022],[-35.21118,-5.85022],[-35.21118,-5.85571],[-35.21118,-5.86121],[-35.21118,-5.8667],[-35.21118,-5.87219],[-35.21118,-5.876],[-35.21133,-5.87593],[-35.21141,-5.87589],[-35.21182,-5.87568],[-35.21233,-5.87541],[-35.21284,-5.87515],[-35.21301,-5.87506],[-35.21302,-5.87506],[-35.21336,-5.87488],[-35.2134,-5.87486],[-35.21342,-5.87485],[-35.21358,-5.87474],[-35.21371,-5.8746],[-35.21381,-5.87444],[-35.21388,-5.87427],[-35.21392,-5.87408],[-35.21392,-5.8739],[-35.21388,-5.87371],[-35.21382,-5.87353],[-35.21338,-5.87266],[-35.21358,-5.87256],[-35.21361,-5.87255],[-35.21409,-5.87229],[-35.2146,-5.87202],[-35.21509,-5.87176],[-35.2156,-5.87151],[-35.21576,-5.8714],[-35.2159,-5.87127],[-35.21601,-5.87112],[-35.21609,-5.87095],[-35.21613,-5.87079],[-35.21688,-5.87034],[-35.21754,-5.86995],[-35.2186,-5.8722],[-35.21865,-5.8723],[-35.21913,-5.87307],[-35.21918,-5.87315],[-35.22088,-5.87545],[-35.22273,-5.87799],[-35.22373,-5.87952],[-35.22428,-5.88058],[-35.22438,-5.88074],[-35.22452,-5.88087],[-35.22467,-5.88098],[-35.22485,-5.88106],[-35.22503,-5.88111],[-35.22522,-5.88111],[-35.22541,-5.88108],[-35.22559,-5.88102],[-35.22575,-5.88092],[-35.2259,-5.8808],[-35.22592,-5.88076],[-35.22605,-5.88066],[-35.22606,-5.88066],[-35.22764,-5.87939],[-35.22766,-5.87937],[-35.22885,-5.87837],[-35.22966,-5.87772],[-35.23026,-5.87751],[-35.23169,-5.87726],[-35.23187,-5.87721],[-35.23203,-5.87713],[-35.23303,-5.87654],[-35.23308,-5.87651],[-35.23583,-5.87468],[-35.23595,-5.87458],[-35.23606,-5.87447],[-35.2376,-5.87252],[-35.23773,-5.87231],[-35.23817,-5.87132],[-35.23882,-5.87],[-35.24088,-5.86809],[-35.24343,-5.86637],[-35.24414,-5.86592],[-35.24414,-5.84473]],[[-35.23315,-5.87219],[-35.22217,-5.87219],[-35.22217,-5.8667],[-35.23315,-5.8667],[-35.23315,-5.87219]]],[[[-35.21118,-5.84473],[-35.2002,-5.84473],[-35.2002,-5.85022],[-35.21118,-5.85022],[-35.21118,-5.84473]]],[[[-35.20121,-5.8825],[-35.2013,-5.88246],[-35.20135,-5.88242],[-35.20146,-5.88235],[-35.20197,-5.88196],[-35.20219,-5.8818],[-35.2022,-5.8818],[-35.20253,-5.88156],[-35.20259,-5.88152],[-35.20314,-5.88108],[-35.20442,-5.88011],[-35.20522,-5.8795],[-35.20524,-5.87949],[-35.2053,-5.87944],[-35.20531,-5.87943],[-35.20532,-5.87942],[-35.20597,-5.87891],[-35.20696,-5.87814],[-35.20704,-5.87807],[-35.20741,-5.87779],[-35.20742,-5.87779],[-35.20755,-5.87769],[-35.2002,-5.87769],[-35.2002,-5.8833],[-35.20121,-5.8825]]]]},"properties":{"ghs":"7nyyw","size":1.25,"ghs_len":5,"ghs_area":11.48,"ghs_bytes":2610708,"ghs_items":9591,"size_unit":"km2","ghsval_unit":"bytes","ghs_itemsdensity":835.33,"size_unitdensity":0.11}},{"type":"Feature","geometry":{"type":"Polygon","coordinates":[[[-35.28356,-5.84378],[-35.28347,-5.84241],[-35.2835,-5.84155],[-35.28363,-5.84071],[-35.28364,-5.84067],[-35.28382,-5.83917],[-35.28383,-5.83898],[-35.28379,-5.83879],[-35.28372,-5.8386],[-35.28362,-5.83844],[-35.28348,-5.8383],[-35.28332,-5.83818],[-35.28315,-5.8381],[-35.28219,-5.83778],[-35.2821,-5.83711],[-35.282,-5.83558],[-35.28257,-5.83403],[-35.28261,-5.83388],[-35.28263,-5.83372],[-35.28271,-5.83182],[-35.28295,-5.83021],[-35.28296,-5.83007],[-35.28297,-5.82948],[-35.28297,-5.82944],[-35.28283,-5.82539],[-35.28283,-5.82533],[-35.28251,-5.82195],[-35.28247,-5.82176],[-35.2824,-5.82158],[-35.28169,-5.82023],[-35.28164,-5.82015],[-35.28108,-5.81927],[-35.28051,-5.81838],[-35.28039,-5.81823],[-35.28025,-5.81811],[-35.2801,-5.81801],[-35.27881,-5.8174],[-35.27862,-5.81733],[-35.27638,-5.81677],[-35.27505,-5.81616],[-35.2732,-5.81419],[-35.2731,-5.81409],[-35.27139,-5.8127],[-35.2712,-5.81258],[-35.26733,-5.81067],[-35.26713,-5.8106],[-35.26541,-5.81018],[-35.26344,-5.80965],[-35.26164,-5.80911],[-35.25911,-5.8076],[-35.25637,-5.80445],[-35.25611,-5.80399],[-35.25486,-5.80175],[-35.25455,-5.80078],[-35.24414,-5.80078],[-35.24414,-5.80627],[-35.24414,-5.81177],[-35.24414,-5.81726],[-35.24414,-5.82275],[-35.24414,-5.82825],[-35.24414,-5.83374],[-35.24414,-5.84473],[-35.28364,-5.84473],[-35.28356,-5.84378]]]},"properties":{"ghs":"7nyyv","size":0.89,"ghs_len":5,"ghs_area":16.96,"ghs_bytes":2848208,"ghs_items":12260,"size_unit":"km2","ghsval_unit":"bytes","ghs_itemsdensity":722.92,"size_unitdensity":0.05}},{"type":"Feature","geometry":{"type":"Polygon","coordinates":[[[-35.24415,-5.86592],[-35.24491,-5.86569],[-35.24503,-5.86565],[-35.24639,-5.86506],[-35.24782,-5.86474],[-35.24827,-5.86483],[-35.25007,-5.86569],[-35.25008,-5.8657],[-35.25318,-5.86713],[-35.25325,-5.86716],[-35.25348,-5.86724],[-35.25367,-5.86729],[-35.25387,-5.86731],[-35.25406,-5.86728],[-35.25425,-5.86722],[-35.25442,-5.86712],[-35.25456,-5.86699],[-35.25468,-5.86684],[-35.25488,-5.86652],[-35.25488,-5.86652],[-35.25516,-5.86607],[-35.25531,-5.86583],[-35.25532,-5.86581],[-35.25537,-5.86574],[-35.25543,-5.86569],[-35.25568,-5.86561],[-35.25589,-5.86551],[-35.25678,-5.86497],[-35.25707,-5.86481],[-35.25713,-5.86477],[-35.25754,-5.8645],[-35.25794,-5.86425],[-35.25798,-5.86422],[-35.2584,-5.86393],[-35.25843,-5.8639],[-35.25885,-5.86359],[-35.25892,-5.86353],[-35.25909,-5.86337],[-35.25934,-5.86314],[-35.25941,-5.86307],[-35.25945,-5.86302],[-35.25986,-5.86262],[-35.25992,-5.86256],[-35.26037,-5.86204],[-35.26047,-5.8619],[-35.26078,-5.86139],[-35.2609,-5.86121],[-35.26107,-5.86097],[-35.2614,-5.86056],[-35.26188,-5.86005],[-35.26223,-5.85971],[-35.2624,-5.85956],[-35.26309,-5.85894],[-35.26444,-5.85792],[-35.26537,-5.85725],[-35.26587,-5.85698],[-35.26628,-5.85683],[-35.26691,-5.8567],[-35.26804,-5.8565],[-35.2683,-5.85648],[-35.26862,-5.85646],[-35.26914,-5.85643],[-35.26999,-5.85643],[-35.27003,-5.85643],[-35.27038,-5.85642],[-35.27136,-5.85644],[-35.2719,-5.85646],[-35.27205,-5.85646],[-35.2722,-5.85643],[-35.27257,-5.85633],[-35.27271,-5.85628],[-35.27312,-5.85611],[-35.27315,-5.85609],[-35.27335,-5.856],[-35.27354,-5.85592],[-35.27366,-5.85588],[-35.27389,-5.85585],[-35.27393,-5.85585],[-35.27399,-5.85584],[-35.27448,-5.85577],[-35.2745,-5.85577],[-35.2752,-5.85566],[-35.27523,-5.85566],[-35.27582,-5.85555],[-35.27585,-5.85554],[-35.27672,-5.85535],[-35.2784,-5.85503],[-35.27842,-5.85503],[-35.27857,-5.855],[-35.27875,-5.85495],[-35.27895,-5.85487],[-35.27914,-5.85475],[-35.27941,-5.85452],[-35.27956,-5.85436],[-35.27985,-5.85398],[-35.27993,-5.85386],[-35.28031,-5.85319],[-35.28066,-5.85265],[-35.28119,-5.85226],[-35.28194,-5.85171],[-35.28209,-5.85158],[-35.28223,-5.85144],[-35.28313,-5.85052],[-35.28323,-5.8504],[-35.28331,-5.85026],[-35.28343,-5.85003],[-35.2835,-5.84983],[-35.28353,-5.84962],[-35.28355,-5.84911],[-35.28366,-5.84651],[-35.28366,-5.84648],[-35.28367,-5.84611],[-35.28369,-5.84554],[-35.28369,-5.84542],[-35.28364,-5.84473],[-35.24414,-5.84473],[-35.24414,-5.86592],[-35.24415,-5.86592]]]},"properties":{"ghs":"7nyyt","size":0.77,"ghs_len":5,"ghs_area":7.32,"ghs_bytes":2375889,"ghs_items":10607,"size_unit":"km2","ghsval_unit":"bytes","ghs_itemsdensity":1449.67,"size_unitdensity":0.1}},{"type":"Feature","geometry":{"type":"Polygon","coordinates":[[[-35.24414,-5.72937],[-35.23315,-5.72937],[-35.23315,-5.73486],[-35.24414,-5.73486],[-35.24414,-5.72937]]]},"properties":{"ghs":"7nyzqh","size":0.2,"ghs_len":6,"ghs_area":0.74,"ghs_bytes":645493,"ghs_items":2687,"size_unit":"km2","ghsval_unit":"bytes","ghs_itemsdensity":3634.85,"size_unitdensity":0.27}},{"type":"Feature","geometry":{"type":"Polygon","coordinates":[[[-35.24414,-5.73486],[-35.23315,-5.73486],[-35.23315,-5.74036],[-35.24414,-5.74036],[-35.24414,-5.73486]]]},"properties":{"ghs":"7nyzq5","size":0.17,"ghs_len":6,"ghs_area":0.74,"ghs_bytes":561590,"ghs_items":2466,"size_unit":"km2","ghsval_unit":"bytes","ghs_itemsdensity":3335.92,"size_unitdensity":0.23}},{"type":"Feature","geometry":{"type":"Polygon","coordinates":[[[-35.24414,-5.74036],[-35.23315,-5.74036],[-35.23315,-5.74585],[-35.24414,-5.74585],[-35.24414,-5.74036]]]},"properties":{"ghs":"7nyzq4","size":0.16,"ghs_len":6,"ghs_area":0.74,"ghs_bytes":567430,"ghs_items":2573,"size_unit":"km2","ghsval_unit":"bytes","ghs_itemsdensity":3480.7,"size_unitdensity":0.22}},{"type":"Feature","geometry":{"type":"Polygon","coordinates":[[[-35.24414,-5.74585],[-35.23315,-5.74585],[-35.23315,-5.75134],[-35.24414,-5.75134],[-35.24414,-5.74585]]]},"properties":{"ghs":"7nyzq1","size":0.2,"ghs_len":6,"ghs_area":0.74,"ghs_bytes":564983,"ghs_items":2530,"size_unit":"km2","ghsval_unit":"bytes","ghs_itemsdensity":3422.56,"size_unitdensity":0.27}},{"type":"Feature","geometry":{"type":"Polygon","coordinates":[[[-35.2002,-5.7843],[-35.18921,-5.7843],[-35.18921,-5.78979],[-35.2002,-5.78979],[-35.2002,-5.7843]]]},"properties":{"ghs":"7nyzp4","size":0.29,"ghs_len":6,"ghs_area":0.74,"ghs_bytes":689640,"ghs_items":2676,"size_unit":"km2","ghsval_unit":"bytes","ghs_itemsdensity":3620.31,"size_unitdensity":0.39}},{"type":"Feature","geometry":{"type":"Polygon","coordinates":[[[-35.21118,-5.7843],[-35.2002,-5.7843],[-35.2002,-5.78979],[-35.21118,-5.78979],[-35.21118,-5.7843]]]},"properties":{"ghs":"7nyznf","size":0.36,"ghs_len":6,"ghs_area":0.74,"ghs_bytes":711738,"ghs_items":3053,"size_unit":"km2","ghsval_unit":"bytes","ghs_itemsdensity":4130.34,"size_unitdensity":0.48}},{"type":"Feature","geometry":{"type":"Polygon","coordinates":[[[-35.22217,-5.78979],[-35.21118,-5.78979],[-35.21118,-5.79529],[-35.22217,-5.79529],[-35.22217,-5.78979]]]},"properties":{"ghs":"7nyzn9","size":0.26,"ghs_len":6,"ghs_area":0.74,"ghs_bytes":595517,"ghs_items":2460,"size_unit":"km2","ghsval_unit":"bytes","ghs_itemsdensity":3328.12,"size_unitdensity":0.35}},{"type":"Feature","geometry":{"type":"Polygon","coordinates":[[[-35.22217,-5.79529],[-35.21118,-5.79529],[-35.21118,-5.80078],[-35.22217,-5.80078],[-35.22217,-5.79529]]]},"properties":{"ghs":"7nyzn8","size":0.38,"ghs_len":6,"ghs_area":0.74,"ghs_bytes":867409,"ghs_items":3701,"size_unit":"km2","ghsval_unit":"bytes","ghs_itemsdensity":5007.11,"size_unitdensity":0.51}},{"type":"Feature","geometry":{"type":"Polygon","coordinates":[[[-35.23315,-5.79529],[-35.22217,-5.79529],[-35.22217,-5.80078],[-35.23315,-5.80078],[-35.23315,-5.79529]]]},"properties":{"ghs":"7nyzn2","size":0.34,"ghs_len":6,"ghs_area":0.74,"ghs_bytes":1045322,"ghs_items":4615,"size_unit":"km2","ghsval_unit":"bytes","ghs_itemsdensity":6243.66,"size_unitdensity":0.47}},{"type":"Feature","geometry":{"type":"Polygon","coordinates":[[[-35.25513,-5.72937],[-35.24414,-5.72937],[-35.24414,-5.73486],[-35.25513,-5.73486],[-35.25513,-5.72937]]]},"properties":{"ghs":"7nyzmu","size":0.2,"ghs_len":6,"ghs_area":0.74,"ghs_bytes":589232,"ghs_items":2300,"size_unit":"km2","ghsval_unit":"bytes","ghs_itemsdensity":3111.33,"size_unitdensity":0.27}},{"type":"Feature","geometry":{"type":"Polygon","coordinates":[[[-35.26611,-5.72937],[-35.25513,-5.72937],[-35.25513,-5.73486],[-35.26611,-5.73486],[-35.26611,-5.72937]]]},"properties":{"ghs":"7nyzms","size":0.23,"ghs_len":6,"ghs_area":0.74,"ghs_bytes":701677,"ghs_items":2679,"size_unit":"km2","ghsval_unit":"bytes","ghs_itemsdensity":3624.03,"size_unitdensity":0.31}},{"type":"Feature","geometry":{"type":"Polygon","coordinates":[[[-35.25513,-5.73486],[-35.24414,-5.73486],[-35.24414,-5.74036],[-35.25513,-5.74036],[-35.25513,-5.73486]]]},"properties":{"ghs":"7nyzmg","size":0.19,"ghs_len":6,"ghs_area":0.74,"ghs_bytes":619270,"ghs_items":2583,"size_unit":"km2","ghsval_unit":"bytes","ghs_itemsdensity":3494.19,"size_unitdensity":0.25}},{"type":"Feature","geometry":{"type":"Polygon","coordinates":[[[-35.25513,-5.74036],[-35.24414,-5.74036],[-35.24414,-5.74585],[-35.25513,-5.74585],[-35.25513,-5.74036]]]},"properties":{"ghs":"7nyzmf","size":0.24,"ghs_len":6,"ghs_area":0.74,"ghs_bytes":677778,"ghs_items":2653,"size_unit":"km2","ghsval_unit":"bytes","ghs_itemsdensity":3588.92,"size_unitdensity":0.33}},{"type":"Feature","geometry":{"type":"Polygon","coordinates":[[[-35.26611,-5.73486],[-35.25513,-5.73486],[-35.25513,-5.74036],[-35.26611,-5.74036],[-35.26611,-5.73486]]]},"properties":{"ghs":"7nyzme","size":0.22,"ghs_len":6,"ghs_area":0.74,"ghs_bytes":744734,"ghs_items":3048,"size_unit":"km2","ghsval_unit":"bytes","ghs_itemsdensity":4123.23,"size_unitdensity":0.29}},{"type":"Feature","geometry":{"type":"Polygon","coordinates":[[[-35.26611,-5.74036],[-35.25513,-5.74036],[-35.25513,-5.74585],[-35.26611,-5.74585],[-35.26611,-5.74036]]]},"properties":{"ghs":"7nyzmd","size":0.2,"ghs_len":6,"ghs_area":0.74,"ghs_bytes":622581,"ghs_items":2504,"size_unit":"km2","ghsval_unit":"bytes","ghs_itemsdensity":3387.36,"size_unitdensity":0.27}},{"type":"Feature","geometry":{"type":"Polygon","coordinates":[[[-35.25513,-5.74585],[-35.24414,-5.74585],[-35.24414,-5.75134],[-35.25513,-5.75134],[-35.25513,-5.74585]]]},"properties":{"ghs":"7nyzmc","size":0.25,"ghs_len":6,"ghs_area":0.74,"ghs_bytes":633647,"ghs_items":2475,"size_unit":"km2","ghsval_unit":"bytes","ghs_itemsdensity":3348.16,"size_unitdensity":0.33}},{"type":"Feature","geometry":{"type":"Polygon","coordinates":[[[-35.25513,-5.75134],[-35.24414,-5.75134],[-35.24414,-5.75684],[-35.25513,-5.75684],[-35.25513,-5.75134]]]},"properties":{"ghs":"7nyzmb","size":0.21,"ghs_len":6,"ghs_area":0.74,"ghs_bytes":545044,"ghs_items":2133,"size_unit":"km2","ghsval_unit":"bytes","ghs_itemsdensity":2885.53,"size_unitdensity":0.29}},{"type":"Feature","geometry":{"type":"Polygon","coordinates":[[[-35.26611,-5.74585],[-35.25513,-5.74585],[-35.25513,-5.75134],[-35.26611,-5.75134],[-35.26611,-5.74585]]]},"properties":{"ghs":"7nyzm9","size":0.22,"ghs_len":6,"ghs_area":0.74,"ghs_bytes":596249,"ghs_items":2338,"size_unit":"km2","ghsval_unit":"bytes","ghs_itemsdensity":3162.83,"size_unitdensity":0.29}},{"type":"Feature","geometry":{"type":"Polygon","coordinates":[[[-35.26611,-5.75134],[-35.25513,-5.75134],[-35.25513,-5.75684],[-35.26611,-5.75684],[-35.26611,-5.75134]]]},"properties":{"ghs":"7nyzm8","size":0.22,"ghs_len":6,"ghs_area":0.74,"ghs_bytes":578472,"ghs_items":2223,"size_unit":"km2","ghsval_unit":"bytes","ghs_itemsdensity":3007.28,"size_unitdensity":0.3}},{"type":"Feature","geometry":{"type":"Polygon","coordinates":[[[-35.2771,-5.74036],[-35.26611,-5.74036],[-35.26611,-5.74585],[-35.2771,-5.74585],[-35.2771,-5.74036]]]},"properties":{"ghs":"7nyzm6","size":0.19,"ghs_len":6,"ghs_area":0.74,"ghs_bytes":659343,"ghs_items":3030,"size_unit":"km2","ghsval_unit":"bytes","ghs_itemsdensity":4098.92,"size_unitdensity":0.26}},{"type":"Feature","geometry":{"type":"Polygon","coordinates":[[[-35.2771,-5.74585],[-35.26611,-5.74585],[-35.26611,-5.75134],[-35.2771,-5.75134],[-35.2771,-5.74585]]]},"properties":{"ghs":"7nyzm3","size":0.24,"ghs_len":6,"ghs_area":0.74,"ghs_bytes":779181,"ghs_items":3344,"size_unit":"km2","ghsval_unit":"bytes","ghs_itemsdensity":4523.73,"size_unitdensity":0.32}},{"type":"Feature","geometry":{"type":"Polygon","coordinates":[[[-35.2771,-5.75134],[-35.26611,-5.75134],[-35.26611,-5.75684],[-35.2771,-5.75684],[-35.2771,-5.75134]]]},"properties":{"ghs":"7nyzm2","size":0.21,"ghs_len":6,"ghs_area":0.74,"ghs_bytes":784534,"ghs_items":3278,"size_unit":"km2","ghsval_unit":"bytes","ghs_itemsdensity":4434.49,"size_unitdensity":0.29}},{"type":"Feature","geometry":{"type":"Polygon","coordinates":[[[-35.26611,-5.76233],[-35.25513,-5.76233],[-35.25513,-5.76782],[-35.26611,-5.76782],[-35.26611,-5.76233]]]},"properties":{"ghs":"7nyzjw","size":0.24,"ghs_len":6,"ghs_area":0.74,"ghs_bytes":648105,"ghs_items":2667,"size_unit":"km2","ghsval_unit":"bytes","ghs_itemsdensity":3608,"size_unitdensity":0.33}},{"type":"Feature","geometry":{"type":"Polygon","coordinates":[[[-35.26611,-5.76782],[-35.25513,-5.76782],[-35.25513,-5.77332],[-35.26314,-5.77332],[-35.26559,-5.77241],[-35.26559,-5.77241],[-35.26611,-5.77221],[-35.26611,-5.76782]]]},"properties":{"ghs":"7nyzjt","size":0.25,"ghs_len":6,"ghs_area":0.72,"ghs_bytes":744663,"ghs_items":3268,"size_unit":"km2","ghsval_unit":"bytes","ghs_itemsdensity":4544.2,"size_unitdensity":0.34}},{"type":"Feature","geometry":{"type":"Polygon","coordinates":[[[-35.21118,-5.80078],[-35.2002,-5.80078],[-35.2002,-5.80627],[-35.21118,-5.80627],[-35.21118,-5.80078]]]},"properties":{"ghs":"7nyyyz","size":0.27,"ghs_len":6,"ghs_area":0.74,"ghs_bytes":462199,"ghs_items":1657,"size_unit":"km2","ghsval_unit":"bytes","ghs_itemsdensity":2241.79,"size_unitdensity":0.37}},{"type":"Feature","geometry":{"type":"Polygon","coordinates":[[[-35.21118,-5.80627],[-35.2002,-5.80627],[-35.2002,-5.81177],[-35.21118,-5.81177],[-35.21118,-5.80627]]]},"properties":{"ghs":"7nyyyy","size":0.35,"ghs_len":6,"ghs_area":0.74,"ghs_bytes":554680,"ghs_items":2215,"size_unit":"km2","ghsval_unit":"bytes","ghs_itemsdensity":2996.74,"size_unitdensity":0.47}},{"type":"Feature","geometry":{"type":"Polygon","coordinates":[[[-35.22217,-5.80078],[-35.21118,-5.80078],[-35.21118,-5.80627],[-35.22217,-5.80627],[-35.22217,-5.80078]]]},"properties":{"ghs":"7nyyyx","size":0.36,"ghs_len":6,"ghs_area":0.74,"ghs_bytes":841099,"ghs_items":3513,"size_unit":"km2","ghsval_unit":"bytes","ghs_itemsdensity":4752.8,"size_unitdensity":0.48}},{"type":"Feature","geometry":{"type":"Polygon","coordinates":[[[-35.22217,-5.80627],[-35.21118,-5.80627],[-35.21118,-5.81177],[-35.22217,-5.81177],[-35.22217,-5.80627]]]},"properties":{"ghs":"7nyyyw","size":0.3,"ghs_len":6,"ghs_area":0.74,"ghs_bytes":670445,"ghs_items":2800,"size_unit":"km2","ghsval_unit":"bytes","ghs_itemsdensity":3788.21,"size_unitdensity":0.41}},{"type":"Feature","geometry":{"type":"Polygon","coordinates":[[[-35.21118,-5.81177],[-35.2002,-5.81177],[-35.2002,-5.81726],[-35.21118,-5.81726],[-35.21118,-5.81177]]]},"properties":{"ghs":"7nyyyv","size":0.27,"ghs_len":6,"ghs_area":0.74,"ghs_bytes":514934,"ghs_items":1967,"size_unit":"km2","ghsval_unit":"bytes","ghs_itemsdensity":2661.24,"size_unitdensity":0.37}},{"type":"Feature","geometry":{"type":"Polygon","coordinates":[[[-35.21118,-5.81726],[-35.2002,-5.81726],[-35.2002,-5.82275],[-35.21118,-5.82275],[-35.21118,-5.81726]]]},"properties":{"ghs":"7nyyyu","size":0.24,"ghs_len":6,"ghs_area":0.74,"ghs_bytes":469384,"ghs_items":1676,"size_unit":"km2","ghsval_unit":"bytes","ghs_itemsdensity":2267.56,"size_unitdensity":0.32}},{"type":"Feature","geometry":{"type":"Polygon","coordinates":[[[-35.22217,-5.81177],[-35.21118,-5.81177],[-35.21118,-5.81726],[-35.22217,-5.81726],[-35.22217,-5.81177]]]},"properties":{"ghs":"7nyyyt","size":0.24,"ghs_len":6,"ghs_area":0.74,"ghs_bytes":496518,"ghs_items":1851,"size_unit":"km2","ghsval_unit":"bytes","ghs_itemsdensity":2504.3,"size_unitdensity":0.33}},{"type":"Feature","geometry":{"type":"Polygon","coordinates":[[[-35.23315,-5.80078],[-35.22217,-5.80078],[-35.22217,-5.80627],[-35.23315,-5.80627],[-35.23315,-5.80078]]]},"properties":{"ghs":"7nyyyr","size":0.33,"ghs_len":6,"ghs_area":0.74,"ghs_bytes":870347,"ghs_items":3711,"size_unit":"km2","ghsval_unit":"bytes","ghs_itemsdensity":5020.68,"size_unitdensity":0.45}},{"type":"Feature","geometry":{"type":"Polygon","coordinates":[[[-35.23315,-5.80627],[-35.22217,-5.80627],[-35.22217,-5.81177],[-35.23315,-5.81177],[-35.23315,-5.80627]]]},"properties":{"ghs":"7nyyyq","size":0.3,"ghs_len":6,"ghs_area":0.74,"ghs_bytes":882251,"ghs_items":3788,"size_unit":"km2","ghsval_unit":"bytes","ghs_itemsdensity":5124.91,"size_unitdensity":0.41}},{"type":"Feature","geometry":{"type":"Polygon","coordinates":[[[-35.24414,-5.80078],[-35.23315,-5.80078],[-35.23315,-5.80627],[-35.24414,-5.80627],[-35.24414,-5.80078]]]},"properties":{"ghs":"7nyyyp","size":0.21,"ghs_len":6,"ghs_area":0.74,"ghs_bytes":680259,"ghs_items":3028,"size_unit":"km2","ghsval_unit":"bytes","ghs_itemsdensity":4096.64,"size_unitdensity":0.28}},{"type":"Feature","geometry":{"type":"Polygon","coordinates":[[[-35.24414,-5.80627],[-35.23315,-5.80627],[-35.23315,-5.81177],[-35.24414,-5.81177],[-35.24414,-5.80627]]]},"properties":{"ghs":"7nyyyn","size":0.17,"ghs_len":6,"ghs_area":0.74,"ghs_bytes":543866,"ghs_items":2291,"size_unit":"km2","ghsval_unit":"bytes","ghs_itemsdensity":3099.57,"size_unitdensity":0.23}},{"type":"Feature","geometry":{"type":"Polygon","coordinates":[[[-35.23315,-5.81177],[-35.22217,-5.81177],[-35.22217,-5.81726],[-35.23315,-5.81726],[-35.23315,-5.81177]]]},"properties":{"ghs":"7nyyym","size":0.28,"ghs_len":6,"ghs_area":0.74,"ghs_bytes":611635,"ghs_items":2534,"size_unit":"km2","ghsval_unit":"bytes","ghs_itemsdensity":3428.36,"size_unitdensity":0.38}},{"type":"Feature","geometry":{"type":"Polygon","coordinates":[[[-35.23315,-5.81726],[-35.22217,-5.81726],[-35.22217,-5.82275],[-35.23315,-5.82275],[-35.23315,-5.81726]]]},"properties":{"ghs":"7nyyyk","size":0.29,"ghs_len":6,"ghs_area":0.74,"ghs_bytes":641209,"ghs_items":2540,"size_unit":"km2","ghsval_unit":"bytes","ghs_itemsdensity":3436.51,"size_unitdensity":0.39}},{"type":"Feature","geometry":{"type":"Polygon","coordinates":[[[-35.24414,-5.81177],[-35.23315,-5.81177],[-35.23315,-5.81726],[-35.24414,-5.81726],[-35.24414,-5.81177]]]},"properties":{"ghs":"7nyyyj","size":0.26,"ghs_len":6,"ghs_area":0.74,"ghs_bytes":833286,"ghs_items":3640,"size_unit":"km2","ghsval_unit":"bytes","ghs_itemsdensity":4924.72,"size_unitdensity":0.35}},{"type":"Feature","geometry":{"type":"Polygon","coordinates":[[[-35.21118,-5.82275],[-35.2002,-5.82275],[-35.2002,-5.82825],[-35.21118,-5.82825],[-35.21118,-5.82275]]]},"properties":{"ghs":"7nyyyg","size":0.28,"ghs_len":6,"ghs_area":0.74,"ghs_bytes":673547,"ghs_items":2671,"size_unit":"km2","ghsval_unit":"bytes","ghs_itemsdensity":3613.78,"size_unitdensity":0.37}},{"type":"Feature","geometry":{"type":"Polygon","coordinates":[[[-35.21118,-5.83923],[-35.2002,-5.83923],[-35.2002,-5.84473],[-35.21118,-5.84473],[-35.21118,-5.83923]]]},"properties":{"ghs":"7nyyyb","size":0.2,"ghs_len":6,"ghs_area":0.74,"ghs_bytes":431168,"ghs_items":1474,"size_unit":"km2","ghsval_unit":"bytes","ghs_itemsdensity":1994.34,"size_unitdensity":0.27}},{"type":"Feature","geometry":{"type":"Polygon","coordinates":[[[-35.22217,-5.83374],[-35.21118,-5.83374],[-35.21118,-5.83923],[-35.22217,-5.83923],[-35.22217,-5.83374]]]},"properties":{"ghs":"7nyyy9","size":0.25,"ghs_len":6,"ghs_area":0.74,"ghs_bytes":514725,"ghs_items":1636,"size_unit":"km2","ghsval_unit":"bytes","ghs_itemsdensity":2213.5,"size_unitdensity":0.34}},{"type":"Feature","geometry":{"type":"Polygon","coordinates":[[[-35.22217,-5.83923],[-35.21118,-5.83923],[-35.21118,-5.84473],[-35.22217,-5.84473],[-35.22217,-5.83923]]]},"properties":{"ghs":"7nyyy8","size":0.22,"ghs_len":6,"ghs_area":0.74,"ghs_bytes":465879,"ghs_items":1627,"size_unit":"km2","ghsval_unit":"bytes","ghs_itemsdensity":2201.35,"size_unitdensity":0.3}},{"type":"Feature","geometry":{"type":"Polygon","coordinates":[[[-35.23315,-5.82825],[-35.22217,-5.82825],[-35.22217,-5.83374],[-35.23315,-5.83374],[-35.23315,-5.82825]]]},"properties":{"ghs":"7nyyy6","size":0.23,"ghs_len":6,"ghs_area":0.74,"ghs_bytes":444995,"ghs_items":1532,"size_unit":"km2","ghsval_unit":"bytes","ghs_itemsdensity":2072.77,"size_unitdensity":0.31}},{"type":"Feature","geometry":{"type":"Polygon","coordinates":[[[-35.24414,-5.82275],[-35.23315,-5.82275],[-35.23315,-5.82825],[-35.24414,-5.82825],[-35.24414,-5.82275]]]},"properties":{"ghs":"7nyyy5","size":0.29,"ghs_len":6,"ghs_area":0.74,"ghs_bytes":733175,"ghs_items":2756,"size_unit":"km2","ghsval_unit":"bytes","ghs_itemsdensity":3728.79,"size_unitdensity":0.39}},{"type":"Feature","geometry":{"type":"Polygon","coordinates":[[[-35.24414,-5.82825],[-35.23315,-5.82825],[-35.23315,-5.83374],[-35.24414,-5.83374],[-35.24414,-5.82825]]]},"properties":{"ghs":"7nyyy4","size":0.19,"ghs_len":6,"ghs_area":0.74,"ghs_bytes":496925,"ghs_items":1999,"size_unit":"km2","ghsval_unit":"bytes","ghs_itemsdensity":2704.61,"size_unitdensity":0.25}},{"type":"Feature","geometry":{"type":"Polygon","coordinates":[[[-35.17822,-5.88318],[-35.16724,-5.88318],[-35.16724,-5.88867],[-35.17822,-5.88867],[-35.17822,-5.88318]]]},"properties":{"ghs":"7nyyx8","size":0.19,"ghs_len":6,"ghs_area":0.74,"ghs_bytes":484957,"ghs_items":2035,"size_unit":"km2","ghsval_unit":"bytes","ghs_itemsdensity":2753.58,"size_unitdensity":0.26}},{"type":"Feature","geometry":{"type":"Polygon","coordinates":[[[-35.21118,-5.85022],[-35.2002,-5.85022],[-35.2002,-5.85571],[-35.21118,-5.85571],[-35.21118,-5.85022]]]},"properties":{"ghs":"7nyywy","size":0.22,"ghs_len":6,"ghs_area":0.74,"ghs_bytes":426838,"ghs_items":1669,"size_unit":"km2","ghsval_unit":"bytes","ghs_itemsdensity":2258.22,"size_unitdensity":0.3}},{"type":"Feature","geometry":{"type":"Polygon","coordinates":[[[-35.22217,-5.84473],[-35.21118,-5.84473],[-35.21118,-5.85022],[-35.22217,-5.85022],[-35.22217,-5.84473]]]},"properties":{"ghs":"7nyywx","size":0.17,"ghs_len":6,"ghs_area":0.74,"ghs_bytes":391717,"ghs_items":1265,"size_unit":"km2","ghsval_unit":"bytes","ghs_itemsdensity":1711.57,"size_unitdensity":0.24}},{"type":"Feature","geometry":{"type":"Polygon","coordinates":[[[-35.21118,-5.85571],[-35.2002,-5.85571],[-35.2002,-5.86121],[-35.21118,-5.86121],[-35.21118,-5.85571]]]},"properties":{"ghs":"7nyywv","size":0.22,"ghs_len":6,"ghs_area":0.74,"ghs_bytes":518234,"ghs_items":1901,"size_unit":"km2","ghsval_unit":"bytes","ghs_itemsdensity":2572.14,"size_unitdensity":0.3}},{"type":"Feature","geometry":{"type":"Polygon","coordinates":[[[-35.21118,-5.86121],[-35.2002,-5.86121],[-35.2002,-5.8667],[-35.21118,-5.8667],[-35.21118,-5.86121]]]},"properties":{"ghs":"7nyywu","size":0.19,"ghs_len":6,"ghs_area":0.74,"ghs_bytes":476864,"ghs_items":1835,"size_unit":"km2","ghsval_unit":"bytes","ghs_itemsdensity":2482.87,"size_unitdensity":0.25}},{"type":"Feature","geometry":{"type":"Polygon","coordinates":[[[-35.21118,-5.8667],[-35.2002,-5.8667],[-35.2002,-5.87219],[-35.21118,-5.87219],[-35.21118,-5.8667]]]},"properties":{"ghs":"7nyywg","size":0.21,"ghs_len":6,"ghs_area":0.74,"ghs_bytes":531972,"ghs_items":2025,"size_unit":"km2","ghsval_unit":"bytes","ghs_itemsdensity":2739.97,"size_unitdensity":0.29}},{"type":"Feature","geometry":{"type":"Polygon","coordinates":[[[-35.21118,-5.87219],[-35.2002,-5.87219],[-35.2002,-5.87769],[-35.20755,-5.87769],[-35.20787,-5.87744],[-35.20831,-5.87711],[-35.20834,-5.87709],[-35.2084,-5.87704],[-35.20878,-5.87674],[-35.20882,-5.87671],[-35.20909,-5.87652],[-35.2091,-5.87653],[-35.20929,-5.87662],[-35.20949,-5.87667],[-35.2097,-5.87668],[-35.2099,-5.87665],[-35.21009,-5.87657],[-35.2108,-5.8762],[-35.21118,-5.876],[-35.21118,-5.87219]]]},"properties":{"ghs":"7nyywf","size":0.14,"ghs_len":6,"ghs_area":0.7,"ghs_bytes":389806,"ghs_items":1502,"size_unit":"km2","ghsval_unit":"bytes","ghs_itemsdensity":2156.74,"size_unitdensity":0.2}},{"type":"Feature","geometry":{"type":"Polygon","coordinates":[[[-35.23315,-5.8667],[-35.22217,-5.8667],[-35.22217,-5.87219],[-35.23315,-5.87219],[-35.23315,-5.8667]]]},"properties":{"ghs":"7nyyw7","size":0.21,"ghs_len":6,"ghs_area":0.74,"ghs_bytes":486291,"ghs_items":1776,"size_unit":"km2","ghsval_unit":"bytes","ghs_itemsdensity":2403.06,"size_unitdensity":0.28}}]}
