{"type": "FeatureCollection", "features": [
{"type": "Feature", "geometry": {"type": "Polygon", "coordinates": [[[-35.28815, -5.75667, 0], [-35.288109, -5.756698, 0], [-35.288161, -5.756771, 0], [-35.288208, -5.756739, 0], [-35.28815, -5.75667, 0]]]}, "properties": {"nsvia": "Nossa Senhora da Apresentacao", "address": "R BENEDITO, 06", "postcode": "59000-000"}},
{"type": "Feature", "geometry": {"type": "Polygon", "coordinates": [[[-35.289966, -5.740063, 0], [-35.28995, -5.740206, 0], [-35.290013, -5.740214, 0], [-35.29003, -5.74007, 0], [-35.289966, -5.740063, 0]]]}, "properties": {"nsvia": "Nossa Senhora da Apresentacao", "address": "RO BR 101 NORTE, 10150", "postcode": "59115-001"}},
{"type": "Feature", "geometry": {"type": "Polygon", "coordinates": [[[-35.288803, -5.738398, 0], [-35.288803, -5.738389, 0], [-35.288767, -5.738391, 0], [-35.288774, -5.7385, 0], [-35.288841, -5.738495, 0], [-35.288835, -5.738396, 0], [-35.288803, -5.738398, 0]]]}, "properties": {"nsvia": "Nossa Senhora da Apresentacao", "address": "TV SANTA LUIZA, S/N", "postcode": "59114-122"}},
{"type": "Feature", "geometry": {"type": "Polygon", "coordinates": [[[-35.288572, -5.739225, 0], [-35.288573, -5.739206, 0], [-35.288555, -5.739205, 0], [-35.288557, -5.739175, 0], [-35.288542, -5.739175, 0], [-35.288543, -5.73916, 0], [-35.288448, -5.739155, 0], [-35.288442, -5.739281, 0], [-35.288553, -5.739286, 0], [-35.288556, -5.739224, 0], [-35.288572, -5.739225, 0]]]}, "properties": {"nsvia": "Nossa Senhora da Apresentacao", "address": "TV SANTA LUIZA, S/N", "postcode": "59114-122"}},
{"type": "Feature", "geometry": {"type": "Polygon", "coordinates": [[[-35.289668, -5.742318, 0], [-35.289661, -5.742387, 0], [-35.289732, -5.742395, 0], [-35.28974, -5.742326, 0], [-35.289668, -5.742318, 0]]]}, "properties": {"nsvia": "Nossa Senhora da Apresentacao", "address": "RO BR 101 NORTE, S/N", "postcode": "59115-001"}},
{"type": "Feature", "geometry": {"type": "Polygon", "coordinates": [[[-35.289901, -5.737511, 0], [-35.28991, -5.737439, 0], [-35.289637, -5.737405, 0], [-35.289628, -5.737482, 0], [-35.289446, -5.737459, 0], [-35.289404, -5.737798, 0], [-35.289403, -5.737809, 0], [-35.289669, -5.737842, 0], [-35.290088, -5.737889, 0], [-35.290105, -5.737735, 0], [-35.290122, -5.737716, 0], [-35.29011, -5.737696, 0], [-35.29013, -5.73754, 0], [-35.289901, -5.737511, 0]]]}, "properties": {"nsvia": "Nossa Senhora da Apresentacao", "address": "RO BR 101 NORTE, 900", "postcode": "59115-001"}},
{"type": "Feature", "geometry": {"type": "Polygon", "coordinates": [[[-35.290155, -5.736289, 0], [-35.290148, -5.736353, 0], [-35.29029, -5.736368, 0], [-35.290296, -5.736304, 0], [-35.290155, -5.736289, 0]]]}, "properties": {"nsvia": "Nossa Senhora da Apresentacao", "address": "RO BR 101 NORTE, 1501", "postcode": "59115-001"}},
{"type": "Feature", "geometry": {"type": "Polygon", "coordinates": [[[-35.288759, -5.746215, 0], [-35.288749, -5.746335, 0], [-35.288808, -5.74634, 0], [-35.288818, -5.74622, 0], [-35.288759, -5.746215, 0]]]}, "properties": {"nsvia": "Nossa Senhora da Apresentacao", "address": "RO BR 101 NORTE, 10500", "postcode": "59115-001"}},
{"type": "Feature", "geometry": {"type": "Polygon", "coordinates": [[[-35.2894, -5.74256, 0], [-35.28939, -5.74266, 0], [-35.28951, -5.742673, 0], [-35.289521, -5.742573, 0], [-35.2894, -5.74256, 0]]]}, "properties": {"nsvia": "Nossa Senhora da Apresentacao", "address": "RO BR 101 NORTE, S/N", "postcode": "59115-001"}},
{"type": "Feature", "geometry": {"type": "Polygon", "coordinates": [[[-35.289397, -5.736249, 0], [-35.289392, -5.736303, 0], [-35.289593, -5.736324, 0], [-35.289622, -5.736327, 0], [-35.289627, -5.736273, 0], [-35.289397, -5.736249, 0]]]}, "properties": {"nsvia": "Nossa Senhora da Apresentacao", "address": "RO BR 101 NORTE, 1501", "postcode": "59115-001"}},
{"type": "Feature", "geometry": {"type": "Polygon", "coordinates": [[[-35.288481, -5.745753, 0], [-35.288469, -5.745876, 0], [-35.288403, -5.74587, 0], [-35.288408, -5.745826, 0], [-35.288334, -5.745818, 0], [-35.288331, -5.745841, 0], [-35.288307, -5.745838, 0], [-35.288305, -5.745858, 0], [-35.288242, -5.745852, 0], [-35.288231, -5.745967, 0], [-35.288641, -5.746009, 0], [-35.288665, -5.745772, 0], [-35.288481, -5.745753, 0]]]}, "properties": {"nsvia": "Nossa Senhora da Apresentacao", "address": "RO BR 101 NORTE, S/N", "postcode": "59115-001"}},
{"type": "Feature", "geometry": {"type": "Polygon", "coordinates": [[[-35.288281, -5.753224, 0], [-35.28828, -5.75325, 0], [-35.288313, -5.753251, 0], [-35.288314, -5.753225, 0], [-35.288281, -5.753224, 0]]]}, "properties": {"nsvia": "Nossa Senhora da Apresentacao", "address": "RO BR 101 NORTE, S/N", "postcode": "59115-001"}},
{"type": "Feature", "geometry": {"type": "Polygon", "coordinates": [[[-35.28917, -5.738634, 0], [-35.289194, -5.738637, 0], [-35.289202, -5.73857, 0], [-35.288958, -5.738541, 0], [-35.288963, -5.738502, 0], [-35.288906, -5.738495, 0], [-35.288887, -5.738663, 0], [-35.289163, -5.738696, 0], [-35.28917, -5.738634, 0]]]}, "properties": {"nsvia": "Nossa Senhora da Apresentacao", "address": "RO BR 101 NORTE, 9600", "postcode": "59115-001"}},
{"type": "Feature", "geometry": {"type": "Polygon", "coordinates": [[[-35.28871, -5.749013, 0], [-35.288703, -5.749069, 0], [-35.28894, -5.749097, 0], [-35.288947, -5.749041, 0], [-35.28871, -5.749013, 0]]]}, "properties": {"nsvia": "Nossa Senhora da Apresentacao", "address": "RO BR 101 NORTE, S/N", "postcode": "59115-001"}},
{"type": "Feature", "geometry": {"type": "Polygon", "coordinates": [[[-35.288684, -5.739665, 0], [-35.288665, -5.739663, 0], [-35.288667, -5.739648, 0], [-35.288641, -5.739646, 0], [-35.288637, -5.739681, 0], [-35.288606, -5.739677, 0], [-35.288602, -5.739713, 0], [-35.288678, -5.739721, 0], [-35.288684, -5.739665, 0]]]}, "properties": {"nsvia": "Nossa Senhora da Apresentacao", "address": "TV SANTA LUIZA, S/N", "postcode": "59114-122"}},
{"type": "Feature", "geometry": {"type": "Polygon", "coordinates": [[[-35.288559, -5.747273, 0], [-35.28851, -5.747269, 0], [-35.288507, -5.747309, 0], [-35.288555, -5.747313, 0], [-35.288559, -5.747273, 0]]]}, "properties": {"nsvia": "Nossa Senhora da Apresentacao", "address": "RO BR 101 NORTE, 10500", "postcode": "59115-001"}},
{"type": "Feature", "geometry": {"type": "Polygon", "coordinates": [[[-35.289395, -5.737881, 0], [-35.289381, -5.738003, 0], [-35.289713, -5.738042, 0], [-35.289722, -5.737966, 0], [-35.289684, -5.737961, 0], [-35.289689, -5.737916, 0], [-35.289395, -5.737881, 0]]]}, "properties": {"nsvia": "Nossa Senhora da Apresentacao", "address": "RO BR 101 NORTE, 900", "postcode": "59115-001"}},
{"type": "Feature", "geometry": {"type": "Polygon", "coordinates": [[[-35.288263, -5.746039, 0], [-35.288236, -5.746278, 0], [-35.288383, -5.746295, 0], [-35.28841, -5.746056, 0], [-35.288263, -5.746039, 0]]]}, "properties": {"nsvia": "Nossa Senhora da Apresentacao", "address": "RO BR 101 NORTE, 10500", "postcode": "59115-001"}},
{"type": "Feature", "geometry": {"type": "Polygon", "coordinates": [[[-35.289221, -5.739069, 0], [-35.289172, -5.739468, 0], [-35.289286, -5.739482, 0], [-35.289336, -5.739084, 0], [-35.289221, -5.739069, 0]]]}, "properties": {"nsvia": "Nossa Senhora da Apresentacao", "address": "RO BR 101 NORTE, S/N", "postcode": "59115-001"}},
{"type": "Feature", "geometry": {"type": "Polygon", "coordinates": [[[-35.288672, -5.749391, 0], [-35.288607, -5.749945, 0], [-35.28883, -5.749971, 0], [-35.288895, -5.749417, 0], [-35.288672, -5.749391, 0]]]}, "properties": {"nsvia": "Nossa Senhora da Apresentacao", "address": "RO BR 101 NORTE, S/N", "postcode": "59115-001"}},
{"type": "Feature", "geometry": {"type": "Polygon", "coordinates": [[[-35.288763, -5.738495, 0], [-35.288741, -5.738387, 0], [-35.288668, -5.738402, 0], [-35.28869, -5.738509, 0], [-35.288763, -5.738495, 0]]]}, "properties": {"nsvia": "Nossa Senhora da Apresentacao", "address": "TV SANTA LUIZA, S/N", "postcode": "59114-122"}},
{"type": "Feature", "geometry": {"type": "Polygon", "coordinates": [[[-35.289516, -5.734008, 0], [-35.289533, -5.733863, 0], [-35.289295, -5.733835, 0], [-35.289279, -5.733972, 0], [-35.28859, -5.733892, 0], [-35.288594, -5.733854, 0], [-35.288498, -5.733843, 0], [-35.288493, -5.733888, 0], [-35.288463, -5.733884, 0], [-35.288258, -5.73386, 0], [-35.2882, -5.733853, 0], [-35.288073, -5.734948, 0], [-35.288192, -5.734962, 0], [-35.288179, -5.735074, 0], [-35.289114, -5.735183, 0], [-35.289127, -5.73507, 0], [-35.290068, -5.73518, 0], [-35.290195, -5.734087, 0], [-35.289516, -5.734008, 0]]]}, "properties": {"nsvia": "Nossa Senhora da Apresentacao", "address": "RO BR 101 NORTE, S/N", "postcode": "59115-001"}},
{"type": "Feature", "geometry": {"type": "Polygon", "coordinates": [[[-35.289187, -5.745911, 0], [-35.289184, -5.745941, 0], [-35.289224, -5.745945, 0], [-35.289227, -5.745914, 0], [-35.289187, -5.745911, 0]]]}, "properties": {"nsvia": "Nossa Senhora da Apresentacao", "address": "RO BR 101 NORTE, S/N", "postcode": "59115-001"}},
{"type": "Feature", "geometry": {"type": "Polygon", "coordinates": [[[-35.288413, -5.738454, 0], [-35.288433, -5.738528, 0], [-35.288469, -5.738518, 0], [-35.288449, -5.738445, 0], [-35.288413, -5.738454, 0]]]}, "properties": {"nsvia": "Nossa Senhora da Apresentacao", "address": "TV SANTA LUIZA, S/N", "postcode": "59114-122"}},
{"type": "Feature", "geometry": {"type": "Polygon", "coordinates": [[[-35.288535, -5.736763, 0], [-35.288515, -5.736928, 0], [-35.288593, -5.736938, 0], [-35.288613, -5.736773, 0], [-35.288535, -5.736763, 0]]]}, "properties": {"nsvia": "Nossa Senhora da Apresentacao", "address": "AV MARANGUAPE, S/N", "postcode": "59114-000"}},
{"type": "Feature", "geometry": {"type": "Polygon", "coordinates": [[[-35.289478, -5.738935, 0], [-35.28946, -5.739077, 0], [-35.289418, -5.739072, 0], [-35.289398, -5.739235, 0], [-35.28937, -5.739231, 0], [-35.289352, -5.739376, 0], [-35.289378, -5.739379, 0], [-35.289358, -5.739538, 0], [-35.289692, -5.739579, 0], [-35.28971, -5.739432, 0], [-35.289753, -5.739437, 0], [-35.289786, -5.739167, 0], [-35.289742, -5.739162, 0], [-35.289747, -5.739115, 0], [-35.289703, -5.73911, 0], [-35.289721, -5.738966, 0], [-35.289478, -5.738935, 0]]]}, "properties": {"nsvia": "Nossa Senhora da Apresentacao", "address": "RO BR 101 NORTE, S/N", "postcode": "59115-001"}},
{"type": "Feature", "geometry": {"type": "Polygon", "coordinates": [[[-35.289771, -5.738838, 0], [-35.289724, -5.738832, 0], [-35.289726, -5.738822, 0], [-35.289547, -5.738798, 0], [-35.289532, -5.738908, 0], [-35.289713, -5.738931, 0], [-35.289714, -5.738922, 0], [-35.28976, -5.738928, 0], [-35.289771, -5.738838, 0]]]}, "properties": {"nsvia": "Nossa Senhora da Apresentacao", "address": "RO BR 101 NORTE, S/N", "postcode": "59115-001"}},
{"type": "Feature", "geometry": {"type": "Polygon", "coordinates": [[[-35.288102, -5.745442, 0], [-35.28809, -5.745546, 0], [-35.288688, -5.745615, 0], [-35.2887, -5.745511, 0], [-35.288102, -5.745442, 0]]]}, "properties": {"nsvia": "Nossa Senhora da Apresentacao", "address": "RO BR 101 NORTE, S/N", "postcode": "59115-001"}},
{"type": "Feature", "geometry": {"type": "Polygon", "coordinates": [[[-35.288715, -5.735247, 0], [-35.288686, -5.735491, 0], [-35.289228, -5.735554, 0], [-35.289256, -5.735311, 0], [-35.288715, -5.735247, 0]]]}, "properties": {"nsvia": "Nossa Senhora da Apresentacao", "address": "RO BR 101 NORTE, S/N", "postcode": "59115-001"}},
{"type": "Feature", "geometry": {"type": "Polygon", "coordinates": [[[-35.289278, -5.744611, 0], [-35.289163, -5.744601, 0], [-35.289158, -5.744655, 0], [-35.289274, -5.744665, 0], [-35.289278, -5.744611, 0]]]}, "properties": {"nsvia": "Nossa Senhora da Apresentacao", "address": "RO BR 101 NORTE, S/N", "postcode": "59115-001"}},
{"type": "Feature", "geometry": {"type": "Polygon", "coordinates": [[[-35.289639, -5.73684, 0], [-35.29001, -5.736883, 0], [-35.290034, -5.736675, 0], [-35.289663, -5.736632, 0], [-35.289639, -5.73684, 0]]]}, "properties": {"nsvia": "Nossa Senhora da Apresentacao", "address": "RO BR 101 NORTE, 1501", "postcode": "59115-001"}},
{"type": "Feature", "geometry": {"type": "Polygon", "coordinates": [[[-35.289514, -5.735248, 0], [-35.289465, -5.735677, 0], [-35.289723, -5.735707, 0], [-35.289771, -5.735277, 0], [-35.289514, -5.735248, 0]]]}, "properties": {"nsvia": "Nossa Senhora da Apresentacao", "address": "RO BR 101 NORTE, S/N", "postcode": "59115-001"}},
{"type": "Feature", "geometry": {"type": "Polygon", "coordinates": [[[-35.289463, -5.738482, 0], [-35.289441, -5.738675, 0], [-35.289774, -5.738713, 0], [-35.28977, -5.738753, 0], [-35.289797, -5.738756, 0], [-35.289801, -5.738718, 0], [-35.289892, -5.738728, 0], [-35.289887, -5.738768, 0], [-35.289952, -5.738775, 0], [-35.289956, -5.738734, 0], [-35.289983, -5.738737, 0], [-35.290005, -5.738545, 0], [-35.289463, -5.738482, 0]]]}, "properties": {"nsvia": "Nossa Senhora da Apresentacao", "address": "RO BR 101 NORTE, 9600", "postcode": "59115-001"}},
{"type": "Feature", "geometry": {"type": "Polygon", "coordinates": [[[-35.290098, -5.736777, 0], [-35.290084, -5.736893, 0], [-35.290227, -5.73691, 0], [-35.290241, -5.736795, 0], [-35.290098, -5.736777, 0]]]}, "properties": {"nsvia": "Nossa Senhora da Apresentacao", "address": "RO BR 101 NORTE, 1501", "postcode": "59115-001"}},
{"type": "Feature", "geometry": {"type": "Polygon", "coordinates": [[[-35.288364, -5.738462, 0], [-35.288382, -5.738528, 0], [-35.288408, -5.738521, 0], [-35.288412, -5.738534, 0], [-35.288426, -5.73853, 0], [-35.288404, -5.738451, 0], [-35.288364, -5.738462, 0]]]}, "properties": {"nsvia": "Nossa Senhora da Apresentacao", "address": "TV SANTA LUIZA, S/N", "postcode": "59114-122"}},
{"type": "Feature", "geometry": {"type": "Polygon", "coordinates": [[[-35.289927, -5.739252, 0], [-35.289888, -5.739577, 0], [-35.290002, -5.739591, 0], [-35.290027, -5.73939, 0], [-35.290042, -5.739391, 0], [-35.290047, -5.739344, 0], [-35.29003, -5.739342, 0], [-35.290039, -5.739265, 0], [-35.289927, -5.739252, 0]]]}, "properties": {"nsvia": "Nossa Senhora da Apresentacao", "address": "RO BR 101 NORTE, S/N", "postcode": "59115-001"}},
{"type": "Feature", "geometry": {"type": "Polygon", "coordinates": [[[-35.289239, -5.739594, 0], [-35.289224, -5.739725, 0], [-35.289821, -5.739798, 0], [-35.289837, -5.739666, 0], [-35.289239, -5.739594, 0]]]}, "properties": {"nsvia": "Nossa Senhora da Apresentacao", "address": "RO BR 101 NORTE, S/N", "postcode": "59115-001"}},
{"type": "Feature", "geometry": {"type": "Polygon", "coordinates": [[[-35.289467, -5.740187, 0], [-35.289419, -5.740182, 0], [-35.289427, -5.740108, 0], [-35.288635, -5.740015, 0], [-35.288626, -5.740088, 0], [-35.288118, -5.740029, 0], [-35.28803, -5.740783, 0], [-35.289379, -5.74094, 0], [-35.289467, -5.740187, 0]]]}, "properties": {"nsvia": "Nossa Senhora da Apresentacao", "address": "RO BR 101 NORTE, 10150", "postcode": "59115-001"}},
{"type": "Feature", "geometry": {"type": "Polygon", "coordinates": [[[-35.288089, -5.745549, 0], [-35.288077, -5.745654, 0], [-35.288677, -5.745727, 0], [-35.28869, -5.745623, 0], [-35.288089, -5.745549, 0]]]}, "properties": {"nsvia": "Nossa Senhora da Apresentacao", "address": "RO BR 101 NORTE, S/N", "postcode": "59115-001"}},
{"type": "Feature", "geometry": {"type": "Polygon", "coordinates": [[[-35.289136, -5.746626, 0], [-35.28912, -5.74678, 0], [-35.289179, -5.746786, 0], [-35.289196, -5.746632, 0], [-35.289136, -5.746626, 0]]]}, "properties": {"nsvia": "Nossa Senhora da Apresentacao", "address": "RO BR 101 NORTE, 10500", "postcode": "59115-001"}},
{"type": "Feature", "geometry": {"type": "Polygon", "coordinates": [[[-35.289937, -5.738843, 0], [-35.289907, -5.73884, 0], [-35.289904, -5.738866, 0], [-35.289934, -5.73887, 0], [-35.289937, -5.738843, 0]]]}, "properties": {"nsvia": "Nossa Senhora da Apresentacao", "address": "RO BR 101 NORTE, S/N", "postcode": "59115-001"}},
{"type": "Feature", "geometry": {"type": "Polygon", "coordinates": [[[-35.290141, -5.736407, 0], [-35.2901, -5.736768, 0], [-35.290246, -5.736784, 0], [-35.290286, -5.736424, 0], [-35.290141, -5.736407, 0]]]}, "properties": {"nsvia": "Nossa Senhora da Apresentacao", "address": "RO BR 101 NORTE, 1501", "postcode": "59115-001"}},
{"type": "Feature", "geometry": {"type": "Polygon", "coordinates": [[[-35.288074, -5.742203, 0], [-35.288063, -5.742298, 0], [-35.288172, -5.742311, 0], [-35.288183, -5.742217, 0], [-35.288332, -5.742233, 0], [-35.288325, -5.74229, 0], [-35.288679, -5.74233, 0], [-35.288728, -5.741892, 0], [-35.288677, -5.741886, 0], [-35.288679, -5.741871, 0], [-35.288327, -5.741831, 0], [-35.288329, -5.741808, 0], [-35.28826, -5.741801, 0], [-35.288257, -5.741823, 0], [-35.287812, -5.741773, 0], [-35.287768, -5.742168, 0], [-35.288074, -5.742203, 0]]]}, "properties": {"nsvia": "Nossa Senhora da Apresentacao", "address": "RO BR 101 NORTE, S/N", "postcode": "59115-001"}},
{"type": "Feature", "geometry": {"type": "Polygon", "coordinates": [[[-35.288577, -5.750199, 0], [-35.28854, -5.750538, 0], [-35.288762, -5.750563, 0], [-35.288781, -5.750392, 0], [-35.288799, -5.750223, 0], [-35.288577, -5.750199, 0]]]}, "properties": {"nsvia": "Nossa Senhora da Apresentacao", "address": "RO BR 101 NORTE, S/N", "postcode": "59115-001"}},
{"type": "Feature", "geometry": {"type": "Polygon", "coordinates": [[[-35.288175, -5.741696, 0], [-35.288176, -5.741683, 0], [-35.288138, -5.74168, 0], [-35.288134, -5.741723, 0], [-35.288167, -5.741726, 0], [-35.288161, -5.741788, 0], [-35.288208, -5.741792, 0], [-35.288211, -5.741758, 0], [-35.288253, -5.741762, 0], [-35.288259, -5.741704, 0], [-35.288175, -5.741696, 0]]]}, "properties": {"nsvia": "Nossa Senhora da Apresentacao", "address": "RO BR 101 NORTE, S/N", "postcode": "59115-001"}},
{"type": "Feature", "geometry": {"type": "Polygon", "coordinates": [[[-35.288323, -5.73869, 0], [-35.288337, -5.738728, 0], [-35.28838, -5.738713, 0], [-35.288365, -5.738675, 0], [-35.288323, -5.73869, 0]]]}, "properties": {"nsvia": "Nossa Senhora da Apresentacao", "address": "TV SANTA LUIZA, S/N", "postcode": "59114-122"}},
{"type": "Feature", "geometry": {"type": "Polygon", "coordinates": [[[-35.288296, -5.741707, 0], [-35.288286, -5.741798, 0], [-35.288692, -5.741845, 0], [-35.288703, -5.741755, 0], [-35.288296, -5.741707, 0]]]}, "properties": {"nsvia": "Nossa Senhora da Apresentacao", "address": "RO BR 101 NORTE, S/N", "postcode": "59115-001"}},
{"type": "Feature", "geometry": {"type": "Polygon", "coordinates": [[[-35.290117, -5.73907, 0], [-35.290111, -5.739121, 0], [-35.290158, -5.739126, 0], [-35.290164, -5.739076, 0], [-35.290117, -5.73907, 0]]]}, "properties": {"nsvia": "Nossa Senhora da Apresentacao", "address": "RO BR 101 NORTE, S/N", "postcode": "59115-001"}},
{"type": "Feature", "geometry": {"type": "Polygon", "coordinates": [[[-35.288576, -5.738774, 0], [-35.288587, -5.73882, 0], [-35.288626, -5.73881, 0], [-35.288616, -5.738765, 0], [-35.288576, -5.738774, 0]]]}, "properties": {"nsvia": "Nossa Senhora da Apresentacao", "address": "TV SEM DENOMINACAO, S/N", "postcode": "59000-000"}},
{"type": "Feature", "geometry": {"type": "Polygon", "coordinates": [[[-35.289888, -5.739599, 0], [-35.289857, -5.739849, 0], [-35.289918, -5.739856, 0], [-35.289919, -5.739849, 0], [-35.289943, -5.739852, 0], [-35.289942, -5.73986, 0], [-35.289972, -5.739863, 0], [-35.290002, -5.739612, 0], [-35.289888, -5.739599, 0]]]}, "properties": {"nsvia": "Nossa Senhora da Apresentacao", "address": "RO BR 101 NORTE, S/N", "postcode": "59115-001"}},
{"type": "Feature", "geometry": {"type": "Polygon", "coordinates": [[[-35.289808, -5.737932, 0], [-35.289796, -5.738031, 0], [-35.289958, -5.738052, 0], [-35.28997, -5.737953, 0], [-35.289808, -5.737932, 0]]]}, "properties": {"nsvia": "Nossa Senhora da Apresentacao", "address": "RO BR 101 NORTE, 900", "postcode": "59115-001"}},
{"type": "Feature", "geometry": {"type": "Polygon", "coordinates": [[[-35.288406, -5.74726, 0], [-35.288401, -5.747303, 0], [-35.288487, -5.747312, 0], [-35.288491, -5.747269, 0], [-35.288406, -5.74726, 0]]]}, "properties": {"nsvia": "Nossa Senhora da Apresentacao", "address": "RO BR 101 NORTE, 10500", "postcode": "59115-001"}},
{"type": "Feature", "geometry": {"type": "Polygon", "coordinates": [[[-35.289414, -5.738783, 0], [-35.289313, -5.738772, 0], [-35.289301, -5.738879, 0], [-35.289402, -5.738891, 0], [-35.289414, -5.738783, 0]]]}, "properties": {"nsvia": "Nossa Senhora da Apresentacao", "address": "RO BR 101 NORTE, S/N", "postcode": "59115-001"}},
{"type": "Feature", "geometry": {"type": "Polygon", "coordinates": [[[-35.28942, -5.744107, 0], [-35.289372, -5.744102, 0], [-35.289368, -5.744138, 0], [-35.289417, -5.744143, 0], [-35.28942, -5.744107, 0]]]}, "properties": {"nsvia": "Nossa Senhora da Apresentacao", "address": "RO BR 101 NORTE, S/N", "postcode": "59115-001"}},
{"type": "Feature", "geometry": {"type": "Polygon", "coordinates": [[[-35.289485, -5.7429, 0], [-35.289478, -5.742972, 0], [-35.289608, -5.742986, 0], [-35.289615, -5.742914, 0], [-35.289485, -5.7429, 0]]]}, "properties": {"nsvia": "Nossa Senhora da Apresentacao", "address": "RO BR 101 NORTE, S/N", "postcode": "59115-001"}},
{"type": "Feature", "geometry": {"type": "Polygon", "coordinates": [[[-35.288678, -5.749281, 0], [-35.288861, -5.749302, 0], [-35.288873, -5.749192, 0], [-35.28869, -5.749171, 0], [-35.288678, -5.749281, 0]]]}, "properties": {"nsvia": "Nossa Senhora da Apresentacao", "address": "RO BR 101 NORTE, S/N", "postcode": "59115-001"}},
{"type": "Feature", "geometry": {"type": "Polygon", "coordinates": [[[-35.289403, -5.737809, 0], [-35.289404, -5.737798, 0], [-35.289278, -5.737782, 0], [-35.289268, -5.737863, 0], [-35.289352, -5.737874, 0], [-35.289355, -5.737847, 0], [-35.289398, -5.737853, 0], [-35.289403, -5.737809, 0]]]}, "properties": {"nsvia": "Nossa Senhora da Apresentacao", "address": "RO BR 101 NORTE, 900", "postcode": "59115-001"}},
{"type": "Feature", "geometry": {"type": "Polygon", "coordinates": [[[-35.288396, -5.755364, 0], [-35.288316, -5.755418, 0], [-35.288346, -5.755463, 0], [-35.288426, -5.755409, 0], [-35.288396, -5.755364, 0]]]}, "properties": {"nsvia": "Nossa Senhora da Apresentacao", "address": "RO BR 101 NORTE, 89", "postcode": "59115-001"}},
{"type": "Feature", "geometry": {"type": "Polygon", "coordinates": [[[-35.288995, -5.73248, 0], [-35.288562, -5.732431, 0], [-35.288555, -5.732493, 0], [-35.288846, -5.732526, 0], [-35.288837, -5.732611, 0], [-35.288543, -5.732578, 0], [-35.28854, -5.732604, 0], [-35.288976, -5.732653, 0], [-35.288995, -5.73248, 0]]]}, "properties": {"nsvia": "Nossa Senhora da Apresentacao", "address": "RO BR 101 NORTE, S/N", "postcode": "59115-001"}},
{"type": "Feature", "geometry": {"type": "Polygon", "coordinates": [[[-35.289476, -5.743682, 0], [-35.289325, -5.743664, 0], [-35.289318, -5.743724, 0], [-35.289247, -5.743716, 0], [-35.289254, -5.743657, 0], [-35.289101, -5.743639, 0], [-35.28909, -5.743737, 0], [-35.289007, -5.743728, 0], [-35.288982, -5.743949, 0], [-35.289439, -5.744003, 0], [-35.289476, -5.743682, 0]]]}, "properties": {"nsvia": "Nossa Senhora da Apresentacao", "address": "RO BR 101 NORTE, S/N", "postcode": "59115-001"}},
{"type": "Feature", "geometry": {"type": "Polygon", "coordinates": [[[-35.290318, -5.737166, 0], [-35.290386, -5.737174, 0], [-35.290392, -5.737122, 0], [-35.290324, -5.737114, 0], [-35.290318, -5.737166, 0]]]}, "properties": {"nsvia": "Nossa Senhora da Apresentacao", "address": "RO BR 101 NORTE, 1501", "postcode": "59115-001"}},
{"type": "Feature", "geometry": {"type": "Polygon", "coordinates": [[[-35.289643, -5.736223, 0], [-35.289629, -5.736341, 0], [-35.289687, -5.736348, 0], [-35.28997, -5.736382, 0], [-35.289969, -5.736393, 0], [-35.289697, -5.73636, 0], [-35.289672, -5.736567, 0], [-35.290038, -5.736611, 0], [-35.290067, -5.736371, 0], [-35.290051, -5.736369, 0], [-35.29006, -5.736296, 0], [-35.290009, -5.73629, 0], [-35.290012, -5.736267, 0], [-35.289643, -5.736223, 0]]]}, "properties": {"nsvia": "Nossa Senhora da Apresentacao", "address": "RO BR 101 NORTE, 1501", "postcode": "59115-001"}},
{"type": "Feature", "geometry": {"type": "Polygon", "coordinates": [[[-35.288065, -5.75725, 0], [-35.288053, -5.757258, 0], [-35.288064, -5.757274, 0], [-35.288143, -5.757218, 0], [-35.288108, -5.757168, 0], [-35.288041, -5.757216, 0], [-35.288065, -5.75725, 0]]]}, "properties": {"address": "?, ?"}},
{"type": "Feature", "geometry": {"type": "Polygon", "coordinates": [[[-35.288204, -5.757177, 0], [-35.288205, -5.757169, 0], [-35.288178, -5.75713, 0], [-35.288173, -5.757134, 0], [-35.288168, -5.757126, 0], [-35.288108, -5.757169, 0], [-35.288143, -5.757218, 0], [-35.288204, -5.757177, 0]]]}, "properties": {"address": "?, ?"}},
{"type": "Feature", "geometry": {"type": "Polygon", "coordinates": [[[-35.288211, -5.756758, 0], [-35.288198, -5.756767, 0], [-35.288211, -5.756786, 0], [-35.288189, -5.7568, 0], [-35.28822, -5.756847, 0], [-35.288255, -5.756823, 0], [-35.288211, -5.756758, 0]]]}, "properties": {"nsvia": "Nossa Senhora da Apresentacao", "address": "R BENEDITO, 04", "postcode": "59000-000"}},
{"type": "Feature", "geometry": {"type": "Polygon", "coordinates": [[[-35.289061, -5.747019, 0], [-35.289055, -5.747066, 0], [-35.289105, -5.747071, 0], [-35.289111, -5.747025, 0], [-35.289061, -5.747019, 0]]]}, "properties": {"nsvia": "Nossa Senhora da Apresentacao", "address": "RO BR 101 NORTE, 10500", "postcode": "59115-001"}},
{"type": "Feature", "geometry": {"type": "Polygon", "coordinates": [[[-35.288081, -5.75658, 0], [-35.288092, -5.756595, 0], [-35.288054, -5.756621, 0], [-35.288086, -5.756666, 0], [-35.28813, -5.756636, 0], [-35.288092, -5.756573, 0], [-35.288081, -5.75658, 0]]]}, "properties": {"nsvia": "Nossa Senhora da Apresentacao", "address": "R BENEDITO, 255", "postcode": "59000-000"}},
{"type": "Feature", "geometry": {"type": "Polygon", "coordinates": [[[-35.289183, -5.744249, 0], [-35.289173, -5.744332, 0], [-35.289394, -5.744358, 0], [-35.289404, -5.744275, 0], [-35.289183, -5.744249, 0]]]}, "properties": {"nsvia": "Nossa Senhora da Apresentacao", "address": "RO BR 101 NORTE, S/N", "postcode": "59115-001"}},
{"type": "Feature", "geometry": {"type": "Polygon", "coordinates": [[[-35.288891, -5.741778, 0], [-35.288876, -5.741911, 0], [-35.289192, -5.741947, 0], [-35.289207, -5.741813, 0], [-35.288891, -5.741778, 0]]]}, "properties": {"nsvia": "Nossa Senhora da Apresentacao", "address": "RO BR 101 NORTE, S/N", "postcode": "59115-001"}},
{"type": "Feature", "geometry": {"type": "Polygon", "coordinates": [[[-35.289128, -5.742978, 0], [-35.289123, -5.743017, 0], [-35.289231, -5.743029, 0], [-35.289236, -5.74299, 0], [-35.289128, -5.742978, 0]]]}, "properties": {"nsvia": "Nossa Senhora da Apresentacao", "address": "RO BR 101 NORTE, S/N", "postcode": "59115-001"}},
{"type": "Feature", "geometry": {"type": "Polygon", "coordinates": [[[-35.288476, -5.73932, 0], [-35.288469, -5.739365, 0], [-35.288563, -5.739379, 0], [-35.288567, -5.739351, 0], [-35.288552, -5.739349, 0], [-35.288554, -5.739331, 0], [-35.288476, -5.73932, 0]]]}, "properties": {"nsvia": "Nossa Senhora da Apresentacao", "address": "TV SANTA LUIZA, S/N", "postcode": "59114-122"}},
{"type": "Feature", "geometry": {"type": "Polygon", "coordinates": [[[-35.288528, -5.738626, 0], [-35.288542, -5.738699, 0], [-35.288598, -5.738689, 0], [-35.288584, -5.738616, 0], [-35.288528, -5.738626, 0]]]}, "properties": {"nsvia": "Nossa Senhora da Apresentacao", "address": "TV SEM DENOMINACAO, S/N", "postcode": "59000-000"}},
{"type": "Feature", "geometry": {"type": "Polygon", "coordinates": [[[-35.289278, -5.738934, 0], [-35.289268, -5.739036, 0], [-35.28932, -5.739041, 0], [-35.289331, -5.738939, 0], [-35.289278, -5.738934, 0]]]}, "properties": {"nsvia": "Nossa Senhora da Apresentacao", "address": "RO BR 101 NORTE, S/N", "postcode": "59115-001"}},
{"type": "Feature", "geometry": {"type": "Polygon", "coordinates": [[[-35.288634, -5.747061, 0], [-35.287884, -5.746975, 0], [-35.287861, -5.747181, 0], [-35.28821, -5.747221, 0], [-35.28821, -5.747226, 0], [-35.28827, -5.747233, 0], [-35.288271, -5.747228, 0], [-35.288611, -5.747267, 0], [-35.288634, -5.747061, 0]]]}, "properties": {"nsvia": "Nossa Senhora da Apresentacao", "address": "RO BR 101 NORTE, 10500", "postcode": "59115-001"}},
{"type": "Feature", "geometry": {"type": "Polygon", "coordinates": [[[-35.288888, -5.738887, 0], [-35.288832, -5.739377, 0], [-35.288827, -5.739377, 0], [-35.288818, -5.73946, 0], [-35.289034, -5.739484, 0], [-35.289044, -5.739402, 0], [-35.289099, -5.739408, 0], [-35.289154, -5.738917, 0], [-35.288888, -5.738887, 0]]]}, "properties": {"nsvia": "Nossa Senhora da Apresentacao", "address": "RO BR 101 NORTE, S/N", "postcode": "59115-001"}},
{"type": "Feature", "geometry": {"type": "Polygon", "coordinates": [[[-35.288758, -5.738908, 0], [-35.288768, -5.738908, 0], [-35.288767, -5.738892, 0], [-35.288759, -5.738892, 0], [-35.288757, -5.738856, 0], [-35.288662, -5.738861, 0], [-35.288665, -5.738925, 0], [-35.288759, -5.738921, 0], [-35.288758, -5.738908, 0]]]}, "properties": {"nsvia": "Nossa Senhora da Apresentacao", "address": "TV SANTA LUIZA, S/N", "postcode": "59114-122"}},
{"type": "Feature", "geometry": {"type": "Polygon", "coordinates": [[[-35.288735, -5.747015, 0], [-35.288796, -5.746405, 0], [-35.288601, -5.746385, 0], [-35.288632, -5.74608, 0], [-35.288485, -5.746065, 0], [-35.288454, -5.74637, 0], [-35.288424, -5.746367, 0], [-35.288423, -5.746372, 0], [-35.288404, -5.74637, 0], [-35.288407, -5.746348, 0], [-35.288231, -5.746326, 0], [-35.288156, -5.746949, 0], [-35.288373, -5.746975, 0], [-35.288396, -5.746786, 0], [-35.288409, -5.746787, 0], [-35.28844, -5.746527, 0], [-35.288561, -5.746539, 0], [-35.288515, -5.746993, 0], [-35.288735, -5.747015, 0]]]}, "properties": {"nsvia": "Nossa Senhora da Apresentacao", "address": "RO BR 101 NORTE, 10500", "postcode": "59115-001"}},
{"type": "Feature", "geometry": {"type": "Polygon", "coordinates": [[[-35.288646, -5.739842, 0], [-35.288638, -5.739918, 0], [-35.288742, -5.73993, 0], [-35.28875, -5.739854, 0], [-35.288646, -5.739842, 0]]]}, "properties": {"nsvia": "Nossa Senhora da Apresentacao", "address": "RO BR 101 NORTE, 10150", "postcode": "59115-001"}},
{"type": "Feature", "geometry": {"type": "Polygon", "coordinates": [[[-35.289066, -5.739892, 0], [-35.289057, -5.739972, 0], [-35.289149, -5.739982, 0], [-35.289158, -5.739903, 0], [-35.289066, -5.739892, 0]]]}, "properties": {"nsvia": "Nossa Senhora da Apresentacao", "address": "RO BR 101 NORTE, 10150", "postcode": "59115-001"}},
{"type": "Feature", "geometry": {"type": "Polygon", "coordinates": [[[-35.288337, -5.754202, 0], [-35.288323, -5.754343, 0], [-35.28839, -5.754349, 0], [-35.288404, -5.754208, 0], [-35.288337, -5.754202, 0]]]}, "properties": {"nsvia": "Nossa Senhora da Apresentacao", "address": "RO BR 101 NORTE, 02", "postcode": "59115-001"}},
{"type": "Feature", "geometry": {"type": "Polygon", "coordinates": [[[-35.28816, -5.730074, 0], [-35.288115, -5.730447, 0], [-35.28827, -5.730466, 0], [-35.288315, -5.730093, 0], [-35.28816, -5.730074, 0]]]}, "properties": {"nsvia": "Nossa Senhora da Apresentacao", "address": "RO BR 101 NORTE, S/N", "postcode": "59115-001"}},
{"type": "Feature", "geometry": {"type": "Polygon", "coordinates": [[[-35.289143, -5.747121, 0], [-35.289122, -5.747342, 0], [-35.289165, -5.747347, 0], [-35.289187, -5.747125, 0], [-35.289143, -5.747121, 0]]]}, "properties": {"nsvia": "Nossa Senhora da Apresentacao", "address": "RO BR 101 NORTE, 10500", "postcode": "59115-001"}},
{"type": "Feature", "geometry": {"type": "Polygon", "coordinates": [[[-35.289291, -5.741866, 0], [-35.289264, -5.742115, 0], [-35.289378, -5.742127, 0], [-35.289405, -5.741879, 0], [-35.289291, -5.741866, 0]]]}, "properties": {"nsvia": "Nossa Senhora da Apresentacao", "address": "RO BR 101 NORTE, S/N", "postcode": "59115-001"}},
{"type": "Feature", "geometry": {"type": "Polygon", "coordinates": [[[-35.289462, -5.743327, 0], [-35.289455, -5.743389, 0], [-35.289467, -5.74339, 0], [-35.289451, -5.743522, 0], [-35.289484, -5.743526, 0], [-35.289507, -5.743332, 0], [-35.289462, -5.743327, 0]]]}, "properties": {"nsvia": "Nossa Senhora da Apresentacao", "address": "RO BR 101 NORTE, S/N", "postcode": "59115-001"}},
{"type": "Feature", "geometry": {"type": "Polygon", "coordinates": [[[-35.289639, -5.736855, 0], [-35.289614, -5.737063, 0], [-35.289981, -5.737107, 0], [-35.290006, -5.736899, 0], [-35.289639, -5.736855, 0]]]}, "properties": {"nsvia": "Nossa Senhora da Apresentacao", "address": "RO BR 101 NORTE, 1501", "postcode": "59115-001"}}]}
