{"type": "FeatureCollection", "features": [
{"type": "Feature", "geometry": {"type": "Polygon", "coordinates": [[[-47.805301, -16.004507], [-47.805215, -16.004644], [-47.805134, -16.004775], [-47.805051, -16.004908], [-47.804957, -16.005057], [-47.804865, -16.005205], [-47.804852, -16.005228], [-47.804765, -16.005367], [-47.804671, -16.005517], [-47.80455, -16.005712], [-47.804452, -16.005869], [-47.804367, -16.006004], [-47.804227, -16.00623], [-47.804108, -16.006417], [-47.803966, -16.006647], [-47.803839, -16.006852], [-47.80374, -16.007005], [-47.803826, -16.007029], [-47.804007, -16.007073], [-47.804159, -16.007107], [-47.804349, -16.007149], [-47.804487, -16.007178], [-47.804679, -16.007225], [-47.804812, -16.007252], [-47.804983, -16.007291], [-47.805168, -16.007335], [-47.805331, -16.007371], [-47.805467, -16.0074], [-47.805605, -16.007428], [-47.805736, -16.007455], [-47.805919, -16.007493], [-47.806037, -16.007516], [-47.806101, -16.007529], [-47.806147, -16.007539], [-47.80629, -16.007571], [-47.806432, -16.007601], [-47.806533, -16.007623], [-47.806622, -16.00764], [-47.806754, -16.007667], [-47.806848, -16.007685], [-47.806885, -16.00773], [-47.806897, -16.007695], [-47.806933, -16.007572], [-47.806966, -16.007461], [-47.806984, -16.0074], [-47.807001, -16.007336], [-47.807031, -16.007208], [-47.807075, -16.007031], [-47.807119, -16.006853], [-47.807137, -16.006817], [-47.80721, -16.006666], [-47.807298, -16.006486], [-47.8073, -16.006484], [-47.807382, -16.00632], [-47.807542, -16.00601], [-47.807521, -16.005984], [-47.807423, -16.005868], [-47.807379, -16.005812], [-47.807298, -16.005713], [-47.807256, -16.005661], [-47.80709, -16.005454], [-47.807044, -16.005416], [-47.806881, -16.005289], [-47.806778, -16.005205], [-47.806743, -16.005177], [-47.806653, -16.005107], [-47.806562, -16.005035], [-47.80649, -16.004975], [-47.80636, -16.004874], [-47.806226, -16.004767], [-47.80608, -16.004656], [-47.806075, -16.004651], [-47.80596, -16.004534], [-47.805804, -16.004372], [-47.805707, -16.004269], [-47.80555, -16.004106], [-47.805475, -16.004227], [-47.805392, -16.004364], [-47.805301, -16.004507]]]}, "properties": {}},
{"type": "Feature", "geometry": {"type": "Polygon", "coordinates": [[[-47.807228, -16.003738], [-47.807074, -16.00386], [-47.806912, -16.003987], [-47.80678, -16.004091], [-47.806662, -16.004186], [-47.806534, -16.004289], [-47.806422, -16.004376], [-47.806266, -16.004499], [-47.806075, -16.004651], [-47.80608, -16.004656], [-47.806226, -16.004767], [-47.80636, -16.004874], [-47.80649, -16.004975], [-47.806562, -16.005035], [-47.806653, -16.005107], [-47.806743, -16.005177], [-47.806778, -16.005205], [-47.806881, -16.005289], [-47.807044, -16.005416], [-47.80709, -16.005454], [-47.807256, -16.005661], [-47.807298, -16.005713], [-47.807379, -16.005812], [-47.807423, -16.005868], [-47.807521, -16.005984], [-47.807558, -16.005975], [-47.807565, -16.005973], [-47.807744, -16.005929], [-47.807878, -16.005894], [-47.808148, -16.005826], [-47.808402, -16.005764], [-47.808568, -16.005721], [-47.808761, -16.005669], [-47.80889, -16.005555], [-47.809024, -16.00543], [-47.809192, -16.005272], [-47.809256, -16.005211], [-47.809254, -16.005205], [-47.809235, -16.005145], [-47.809184, -16.004979], [-47.809098, -16.004902], [-47.808978, -16.004795], [-47.808818, -16.004655], [-47.808713, -16.004564], [-47.80859, -16.004456], [-47.808467, -16.004349], [-47.808326, -16.004227], [-47.808186, -16.004105], [-47.807924, -16.003876], [-47.807796, -16.003768], [-47.807641, -16.00363], [-47.807512, -16.003517], [-47.807364, -16.003627], [-47.807298, -16.003681], [-47.807228, -16.003738]]]}, "properties": {}},
{"type": "Feature", "geometry": {"type": "Polygon", "coordinates": [[[-47.811087, -16.001494], [-47.811105, -16.001471], [-47.811134, -16.001419], [-47.811217, -16.001268], [-47.811336, -16.001058], [-47.811449, -16.000858], [-47.811552, -16.000671], [-47.811655, -16.000491], [-47.811729, -16.000362], [-47.811816, -16.000209], [-47.811887, -16.000084], [-47.811936, -15.999997], [-47.811965, -15.999948], [-47.811778, -15.999885], [-47.811551, -15.99981], [-47.811373, -15.999743], [-47.811173, -15.99968], [-47.810994, -15.999619], [-47.810833, -15.999975], [-47.81082, -15.999997], [-47.810699, -16.00022], [-47.810582, -16.000433], [-47.810538, -16.000515], [-47.810489, -16.000607], [-47.810409, -16.000764], [-47.810337, -16.000906], [-47.810253, -16.001088], [-47.810348, -16.001135], [-47.810506, -16.00122], [-47.810567, -16.001249], [-47.810644, -16.001286], [-47.810851, -16.001388], [-47.811087, -16.001494]]]}, "properties": {}},
{"type": "Feature", "geometry": {"type": "Polygon", "coordinates": [[[-47.807677, -16.000685], [-47.807481, -16.000984], [-47.807469, -16.001005], [-47.807423, -16.001084], [-47.807298, -16.001281], [-47.807275, -16.001318], [-47.807298, -16.001333], [-47.807495, -16.001455], [-47.807635, -16.001553], [-47.807779, -16.001659], [-47.807973, -16.001792], [-47.808254, -16.001963], [-47.808359, -16.002021], [-47.80837, -16.002006], [-47.808466, -16.001855], [-47.808718, -16.001456], [-47.808966, -16.00105], [-47.809057, -16.000904], [-47.809148, -16.000753], [-47.809225, -16.000636], [-47.809077, -16.000563], [-47.808891, -16.000469], [-47.808739, -16.000394], [-47.808667, -16.000359], [-47.808607, -16.00033], [-47.808483, -16.000268], [-47.808059, -16.000061], [-47.807999, -16.000168], [-47.807838, -16.000427], [-47.807677, -16.000685]]]}, "properties": {}},
{"type": "Feature", "geometry": {"type": "Polygon", "coordinates": [[[-47.806284, -16.002919], [-47.806184, -16.003081], [-47.806089, -16.003238], [-47.805996, -16.003387], [-47.805848, -16.003629], [-47.805713, -16.003843], [-47.805688, -16.003882], [-47.805669, -16.003912], [-47.805572, -16.00407], [-47.80555, -16.004106], [-47.805707, -16.004269], [-47.805804, -16.004372], [-47.80596, -16.004534], [-47.806075, -16.004651], [-47.806266, -16.004499], [-47.806422, -16.004376], [-47.806534, -16.004289], [-47.806662, -16.004186], [-47.80678, -16.004091], [-47.806912, -16.003987], [-47.807074, -16.00386], [-47.807228, -16.003738], [-47.807298, -16.003681], [-47.807364, -16.003627], [-47.807512, -16.003517], [-47.80736, -16.003377], [-47.807298, -16.003326], [-47.807234, -16.003273], [-47.807097, -16.003152], [-47.806986, -16.003054], [-47.806877, -16.002961], [-47.806772, -16.002866], [-47.806616, -16.002727], [-47.806528, -16.002658], [-47.806484, -16.002626], [-47.806467, -16.002629], [-47.806374, -16.002777], [-47.806284, -16.002919]]]}, "properties": {}},
{"type": "Feature", "geometry": {"type": "Polygon", "coordinates": [[[-47.808655, -15.999083], [-47.808573, -15.99922], [-47.80843, -15.999447], [-47.808337, -15.999597], [-47.808224, -15.999782], [-47.808087, -15.999997], [-47.808078, -16.000011], [-47.80814, -16.000042], [-47.808361, -16.000154], [-47.808574, -16.000262], [-47.808822, -16.000385], [-47.809037, -16.000491], [-47.809251, -16.000599], [-47.809371, -16.000359], [-47.809479, -16.000153], [-47.809507, -16.000099], [-47.809557, -15.999997], [-47.809571, -15.99997], [-47.809619, -15.999876], [-47.809649, -15.999822], [-47.809731, -15.999661], [-47.809826, -15.99948], [-47.80993, -15.99926], [-47.80986, -15.999235], [-47.809656, -15.999169], [-47.809463, -15.9991], [-47.809295, -15.999044], [-47.809113, -15.998982], [-47.808943, -15.998923], [-47.80879, -15.998869], [-47.80874, -15.998948], [-47.808655, -15.999083]]]}, "properties": {}},
{"type": "Feature", "geometry": {"type": "Polygon", "coordinates": [[[-47.810086, -15.996812], [-47.809974, -15.99699], [-47.809824, -15.997223], [-47.809691, -15.997427], [-47.809708, -15.997634], [-47.809939, -15.997683], [-47.810234, -15.997743], [-47.810481, -15.997794], [-47.810842, -15.997883], [-47.811344, -15.998011], [-47.811393, -15.997884], [-47.81152, -15.997555], [-47.811551, -15.997471], [-47.811641, -15.997236], [-47.811721, -15.997022], [-47.811776, -15.99689], [-47.811566, -15.996792], [-47.811317, -15.996681], [-47.811126, -15.996593], [-47.81097, -15.996516], [-47.810791, -15.996442], [-47.810521, -15.99632], [-47.810425, -15.996278], [-47.810339, -15.996416], [-47.810217, -15.996607], [-47.810086, -15.996812]]]}, "properties": {}},
{"type": "Feature", "geometry": {"type": "Polygon", "coordinates": [[[-47.810089, -16.001007], [-47.810253, -16.001088], [-47.810337, -16.000906], [-47.810409, -16.000764], [-47.810489, -16.000607], [-47.810538, -16.000515], [-47.810582, -16.000433], [-47.810699, -16.00022], [-47.81082, -15.999997], [-47.810833, -15.999975], [-47.810994, -15.999619], [-47.810557, -15.999471], [-47.810326, -15.999394], [-47.81006, -15.999306], [-47.80993, -15.99926], [-47.809826, -15.99948], [-47.809731, -15.999661], [-47.809649, -15.999822], [-47.809619, -15.999876], [-47.809571, -15.99997], [-47.809557, -15.999997], [-47.809507, -16.000099], [-47.809479, -16.000153], [-47.809371, -16.000359], [-47.809251, -16.000599], [-47.809515, -16.00072], [-47.809645, -16.000787], [-47.809994, -16.000958], [-47.810089, -16.001007]]]}, "properties": {}},
{"type": "Feature", "geometry": {"type": "Polygon", "coordinates": [[[-47.809362, -15.997946], [-47.809265, -15.998102], [-47.809177, -15.998242], [-47.809039, -15.998467], [-47.808984, -15.998555], [-47.808866, -15.998743], [-47.80879, -15.998868], [-47.808943, -15.998923], [-47.809113, -15.998982], [-47.809295, -15.999044], [-47.809463, -15.9991], [-47.809656, -15.999169], [-47.80986, -15.999235], [-47.80993, -15.99926], [-47.809973, -15.999163], [-47.81003, -15.999029], [-47.810097, -15.998867], [-47.810159, -15.998718], [-47.810233, -15.99854], [-47.810276, -15.998436], [-47.810375, -15.998201], [-47.810451, -15.998018], [-47.810511, -15.997877], [-47.810449, -15.997861], [-47.810273, -15.997825], [-47.810116, -15.997794], [-47.809934, -15.997756], [-47.809784, -15.997725], [-47.809619, -15.997693], [-47.809516, -15.997698], [-47.809444, -15.997813], [-47.809362, -15.997946]]]}, "properties": {}},
{"type": "Feature", "geometry": {"type": "Polygon", "coordinates": [[[-47.803739, -16.007396], [-47.803738, -16.007588], [-47.803736, -16.007744], [-47.803837, -16.007916], [-47.80393, -16.00809], [-47.804025, -16.00826], [-47.80411, -16.008415], [-47.8042, -16.008576], [-47.804273, -16.008706], [-47.80436, -16.008864], [-47.804405, -16.008943], [-47.804511, -16.008994], [-47.804638, -16.009039], [-47.804797, -16.009098], [-47.804924, -16.009144], [-47.805091, -16.009204], [-47.805176, -16.009235], [-47.805174, -16.00893], [-47.805174, -16.008772], [-47.805173, -16.008638], [-47.805173, -16.00846], [-47.805172, -16.00833], [-47.805172, -16.007983], [-47.805171, -16.007856], [-47.805171, -16.007515], [-47.805168, -16.007335], [-47.804983, -16.007291], [-47.804812, -16.007252], [-47.804679, -16.007225], [-47.804487, -16.007178], [-47.804349, -16.007149], [-47.804159, -16.007107], [-47.804007, -16.007073], [-47.803826, -16.007029], [-47.80374, -16.007005], [-47.803735, -16.007085], [-47.803742, -16.007181], [-47.803739, -16.007396]]]}, "properties": {}},
{"type": "Feature", "geometry": {"type": "Polygon", "coordinates": [[[-47.811551, -15.997471], [-47.81152, -15.997555], [-47.811393, -15.997884], [-47.811344, -15.998011], [-47.811618, -15.998059], [-47.811856, -15.998099], [-47.812089, -15.998142], [-47.812302, -15.998178], [-47.812506, -15.998213], [-47.812556, -15.998221], [-47.812744, -15.998254], [-47.812984, -15.998294], [-47.813033, -15.998302], [-47.813176, -15.998337], [-47.813338, -15.997967], [-47.813445, -15.997752], [-47.813483, -15.997675], [-47.813333, -15.997611], [-47.81309, -15.997495], [-47.812891, -15.997403], [-47.81288, -15.997398], [-47.812745, -15.997336], [-47.812564, -15.997255], [-47.812506, -15.997228], [-47.812414, -15.997187], [-47.812208, -15.997091], [-47.812054, -15.997021], [-47.811776, -15.99689], [-47.811721, -15.997022], [-47.811641, -15.997236], [-47.811551, -15.997471]]]}, "properties": {}},
{"type": "Feature", "geometry": {"type": "Polygon", "coordinates": [[[-47.810276, -15.998436], [-47.810233, -15.99854], [-47.810159, -15.998718], [-47.810097, -15.998867], [-47.81003, -15.999029], [-47.809973, -15.999163], [-47.80993, -15.99926], [-47.81006, -15.999306], [-47.810326, -15.999394], [-47.810557, -15.999471], [-47.810994, -15.999619], [-47.810997, -15.999612], [-47.811083, -15.999396], [-47.811187, -15.999134], [-47.811299, -15.998854], [-47.811438, -15.998521], [-47.811589, -15.998128], [-47.811542, -15.998119], [-47.811234, -15.998055], [-47.810974, -15.997993], [-47.810762, -15.997937], [-47.810709, -15.997924], [-47.810511, -15.997877], [-47.810451, -15.998018], [-47.810375, -15.998201], [-47.810276, -15.998436]]]}, "properties": {}},
{"type": "Feature", "geometry": {"type": "Polygon", "coordinates": [[[-47.809109, -16.003106], [-47.809022, -16.00321], [-47.808907, -16.00334], [-47.808821, -16.003436], [-47.808702, -16.003565], [-47.808595, -16.003684], [-47.808466, -16.003829], [-47.808383, -16.003922], [-47.808265, -16.004057], [-47.808239, -16.004081], [-47.808233, -16.004087], [-47.80838, -16.004218], [-47.808492, -16.004309], [-47.808618, -16.00442], [-47.808703, -16.004492], [-47.808864, -16.004626], [-47.809004, -16.004505], [-47.809163, -16.004369], [-47.809341, -16.004219], [-47.809444, -16.004131], [-47.809606, -16.003991], [-47.809738, -16.003874], [-47.809864, -16.003763], [-47.809865, -16.003763], [-47.809952, -16.00369], [-47.809988, -16.003669], [-47.810063, -16.003669], [-47.81023, -16.003672], [-47.810465, -16.003682], [-47.810584, -16.003683], [-47.810698, -16.003684], [-47.810831, -16.003686], [-47.810842, -16.003656], [-47.810766, -16.003603], [-47.810693, -16.003558], [-47.810543, -16.003458], [-47.810318, -16.003314], [-47.810098, -16.003164], [-47.810009, -16.003106], [-47.8098, -16.002973], [-47.809607, -16.002885], [-47.809451, -16.002813], [-47.809426, -16.002869], [-47.809322, -16.002838], [-47.809222, -16.002797], [-47.809187, -16.002924], [-47.809144, -16.003061], [-47.809109, -16.003106]]]}, "properties": {}},
{"type": "Feature", "geometry": {"type": "Polygon", "coordinates": [[[-47.810291, -16.001412], [-47.810171, -16.001571], [-47.810069, -16.001706], [-47.809886, -16.001957], [-47.809797, -16.002074], [-47.809705, -16.002196], [-47.809608, -16.00233], [-47.809553, -16.0024], [-47.809637, -16.002444], [-47.809577, -16.002594], [-47.809712, -16.002664], [-47.809607, -16.002885], [-47.8098, -16.002973], [-47.809987, -16.003092], [-47.810005, -16.003046], [-47.81003, -16.003004], [-47.810097, -16.002901], [-47.810217, -16.002712], [-47.810305, -16.002582], [-47.810403, -16.002432], [-47.810525, -16.002247], [-47.81075, -16.001937], [-47.81082, -16.001836], [-47.810924, -16.001685], [-47.811026, -16.001535], [-47.810749, -16.001395], [-47.810657, -16.00135], [-47.810439, -16.001242], [-47.810404, -16.001266], [-47.810385, -16.001283], [-47.810291, -16.001412]]]}, "properties": {}},
{"type": "Feature", "geometry": {"type": "Polygon", "coordinates": [[[-47.807086, -16.001626], [-47.806971, -16.001809], [-47.806854, -16.001997], [-47.806737, -16.002189], [-47.80664, -16.002341], [-47.806522, -16.002538], [-47.8065, -16.002574], [-47.806567, -16.002631], [-47.806711, -16.002756], [-47.806865, -16.002887], [-47.806983, -16.002993], [-47.807111, -16.003103], [-47.807263, -16.003236], [-47.807403, -16.003356], [-47.807458, -16.003283], [-47.807537, -16.003173], [-47.807673, -16.002984], [-47.807753, -16.00287], [-47.807884, -16.002687], [-47.807989, -16.002544], [-47.808145, -16.002324], [-47.808272, -16.002146], [-47.808359, -16.002021], [-47.808254, -16.001963], [-47.807973, -16.001792], [-47.807779, -16.001659], [-47.807635, -16.001553], [-47.807495, -16.001455], [-47.807298, -16.001333], [-47.807275, -16.001318], [-47.807272, -16.001322], [-47.80718, -16.001474], [-47.807086, -16.001626]]]}, "properties": {}},
{"type": "Feature", "geometry": {"type": "Polygon", "coordinates": [[[-47.808966, -16.00105], [-47.808718, -16.001456], [-47.808466, -16.001855], [-47.80837, -16.002006], [-47.808359, -16.002021], [-47.808272, -16.002146], [-47.808145, -16.002324], [-47.807989, -16.002544], [-47.807884, -16.002687], [-47.807753, -16.00287], [-47.807673, -16.002984], [-47.807537, -16.003173], [-47.807458, -16.003283], [-47.807403, -16.003356], [-47.807535, -16.003472], [-47.807678, -16.003598], [-47.807861, -16.00376], [-47.807971, -16.003858], [-47.808063, -16.003939], [-47.80811, -16.003978], [-47.80823, -16.00404], [-47.808265, -16.004057], [-47.808383, -16.003922], [-47.808466, -16.003829], [-47.808595, -16.003684], [-47.808702, -16.003565], [-47.808821, -16.003436], [-47.808907, -16.00334], [-47.809022, -16.00321], [-47.809109, -16.003106], [-47.809144, -16.003061], [-47.809187, -16.002924], [-47.809222, -16.002797], [-47.809322, -16.002838], [-47.809426, -16.002869], [-47.809451, -16.002813], [-47.809607, -16.002885], [-47.809712, -16.002664], [-47.809577, -16.002594], [-47.809637, -16.002444], [-47.809553, -16.0024], [-47.809608, -16.00233], [-47.809705, -16.002196], [-47.809797, -16.002074], [-47.809886, -16.001957], [-47.810069, -16.001706], [-47.810171, -16.001571], [-47.810291, -16.001412], [-47.810385, -16.001283], [-47.810351, -16.001265], [-47.810356, -16.001244], [-47.810356, -16.00123], [-47.810335, -16.00119], [-47.810283, -16.001165], [-47.810118, -16.001082], [-47.80996, -16.001004], [-47.809743, -16.000896], [-47.809539, -16.000793], [-47.809225, -16.000636], [-47.809148, -16.000753], [-47.809057, -16.000904], [-47.808966, -16.00105]]]}, "properties": {}},
{"type": "Feature", "geometry": {"type": "Polygon", "coordinates": [[[-47.811187, -15.999134], [-47.811083, -15.999396], [-47.810997, -15.999612], [-47.810994, -15.999619], [-47.811173, -15.99968], [-47.811373, -15.999743], [-47.811551, -15.99981], [-47.811778, -15.999885], [-47.811965, -15.999948], [-47.812092, -15.999779], [-47.812215, -15.999612], [-47.812323, -15.999467], [-47.812478, -15.999253], [-47.812506, -15.999218], [-47.812609, -15.999088], [-47.812778, -15.998856], [-47.812925, -15.998658], [-47.813118, -15.998398], [-47.81299, -15.998378], [-47.812506, -15.998293], [-47.812469, -15.998287], [-47.812203, -15.998238], [-47.811884, -15.998184], [-47.811589, -15.998128], [-47.811438, -15.998521], [-47.811299, -15.998854], [-47.811187, -15.999134]]]}, "properties": {}}]}
