{"type": "FeatureCollection", "features": [
{"type": "Feature", "geometry": {"type": "MultiLineString", "coordinates": [[[-38.505589, -3.883856], [-38.505715, -3.88515]], [[-38.505096, -3.880256], [-38.505138, -3.880367], [-38.50515, -3.880425], [-38.505161, -3.880647], [-38.505188, -3.880818], [-38.505197, -3.880929]], [[-38.505354, -3.881939], [-38.505366, -3.88198], [-38.505589, -3.883856]], [[-38.505197, -3.880929], [-38.505213, -3.881006], [-38.505234, -3.881173], [-38.505244, -3.881331], [-38.505318, -3.881685], [-38.505333, -3.881835], [-38.505339, -3.881898], [-38.505354, -3.881939]]]}, "properties": {"via": "RUA  ACEGUÁ"}},
{"type": "Feature", "geometry": {"type": "MultiLineString", "coordinates": [[[-38.507232, -3.880173], [-38.507285, -3.880634]], [[-38.507429, -3.881622], [-38.507435, -3.88182], [-38.50748, -3.882149], [-38.507535, -3.882515], [-38.507645, -3.883378]], [[-38.507285, -3.880634], [-38.507429, -3.881622]]]}, "properties": {"via": "RUA  ISABEL SALES"}},
{"type": "Feature", "geometry": {"type": "LineString", "coordinates": [[-38.508661, -3.880637], [-38.508882, -3.881397]]}, "properties": {"via": "RUA  VIRGINIA ALICE"}},
{"type": "Feature", "geometry": {"type": "MultiLineString", "coordinates": [[[-38.492301, -3.868324], [-38.492472, -3.868983]], [[-38.492634, -3.869643], [-38.492831, -3.870358]], [[-38.492472, -3.868983], [-38.492634, -3.869643]]]}, "properties": {"via": "RUA  RECANTO SERENO"}},
{"type": "Feature", "geometry": {"type": "MultiLineString", "coordinates": [[[-38.496004, -3.875655], [-38.496118, -3.876055]], [[-38.496004, -3.875655], [-38.495918, -3.87541], [-38.495872, -3.875399]], [[-38.499478, -3.875177], [-38.499311, -3.875211], [-38.497829, -3.875409]], [[-38.496572, -3.875571], [-38.496004, -3.875655]], [[-38.497829, -3.875409], [-38.496572, -3.875571]]]}, "properties": {"via": "RUA  JOSÉ PEREIRA"}},
{"type": "Feature", "geometry": {"type": "MultiLineString", "coordinates": [[[-38.495867, -3.868014], [-38.495905, -3.868759]], [[-38.495851, -3.867272], [-38.495845, -3.867416], [-38.495867, -3.868014]], [[-38.495536, -3.865466], [-38.495658, -3.866148]], [[-38.49579, -3.866846], [-38.495843, -3.867166], [-38.495851, -3.867272]], [[-38.495658, -3.866148], [-38.49579, -3.866846]]]}, "properties": {"via": "RUA  1º DE MARÇO"}},
{"type": "Feature", "geometry": {"type": "MultiLineString", "coordinates": [[[-38.491794, -3.867606], [-38.491557, -3.867655]], [[-38.493657, -3.867226], [-38.492549, -3.867451]], [[-38.491987, -3.867567], [-38.491794, -3.867606]], [[-38.492549, -3.867451], [-38.491987, -3.867567]], [[-38.497518, -3.866554], [-38.496849, -3.86667]], [[-38.49579, -3.866846], [-38.494738, -3.867021]], [[-38.496849, -3.86667], [-38.49579, -3.866846]]]}, "properties": {"via": "RUA  20 DE ABRIL"}},
{"type": "Feature", "geometry": {"type": "MultiLineString", "coordinates": [[[-38.494328, -3.86752], [-38.493728, -3.867634]], [[-38.494807, -3.867443], [-38.494328, -3.86752]], [[-38.497533, -3.866943], [-38.496956, -3.867059]], [[-38.495851, -3.867272], [-38.494807, -3.867443]], [[-38.496956, -3.867059], [-38.495851, -3.867272]]]}, "properties": {"via": "RUA  PEROLINA DE MORAIS"}},
{"type": "Feature", "geometry": {"type": "MultiLineString", "coordinates": [[[-38.491677, -3.868315], [-38.49224, -3.868231], [-38.492301, -3.868324]], [[-38.492301, -3.868324], [-38.4938, -3.867997]]]}, "properties": {"via": "RUA DNA ZENAIDE SABÓIA"}},
{"type": "Feature", "geometry": {"type": "MultiLineString", "coordinates": [[[-38.494386, -3.869917], [-38.494695, -3.871169], [-38.495068, -3.872459]], [[-38.494208, -3.869241], [-38.494386, -3.869917]], [[-38.494176, -3.869055], [-38.494208, -3.869241]], [[-38.493927, -3.868667], [-38.494021, -3.869284]], [[-38.493728, -3.867634], [-38.4938, -3.867997]], [[-38.493657, -3.867226], [-38.493728, -3.867634]], [[-38.493577, -3.866549], [-38.493576, -3.866652], [-38.493657, -3.867226]], [[-38.493458, -3.865869], [-38.49358, -3.866497], [-38.493577, -3.866549]], [[-38.493877, -3.86834], [-38.493927, -3.868667]], [[-38.4938, -3.867997], [-38.493877, -3.86834]]]}, "properties": {"via": "RUA  1º DE ABRIL"}},
{"type": "Feature", "geometry": {"type": "MultiLineString", "coordinates": [[[-38.497829, -3.875409], [-38.498029, -3.876205]], [[-38.49764, -3.874703], [-38.497829, -3.875409]], [[-38.496411, -3.87212], [-38.496511, -3.872194], [-38.496885, -3.872154], [-38.49693, -3.872183], [-38.497018, -3.87249]], [[-38.497018, -3.87249], [-38.497228, -3.87321]], [[-38.497441, -3.873979], [-38.49764, -3.874703]], [[-38.497228, -3.87321], [-38.497441, -3.873979]]]}, "properties": {"via": "RUA FRE CANECA"}},
{"type": "Feature", "geometry": {"type": "MultiLineString", "coordinates": [[[-38.526972, -3.867024], [-38.526271, -3.86753]], [[-38.525243, -3.868271], [-38.52433, -3.868929]], [[-38.526271, -3.86753], [-38.525243, -3.868271]]]}, "properties": {"via": "RUA  G (PQ NOVO CEARA)"}},
{"type": "Feature", "geometry": {"type": "MultiLineString", "coordinates": [[[-38.52709, -3.867373], [-38.526521, -3.867881]], [[-38.52557, -3.868729], [-38.524877, -3.869287]], [[-38.526521, -3.867881], [-38.52557, -3.868729]]]}, "properties": {"via": "RUA  F PQ NOVO CEARA"}},
{"type": "Feature", "geometry": {"type": "MultiLineString", "coordinates": [[[-38.523469, -3.867969], [-38.523096, -3.867448]], [[-38.52235, -3.866404], [-38.521869, -3.865732]], [[-38.523096, -3.867448], [-38.522723, -3.866926]], [[-38.522723, -3.866926], [-38.52235, -3.866404]]]}, "properties": {"via": "RUA  B (PQ NOVO CEARA)"}},
{"type": "Feature", "geometry": {"type": "MultiLineString", "coordinates": [[[-38.523096, -3.867448], [-38.522387, -3.867959]], [[-38.524123, -3.866706], [-38.523096, -3.867448]], [[-38.526346, -3.865103], [-38.526183, -3.865221]], [[-38.525148, -3.865967], [-38.524123, -3.866706]], [[-38.526183, -3.865221], [-38.525148, -3.865967]]]}, "properties": {"via": "RUA  J (PQ NOVO CEARA)"}},
{"type": "Feature", "geometry": {"type": "MultiLineString", "coordinates": [[[-38.523469, -3.867969], [-38.523035, -3.868282]], [[-38.526544, -3.865751], [-38.525524, -3.866486]], [[-38.524497, -3.867228], [-38.523469, -3.867969]], [[-38.525524, -3.866486], [-38.524497, -3.867228]]]}, "properties": {"via": "RUA  I PQ NOVO CEARA"}},
{"type": "Feature", "geometry": {"type": "MultiLineString", "coordinates": [[[-38.521152, -3.867268], [-38.520921, -3.867435]], [[-38.52235, -3.866404], [-38.521152, -3.867268]], [[-38.526035, -3.863746], [-38.525452, -3.864177]], [[-38.525452, -3.864177], [-38.524405, -3.864921]], [[-38.523377, -3.865663], [-38.52235, -3.866404]], [[-38.524405, -3.864921], [-38.523377, -3.865663]]]}, "properties": {"via": "RUA  M (PQ NOVO CEARA)"}},
{"type": "Feature", "geometry": {"type": "MultiLineString", "coordinates": [[[-38.522723, -3.866926], [-38.521666, -3.867688]], [[-38.523748, -3.866186], [-38.522723, -3.866926]], [[-38.526172, -3.864437], [-38.52581, -3.864699]], [[-38.524775, -3.865445], [-38.523748, -3.866186]], [[-38.52581, -3.864699], [-38.524775, -3.865445]]]}, "properties": {"via": "RUA  L (PQ NOVO CEARA)"}},
{"type": "Feature", "geometry": {"type": "MultiLineString", "coordinates": [[[-38.52557, -3.868729], [-38.525243, -3.868271]], [[-38.525243, -3.868271], [-38.52487, -3.867751]], [[-38.52487, -3.867751], [-38.524497, -3.867228]], [[-38.523377, -3.865663], [-38.522898, -3.864993]], [[-38.523748, -3.866186], [-38.523377, -3.865663]], [[-38.524497, -3.867228], [-38.524123, -3.866706]], [[-38.524123, -3.866706], [-38.523748, -3.866186]]]}, "properties": {"via": "RUA  C (PQ NOVO CEARA)"}},
{"type": "Feature", "geometry": {"type": "MultiLineString", "coordinates": [[[-38.526521, -3.867881], [-38.526271, -3.86753]], [[-38.526271, -3.86753], [-38.525898, -3.867008]], [[-38.525898, -3.867008], [-38.525524, -3.866486]], [[-38.524405, -3.864921], [-38.523928, -3.864253]], [[-38.524775, -3.865445], [-38.524405, -3.864921]], [[-38.525524, -3.866486], [-38.525148, -3.865967]], [[-38.525148, -3.865967], [-38.524775, -3.865445]]]}, "properties": {"via": "RUA  D (PQ NOVO CEARA)"}},
{"type": "Feature", "geometry": {"type": "LineString", "coordinates": [[-38.510046, -3.872016], [-38.510274, -3.872898], [-38.510327, -3.872998]]}, "properties": {"via": "RUA  MATRIZ"}},
{"type": "Feature", "geometry": {"type": "MultiLineString", "coordinates": [[[-38.508847, -3.873402], [-38.509095, -3.874292]], [[-38.509362, -3.875127], [-38.509462, -3.875461], [-38.509697, -3.876387], [-38.509714, -3.876497]], [[-38.509095, -3.874292], [-38.509141, -3.874375], [-38.509362, -3.875127]]]}, "properties": {"via": "AVENIDA  PALMEIRA DOS ÍNDIOS"}},
{"type": "Feature", "geometry": {"type": "MultiLineString", "coordinates": [[[-38.506689, -3.876828], [-38.506813, -3.877274]], [[-38.506451, -3.875984], [-38.506689, -3.876828]], [[-38.505953, -3.874248], [-38.506451, -3.875984]], [[-38.504735, -3.869916], [-38.504972, -3.870726]], [[-38.50523, -3.871608], [-38.505472, -3.87248]], [[-38.504972, -3.870726], [-38.50523, -3.871608]], [[-38.505735, -3.873364], [-38.505724, -3.873419], [-38.505953, -3.874248]], [[-38.505472, -3.87248], [-38.505511, -3.872577], [-38.505735, -3.873364]]]}, "properties": {"via": "RUA  ISABEL SALES (PEDRAS)"}},
{"type": "Feature", "geometry": {"type": "MultiLineString", "coordinates": [[[-38.502324, -3.8781], [-38.502424, -3.878361]], [[-38.50159, -3.875517], [-38.501834, -3.876374]], [[-38.502091, -3.877229], [-38.502324, -3.8781]], [[-38.501834, -3.876374], [-38.502091, -3.877229]]]}, "properties": {"via": "RUA  TRÊS ESTRELAS"}},
{"type": "Feature", "geometry": {"type": "MultiLineString", "coordinates": [[[-38.501677, -3.886406], [-38.502829, -3.887164], [-38.502913, -3.887221], [-38.502965, -3.887246], [-38.502999, -3.887255], [-38.50303, -3.887263], [-38.503065, -3.887265], [-38.503098, -3.887265], [-38.503131, -3.887258], [-38.503155, -3.887246], [-38.50319, -3.887228], [-38.503222, -3.88721], [-38.504179, -3.886411], [-38.505096, -3.885695]], [[-38.506374, -3.884569], [-38.506716, -3.88429], [-38.506852, -3.884264]], [[-38.505096, -3.885695], [-38.505481, -3.885356]], [[-38.505481, -3.885356], [-38.506374, -3.884569]]]}, "properties": {"via": "RUA  ANDALUZIA"}},
{"type": "Feature", "geometry": {"type": "MultiLineString", "coordinates": [[[-38.498145, -3.86897], [-38.499166, -3.868528]], [[-38.499166, -3.868528], [-38.499251, -3.868499]], [[-38.499251, -3.868499], [-38.499469, -3.868475], [-38.500747, -3.867939], [-38.501423, -3.867629], [-38.501763, -3.867519]], [[-38.503903, -3.867008], [-38.504185, -3.866904]], [[-38.504185, -3.866904], [-38.50448, -3.866796]], [[-38.501763, -3.867519], [-38.502386, -3.867391], [-38.503123, -3.86724], [-38.503622, -3.8671]], [[-38.503622, -3.8671], [-38.503903, -3.867008]], [[-38.505762, -3.866213], [-38.506523, -3.865858]], [[-38.506523, -3.865858], [-38.50664, -3.865804]], [[-38.505007, -3.866561], [-38.505366, -3.866396]], [[-38.505366, -3.866396], [-38.505762, -3.866213]], [[-38.50448, -3.866796], [-38.504727, -3.866686]], [[-38.504727, -3.866686], [-38.505007, -3.866561]], [[-38.508111, -3.865139], [-38.508892, -3.864787]], [[-38.508892, -3.864787], [-38.509226, -3.864633]], [[-38.510487, -3.864307], [-38.511009, -3.864163]], [[-38.511009, -3.864163], [-38.511735, -3.863959]], [[-38.515498, -3.863069], [-38.516896, -3.862705]], [[-38.515275, -3.863076], [-38.515398, -3.863007], [-38.517252, -3.862518], [-38.517379, -3.86252]], [[-38.516896, -3.862705], [-38.51729, -3.862602], [-38.517379, -3.86252]], [[-38.511735, -3.863959], [-38.512348, -3.86381]], [[-38.512382, -3.86389], [-38.513488, -3.863598]], [[-38.513488, -3.863598], [-38.514585, -3.863309]], [[-38.514585, -3.863309], [-38.515239, -3.863137]], [[-38.512348, -3.86381], [-38.515008, -3.863109], [-38.515275, -3.863076]], [[-38.509226, -3.864633], [-38.509705, -3.864527], [-38.510071, -3.864422]], [[-38.510071, -3.864422], [-38.510487, -3.864307]], [[-38.50664, -3.865804], [-38.507329, -3.865484]], [[-38.507329, -3.865484], [-38.508111, -3.865139]]]}, "properties": {"via": "RUA  DO CRUZEIRO"}},
{"type": "Feature", "geometry": {"type": "MultiLineString", "coordinates": [[[-38.504633, -3.88202], [-38.505354, -3.881939]], [[-38.505354, -3.881939], [-38.505436, -3.881947], [-38.505979, -3.881861], [-38.506036, -3.881845]], [[-38.508149, -3.881516], [-38.508204, -3.881496], [-38.508882, -3.881397]], [[-38.507429, -3.881622], [-38.508028, -3.881559], [-38.508149, -3.881516]], [[-38.506036, -3.881845], [-38.506099, -3.881826], [-38.506743, -3.881729]], [[-38.506743, -3.881729], [-38.507429, -3.881622]]]}, "properties": {"via": "RUA  TEODORICO CRUZ"}},
{"type": "Feature", "geometry": {"type": "MultiLineString", "coordinates": [[[-38.491282, -3.870006], [-38.490789, -3.870109], [-38.490671, -3.870099]], [[-38.494208, -3.869241], [-38.494021, -3.869284]], [[-38.492634, -3.869643], [-38.491282, -3.870006]], [[-38.494021, -3.869284], [-38.492634, -3.869643]], [[-38.4976, -3.868454], [-38.496639, -3.86863]], [[-38.495905, -3.868759], [-38.494176, -3.869055]], [[-38.496639, -3.86863], [-38.495905, -3.868759]]]}, "properties": {"via": "RUA  ADELAIDE PAULINO"}},
{"type": "Feature", "geometry": {"type": "MultiLineString", "coordinates": [[[-38.495867, -3.868014], [-38.494726, -3.868215], [-38.493877, -3.86834]], [[-38.497537, -3.867718], [-38.495867, -3.868014]]]}, "properties": {"via": "RUA  SHIRLEY"}},
{"type": "Feature", "geometry": {"type": "MultiLineString", "coordinates": [[[-38.514592, -3.894032], [-38.514084, -3.894515]], [[-38.515806, -3.892938], [-38.514592, -3.894032]], [[-38.515806, -3.892938], [-38.516759, -3.89206]], [[-38.518794, -3.890272], [-38.518813, -3.890248], [-38.519576, -3.889599]], [[-38.519576, -3.889599], [-38.520237, -3.888999]], [[-38.516759, -3.89206], [-38.518051, -3.89093]], [[-38.518051, -3.89093], [-38.518078, -3.890902], [-38.518794, -3.890272]], [[-38.521969, -3.88744], [-38.523594, -3.886043]], [[-38.523594, -3.886043], [-38.52486, -3.8849]], [[-38.529896, -3.880479], [-38.53116, -3.879364]], [[-38.527609, -3.882477], [-38.528915, -3.881323]], [[-38.528915, -3.881323], [-38.529896, -3.880479]], [[-38.52486, -3.8849], [-38.52632, -3.883613]], [[-38.52632, -3.883613], [-38.527609, -3.882477]], [[-38.520237, -3.888999], [-38.521742, -3.887633]], [[-38.521742, -3.887633], [-38.521969, -3.88744]]]}, "properties": {"via": "RUA  JORGE FIGUEIREDO"}},
{"type": "Feature", "geometry": {"type": "MultiLineString", "coordinates": [[[-38.489554, -3.873612], [-38.490258, -3.873613], [-38.490854, -3.873554], [-38.491482, -3.873457], [-38.491689, -3.873411], [-38.491936, -3.873346], [-38.492212, -3.873287], [-38.492482, -3.873244], [-38.49267, -3.873212], [-38.492858, -3.873172], [-38.495041, -3.872562]], [[-38.489573, -3.873393], [-38.490254, -3.873427], [-38.490841, -3.873408], [-38.491464, -3.87335], [-38.491981, -3.873283], [-38.492823, -3.8731], [-38.495068, -3.872459]], [[-38.495041, -3.872562], [-38.495181, -3.872512], [-38.495379, -3.872434], [-38.495627, -3.872353], [-38.495997, -3.872243], [-38.496411, -3.87212]], [[-38.49711, -3.871919], [-38.497237, -3.871957], [-38.497337, -3.872002], [-38.497435, -3.872073], [-38.497512, -3.872173], [-38.497562, -3.872275], [-38.497608, -3.872388], [-38.497676, -3.872492], [-38.497745, -3.872564], [-38.497829, -3.872624], [-38.497916, -3.872666], [-38.498004, -3.872688], [-38.498097, -3.872701], [-38.498228, -3.872684], [-38.498363, -3.872656], [-38.498461, -3.872659], [-38.498553, -3.872681], [-38.498639, -3.872724], [-38.498735, -3.872801], [-38.498826, -3.872901]], [[-38.496411, -3.87212], [-38.49711, -3.871919]], [[-38.503289, -3.870324], [-38.504735, -3.869916]], [[-38.504735, -3.869916], [-38.506179, -3.869488]], [[-38.5075, -3.868817], [-38.509311, -3.868286], [-38.5094, -3.868255], [-38.510131, -3.867931]], [[-38.524961, -3.863511], [-38.525997, -3.863264], [-38.52637, -3.863167], [-38.526787, -3.86305], [-38.52703, -3.86299], [-38.527342, -3.862888], [-38.527648, -3.862784], [-38.528084, -3.862663], [-38.528669, -3.862515], [-38.534372, -3.861211], [-38.536851, -3.860613], [-38.537202, -3.860513], [-38.537551, -3.860393], [-38.537906, -3.86025], [-38.538227, -3.860136], [-38.538525, -3.860053], [-38.54137, -3.859419], [-38.544727, -3.858638]], [[-38.518901, -3.86458], [-38.519708, -3.864384], [-38.521355, -3.86404], [-38.523209, -3.86362]], [[-38.523102, -3.863929], [-38.523764, -3.863786], [-38.52458, -3.863599], [-38.524961, -3.863511]], [[-38.523209, -3.86362], [-38.534357, -3.86103], [-38.537079, -3.86036], [-38.537321, -3.860279], [-38.537605, -3.86017], [-38.537925, -3.860065], [-38.538217, -3.859973], [-38.538494, -3.859891], [-38.539777, -3.8596], [-38.542602, -3.858954], [-38.543838, -3.858662], [-38.545443, -3.85829]], [[-38.510131, -3.867931], [-38.513129, -3.866681]], [[-38.510222, -3.868161], [-38.512074, -3.867393], [-38.512767, -3.867096], [-38.51323, -3.866898], [-38.513563, -3.866759], [-38.513926, -3.866647], [-38.514264, -3.866539], [-38.514657, -3.866397], [-38.514876, -3.866303], [-38.515099, -3.866209], [-38.515322, -3.866112], [-38.515503, -3.866022], [-38.516644, -3.865484], [-38.516938, -3.865367], [-38.517261, -3.865249], [-38.517585, -3.865145], [-38.517966, -3.865036], [-38.519008, -3.864721]], [[-38.513129, -3.866681], [-38.515233, -3.865791]], [[-38.515233, -3.865791], [-38.516454, -3.865262], [-38.516714, -3.865153], [-38.517021, -3.865041], [-38.517354, -3.864936], [-38.517685, -3.864845], [-38.518206, -3.86472], [-38.518901, -3.86458]], [[-38.519008, -3.864721], [-38.519535, -3.864601], [-38.52027, -3.864445], [-38.521265, -3.864227], [-38.521723, -3.864146], [-38.522287, -3.864068], [-38.522707, -3.864006], [-38.523102, -3.863929]], [[-38.501763, -3.870573], [-38.501954, -3.87058], [-38.502255, -3.870583], [-38.502492, -3.870543], [-38.503289, -3.870324]], [[-38.501763, -3.870573], [-38.507611, -3.868924], [-38.510222, -3.868161]], [[-38.499248, -3.872826], [-38.499245, -3.872729], [-38.499264, -3.872625], [-38.499308, -3.872525], [-38.499379, -3.872427], [-38.499478, -3.872349], [-38.499579, -3.872299], [-38.499692, -3.872252], [-38.499796, -3.872184], [-38.499868, -3.872115], [-38.499927, -3.87203], [-38.499969, -3.871943], [-38.499991, -3.871855], [-38.500002, -3.871749], [-38.499987, -3.87163], [-38.499959, -3.871494], [-38.499963, -3.871396], [-38.499984, -3.871304], [-38.500027, -3.871217], [-38.500104, -3.87112], [-38.500186, -3.871034]], [[-38.497831, -3.871713], [-38.497763, -3.871792], [-38.497745, -3.87181], [-38.49774, -3.871816], [-38.497734, -3.871823], [-38.497729, -3.871829], [-38.497719, -3.871843], [-38.497713, -3.871849], [-38.497709, -3.871856], [-38.497699, -3.87187], [-38.497695, -3.871878], [-38.49769, -3.871885], [-38.497682, -3.871899], [-38.497678, -3.871907], [-38.497674, -3.871914], [-38.497666, -3.87193], [-38.497663, -3.871937], [-38.49766, -3.871945], [-38.497656, -3.871953], [-38.497647, -3.871977], [-38.497645, -3.871985], [-38.497642, -3.871993], [-38.497638, -3.872009], [-38.497635, -3.872017], [-38.497633, -3.872026], [-38.497632, -3.872034], [-38.497628, -3.87205], [-38.497627, -3.872059], [-38.497626, -3.872067], [-38.497625, -3.872076], [-38.497623, -3.872092], [-38.497622, -3.872101], [-38.497622, -3.872109], [-38.497621, -3.872118], [-38.497621, -3.872152], [-38.497622, -3.87216], [-38.497622, -3.872169], [-38.497624, -3.872185], [-38.497625, -3.872194], [-38.497626, -3.872202], [-38.497627, -3.872211], [-38.497628, -3.872219], [-38.49763, -3.872227], [-38.497632, -3.872236], [-38.497633, -3.872244], [-38.497637, -3.87226], [-38.49764, -3.872269], [-38.497642, -3.872277], [-38.497645, -3.872285], [-38.497647, -3.872293], [-38.497656, -3.872317], [-38.497659, -3.872324], [-38.497663, -3.872332], [-38.497666, -3.87234], [-38.49767, -3.872348], [-38.497674, -3.872355], [-38.497677, -3.872363], [-38.497681, -3.87237], [-38.497686, -3.872378], [-38.497694, -3.872392], [-38.497699, -3.872399], [-38.497703, -3.872406], [-38.497723, -3.872434], [-38.497729, -3.87244], [-38.497734, -3.872447], [-38.497739, -3.872453], [-38.497745, -3.87246], [-38.497751, -3.872466], [-38.497756, -3.872472], [-38.497768, -3.872484], [-38.497775, -3.87249], [-38.497781, -3.872496], [-38.497787, -3.872501], [-38.497793, -3.872507], [-38.497807, -3.872517], [-38.497813, -3.872523], [-38.497827, -3.872533], [-38.497834, -3.872537], [-38.497848, -3.872547], [-38.497862, -3.872555], [-38.49787, -3.872559], [-38.497877, -3.872564], [-38.497885, -3.872567], [-38.497892, -3.872571], [-38.4979, -3.872575], [-38.497907, -3.872578], [-38.497915, -3.872582], [-38.497955, -3.872597], [-38.497963, -3.872599], [-38.497971, -3.872602], [-38.497995, -3.872608], [-38.498004, -3.87261], [-38.498012, -3.872612], [-38.498028, -3.872614], [-38.498037, -3.872616], [-38.498045, -3.872617], [-38.498054, -3.872618], [-38.498062, -3.872619], [-38.49807, -3.872619], [-38.498079, -3.87262], [-38.498129, -3.87262], [-38.498138, -3.872619], [-38.498146, -3.872619], [-38.498155, -3.872618], [-38.498171, -3.872616], [-38.49818, -3.872615], [-38.498188, -3.872613], [-38.498196, -3.872612], [-38.498205, -3.87261], [-38.498237, -3.872602], [-38.498245, -3.872599], [-38.498253, -3.872597], [-38.498301, -3.872579], [-38.498308, -3.872575], [-38.498316, -3.872571], [-38.498323, -3.872568], [-38.498331, -3.872564], [-38.498338, -3.87256], [-38.498346, -3.872556], [-38.498353, -3.872551], [-38.49836, -3.872547], [-38.498367, -3.872542], [-38.498374, -3.872538], [-38.498402, -3.872518], [-38.498408, -3.872512], [-38.498415, -3.872507], [-38.498421, -3.872502], [-38.498428, -3.872496], [-38.498458, -3.872466], [-38.498463, -3.87246], [-38.498469, -3.872454], [-38.498474, -3.872447], [-38.49848, -3.872441], [-38.49849, -3.872427], [-38.498495, -3.872421], [-38.49851, -3.8724], [-38.498514, -3.872393], [-38.498518, -3.872385], [-38.498523, -3.872378], [-38.498527, -3.872371], [-38.498531, -3.872363], [-38.498535, -3.872356], [-38.498539, -3.872348], [-38.498542, -3.87234], [-38.498546, -3.872333], [-38.498564, -3.872285], [-38.498566, -3.872277], [-38.498569, -3.872269], [-38.498575, -3.872245], [-38.498577, -3.872236], [-38.498579, -3.872228], [-38.49858, -3.87222], [-38.498582, -3.872211], [-38.498583, -3.872203], [-38.498584, -3.872194], [-38.49859, -3.872094]], [[-38.495068, -3.872459], [-38.495732, -3.872235], [-38.497086, -3.871835]], [[-38.49711, -3.871919], [-38.497831, -3.871713]], [[-38.499383, -3.871172], [-38.50015, -3.87095]], [[-38.498997, -3.871937], [-38.499047, -3.872023], [-38.499075, -3.872068], [-38.499095, -3.872089], [-38.499107, -3.872101], [-38.499114, -3.872107], [-38.49912, -3.872113], [-38.499126, -3.872118], [-38.499133, -3.872124], [-38.49914, -3.872129], [-38.499146, -3.872134], [-38.499174, -3.872154], [-38.499181, -3.872158], [-38.499189, -3.872163], [-38.499203, -3.872171], [-38.499211, -3.872175], [-38.499218, -3.872179], [-38.499226, -3.872183], [-38.499233, -3.872187], [-38.499241, -3.87219], [-38.499249, -3.872194], [-38.499289, -3.872209], [-38.499297, -3.872211], [-38.499305, -3.872214], [-38.499321, -3.872218], [-38.49933, -3.87222], [-38.499346, -3.872224], [-38.499355, -3.872225], [-38.499363, -3.872227], [-38.499371, -3.872228], [-38.49938, -3.872229], [-38.499388, -3.87223], [-38.499397, -3.872231], [-38.499405, -3.872231], [-38.499413, -3.872232], [-38.499422, -3.872232], [-38.49943, -3.872233], [-38.499447, -3.872233], [-38.499456, -3.872232], [-38.499464, -3.872232], [-38.499473, -3.872231], [-38.499481, -3.872231], [-38.49949, -3.87223], [-38.499498, -3.872229], [-38.499507, -3.872228], [-38.499515, -3.872227], [-38.499523, -3.872225], [-38.499532, -3.872224], [-38.499548, -3.87222], [-38.499557, -3.872218], [-38.499573, -3.872214], [-38.499581, -3.872211], [-38.499589, -3.872209], [-38.499637, -3.872191], [-38.499645, -3.872187], [-38.499652, -3.872183], [-38.49966, -3.87218], [-38.499667, -3.872176], [-38.499675, -3.872172], [-38.499682, -3.872167], [-38.499689, -3.872163], [-38.499697, -3.872159], [-38.499718, -3.872144], [-38.499725, -3.87214], [-38.499732, -3.872134], [-38.499738, -3.872129], [-38.499752, -3.872119], [-38.499764, -3.872107], [-38.499771, -3.872102], [-38.499795, -3.872078], [-38.4998, -3.872071], [-38.499806, -3.872065], [-38.499812, -3.872058], [-38.499817, -3.872052], [-38.499827, -3.872038], [-38.499833, -3.872032], [-38.499837, -3.872025], [-38.499842, -3.872018], [-38.499847, -3.87201], [-38.499852, -3.872003], [-38.49986, -3.871989], [-38.499864, -3.871981], [-38.499869, -3.871974], [-38.499872, -3.871966], [-38.499876, -3.871959], [-38.49988, -3.871951], [-38.499883, -3.871943], [-38.499887, -3.871935], [-38.49989, -3.871927], [-38.499893, -3.87192], [-38.499896, -3.871912], [-38.499899, -3.871903], [-38.499902, -3.871895], [-38.499904, -3.871887], [-38.499907, -3.871879], [-38.499911, -3.871863], [-38.499913, -3.871854], [-38.499917, -3.871838], [-38.499918, -3.871829], [-38.49992, -3.871821], [-38.499921, -3.871812], [-38.499923, -3.871796], [-38.499924, -3.871787], [-38.499924, -3.871779], [-38.499925, -3.87177], [-38.499925, -3.871753], [-38.499926, -3.871744], [-38.499926, -3.871736], [-38.499925, -3.871727], [-38.499925, -3.871719], [-38.499924, -3.87171], [-38.499924, -3.871702], [-38.499923, -3.871693], [-38.499922, -3.871685], [-38.499921, -3.871676], [-38.49992, -3.871668], [-38.499918, -3.87166], [-38.499917, -3.871651], [-38.499913, -3.871635], [-38.499911, -3.871626], [-38.499907, -3.87161], [-38.499904, -3.871602], [-38.499902, -3.871594], [-38.499899, -3.871585], [-38.49989, -3.871561], [-38.499887, -3.871554], [-38.499884, -3.871546], [-38.499876, -3.87153], [-38.499873, -3.871523], [-38.499869, -3.871515], [-38.499865, -3.871508], [-38.499861, -3.8715], [-38.499856, -3.871493], [-38.499852, -3.871486], [-38.499847, -3.871478], [-38.499843, -3.871471], [-38.499828, -3.87145], [-38.499823, -3.871444], [-38.499817, -3.871437], [-38.499812, -3.87143], [-38.499806, -3.871424], [-38.499801, -3.871418], [-38.499795, -3.871411], [-38.499765, -3.871381], [-38.499759, -3.871376], [-38.499752, -3.87137], [-38.499746, -3.871365], [-38.499739, -3.871359], [-38.499711, -3.871339], [-38.499704, -3.871335], [-38.499697, -3.87133], [-38.49969, -3.871326], [-38.499683, -3.871321], [-38.499675, -3.871317], [-38.499617, -3.871291], [-38.499548, -3.871273], [-38.499482, -3.871261], [-38.499412, -3.871252]], [[-38.497086, -3.871835], [-38.497822, -3.87162]], [[-38.497831, -3.871713], [-38.498556, -3.871494], [-38.499412, -3.871252]], [[-38.497822, -3.87162], [-38.499383, -3.871172]], [[-38.499412, -3.871252], [-38.500186, -3.871034]], [[-38.498242, -3.870866], [-38.498074, -3.870712], [-38.498016, -3.870678], [-38.49797, -3.870662], [-38.497923, -3.87065], [-38.497876, -3.870643], [-38.497827, -3.870641], [-38.497779, -3.870643], [-38.497731, -3.870649], [-38.497684, -3.87066], [-38.497638, -3.870675], [-38.497594, -3.870695], [-38.497552, -3.870718], [-38.497512, -3.870746], [-38.497475, -3.870772], [-38.497442, -3.87081], [-38.497417, -3.87085], [-38.497394, -3.870892], [-38.497375, -3.870937], [-38.49736, -3.870983], [-38.497349, -3.87103], [-38.497343, -3.871078], [-38.497341, -3.871127], [-38.497344, -3.871175], [-38.497351, -3.871223], [-38.497363, -3.871271], [-38.497379, -3.871316], [-38.497399, -3.87136], [-38.497423, -3.871402], [-38.497451, -3.871442], [-38.497483, -3.871479], [-38.497517, -3.871512], [-38.497555, -3.871543], [-38.497598, -3.871563], [-38.497644, -3.871584], [-38.497697, -3.871602], [-38.497822, -3.87162]], [[-38.498024, -3.870097], [-38.498012, -3.87018], [-38.497991, -3.870258], [-38.497946, -3.870358], [-38.497875, -3.870456], [-38.497776, -3.870534], [-38.497675, -3.870584], [-38.497562, -3.87063], [-38.497458, -3.870699], [-38.497387, -3.870768], [-38.497327, -3.870853], [-38.497285, -3.87094], [-38.497263, -3.871028], [-38.49725, -3.871121], [-38.497267, -3.871253], [-38.497295, -3.871389], [-38.497292, -3.871487], [-38.497271, -3.871579], [-38.497227, -3.871666], [-38.497157, -3.871763], [-38.497086, -3.871835]], [[-38.499383, -3.871172], [-38.499471, -3.871095], [-38.499477, -3.871089], [-38.499483, -3.871084], [-38.499507, -3.87106], [-38.499512, -3.871054], [-38.499518, -3.871048], [-38.499523, -3.871041], [-38.499529, -3.871035], [-38.499534, -3.871028], [-38.499539, -3.871022], [-38.499549, -3.871008], [-38.499553, -3.871001], [-38.499558, -3.870994], [-38.499562, -3.870987], [-38.499567, -3.87098], [-38.499575, -3.870966], [-38.499579, -3.870958], [-38.499587, -3.870944], [-38.49959, -3.870936], [-38.499594, -3.870928], [-38.499597, -3.870921], [-38.499606, -3.870897], [-38.499609, -3.87089], [-38.499611, -3.870882], [-38.499614, -3.870874], [-38.499616, -3.870866], [-38.499619, -3.870858], [-38.499621, -3.87085], [-38.499623, -3.870841], [-38.499624, -3.870833], [-38.499628, -3.870817], [-38.499629, -3.870809], [-38.49963, -3.8708], [-38.499632, -3.870784], [-38.499633, -3.870775], [-38.499634, -3.870767], [-38.499634, -3.870759], [-38.499635, -3.87075], [-38.499635, -3.870717], [-38.499634, -3.870709], [-38.499634, -3.8707], [-38.499632, -3.870684], [-38.499631, -3.870675], [-38.499628, -3.870651], [-38.499626, -3.870642], [-38.499625, -3.870634], [-38.499619, -3.87061], [-38.499617, -3.870602], [-38.499614, -3.870594], [-38.499612, -3.870586], [-38.4996, -3.870554], [-38.499597, -3.870547], [-38.499594, -3.870539], [-38.49959, -3.870531], [-38.499587, -3.870524], [-38.499583, -3.870516], [-38.499575, -3.870502], [-38.499571, -3.870494], [-38.499563, -3.87048], [-38.499558, -3.870473], [-38.499554, -3.870466], [-38.499544, -3.870452], [-38.499539, -3.870446], [-38.499529, -3.870432], [-38.499524, -3.870426], [-38.499518, -3.87042], [-38.499513, -3.870413], [-38.499501, -3.870401], [-38.499496, -3.870395], [-38.49949, -3.870389], [-38.499484, -3.870384], [-38.499477, -3.870378], [-38.499471, -3.870372], [-38.499465, -3.870367], [-38.499458, -3.870362], [-38.499452, -3.870356], [-38.499445, -3.870351], [-38.499439, -3.870346], [-38.499432, -3.870342], [-38.499418, -3.870332], [-38.499411, -3.870328], [-38.499404, -3.870323], [-38.49939, -3.870315], [-38.499382, -3.870311], [-38.499375, -3.870307], [-38.499367, -3.870303], [-38.49936, -3.8703], [-38.499352, -3.870296], [-38.499345, -3.870293], [-38.499329, -3.870287], [-38.499322, -3.870284], [-38.499306, -3.870278], [-38.499298, -3.870276], [-38.49929, -3.870273], [-38.499258, -3.870265], [-38.49925, -3.870264], [-38.499241, -3.870262], [-38.499233, -3.870261], [-38.499225, -3.870259], [-38.499217, -3.870258], [-38.499208, -3.870257], [-38.4992, -3.870257], [-38.499184, -3.870255], [-38.499134, -3.870255], [-38.499125, -3.870256], [-38.499117, -3.870257], [-38.499109, -3.870257], [-38.499101, -3.870258], [-38.499092, -3.870259], [-38.499084, -3.870261], [-38.499076, -3.870262], [-38.499068, -3.870264], [-38.49906, -3.870265], [-38.499051, -3.870267], [-38.499027, -3.870273], [-38.499019, -3.870276], [-38.499011, -3.870278], [-38.499003, -3.870281], [-38.498996, -3.870284], [-38.498988, -3.870286], [-38.49898, -3.87029], [-38.498972, -3.870293], [-38.498965, -3.870296], [-38.498957, -3.8703], [-38.49895, -3.870303], [-38.498942, -3.870307], [-38.498928, -3.870315], [-38.49892, -3.870319], [-38.498906, -3.870327], [-38.498899, -3.870332], [-38.498892, -3.870336], [-38.498878, -3.870346], [-38.498872, -3.870351], [-38.498865, -3.870356], [-38.498859, -3.870361], [-38.498852, -3.870367], [-38.498846, -3.870372], [-38.49884, -3.870378], [-38.498834, -3.870383], [-38.498827, -3.870389], [-38.498822, -3.870395], [-38.498804, -3.870413], [-38.498799, -3.870419], [-38.498793, -3.870426], [-38.498788, -3.870432], [-38.498783, -3.870439], [-38.498778, -3.870445], [-38.498763, -3.870466], [-38.498759, -3.870473], [-38.498754, -3.87048], [-38.498738, -3.870508], [-38.498734, -3.870516], [-38.49873, -3.870523], [-38.498727, -3.870531], [-38.498723, -3.870539], [-38.49872, -3.870546], [-38.498714, -3.870562], [-38.498711, -3.870569], [-38.498705, -3.870585], [-38.498687, -3.870635], [-38.498672, -3.870699], [-38.498659, -3.870777]], [[-38.500186, -3.871034], [-38.501763, -3.870573]], [[-38.50015, -3.87095], [-38.500089, -3.870941], [-38.500012, -3.87092], [-38.499912, -3.870875], [-38.499814, -3.870804], [-38.499737, -3.870704], [-38.499687, -3.870603], [-38.499641, -3.870489], [-38.499573, -3.870385], [-38.499504, -3.870313], [-38.49942, -3.870253], [-38.499333, -3.870212], [-38.499245, -3.870189], [-38.499152, -3.870176], [-38.499021, -3.870193], [-38.498886, -3.870221], [-38.498788, -3.870218], [-38.498696, -3.870197], [-38.49861, -3.870153], [-38.498513, -3.870082], [-38.498434, -3.869991]], [[-38.50015, -3.87095], [-38.50173, -3.870461], [-38.5075, -3.868817]]]}, "properties": {"via": "RODOVIA  QUARTO ANEL VIÁRIO"}},
{"type": "Feature", "geometry": {"type": "MultiLineString", "coordinates": [[[-38.500133, -3.875941], [-38.50159, -3.875517]], [[-38.50159, -3.875517], [-38.501771, -3.875457], [-38.503028, -3.875075]], [[-38.503028, -3.875075], [-38.504457, -3.874673]], [[-38.510327, -3.872998], [-38.510539, -3.872948], [-38.511364, -3.872684]], [[-38.507389, -3.873828], [-38.508847, -3.873402]], [[-38.508847, -3.873402], [-38.510022, -3.873065], [-38.510327, -3.872998]], [[-38.504457, -3.874673], [-38.505953, -3.874248]], [[-38.505953, -3.874248], [-38.507389, -3.873828]]]}, "properties": {"via": "RUA PDE VALDIR DANTAS"}},
{"type": "Feature", "geometry": {"type": "MultiLineString", "coordinates": [[[-38.502091, -3.877229], [-38.500509, -3.877685]], [[-38.504988, -3.876403], [-38.505144, -3.876358]], [[-38.509362, -3.875127], [-38.510003, -3.874947], [-38.511219, -3.874578], [-38.511676, -3.874465], [-38.511946, -3.874413], [-38.512089, -3.874386]], [[-38.507888, -3.875551], [-38.508581, -3.875373], [-38.509362, -3.875127]], [[-38.505144, -3.876358], [-38.505361, -3.876279], [-38.506451, -3.875984]], [[-38.506451, -3.875984], [-38.506846, -3.875836], [-38.507888, -3.875551]]]}, "properties": {"via": "RUA  ACARI"}},
{"type": "Feature", "geometry": {"type": "LineString", "coordinates": [[-38.504988, -3.876403], [-38.503526, -3.876803]]}, "properties": {"via": "RUA  6381 SIT TRAIRA"}},
{"type": "Feature", "geometry": {"type": "MultiLineString", "coordinates": [[[-38.500678, -3.878544], [-38.501052, -3.878478], [-38.502324, -3.8781]], [[-38.502324, -3.8781], [-38.503695, -3.877693]], [[-38.503695, -3.877693], [-38.505178, -3.877253]], [[-38.505178, -3.877253], [-38.505187, -3.87725]], [[-38.505178, -3.877253], [-38.506689, -3.876828]]]}, "properties": {"via": "RUA  ANTÔNIO ALMEIDA"}},
{"type": "Feature", "geometry": {"type": "MultiLineString", "coordinates": [[[-38.501029, -3.881453], [-38.503399, -3.881175], [-38.504503, -3.881022]], [[-38.504503, -3.881022], [-38.505197, -3.880929]], [[-38.505197, -3.880929], [-38.505895, -3.880834]], [[-38.508024, -3.880526], [-38.50836, -3.880481]], [[-38.507285, -3.880634], [-38.508024, -3.880526]], [[-38.505895, -3.880834], [-38.506588, -3.880735]], [[-38.506588, -3.880735], [-38.507285, -3.880634]]]}, "properties": {"via": "AVENIDA  TRAIRA"}},
{"type": "Feature", "geometry": {"type": "MultiLineString", "coordinates": [[[-38.505652, -3.890567], [-38.507391, -3.889578], [-38.508047, -3.889051]], [[-38.508047, -3.889051], [-38.508214, -3.888919]], [[-38.508788, -3.888472], [-38.509868, -3.887477], [-38.510271, -3.88714], [-38.51039, -3.887084]], [[-38.508214, -3.888919], [-38.508392, -3.888781], [-38.5085, -3.888712]], [[-38.5085, -3.888712], [-38.508643, -3.888606], [-38.508788, -3.888472]]]}, "properties": {"via": "RUA  RAIMUNDO MATIAS"}},
{"type": "Feature", "geometry": {"type": "MultiLineString", "coordinates": [[[-38.49764, -3.874703], [-38.49586, -3.874949]], [[-38.499277, -3.874502], [-38.49764, -3.874703]]]}, "properties": {"via": "RUA EST SILVIO CARNEIRO"}},
{"type": "Feature", "geometry": {"type": "MultiLineString", "coordinates": [[[-38.497018, -3.87249], [-38.497108, -3.87249], [-38.497357, -3.872452]], [[-38.495041, -3.872562], [-38.49509, -3.872584], [-38.495128, -3.872615], [-38.495177, -3.872653], [-38.495206, -3.87267], [-38.495238, -3.872676], [-38.495273, -3.872675], [-38.495461, -3.872656]], [[-38.495461, -3.872656], [-38.497018, -3.87249]]]}, "properties": {"via": "RUA  ANTÔNIO RABELO"}},
{"type": "Feature", "geometry": {"type": "MultiLineString", "coordinates": [[[-38.494863, -3.878066], [-38.493176, -3.878263]], [[-38.500213, -3.877416], [-38.499985, -3.877473], [-38.496632, -3.87786]], [[-38.496449, -3.877881], [-38.494863, -3.878066]], [[-38.496632, -3.87786], [-38.496449, -3.877881]]]}, "properties": {"via": "RUA  LEIRICE PORTO"}},
{"type": "Feature", "geometry": {"type": "MultiLineString", "coordinates": [[[-38.503846, -3.871059], [-38.503531, -3.871147]], [[-38.502077, -3.871571], [-38.500215, -3.872088]], [[-38.503531, -3.871147], [-38.502077, -3.871571]], [[-38.504808, -3.870774], [-38.504972, -3.870726]], [[-38.504972, -3.870726], [-38.506417, -3.870307]]]}, "properties": {"via": "RUA  RODOVIA DO CONTORNO CEASA"}},
{"type": "Feature", "geometry": {"type": "MultiLineString", "coordinates": [[[-38.501331, -3.874637], [-38.499879, -3.875057]], [[-38.502814, -3.874198], [-38.501331, -3.874637]], [[-38.505735, -3.873364], [-38.50716, -3.872945]], [[-38.502814, -3.874198], [-38.50365, -3.873953]], [[-38.50365, -3.873953], [-38.504846, -3.873601], [-38.505735, -3.873364]]]}, "properties": {"via": "RUA  GENEROSO FRANÇA"}},
{"type": "Feature", "geometry": {"type": "MultiLineString", "coordinates": [[[-38.497441, -3.873979], [-38.495689, -3.87422]], [[-38.499066, -3.873766], [-38.498252, -3.873873], [-38.497441, -3.873979]]]}, "properties": {"via": "RUA  MONTREAL"}},
{"type": "Feature", "geometry": {"type": "MultiLineString", "coordinates": [[[-38.498903, -3.873194], [-38.498567, -3.873019], [-38.498471, -3.872984], [-38.498301, -3.873074]], [[-38.497228, -3.87321], [-38.495433, -3.873468]], [[-38.498301, -3.873074], [-38.497228, -3.87321]]]}, "properties": {"via": "RUA  BENEDITO DE SOUZA"}},
{"type": "Feature", "geometry": {"type": "MultiLineString", "coordinates": [[[-38.499517, -3.867927], [-38.499506, -3.868081], [-38.499437, -3.868248], [-38.499251, -3.868499]], [[-38.498308, -3.865437], [-38.49843, -3.865893], [-38.498517, -3.866052]], [[-38.499052, -3.866957], [-38.499391, -3.867508], [-38.499451, -3.86764], [-38.499517, -3.867927]], [[-38.498517, -3.866052], [-38.498881, -3.866672], [-38.499052, -3.866957]]]}, "properties": {"via": "RUA  JOSÉ MARQUES"}},
{"type": "Feature", "geometry": {"type": "MultiLineString", "coordinates": [[[-38.493423, -3.870512], [-38.493535, -3.870815]], [[-38.493336, -3.870214], [-38.493423, -3.870512]]]}, "properties": {"via": "TRAVESSA SAO FRANCISCO"}},
{"type": "Feature", "geometry": {"type": "LineString", "coordinates": [[-38.494573, -3.876247], [-38.494468, -3.875597], [-38.494479, -3.875543]]}, "properties": {"via": "TRAVESSA  JOSÉ PEREIRA"}},
{"type": "Feature", "geometry": {"type": "MultiLineString", "coordinates": [[[-38.494479, -3.875543], [-38.494028, -3.875615], [-38.492879, -3.875732]], [[-38.495872, -3.875399], [-38.494687, -3.875507], [-38.494479, -3.875543]]]}, "properties": {"via": "RUA  JOSÉ PEREIRA I"}},
{"type": "Feature", "geometry": {"type": "MultiLineString", "coordinates": [[[-38.498959, -3.867793], [-38.499166, -3.868528]], [[-38.498792, -3.867198], [-38.498959, -3.867793]]]}, "properties": {"via": "RUA  JOSÉ AGRIPINO"}},
{"type": "Feature", "geometry": {"type": "MultiLineString", "coordinates": [[[-38.493927, -3.868667], [-38.492472, -3.868983]], [[-38.491838, -3.869161], [-38.491143, -3.869355]], [[-38.492472, -3.868983], [-38.491838, -3.869161]]]}, "properties": {"via": "RUA  RECANTO DA SAUDADE"}},
{"type": "Feature", "geometry": {"type": "MultiLineString", "coordinates": [[[-38.490671, -3.870099], [-38.490631, -3.870095], [-38.490611, -3.870105], [-38.490597, -3.870121], [-38.490592, -3.870142], [-38.490594, -3.870174], [-38.490599, -3.870205], [-38.490618, -3.870273], [-38.490651, -3.870376], [-38.490693, -3.870507], [-38.490736, -3.870627], [-38.490787, -3.870768], [-38.49082, -3.870886], [-38.490824, -3.870914]], [[-38.490474, -3.869481], [-38.490671, -3.870099]]]}, "properties": {"via": "TRAVESSA DOM HOMERO"}},
{"type": "Feature", "geometry": {"type": "MultiLineString", "coordinates": [[[-38.491077, -3.86906], [-38.49109, -3.869121]], [[-38.491143, -3.869355], [-38.491282, -3.870006]], [[-38.49109, -3.869121], [-38.491143, -3.869355]]]}, "properties": {"via": "RUA STA FÉ"}},
{"type": "Feature", "geometry": {"type": "MultiLineString", "coordinates": [[[-38.507178, -3.885079], [-38.507395, -3.885798]], [[-38.507668, -3.886629], [-38.507814, -3.887331], [-38.508106, -3.888436], [-38.508129, -3.888619], [-38.508233, -3.888908]], [[-38.507395, -3.885798], [-38.507554, -3.88623], [-38.507668, -3.886629]], [[-38.507042, -3.884603], [-38.507178, -3.885079]], [[-38.506852, -3.884264], [-38.506927, -3.884314], [-38.507013, -3.884506], [-38.507042, -3.884603]]]}, "properties": {"via": "RUA  LUIS BENTO"}},
{"type": "Feature", "geometry": {"type": "MultiLineString", "coordinates": [[[-38.49179, -3.868935], [-38.491838, -3.869161]], [[-38.491725, -3.86858], [-38.49179, -3.868935]], [[-38.491677, -3.868315], [-38.491725, -3.86858]], [[-38.491557, -3.867655], [-38.491677, -3.868315]], [[-38.490853, -3.863671], [-38.491299, -3.866279]], [[-38.490622, -3.862461], [-38.490701, -3.862911], [-38.490853, -3.863671]], [[-38.490622, -3.862461], [-38.490612, -3.862355], [-38.490766, -3.861517]], [[-38.491028, -3.860421], [-38.490999, -3.860549], [-38.490961, -3.860656], [-38.490962, -3.860774], [-38.490948, -3.860824], [-38.490885, -3.860947], [-38.490766, -3.861517]], [[-38.491432, -3.866971], [-38.491557, -3.867655]], [[-38.491299, -3.866279], [-38.491432, -3.866971]]]}, "properties": {"via": "RUA  PORTO FELIZ"}},
{"type": "Feature", "geometry": {"type": "LineString", "coordinates": [[-38.507668, -3.886629], [-38.507728, -3.886618], [-38.508469, -3.886003], [-38.509889, -3.885069]]}, "properties": {"via": "RUA  JOAQUIM TRAJANO"}},
{"type": "Feature", "geometry": {"type": "MultiLineString", "coordinates": [[[-38.492831, -3.870358], [-38.490824, -3.870914]], [[-38.492932, -3.870326], [-38.492831, -3.870358]], [[-38.494386, -3.869917], [-38.493679, -3.870119]], [[-38.493336, -3.870214], [-38.492932, -3.870326]], [[-38.493679, -3.870119], [-38.493336, -3.870214]]]}, "properties": {"via": "RUA  DA PAZ (PAUPINA)"}},
{"type": "Feature", "geometry": {"type": "MultiLineString", "coordinates": [[[-38.493046, -3.870659], [-38.493039, -3.870736], [-38.492971, -3.870772], [-38.492392, -3.870856], [-38.491854, -3.870915], [-38.491232, -3.870995]], [[-38.493423, -3.870512], [-38.493117, -3.87061], [-38.493046, -3.870659]]]}, "properties": {"via": "RUA  CRISTO REDENTOR (PAUPINA)"}},
{"type": "Feature", "geometry": {"type": "MultiLineString", "coordinates": [[[-38.499517, -3.867927], [-38.499817, -3.867671], [-38.500239, -3.867278], [-38.501116, -3.866508]], [[-38.501116, -3.866508], [-38.501432, -3.866247]], [[-38.502345, -3.865431], [-38.50263, -3.865199], [-38.502672, -3.865178]], [[-38.502027, -3.865731], [-38.502345, -3.865431]], [[-38.501432, -3.866247], [-38.501527, -3.866177]], [[-38.501527, -3.866177], [-38.502027, -3.865731]]]}, "properties": {"via": "RUA  MANOEL PEIXOTO"}},
{"type": "Feature", "geometry": {"type": "MultiLineString", "coordinates": [[[-38.507951, -3.880003], [-38.508024, -3.880526]], [[-38.508149, -3.881516], [-38.508311, -3.882798]], [[-38.508024, -3.880526], [-38.508149, -3.881516]]]}, "properties": {"via": "RUA  CLAUDINA MARIA"}},
{"type": "Feature", "geometry": {"type": "MultiLineString", "coordinates": [[[-38.506277, -3.883764], [-38.506374, -3.884569]], [[-38.505824, -3.880355], [-38.505895, -3.880834]], [[-38.506036, -3.881845], [-38.506277, -3.883764]], [[-38.505895, -3.880834], [-38.506036, -3.881845]]]}, "properties": {"via": "RUA  FRANCISCO RAMOS"}},
{"type": "Feature", "geometry": {"type": "LineString", "coordinates": [[-38.49389, -3.870847], [-38.493679, -3.870119]]}, "properties": {"via": "TRAVESSA STO ANTONIO"}},
{"type": "Feature", "geometry": {"type": "MultiLineString", "coordinates": [[[-38.506743, -3.881729], [-38.506987, -3.883672]], [[-38.506588, -3.880735], [-38.506743, -3.881729]]]}, "properties": {"via": "RUA  ANTÔNIO RAIMUNDO"}},
{"type": "Feature", "geometry": {"type": "MultiLineString", "coordinates": [[[-38.530151, -3.878829], [-38.530745, -3.879198], [-38.53116, -3.879364]], [[-38.529978, -3.87861], [-38.530111, -3.878796], [-38.530151, -3.878829]], [[-38.52963, -3.877953], [-38.529722, -3.878234], [-38.529978, -3.87861]], [[-38.528638, -3.875201], [-38.529035, -3.87597]], [[-38.528492, -3.874875], [-38.528638, -3.875201]], [[-38.529308, -3.876863], [-38.52963, -3.877953]], [[-38.529035, -3.87597], [-38.529308, -3.876863]], [[-38.528118, -3.873533], [-38.528243, -3.873996]], [[-38.528037, -3.873203], [-38.528118, -3.873533]], [[-38.527982, -3.873011], [-38.528037, -3.873203]], [[-38.528283, -3.874115], [-38.528492, -3.874875]], [[-38.528243, -3.873996], [-38.528283, -3.874115]], [[-38.527411, -3.871965], [-38.5276, -3.872302]], [[-38.524877, -3.869287], [-38.525216, -3.869545], [-38.525796, -3.870021], [-38.52673, -3.870993], [-38.526833, -3.871122], [-38.527411, -3.871965]], [[-38.523035, -3.868282], [-38.523703, -3.868591]], [[-38.522903, -3.868218], [-38.522947, -3.868241], [-38.523035, -3.868282]], [[-38.521666, -3.867688], [-38.521788, -3.86773], [-38.522387, -3.867959]], [[-38.520921, -3.867435], [-38.521666, -3.867688]], [[-38.522639, -3.868082], [-38.522903, -3.868218]], [[-38.522387, -3.867959], [-38.522639, -3.868082]], [[-38.52433, -3.868929], [-38.524877, -3.869287]], [[-38.523703, -3.868591], [-38.524073, -3.868775], [-38.52433, -3.868929]], [[-38.518432, -3.863837], [-38.518901, -3.86458]], [[-38.518078, -3.863312], [-38.518218, -3.863497], [-38.518432, -3.863837]], [[-38.517379, -3.86252], [-38.518013, -3.863226], [-38.518078, -3.863312]], [[-38.510287, -3.860556], [-38.510423, -3.860572], [-38.511066, -3.860502], [-38.511455, -3.860431], [-38.511471, -3.860428], [-38.51208, -3.86031], [-38.512426, -3.860255], [-38.512453, -3.860255]], [[-38.508034, -3.859597], [-38.508095, -3.85963], [-38.508564, -3.860033], [-38.508752, -3.86017], [-38.508861, -3.86023], [-38.510251, -3.860552], [-38.510287, -3.860556]], [[-38.507322, -3.858451], [-38.507336, -3.85855], [-38.507385, -3.858724]], [[-38.507307, -3.858148], [-38.507322, -3.858451]], [[-38.507426, -3.858779], [-38.507996, -3.859557], [-38.508034, -3.859597]], [[-38.507385, -3.858724], [-38.507426, -3.858779]], [[-38.513104, -3.860296], [-38.513108, -3.860297], [-38.514238, -3.860571], [-38.515283, -3.861026], [-38.515447, -3.861107], [-38.516578, -3.861804], [-38.516904, -3.862002], [-38.517218, -3.862338], [-38.517379, -3.86252]], [[-38.512453, -3.860255], [-38.512697, -3.86025], [-38.512944, -3.860265], [-38.513104, -3.860296]], [[-38.520194, -3.866795], [-38.520281, -3.866997], [-38.520391, -3.867147], [-38.520551, -3.867281], [-38.520737, -3.867372], [-38.520921, -3.867435]], [[-38.519008, -3.864721], [-38.51903, -3.86475], [-38.519542, -3.865279], [-38.520194, -3.866795]], [[-38.52787, -3.872682], [-38.527982, -3.873011]], [[-38.5276, -3.872302], [-38.52787, -3.872682]], [[-38.506412, -3.855514], [-38.506684, -3.856116]], [[-38.506171, -3.854973], [-38.506412, -3.855514]], [[-38.504964, -3.851558], [-38.505082, -3.851867]], [[-38.504231, -3.849776], [-38.50429, -3.849893], [-38.50454, -3.850532], [-38.504964, -3.851558]], [[-38.505827, -3.854075], [-38.506088, -3.854788], [-38.506171, -3.854973]], [[-38.505082, -3.851867], [-38.505331, -3.852518], [-38.505412, -3.852759], [-38.505827, -3.854075]], [[-38.506684, -3.856116], [-38.507122, -3.857084], [-38.507181, -3.857389]], [[-38.503583, -3.848316], [-38.503666, -3.848473]], [[-38.503289, -3.847806], [-38.503583, -3.848316]], [[-38.503244, -3.847726], [-38.503289, -3.847806]], [[-38.501864, -3.845056], [-38.502036, -3.845395]], [[-38.501809, -3.844965], [-38.501864, -3.845056]], [[-38.500652, -3.843837], [-38.500946, -3.844121]], [[-38.50043, -3.843594], [-38.500652, -3.843837]], [[-38.501261, -3.844428], [-38.501747, -3.844885], [-38.501809, -3.844965]], [[-38.500946, -3.844121], [-38.501261, -3.844428]], [[-38.502635, -3.846645], [-38.503244, -3.847726]], [[-38.502036, -3.845395], [-38.502352, -3.846124], [-38.502635, -3.846645]], [[-38.498386, -3.841596], [-38.499085, -3.842204], [-38.499255, -3.842335], [-38.499436, -3.842388]], [[-38.497774, -3.840954], [-38.498292, -3.84151], [-38.498386, -3.841596]], [[-38.497102, -3.840345], [-38.497479, -3.840646], [-38.497774, -3.840954]], [[-38.49427, -3.839095], [-38.494764, -3.839438], [-38.495045, -3.839626], [-38.495352, -3.839801], [-38.49686, -3.840252], [-38.497102, -3.840345]], [[-38.499684, -3.842715], [-38.50043, -3.843594]], [[-38.49953, -3.842564], [-38.499684, -3.842715]], [[-38.504008, -3.849174], [-38.504231, -3.849776]], [[-38.503666, -3.848473], [-38.503877, -3.84887], [-38.504008, -3.849174]], [[-38.507259, -3.857789], [-38.5073, -3.857999], [-38.507307, -3.858148]], [[-38.507181, -3.857389], [-38.507259, -3.857789]]]}, "properties": {"via": "AVENIDA  DIONÍSIO ALENCAR"}},
{"type": "Feature", "geometry": {"type": "MultiLineString", "coordinates": [[[-38.515442, -3.871657], [-38.515431, -3.87171], [-38.515876, -3.87397]], [[-38.521872, -3.868974], [-38.521788, -3.868939], [-38.521661, -3.868885], [-38.521561, -3.868843], [-38.519551, -3.868138], [-38.519522, -3.868136], [-38.519492, -3.868137], [-38.519471, -3.868139], [-38.519449, -3.868144], [-38.519425, -3.868151], [-38.519401, -3.868166], [-38.518234, -3.869195]], [[-38.517041, -3.870247], [-38.515442, -3.871657]], [[-38.518234, -3.869195], [-38.517041, -3.870247]]]}, "properties": {"via": "RUA  PALMEIRA FENIX"}},
{"type": "Feature", "geometry": {"type": "MultiLineString", "coordinates": [[[-38.520857, -3.871626], [-38.522089, -3.870554]], [[-38.522089, -3.870554], [-38.522234, -3.870428], [-38.522292, -3.870379], [-38.522351, -3.870264], [-38.522377, -3.869242], [-38.522286, -3.869121], [-38.521872, -3.868974]]]}, "properties": {"via": "RUA  02 DO LOTEAMENTO BAIRRO NOVO"}},
{"type": "Feature", "geometry": {"type": "MultiLineString", "coordinates": [[[-38.520432, -3.869966], [-38.520556, -3.870018], [-38.520558, -3.870018], [-38.522089, -3.870554]], [[-38.520432, -3.869966], [-38.52043, -3.869966], [-38.518234, -3.869195]]]}, "properties": {"via": "RUA  03 DO LOTEAMENTO BAIRRO NOVO"}},
{"type": "Feature", "geometry": {"type": "MultiLineString", "coordinates": [[[-38.519314, -3.871085], [-38.519235, -3.871049], [-38.519207, -3.871039], [-38.517041, -3.870247]], [[-38.521531, -3.872347], [-38.520863, -3.871629], [-38.520857, -3.871626]], [[-38.520857, -3.871626], [-38.519314, -3.871085]]]}, "properties": {"via": "RUA  04 DO LOTEAMENTO BAIRRO NOVO"}},
{"type": "Feature", "geometry": {"type": "MultiLineString", "coordinates": [[[-38.504865, -3.883957], [-38.505096, -3.885695]], [[-38.504438, -3.880533], [-38.504503, -3.881022]], [[-38.504633, -3.88202], [-38.504865, -3.883957]], [[-38.504503, -3.881022], [-38.504633, -3.88202]]]}, "properties": {"via": "RUA  AGUAPÉ"}},
{"type": "Feature", "geometry": {"type": "MultiLineString", "coordinates": [[[-38.503782, -3.872034], [-38.503524, -3.871149]], [[-38.503524, -3.871149], [-38.503289, -3.870324]]]}, "properties": {"via": "RUA  MONTREAL"}},
{"type": "Feature", "geometry": {"type": "MultiLineString", "coordinates": [[[-38.505589, -3.883856], [-38.504865, -3.883957]], [[-38.506277, -3.883764], [-38.505589, -3.883856]], [[-38.506987, -3.883672], [-38.506277, -3.883764]], [[-38.509052, -3.882161], [-38.509635, -3.881658]], [[-38.509052, -3.882161], [-38.508311, -3.882798]], [[-38.507645, -3.883378], [-38.507485, -3.88353], [-38.507343, -3.883613], [-38.507172, -3.883645], [-38.506987, -3.883672]], [[-38.508311, -3.882798], [-38.507645, -3.883378]]]}, "properties": {"via": "RUA  ANTONIO CONRADO"}},
{"type": "Feature", "geometry": {"type": "MultiLineString", "coordinates": [[[-38.51039, -3.887084], [-38.51079, -3.888686]], [[-38.509604, -3.884014], [-38.509785, -3.884752]], [[-38.509889, -3.885069], [-38.509968, -3.88531], [-38.510117, -3.885921], [-38.51039, -3.887084]], [[-38.509785, -3.884752], [-38.509889, -3.885069]], [[-38.509052, -3.882161], [-38.509124, -3.88222], [-38.509231, -3.882562]], [[-38.509419, -3.883286], [-38.509604, -3.884014]], [[-38.509231, -3.882562], [-38.509419, -3.883286]]]}, "properties": {"via": "RUA  PEREIRA COUTINHO"}},
{"type": "Feature", "geometry": {"type": "MultiLineString", "coordinates": [[[-38.508157, -3.876368], [-38.507955, -3.875596], [-38.507888, -3.875551]], [[-38.507644, -3.874708], [-38.507888, -3.875551]], [[-38.507389, -3.873828], [-38.507644, -3.874708]], [[-38.506179, -3.869488], [-38.506671, -3.871185]], [[-38.506671, -3.871185], [-38.506921, -3.872071]], [[-38.50716, -3.872945], [-38.507322, -3.873621], [-38.507389, -3.873828]], [[-38.506921, -3.872071], [-38.50716, -3.872945]]]}, "properties": {"via": "RUA  MARLENE FARIAS FILGUEIRAS"}},
{"type": "Feature", "geometry": {"type": "MultiLineString", "coordinates": [[[-38.501834, -3.876374], [-38.500398, -3.876798]], [[-38.504712, -3.875564], [-38.504387, -3.875666], [-38.503406, -3.875941], [-38.503382, -3.87595], [-38.503362, -3.875961], [-38.503344, -3.875969], [-38.503278, -3.875985]]]}, "properties": {"via": "RUA  LANDEL DE MOURA"}},
{"type": "Feature", "geometry": {"type": "MultiLineString", "coordinates": [[[-38.510707, -3.883047], [-38.510702, -3.883052], [-38.509604, -3.884014]], [[-38.513775, -3.880492], [-38.512938, -3.881189]], [[-38.511816, -3.882124], [-38.510707, -3.883047]], [[-38.512938, -3.881189], [-38.511816, -3.882124]]]}, "properties": {"via": "RUA  JOAO BORGES DA SILVA"}},
{"type": "Feature", "geometry": {"type": "MultiLineString", "coordinates": [[[-38.511305, -3.883821], [-38.511119, -3.883581]], [[-38.511119, -3.883581], [-38.510707, -3.883047]], [[-38.509897, -3.881998], [-38.509635, -3.881658]], [[-38.510707, -3.883047], [-38.510306, -3.882528]], [[-38.510306, -3.882528], [-38.509897, -3.881998]]]}, "properties": {"via": "RUA  FRANCISCO JOSE COSTA (PEDRAS)"}},
{"type": "Feature", "geometry": {"type": "MultiLineString", "coordinates": [[[-38.509231, -3.882562], [-38.509897, -3.881997]], [[-38.509897, -3.881997], [-38.509897, -3.881998]], [[-38.513335, -3.879118], [-38.512109, -3.880145]], [[-38.510989, -3.881083], [-38.509897, -3.881997]], [[-38.512109, -3.880145], [-38.510989, -3.881083]]]}, "properties": {"via": "RUA  ERIVELTON MARTINS"}},
{"type": "Feature", "geometry": {"type": "MultiLineString", "coordinates": [[[-38.505804, -3.886268], [-38.50588, -3.886499], [-38.505954, -3.886759]], [[-38.505995, -3.886924], [-38.506083, -3.887238], [-38.506159, -3.887336]], [[-38.505954, -3.886759], [-38.505995, -3.886924]], [[-38.50567, -3.885821], [-38.505672, -3.885866], [-38.505804, -3.886268]], [[-38.505481, -3.885356], [-38.505665, -3.885771], [-38.50567, -3.885821]]]}, "properties": {"via": "TRAVESSA  JORGE HENRIQUE"}},
{"type": "Feature", "geometry": {"type": "MultiLineString", "coordinates": [[[-38.503278, -3.875985], [-38.503403, -3.876386], [-38.503616, -3.877106]], [[-38.503028, -3.875075], [-38.50305, -3.875173], [-38.503119, -3.875373], [-38.503178, -3.875579], [-38.503213, -3.87575], [-38.503257, -3.87589], [-38.503278, -3.875985]], [[-38.501763, -3.870573], [-38.50198, -3.87139], [-38.502077, -3.871571]], [[-38.502077, -3.871571], [-38.502111, -3.871618], [-38.502319, -3.872368], [-38.502349, -3.87245]], [[-38.502814, -3.874198], [-38.503028, -3.875075]], [[-38.502349, -3.87245], [-38.502586, -3.873289], [-38.502814, -3.874198]]]}, "properties": {"via": "RUA  UBATUBA"}},
{"type": "Feature", "geometry": {"type": "MultiLineString", "coordinates": [[[-38.50523, -3.871608], [-38.506671, -3.871185]], [[-38.502349, -3.87245], [-38.502911, -3.872277], [-38.503782, -3.872034]], [[-38.503782, -3.872034], [-38.50523, -3.871608]]]}, "properties": {"via": "RUA  C DO LOTEAMENTO SÍTIO TRAIRÁ"}},
{"type": "Feature", "geometry": {"type": "MultiLineString", "coordinates": [[[-38.507644, -3.874708], [-38.509095, -3.874292]], [[-38.509095, -3.874292], [-38.509213, -3.87424], [-38.509589, -3.874142], [-38.510065, -3.874044]]]}, "properties": {"via": "RUA  P (PEDRAS)"}},
{"type": "Feature", "geometry": {"type": "MultiLineString", "coordinates": [[[-38.503309, -3.873113], [-38.502594, -3.87332]], [[-38.504762, -3.872699], [-38.505472, -3.87248]], [[-38.505472, -3.87248], [-38.506921, -3.872071]]]}, "properties": {"via": "RUA  B (PEDRAS)"}},
{"type": "Feature", "geometry": {"type": "MultiLineString", "coordinates": [[[-38.505804, -3.886268], [-38.505305, -3.88673]], [[-38.507178, -3.885079], [-38.506526, -3.885643], [-38.506306, -3.885852], [-38.505804, -3.886268]]]}, "properties": {"via": "TRAVESSA  MARIANO JURANDIR"}},
{"type": "Feature", "geometry": {"type": "MultiLineString", "coordinates": [[[-38.50567, -3.885821], [-38.505214, -3.886227]], [[-38.507042, -3.884603], [-38.50567, -3.885821]]]}, "properties": {"via": "RUA  TAXISTA JOÃO HENRIQUE"}},
{"type": "Feature", "geometry": {"type": "LineString", "coordinates": [[-38.494237, -3.866929], [-38.494328, -3.86752]]}, "properties": {"via": "RUA  12 DE MARCO"}},
{"type": "Feature", "geometry": {"type": "MultiLineString", "coordinates": [[[-38.496632, -3.87786], [-38.496764, -3.878336]], [[-38.496866, -3.878713], [-38.49691, -3.878898]], [[-38.496764, -3.878336], [-38.496866, -3.878713]]]}, "properties": {"via": "RUA  ENOQUE FALCAO"}},
{"type": "Feature", "geometry": {"type": "LineString", "coordinates": [[-38.492932, -3.870326], [-38.493021, -3.870619], [-38.493046, -3.870659]]}, "properties": {"via": "TRAVESSA  DOS ISRAELITAS"}},
{"type": "Feature", "geometry": {"type": "MultiLineString", "coordinates": [[[-38.496764, -3.878336], [-38.496497, -3.878368]], [[-38.496497, -3.878368], [-38.494989, -3.878549], [-38.494863, -3.878066]]]}, "properties": {"via": "TRAVESSA CEL BASTOS"}},
{"type": "Feature", "geometry": {"type": "LineString", "coordinates": [[-38.50664, -3.865804], [-38.50719, -3.867726], [-38.5075, -3.868817]]}, "properties": {"via": "TRAVESSA  ESTOCOLMO"}},
{"type": "Feature", "geometry": {"type": "MultiLineString", "coordinates": [[[-38.510306, -3.882528], [-38.510296, -3.882536], [-38.509419, -3.883286]], [[-38.513557, -3.879815], [-38.512528, -3.880673]], [[-38.511407, -3.881609], [-38.510306, -3.882528]], [[-38.512528, -3.880673], [-38.511407, -3.881609]]]}, "properties": {"via": "RUA  HAROLDO BARBOSA"}},
{"type": "Feature", "geometry": {"type": "MultiLineString", "coordinates": [[[-38.494573, -3.876247], [-38.494242, -3.876323], [-38.493144, -3.876475]], [[-38.496118, -3.876055], [-38.494573, -3.876247]]]}, "properties": {"via": "RUA  JOSE PEREIRA II"}},
{"type": "Feature", "geometry": {"type": "MultiLineString", "coordinates": [[[-38.51797, -3.872124], [-38.515775, -3.871364]], [[-38.520748, -3.873087], [-38.518599, -3.872342]], [[-38.518599, -3.872342], [-38.51797, -3.872124]]]}, "properties": {"via": "RUA  PALMEIRA ARECA"}},
{"type": "Feature", "geometry": {"type": "MultiLineString", "coordinates": [[[-38.517366, -3.87343], [-38.51958, -3.874193]], [[-38.516733, -3.873211], [-38.517366, -3.87343]]]}, "properties": {"via": "RUA  PALMEIRA OLIVEIRA"}},
{"type": "Feature", "geometry": {"type": "LineString", "coordinates": [[-38.518377, -3.875286], [-38.516137, -3.874513]]}, "properties": {"via": "RUA  PALMEIRA RAFIA"}},
{"type": "Feature", "geometry": {"type": "MultiLineString", "coordinates": [[[-38.514251, -3.874449], [-38.514239, -3.874361], [-38.513924, -3.873042], [-38.513857, -3.872271]], [[-38.513095, -3.878056], [-38.514454, -3.87685]], [[-38.514454, -3.87685], [-38.514268, -3.874586], [-38.514251, -3.874449]]]}, "properties": {"via": "RUA  PALMEIRA JERIVÁ"}},
{"type": "Feature", "geometry": {"type": "MultiLineString", "coordinates": [[[-38.51387, -3.880433], [-38.514154, -3.881113]], [[-38.513631, -3.879769], [-38.51387, -3.880433]], [[-38.513417, -3.879121], [-38.513631, -3.879769]], [[-38.512476, -3.876012], [-38.513095, -3.878056]], [[-38.51329, -3.878699], [-38.513417, -3.879121]], [[-38.513095, -3.878056], [-38.51329, -3.878699]], [[-38.511842, -3.873878], [-38.511984, -3.874367]], [[-38.51168, -3.87346], [-38.511842, -3.873878]], [[-38.510222, -3.868161], [-38.511253, -3.871748]], [[-38.511507, -3.872607], [-38.51168, -3.87346]], [[-38.511253, -3.871748], [-38.511507, -3.872607]], [[-38.512231, -3.875234], [-38.512476, -3.876012]], [[-38.511984, -3.874367], [-38.512231, -3.875234]]]}, "properties": {"via": "RUA  PALMEIRA DOS ÍNDIOS"}},
{"type": "Feature", "geometry": {"type": "LineString", "coordinates": [[-38.512476, -3.876012], [-38.514251, -3.874449]]}, "properties": {"via": "RUA  PALMEIRA LATANIA AZUL"}},
{"type": "Feature", "geometry": {"type": "MultiLineString", "coordinates": [[[-38.515362, -3.876761], [-38.516754, -3.87674]], [[-38.516754, -3.87674], [-38.517145, -3.87639]], [[-38.517145, -3.87639], [-38.51835, -3.875311], [-38.518377, -3.875286]], [[-38.521531, -3.872347], [-38.522842, -3.871108]], [[-38.522842, -3.871108], [-38.522908, -3.871043], [-38.522956, -3.868319], [-38.522903, -3.868218]], [[-38.522903, -3.868218], [-38.522828, -3.868305], [-38.522783, -3.871042], [-38.522842, -3.871108]], [[-38.52078, -3.873057], [-38.521531, -3.872347]], [[-38.518377, -3.875286], [-38.519037, -3.874685], [-38.519358, -3.874396], [-38.519573, -3.8742], [-38.51958, -3.874193]], [[-38.51958, -3.874193], [-38.519606, -3.874167], [-38.52078, -3.873057]]]}, "properties": {"via": "RUA  PALMEIRA BURITI"}},
{"type": "Feature", "geometry": {"type": "MultiLineString", "coordinates": [[[-38.515562, -3.87502], [-38.516084, -3.87456], [-38.516137, -3.874513]], [[-38.516137, -3.874513], [-38.516242, -3.874421], [-38.517312, -3.873477], [-38.517366, -3.87343]], [[-38.519148, -3.871859], [-38.519823, -3.871263]], [[-38.517366, -3.87343], [-38.517473, -3.873335], [-38.518547, -3.872388], [-38.518599, -3.872342]], [[-38.518599, -3.872342], [-38.518701, -3.872253], [-38.519148, -3.871859]]]}, "properties": {"via": "RUA  PALMEIRA TAMAREIRA"}},
{"type": "Feature", "geometry": {"type": "MultiLineString", "coordinates": [[[-38.515876, -3.87397], [-38.516055, -3.873813], [-38.516258, -3.873631], [-38.51641, -3.873494], [-38.516733, -3.873211]], [[-38.516733, -3.873211], [-38.517971, -3.872124]], [[-38.522639, -3.868082], [-38.522604, -3.868222], [-38.521788, -3.868939]], [[-38.521661, -3.868885], [-38.522499, -3.868149], [-38.522639, -3.868082]], [[-38.52043, -3.869966], [-38.521661, -3.868885]], [[-38.520558, -3.870018], [-38.519335, -3.871092]], [[-38.517971, -3.872124], [-38.519207, -3.871039]], [[-38.521788, -3.868939], [-38.520558, -3.870018]], [[-38.519207, -3.871039], [-38.52043, -3.869966]]]}, "properties": {"via": "AVENIDA  DAS PALMEIRAS AZUIS"}},
{"type": "Feature", "geometry": {"type": "LineString", "coordinates": [[-38.515422, -3.876413], [-38.517145, -3.87639]]}, "properties": {"via": "RUA  PALMEIRA CICA"}},
{"type": "Feature", "geometry": {"type": "MultiLineString", "coordinates": [[[-38.51329, -3.878699], [-38.513368, -3.878727], [-38.514827, -3.877437], [-38.515073, -3.87722], [-38.515114, -3.877179], [-38.515133, -3.877158], [-38.515156, -3.877132], [-38.515173, -3.87711], [-38.515179, -3.877103], [-38.515197, -3.877079], [-38.515211, -3.87706], [-38.515231, -3.877031], [-38.515248, -3.877005], [-38.515266, -3.876977], [-38.515289, -3.876937], [-38.515305, -3.876907], [-38.51532, -3.876876], [-38.515335, -3.876843], [-38.515351, -3.876803], [-38.515362, -3.876761]], [[-38.515362, -3.876761], [-38.515386, -3.876673], [-38.515399, -3.876609], [-38.515404, -3.876585], [-38.515413, -3.876506], [-38.515417, -3.876474], [-38.515422, -3.876413]], [[-38.515876, -3.87397], [-38.515761, -3.874074], [-38.515755, -3.874078], [-38.515635, -3.874183], [-38.515617, -3.874199], [-38.51558, -3.874237], [-38.515553, -3.874268], [-38.51553, -3.874298], [-38.515498, -3.874348], [-38.515461, -3.874416], [-38.515452, -3.874435], [-38.515438, -3.87447], [-38.515419, -3.874529], [-38.515418, -3.874535], [-38.515408, -3.874574], [-38.515402, -3.874605], [-38.515401, -3.874616], [-38.515396, -3.874655], [-38.515393, -3.874704], [-38.515389, -3.874763], [-38.515382, -3.874859], [-38.515378, -3.874925], [-38.515374, -3.874978], [-38.515371, -3.875028], [-38.51537, -3.875065], [-38.515368, -3.875106], [-38.515366, -3.875204], [-38.515359, -3.87537], [-38.515349, -3.875539], [-38.515317, -3.876113], [-38.515306, -3.876285], [-38.515292, -3.876461], [-38.515288, -3.876491], [-38.51528, -3.876565], [-38.515276, -3.876583], [-38.515263, -3.876644], [-38.515232, -3.876762], [-38.515206, -3.876822], [-38.515192, -3.876849], [-38.515178, -3.876875], [-38.515157, -3.876912], [-38.515142, -3.876937], [-38.515127, -3.87696], [-38.515109, -3.876986], [-38.515096, -3.877003], [-38.51508, -3.877025], [-38.515075, -3.87703], [-38.515059, -3.87705], [-38.515039, -3.877074], [-38.515022, -3.877092], [-38.514998, -3.877117], [-38.514988, -3.877127], [-38.514687, -3.877392], [-38.51331, -3.87861], [-38.51329, -3.878699]], [[-38.515422, -3.876413], [-38.515431, -3.876294], [-38.515508, -3.875115], [-38.515562, -3.87502]]]}, "properties": {"via": "AVENIDA  DAS PALMEIRAS IMPERIAIS"}},
{"type": "Feature", "geometry": {"type": "MultiLineString", "coordinates": [[[-38.513545, -3.881955], [-38.513354, -3.881714]], [[-38.513354, -3.881714], [-38.512938, -3.881189]], [[-38.512109, -3.880145], [-38.511851, -3.87982]], [[-38.512938, -3.881189], [-38.512528, -3.880673]], [[-38.512528, -3.880673], [-38.512109, -3.880145]]]}, "properties": {"via": "RUA  C (PARQUE SÃO JOÃO)"}},
{"type": "Feature", "geometry": {"type": "MultiLineString", "coordinates": [[[-38.511119, -3.883581], [-38.51109, -3.883605], [-38.509838, -3.884699], [-38.509785, -3.884752]], [[-38.51398, -3.881191], [-38.513354, -3.881714]], [[-38.512234, -3.88265], [-38.511119, -3.883581]], [[-38.513354, -3.881714], [-38.512234, -3.88265]]]}, "properties": {"via": "RUA  4 (PARQUE SÃO JOÃO)"}},
{"type": "Feature", "geometry": {"type": "LineString", "coordinates": [[-38.5276, -3.872302], [-38.527602, -3.872299], [-38.527224, -3.872662], [-38.526812, -3.873023], [-38.526296, -3.873483], [-38.525193, -3.874518]]}, "properties": {"via": "RUA  RAIMUNDA ESTEVÃO"}},
{"type": "Feature", "geometry": {"type": "MultiLineString", "coordinates": [[[-38.513184, -3.889946], [-38.513482, -3.890822]], [[-38.514592, -3.894032], [-38.514221, -3.892955]], [[-38.513482, -3.890822], [-38.514221, -3.892955]]]}, "properties": {"via": "RUA  SÃO CARLOS"}},
{"type": "Feature", "geometry": {"type": "LineString", "coordinates": [[-38.507395, -3.885798], [-38.505995, -3.886924]]}, "properties": {"via": "TRAVESSA  JOSÉ HENRIQUE"}},
{"type": "Feature", "geometry": {"type": "LineString", "coordinates": [[-38.513184, -3.889946], [-38.513122, -3.889957], [-38.512681, -3.890308]]}, "properties": {"via": "RUA  MARIA DELFINO"}},
{"type": "Feature", "geometry": {"type": "MultiLineString", "coordinates": [[[-38.526486, -3.878147], [-38.528011, -3.879126], [-38.529859, -3.880511]], [[-38.525833, -3.877622], [-38.526486, -3.878147]]]}, "properties": {"via": "ESTRADA  DO GAVIÃO"}},
{"type": "Feature", "geometry": {"type": "MultiLineString", "coordinates": [[[-38.520511, -3.887962], [-38.521473, -3.887145]], [[-38.51918, -3.88912], [-38.519838, -3.888548]], [[-38.519838, -3.888548], [-38.520511, -3.887962]]]}, "properties": {"via": "RUA  QUARTZO"}},
{"type": "Feature", "geometry": {"type": "MultiLineString", "coordinates": [[[-38.520134, -3.887513], [-38.521204, -3.886604]], [[-38.5188, -3.888678], [-38.519465, -3.888111]], [[-38.519465, -3.888111], [-38.520134, -3.887513]]]}, "properties": {"via": "RUA  OPALA (PEDRAS)"}},
{"type": "Feature", "geometry": {"type": "LineString", "coordinates": [[-38.52787, -3.872682], [-38.52665, -3.873745], [-38.525707, -3.874618]]}, "properties": {"via": "RUA  LUCIANO MONTEIRO"}},
{"type": "Feature", "geometry": {"type": "LineString", "coordinates": [[-38.51654, -3.89124], [-38.518114, -3.889854]]}, "properties": {"via": "RUA  AMETISTA (PEDRAS)"}},
{"type": "Feature", "geometry": {"type": "MultiLineString", "coordinates": [[[-38.519759, -3.887078], [-38.520817, -3.886158]], [[-38.518419, -3.888236], [-38.519089, -3.887666]], [[-38.519089, -3.887666], [-38.519759, -3.887078]]]}, "properties": {"via": "RUA  SAFIRA (PEDRAS)"}},
{"type": "Feature", "geometry": {"type": "MultiLineString", "coordinates": [[[-38.518034, -3.887801], [-38.518696, -3.887201]], [[-38.518696, -3.887201], [-38.520407, -3.885653]]]}, "properties": {"via": "RUA  RUBI (PEDRAS)"}},
{"type": "Feature", "geometry": {"type": "MultiLineString", "coordinates": [[[-38.51918, -3.88912], [-38.519565, -3.889577]], [[-38.518034, -3.887801], [-38.518419, -3.888236]], [[-38.5188, -3.888678], [-38.51918, -3.88912]], [[-38.518419, -3.888236], [-38.5188, -3.888678]]]}, "properties": {"via": "RUA  ÔNIX (PEDRAS)"}},
{"type": "Feature", "geometry": {"type": "MultiLineString", "coordinates": [[[-38.519838, -3.888548], [-38.520221, -3.888982]], [[-38.518696, -3.887201], [-38.519089, -3.887666]], [[-38.519465, -3.888111], [-38.519838, -3.888548]], [[-38.519089, -3.887666], [-38.519465, -3.888111]]]}, "properties": {"via": "RUA  TURQUESA (PEDRAS)"}},
{"type": "Feature", "geometry": {"type": "MultiLineString", "coordinates": [[[-38.519759, -3.887078], [-38.520134, -3.887513]], [[-38.520511, -3.887962], [-38.520887, -3.888385]], [[-38.520134, -3.887513], [-38.520511, -3.887962]]]}, "properties": {"via": "RUA  BAUXITA"}},
{"type": "Feature", "geometry": {"type": "MultiLineString", "coordinates": [[[-38.521473, -3.887145], [-38.521724, -3.887646]], [[-38.521204, -3.886604], [-38.521251, -3.886664], [-38.521473, -3.887145]], [[-38.520817, -3.886158], [-38.521204, -3.886604]], [[-38.519033, -3.883815], [-38.519162, -3.884039]], [[-38.518716, -3.883351], [-38.519033, -3.883815]], [[-38.520407, -3.885653], [-38.520817, -3.886158]], [[-38.519009, -3.883988], [-38.519317, -3.884467], [-38.519367, -3.884535], [-38.519907, -3.885068], [-38.52032, -3.885527], [-38.520407, -3.885653]], [[-38.518484, -3.882975], [-38.518714, -3.883347]], [[-38.518193, -3.882524], [-38.518484, -3.882975]], [[-38.517475, -3.881637], [-38.517568, -3.88179]], [[-38.517546, -3.881504], [-38.517671, -3.8817]], [[-38.517973, -3.882177], [-38.518193, -3.882524]], [[-38.517568, -3.88179], [-38.517865, -3.882274]], [[-38.517671, -3.8817], [-38.517973, -3.882177]], [[-38.518652, -3.883403], [-38.519009, -3.883988]], [[-38.517865, -3.882274], [-38.518652, -3.883403]]]}, "properties": {"via": "RUA  DIAMANTE (PEDRAS)"}},
{"type": "Feature", "geometry": {"type": "LineString", "coordinates": [[-38.519148, -3.871859], [-38.519402, -3.871116]]}, "properties": {"via": "RUA  11A DO LOTEAMENTO BAIRRO NOVO"}},
{"type": "Feature", "geometry": {"type": "LineString", "coordinates": [[-38.525852, -3.877644], [-38.528636, -3.875184]]}, "properties": {"via": "RUA  SUMARE", "info": {"is_agg": true, "properties_agg": [{"via": "RUA  SUMARÉ", "feature_id": 10629}], "geom_cmp_equals": [false], "geom_cmp_frechet": [0.0016897266051068794]}}},
{"type": "Feature", "geometry": {"type": "LineString", "coordinates": [[-38.526486, -3.878147], [-38.526529, -3.878126], [-38.526615, -3.878039], [-38.526903, -3.877765], [-38.527899, -3.876905], [-38.528652, -3.876243], [-38.529035, -3.87597]]}, "properties": {"via": "RUA  JOÃO PEQUENO"}},
{"type": "Feature", "geometry": {"type": "LineString", "coordinates": [[-38.521456, -3.879084], [-38.521404, -3.878411]]}, "properties": {"via": "RUA  MANAXOS"}},
{"type": "Feature", "geometry": {"type": "MultiLineString", "coordinates": [[[-38.520336, -3.879357], [-38.520697, -3.879767]], [[-38.520171, -3.87917], [-38.520336, -3.879357]]]}, "properties": {"via": "RUA  POTIGUARA"}},
{"type": "Feature", "geometry": {"type": "MultiLineString", "coordinates": [[[-38.520496, -3.882441], [-38.520138, -3.88204]], [[-38.520138, -3.88204], [-38.519771, -3.881628]], [[-38.518889, -3.880638], [-38.51875, -3.880482]], [[-38.519264, -3.881059], [-38.518889, -3.880638]], [[-38.519771, -3.881628], [-38.519626, -3.881465]], [[-38.519626, -3.881465], [-38.519264, -3.881059]]]}, "properties": {"via": "RUA  MIRANOS"}},
{"type": "Feature", "geometry": {"type": "MultiLineString", "coordinates": [[[-38.517671, -3.8817], [-38.517568, -3.88179]], [[-38.521406, -3.878406], [-38.520343, -3.879351], [-38.520336, -3.879357]], [[-38.518889, -3.880638], [-38.518887, -3.880641], [-38.517671, -3.8817]], [[-38.520336, -3.879357], [-38.518889, -3.880638]]]}, "properties": {"via": "RUA  GUAJÁS"}},
{"type": "Feature", "geometry": {"type": "MultiLineString", "coordinates": [[[-38.517865, -3.882274], [-38.517974, -3.882179]], [[-38.520697, -3.879767], [-38.520699, -3.879766], [-38.521455, -3.879089]], [[-38.517974, -3.882179], [-38.519253, -3.881069], [-38.519264, -3.881059]], [[-38.519264, -3.881059], [-38.520697, -3.879767]]]}, "properties": {"via": "RUA  CAETÉS"}},
{"type": "Feature", "geometry": {"type": "MultiLineString", "coordinates": [[[-38.518484, -3.882975], [-38.518548, -3.882865], [-38.518571, -3.882737]], [[-38.520724, -3.880504], [-38.519626, -3.881465]], [[-38.518571, -3.882737], [-38.518412, -3.882527]], [[-38.518412, -3.882527], [-38.51827, -3.882543], [-38.518193, -3.882524]], [[-38.518571, -3.882737], [-38.519768, -3.881631], [-38.519771, -3.881628]], [[-38.519771, -3.881628], [-38.520744, -3.880752]], [[-38.519626, -3.881465], [-38.518412, -3.882527]]]}, "properties": {"via": "AVENIDA  ITAPÓ"}},
{"type": "Feature", "geometry": {"type": "MultiLineString", "coordinates": [[[-38.520695, -3.881534], [-38.520138, -3.88204]], [[-38.520138, -3.88204], [-38.520134, -3.882044]], [[-38.518714, -3.883347], [-38.518652, -3.883403]], [[-38.520138, -3.88204], [-38.518714, -3.883347]]]}, "properties": {"via": "RUA  TUPINAMBÁ"}},
{"type": "Feature", "geometry": {"type": "LineString", "coordinates": [[-38.520496, -3.882441], [-38.519033, -3.883815]]}, "properties": {"via": "RUA  CARIJÓ"}},
{"type": "Feature", "geometry": {"type": "MultiLineString", "coordinates": [[[-38.520726, -3.880502], [-38.520745, -3.880761]], [[-38.520695, -3.881534], [-38.520563, -3.882381], [-38.520496, -3.882441]], [[-38.520744, -3.880752], [-38.520755, -3.881225], [-38.520695, -3.881534]]]}, "properties": {"via": "RUA  TEMBÉS"}},
{"type": "Feature", "geometry": {"type": "LineString", "coordinates": [[-38.517661, -3.889339], [-38.517608, -3.889338], [-38.516343, -3.890441]]}, "properties": {"via": "RUA  TOPÁZIO (PEDRAS)"}},
{"type": "Feature", "geometry": {"type": "LineString", "coordinates": [[-38.5015, -3.886284], [-38.495934, -3.882239], [-38.495257, -3.881776]]}, "properties": {"via": "ESTRADA  DO GUARANI"}}]}
