{"type":"FeatureCollection","features":[{"type":"Feature","geometry":{"type":"MultiPolygon","coordinates":[[[[-46.05469,-23.29102],[-46.05469,-23.33496],[-46.05469,-23.36885],[-46.05473,-23.36883],[-46.05487,-23.36871],[-46.05499,-23.36858],[-46.05508,-23.36842],[-46.05522,-23.36813],[-46.0553,-23.36791],[-46.05531,-23.36776],[-46.05551,-23.36745],[-46.05569,-23.36745],[-46.05588,-23.36742],[-46.05606,-23.36735],[-46.05622,-23.36726],[-46.05682,-23.36681],[-46.05697,-23.36668],[-46.05709,-23.36651],[-46.05718,-23.36632],[-46.05722,-23.36612],[-46.05722,-23.36592],[-46.05718,-23.36572],[-46.0571,-23.36553],[-46.05692,-23.3652],[-46.05692,-23.36517],[-46.05684,-23.3649],[-46.05682,-23.36486],[-46.05677,-23.36452],[-46.05693,-23.36451],[-46.05711,-23.36446],[-46.05728,-23.36439],[-46.05754,-23.36424],[-46.0577,-23.36412],[-46.05783,-23.36398],[-46.05793,-23.36381],[-46.05797,-23.36371],[-46.05807,-23.36359],[-46.05819,-23.36342],[-46.05826,-23.36323],[-46.0583,-23.36302],[-46.05829,-23.36281],[-46.05828,-23.36271],[-46.05821,-23.36244],[-46.05813,-23.36226],[-46.0581,-23.36209],[-46.05823,-23.3619],[-46.05843,-23.36188],[-46.05859,-23.36186],[-46.05875,-23.3618],[-46.0588,-23.36178],[-46.05895,-23.36177],[-46.05917,-23.36174],[-46.05937,-23.36166],[-46.05955,-23.36154],[-46.0597,-23.36138],[-46.05981,-23.36125],[-46.06023,-23.36096],[-46.06036,-23.36085],[-46.06047,-23.36073],[-46.06055,-23.36059],[-46.06074,-23.36021],[-46.06083,-23.36006],[-46.06089,-23.36001],[-46.06102,-23.35989],[-46.06113,-23.35974],[-46.06121,-23.35957],[-46.06127,-23.35939],[-46.06129,-23.35933],[-46.06131,-23.35935],[-46.06147,-23.35948],[-46.06156,-23.35953],[-46.06176,-23.35963],[-46.06197,-23.35968],[-46.06218,-23.3597],[-46.06241,-23.3597],[-46.0628,-23.35966],[-46.06356,-23.35968],[-46.06373,-23.35967],[-46.06389,-23.35963],[-46.06406,-23.35958],[-46.06427,-23.35948],[-46.06445,-23.35934],[-46.06457,-23.35924],[-46.0647,-23.35908],[-46.0648,-23.3589],[-46.06487,-23.35873],[-46.0649,-23.35865],[-46.06501,-23.3583],[-46.06527,-23.35747],[-46.06528,-23.35743],[-46.06536,-23.35739],[-46.06551,-23.35729],[-46.06564,-23.35716],[-46.06776,-23.35465],[-46.06787,-23.3545],[-46.06794,-23.35434],[-46.06799,-23.35416],[-46.06894,-23.34843],[-46.07353,-23.34293],[-46.08059,-23.34179],[-46.08078,-23.34174],[-46.08096,-23.34165],[-46.08112,-23.34153],[-46.09262,-23.33079],[-46.09855,-23.32683],[-46.09871,-23.32671],[-46.09883,-23.32656],[-46.09892,-23.32638],[-46.09898,-23.3262],[-46.099,-23.326],[-46.099,-23.30972],[-46.10132,-23.30895],[-46.10148,-23.30888],[-46.10163,-23.30878],[-46.10176,-23.30865],[-46.10186,-23.3085],[-46.10194,-23.30834],[-46.10199,-23.30816],[-46.1029,-23.30271],[-46.11438,-23.29792],[-46.11456,-23.29783],[-46.1147,-23.29771],[-46.11483,-23.29756],[-46.11492,-23.29739],[-46.11498,-23.29721],[-46.115,-23.29701],[-46.11498,-23.29682],[-46.11314,-23.28667],[-46.11492,-23.28608],[-46.12255,-23.28989],[-46.12276,-23.28997],[-46.12298,-23.29],[-46.1232,-23.28998],[-46.1382,-23.28698],[-46.13838,-23.28693],[-46.13854,-23.28684],[-46.13869,-23.28672],[-46.13881,-23.28658],[-46.13891,-23.28642],[-46.1446,-23.2741],[-46.15086,-23.27499],[-46.15106,-23.275],[-46.15125,-23.27497],[-46.15144,-23.2749],[-46.15161,-23.27479],[-46.15175,-23.27466],[-46.15187,-23.2745],[-46.15195,-23.27432],[-46.15199,-23.27412],[-46.15299,-23.26612],[-46.153,-23.2659],[-46.15295,-23.26569],[-46.15286,-23.26549],[-46.14686,-23.25549],[-46.14675,-23.25534],[-46.14661,-23.25521],[-46.14645,-23.25511],[-46.14628,-23.25504],[-46.1461,-23.255],[-46.13636,-23.25403],[-46.12993,-23.24943],[-46.12899,-23.24286],[-46.12895,-23.24268],[-46.12887,-23.2425],[-46.12876,-23.24235],[-46.12862,-23.24222],[-46.12362,-23.23822],[-46.12339,-23.23808],[-46.11692,-23.23531],[-46.11599,-23.22788],[-46.11595,-23.22768],[-46.11587,-23.22751],[-46.11576,-23.22735],[-46.11561,-23.22721],[-46.11545,-23.22711],[-46.09771,-23.21824],[-46.09086,-23.2065],[-46.09074,-23.20633],[-46.09059,-23.20619],[-46.09041,-23.20609],[-46.09021,-23.20602],[-46.09,-23.206],[-46.081,-23.206],[-46.081,-23.198],[-46.08097,-23.19778],[-46.0809,-23.19757],[-46.08078,-23.19738],[-46.07716,-23.19284],[-46.07992,-23.18639],[-46.07998,-23.18622],[-46.08,-23.18604],[-46.07999,-23.18586],[-46.07995,-23.18568],[-46.07987,-23.18551],[-46.07977,-23.18536],[-46.07477,-23.17936],[-46.07461,-23.17921],[-46.065,-23.17172],[-46.06483,-23.17162],[-46.06465,-23.17155],[-46.06446,-23.17151],[-46.06426,-23.17152],[-46.06407,-23.17156],[-46.05387,-23.17491],[-46.0537,-23.17499],[-46.05099,-23.1765],[-46.05082,-23.17662],[-46.05069,-23.17676],[-46.05058,-23.17693],[-46.05051,-23.17712],[-46.05048,-23.17731],[-46.05048,-23.17751],[-46.05053,-23.1777],[-46.05061,-23.17789],[-46.05366,-23.18305],[-46.05201,-23.18754],[-46.03181,-23.18949],[-46.02273,-23.18868],[-46.02252,-23.18868],[-46.02231,-23.18873],[-46.02212,-23.18882],[-46.02195,-23.18895],[-46.02182,-23.18911],[-46.02172,-23.1893],[-46.01888,-23.19629],[-46.01804,-23.19799],[-46.01772,-23.19814],[-46.01682,-23.19817],[-46.01664,-23.19819],[-46.01647,-23.19825],[-46.01631,-23.19833],[-46.01616,-23.19845],[-46.01573,-23.19885],[-46.01501,-23.1984],[-46.01484,-23.19831],[-46.01466,-23.19826],[-46.01448,-23.19825],[-46.01379,-23.19825],[-46.01351,-23.19829],[-46.01204,-23.19872],[-46.01131,-23.19879],[-46.01114,-23.19882],[-46.01098,-23.19888],[-46.01011,-23.19927],[-46.00904,-23.19905],[-46.00888,-23.19903],[-46.00872,-23.19903],[-46.0085,-23.19906],[-46.00863,-23.19852],[-46.00888,-23.19768],[-46.00892,-23.19748],[-46.00892,-23.19728],[-46.00888,-23.19709],[-46.0088,-23.19691],[-46.00869,-23.19674],[-46.00855,-23.19661],[-46.00816,-23.1963],[-46.0089,-23.19617],[-46.00943,-23.19612],[-46.00961,-23.19609],[-46.00978,-23.19602],[-46.00994,-23.19592],[-46.01008,-23.1958],[-46.01019,-23.19565],[-46.01027,-23.19549],[-46.01032,-23.19531],[-46.01034,-23.19513],[-46.01034,-23.19459],[-46.01031,-23.19438],[-46.01025,-23.19418],[-46.01015,-23.194],[-46.01001,-23.19385],[-46.00984,-23.19372],[-46.00965,-23.19364],[-46.00744,-23.19291],[-46.00724,-23.19287],[-46.00648,-23.19278],[-46.00615,-23.19241],[-46.00592,-23.19158],[-46.00586,-23.19142],[-46.00577,-23.19127],[-46.00565,-23.19114],[-46.00552,-23.19103],[-46.00383,-23.1899],[-46.00301,-23.18907],[-46.00282,-23.18892],[-46.00161,-23.1882],[-46.00103,-23.18774],[-46.00089,-23.18764],[-46.00073,-23.18757],[-46.00057,-23.18753],[-45.99987,-23.18742],[-45.99943,-23.18695],[-45.99926,-23.18635],[-45.99919,-23.18618],[-45.9991,-23.18603],[-45.99898,-23.1859],[-45.99884,-23.18579],[-45.99869,-23.18571],[-45.9983,-23.18554],[-45.99812,-23.18548],[-45.99793,-23.18546],[-45.99774,-23.18547],[-45.99755,-23.18552],[-45.99738,-23.18561],[-45.99723,-23.18572],[-45.99674,-23.18617],[-45.99662,-23.18631],[-45.99652,-23.18647],[-45.99645,-23.18665],[-45.99642,-23.18684],[-45.99643,-23.18703],[-45.9965,-23.18762],[-45.99641,-23.18762],[-45.99621,-23.18765],[-45.99602,-23.18773],[-45.99585,-23.18785],[-45.99571,-23.18799],[-45.9956,-23.18816],[-45.9952,-23.18895],[-45.9951,-23.18891],[-45.9949,-23.18888],[-45.99347,-23.18877],[-45.99326,-23.18877],[-45.9922,-23.18892],[-45.99199,-23.18897],[-45.99179,-23.18907],[-45.99162,-23.18921],[-45.99149,-23.18938],[-45.99084,-23.19042],[-45.99074,-23.19062],[-45.99069,-23.19084],[-45.99069,-23.19107],[-45.99084,-23.19229],[-45.99068,-23.19242],[-45.98206,-23.20063],[-45.97416,-23.1943],[-45.97401,-23.19419],[-45.97383,-23.19412],[-45.97365,-23.19408],[-45.97347,-23.19408],[-45.97328,-23.19411],[-45.97311,-23.19417],[-45.97295,-23.19427],[-45.97281,-23.19439],[-45.97269,-23.19453],[-45.96956,-23.1994],[-45.96598,-23.20123],[-45.96224,-23.20312],[-46.05469,-23.20312],[-46.05469,-23.29102]]],[[[-45.92289,-23.37891],[-45.92288,-23.37935],[-45.92283,-23.37998],[-45.92258,-23.38071],[-45.92207,-23.38146],[-45.9214,-23.38223],[-45.92068,-23.38282],[-45.9189,-23.38375],[-45.91875,-23.38384],[-45.91798,-23.38443],[-45.9179,-23.38451],[-45.91701,-23.38536],[-45.91685,-23.38557],[-45.91627,-23.38652],[-45.91617,-23.38673],[-45.91579,-23.38792],[-45.91574,-23.3881],[-45.91574,-23.38829],[-45.91577,-23.38888],[-45.91578,-23.38896],[-45.91601,-23.39066],[-45.91603,-23.39075],[-45.91618,-23.39137],[-45.91624,-23.39156],[-45.91633,-23.39172],[-45.91664,-23.39216],[-45.91679,-23.39233],[-45.91698,-23.39246],[-45.91747,-23.39272],[-45.91762,-23.39279],[-45.91779,-23.39283],[-45.91924,-23.39307],[-45.91926,-23.39307],[-45.92049,-23.39325],[-45.92063,-23.39326],[-45.92228,-23.39325],[-45.9225,-23.39323],[-45.92357,-23.39298],[-45.92374,-23.39293],[-45.92389,-23.39284],[-45.92442,-23.3925],[-45.92462,-23.39232],[-45.92547,-23.39136],[-45.92558,-23.3912],[-45.92589,-23.39068],[-45.92596,-23.39053],[-45.92685,-23.38815],[-45.92716,-23.38754],[-45.92992,-23.38295],[-45.92999,-23.38296],[-45.93037,-23.38312],[-45.93188,-23.38384],[-45.93254,-23.38443],[-45.93272,-23.38465],[-45.93286,-23.38562],[-45.93291,-23.38584],[-45.93342,-23.38718],[-45.93366,-23.38794],[-45.93373,-23.38842],[-45.93371,-23.38878],[-45.93366,-23.38893],[-45.93358,-23.38907],[-45.93322,-23.38948],[-45.93313,-23.38961],[-45.93306,-23.38974],[-45.93257,-23.39087],[-45.93163,-23.39257],[-45.93134,-23.39294],[-45.9306,-23.39349],[-45.9304,-23.3937],[-45.92997,-23.39427],[-45.92988,-23.39441],[-45.92981,-23.39457],[-45.92967,-23.39503],[-45.92964,-23.3952],[-45.92963,-23.39537],[-45.92966,-23.39555],[-45.92977,-23.39606],[-45.92983,-23.39624],[-45.92993,-23.3964],[-45.93005,-23.39655],[-45.93049,-23.39697],[-45.93067,-23.39712],[-45.93112,-23.39738],[-45.93129,-23.39746],[-45.93203,-23.39772],[-45.93226,-23.39778],[-45.93249,-23.39777],[-45.9329,-23.39772],[-45.93312,-23.39767],[-45.93331,-23.39757],[-45.93366,-23.39734],[-45.93385,-23.39718],[-45.93433,-23.39666],[-45.93436,-23.39663],[-45.93447,-23.3966],[-45.93539,-23.39656],[-45.93563,-23.39651],[-45.93745,-23.39597],[-45.93749,-23.39595],[-45.93929,-23.39533],[-45.93947,-23.39525],[-45.94082,-23.39446],[-45.94095,-23.39437],[-45.94226,-23.3933],[-45.94241,-23.39315],[-45.94328,-23.39205],[-45.94338,-23.39191],[-45.94345,-23.39174],[-45.94382,-23.39059],[-45.94407,-23.39017],[-45.94416,-23.39009],[-45.9442,-23.39007],[-45.94542,-23.39018],[-45.94609,-23.39026],[-45.94616,-23.39029],[-45.94616,-23.3903],[-45.94722,-23.39314],[-45.94723,-23.39317],[-45.94785,-23.39467],[-45.94795,-23.39487],[-45.94902,-23.39639],[-45.94922,-23.39661],[-45.94998,-23.39721],[-45.95015,-23.39732],[-45.95308,-23.3988],[-45.95323,-23.39886],[-45.95442,-23.39923],[-45.95449,-23.39925],[-45.95679,-23.39978],[-45.95706,-23.39981],[-45.9579,-23.39977],[-45.95804,-23.39975],[-45.95947,-23.39949],[-45.95967,-23.39943],[-45.96011,-23.39925],[-45.96031,-23.39914],[-45.96048,-23.39899],[-45.96061,-23.39881],[-45.96074,-23.39857],[-45.96084,-23.39851],[-45.96099,-23.39842],[-45.96153,-23.39803],[-45.96161,-23.39796],[-45.96193,-23.39767],[-45.96217,-23.39786],[-45.96233,-23.39797],[-45.96328,-23.39846],[-45.96331,-23.39848],[-45.9646,-23.39909],[-45.96546,-23.39965],[-45.96598,-23.40018],[-45.96625,-23.40047],[-45.96735,-23.4023],[-45.96748,-23.40247],[-45.96765,-23.40261],[-45.96822,-23.40299],[-45.9684,-23.40308],[-45.9686,-23.40314],[-45.96904,-23.40322],[-45.96928,-23.40323],[-45.96952,-23.40318],[-45.96994,-23.40305],[-45.97019,-23.40292],[-45.97143,-23.40208],[-45.97195,-23.40185],[-45.97225,-23.40177],[-45.97226,-23.40177],[-45.97247,-23.40188],[-45.97261,-23.40194],[-45.97396,-23.40239],[-45.97459,-23.40271],[-45.97505,-23.40305],[-45.9754,-23.40335],[-45.97673,-23.40493],[-45.97688,-23.40507],[-45.97772,-23.40572],[-45.97788,-23.40582],[-45.97943,-23.40659],[-45.97978,-23.40686],[-45.98003,-23.40718],[-45.98031,-23.40763],[-45.98051,-23.40852],[-45.9805,-23.4094],[-45.98038,-23.41031],[-45.98039,-23.41057],[-45.98048,-23.41128],[-45.98052,-23.41143],[-45.98064,-23.41185],[-45.98064,-23.41275],[-45.98031,-23.41421],[-45.9803,-23.41424],[-45.98025,-23.41447],[-45.98023,-23.41469],[-45.98026,-23.4149],[-45.98036,-23.4153],[-45.98042,-23.41546],[-45.9805,-23.41562],[-45.98068,-23.41588],[-45.98078,-23.41601],[-45.98091,-23.41612],[-45.98105,-23.41621],[-45.98132,-23.41635],[-45.98148,-23.41642],[-45.98235,-23.41669],[-45.98323,-23.41714],[-45.98417,-23.41777],[-45.98614,-23.41972],[-45.98629,-23.41985],[-45.98647,-23.41994],[-45.98667,-23.42],[-45.98687,-23.42001],[-45.98707,-23.41999],[-45.98726,-23.41992],[-45.98743,-23.41982],[-45.98765,-23.41967],[-45.98819,-23.41927],[-45.99036,-23.41881],[-45.99054,-23.41876],[-45.99071,-23.41867],[-45.99086,-23.41855],[-45.99098,-23.4184],[-45.99107,-23.41823],[-45.99526,-23.40851],[-45.99803,-23.40468],[-45.99812,-23.40453],[-45.99818,-23.40437],[-45.999,-23.40151],[-45.99903,-23.40133],[-45.99903,-23.40114],[-45.99857,-23.39645],[-45.99868,-23.39611],[-45.99934,-23.39414],[-45.99974,-23.39295],[-46.00024,-23.39143],[-46.00177,-23.38685],[-46.00957,-23.38512],[-46.00992,-23.38561],[-46.01261,-23.38938],[-46.01272,-23.38953],[-46.01291,-23.38973],[-46.01442,-23.39092],[-46.01458,-23.39103],[-46.01476,-23.3911],[-46.01494,-23.39113],[-46.01568,-23.3912],[-46.01586,-23.39121],[-46.01604,-23.39117],[-46.01721,-23.39085],[-46.01744,-23.39076],[-46.01867,-23.39006],[-46.02028,-23.38913],[-46.02173,-23.38831],[-46.0242,-23.3916],[-46.02434,-23.39175],[-46.0245,-23.39187],[-46.02469,-23.39195],[-46.02489,-23.39199],[-46.02509,-23.392],[-46.02529,-23.39196],[-46.02544,-23.39191],[-46.02595,-23.39175],[-46.03829,-23.38796],[-46.03849,-23.38787],[-46.03866,-23.38775],[-46.03881,-23.38759],[-46.04468,-23.37958],[-46.04473,-23.37952],[-46.04541,-23.37891],[-45.92289,-23.37891]]],[[[-45.8942,-23.37891],[-45.89416,-23.37897],[-45.89409,-23.3791],[-45.89375,-23.37998],[-45.89272,-23.38146],[-45.89261,-23.38167],[-45.89208,-23.38307],[-45.89202,-23.38332],[-45.89185,-23.38489],[-45.89186,-23.38516],[-45.89199,-23.38591],[-45.89204,-23.3861],[-45.89213,-23.38628],[-45.89242,-23.38673],[-45.89267,-23.38719],[-45.89286,-23.3883],[-45.89291,-23.38847],[-45.89361,-23.3904],[-45.89368,-23.39091],[-45.89365,-23.39097],[-45.8932,-23.3917],[-45.8931,-23.39192],[-45.89305,-23.39215],[-45.89303,-23.39239],[-45.89302,-23.39256],[-45.89303,-23.39279],[-45.89309,-23.39301],[-45.89328,-23.39349],[-45.89336,-23.39365],[-45.89348,-23.3938],[-45.89362,-23.39393],[-45.89421,-23.39435],[-45.8944,-23.39446],[-45.89501,-23.39472],[-45.89519,-23.39478],[-45.89538,-23.3948],[-45.89612,-23.39482],[-45.89627,-23.39481],[-45.89642,-23.39478],[-45.89744,-23.39449],[-45.89766,-23.39441],[-45.89823,-23.39409],[-45.89845,-23.39393],[-45.89907,-23.39332],[-45.89917,-23.3932],[-45.89925,-23.39307],[-45.8996,-23.39242],[-45.89968,-23.3922],[-45.90001,-23.39089],[-45.90074,-23.38896],[-45.90145,-23.38728],[-45.90334,-23.3843],[-45.90387,-23.38375],[-45.90464,-23.3832],[-45.90691,-23.38216],[-45.9071,-23.38205],[-45.90935,-23.38035],[-45.91076,-23.37962],[-45.91085,-23.37957],[-45.91178,-23.37896],[-45.91185,-23.37891],[-45.8942,-23.37891]]]]},"properties":{"ghs":"6gz","size":19.7,"ghs_len":3,"ghs_area":145.12,"ghs_bytes":679591,"ghs_items":1682,"size_unit":"km2","ghsval_unit":"bytes","ghs_itemsdensity":11.59,"size_unitdensity":0.14}},{"type":"Feature","geometry":{"type":"MultiPolygon","coordinates":[[[[-46.01074,-23.33496],[-45.9668,-23.33496],[-45.92285,-23.33496],[-45.92285,-23.302],[-45.92285,-23.29651],[-45.92285,-23.29102],[-45.92285,-23.26075],[-45.92221,-23.26121],[-45.92091,-23.26216],[-45.92078,-23.26227],[-45.92067,-23.2624],[-45.92024,-23.26304],[-45.91885,-23.26507],[-45.91784,-23.26655],[-45.91701,-23.26776],[-45.91648,-23.26854],[-45.91625,-23.26887],[-45.9162,-23.26895],[-45.9161,-23.26913],[-45.91518,-23.27136],[-45.91477,-23.27235],[-45.91395,-23.27434],[-45.91179,-23.27838],[-45.9111,-23.27968],[-45.91101,-23.27992],[-45.91047,-23.28222],[-45.91024,-23.28316],[-45.90969,-23.28551],[-45.90922,-23.28749],[-45.908,-23.28906],[-45.9074,-23.28984],[-45.90669,-23.29075],[-45.9064,-23.29112],[-45.90448,-23.2936],[-45.87631,-23.29829],[-45.86954,-23.29727],[-45.86936,-23.29726],[-45.86918,-23.29728],[-45.86901,-23.29733],[-45.86885,-23.29742],[-45.85839,-23.30421],[-45.84852,-23.3051],[-45.84361,-23.30317],[-45.84184,-23.30106],[-45.84014,-23.29506],[-45.84008,-23.2949],[-45.83999,-23.29475],[-45.83988,-23.29462],[-45.83974,-23.29451],[-45.83774,-23.29314],[-45.83756,-23.29304],[-45.83735,-23.29298],[-45.83572,-23.2927],[-45.83552,-23.29268],[-45.83271,-23.29278],[-45.82836,-23.29183],[-45.82571,-23.2893],[-45.82557,-23.28919],[-45.8254,-23.2891],[-45.82523,-23.28905],[-45.82505,-23.28903],[-45.8209,-23.28888],[-45.81247,-23.28829],[-45.81228,-23.2883],[-45.8121,-23.28834],[-45.81192,-23.28841],[-45.80579,-23.29173],[-45.79471,-23.29114],[-45.79452,-23.29115],[-45.79434,-23.29119],[-45.79417,-23.29127],[-45.79401,-23.29137],[-45.79388,-23.29151],[-45.79378,-23.29166],[-45.7937,-23.29183],[-45.79366,-23.29201],[-45.79365,-23.2922],[-45.79368,-23.29238],[-45.7952,-23.2985],[-45.79528,-23.2987],[-45.7954,-23.29889],[-45.79555,-23.29904],[-45.79574,-23.29916],[-45.80485,-23.30356],[-45.80302,-23.31178],[-45.803,-23.31198],[-45.80301,-23.31217],[-45.80307,-23.31236],[-45.80315,-23.31253],[-45.80782,-23.32],[-45.80185,-23.32949],[-45.80177,-23.32965],[-45.80172,-23.32982],[-45.8017,-23.32999],[-45.80158,-23.33338],[-45.80104,-23.33488],[-45.80099,-23.33507],[-45.80098,-23.33527],[-45.80101,-23.33546],[-45.80224,-23.34049],[-45.8023,-23.34065],[-45.80238,-23.34081],[-45.80314,-23.34193],[-45.80327,-23.34208],[-45.80342,-23.34221],[-45.80359,-23.3423],[-45.80378,-23.34236],[-45.80743,-23.34305],[-45.8076,-23.34307],[-45.80777,-23.34305],[-45.80918,-23.34283],[-45.80936,-23.34279],[-45.80954,-23.34271],[-45.80969,-23.3426],[-45.80982,-23.34246],[-45.81291,-23.33849],[-45.81374,-23.33834],[-45.81493,-23.33859],[-45.8195,-23.34156],[-45.82006,-23.34228],[-45.82196,-23.34696],[-45.82207,-23.34716],[-45.82223,-23.34734],[-45.82322,-23.34819],[-45.82338,-23.3483],[-45.82356,-23.34838],[-45.82475,-23.34878],[-45.82492,-23.34882],[-45.8251,-23.34883],[-45.82527,-23.34881],[-45.82673,-23.34849],[-45.82689,-23.34845],[-45.82703,-23.34837],[-45.82717,-23.34828],[-45.83364,-23.34278],[-45.83374,-23.34268],[-45.83383,-23.34256],[-45.83765,-23.33657],[-45.83802,-23.33646],[-45.83847,-23.33652],[-45.8422,-23.3406],[-45.84285,-23.34167],[-45.84325,-23.34267],[-45.84334,-23.34381],[-45.84213,-23.34975],[-45.84211,-23.34993],[-45.84209,-23.35078],[-45.84211,-23.35098],[-45.84216,-23.35118],[-45.84226,-23.35136],[-45.84413,-23.35411],[-45.84434,-23.35551],[-45.84439,-23.35569],[-45.84447,-23.35586],[-45.84458,-23.35602],[-45.84471,-23.35615],[-45.84551,-23.35677],[-45.84567,-23.35687],[-45.84585,-23.35694],[-45.84604,-23.35698],[-45.84834,-23.35719],[-45.84851,-23.35719],[-45.84869,-23.35716],[-45.84885,-23.3571],[-45.85176,-23.35574],[-45.85457,-23.35538],[-45.8561,-23.35582],[-45.85659,-23.35673],[-45.85544,-23.36416],[-45.85543,-23.36434],[-45.85545,-23.36452],[-45.8555,-23.36469],[-45.85558,-23.36485],[-45.85569,-23.36499],[-45.85761,-23.36706],[-45.85906,-23.37373],[-45.85912,-23.37392],[-45.85922,-23.37409],[-45.86105,-23.3767],[-45.86117,-23.37684],[-45.86131,-23.37695],[-45.86188,-23.37735],[-45.86206,-23.37744],[-45.86225,-23.3775],[-45.86283,-23.37762],[-45.863,-23.37764],[-45.86317,-23.37762],[-45.86397,-23.3775],[-45.86416,-23.37746],[-45.86433,-23.37737],[-45.86834,-23.375],[-45.86865,-23.37492],[-45.87083,-23.37507],[-45.87292,-23.37524],[-45.87368,-23.37542],[-45.87402,-23.37551],[-45.87442,-23.37561],[-45.87462,-23.37565],[-45.87483,-23.37563],[-45.87503,-23.37558],[-45.87522,-23.37548],[-45.87538,-23.37535],[-45.87565,-23.37508],[-45.87571,-23.37501],[-45.87615,-23.37447],[-45.8765,-23.37414],[-45.87722,-23.37345],[-45.87736,-23.37329],[-45.87798,-23.37236],[-45.87807,-23.37219],[-45.87822,-23.37184],[-45.87828,-23.37166],[-45.8783,-23.37147],[-45.87832,-23.37037],[-45.87853,-23.36944],[-45.87901,-23.36868],[-45.8795,-23.36826],[-45.87946,-23.36839],[-45.87942,-23.36858],[-45.87941,-23.36878],[-45.87947,-23.36945],[-45.87951,-23.36965],[-45.87958,-23.36983],[-45.88099,-23.37248],[-45.88122,-23.37403],[-45.88127,-23.37422],[-45.88156,-23.37506],[-45.88166,-23.37525],[-45.8818,-23.37543],[-45.88246,-23.37609],[-45.88266,-23.37624],[-45.88288,-23.37634],[-45.88347,-23.37652],[-45.88374,-23.37657],[-45.88464,-23.37659],[-45.88482,-23.37657],[-45.8858,-23.37642],[-45.886,-23.37636],[-45.88914,-23.37516],[-45.88923,-23.37512],[-45.89043,-23.37451],[-45.8906,-23.3744],[-45.89074,-23.37426],[-45.89126,-23.37365],[-45.8913,-23.37359],[-45.89169,-23.37306],[-45.8918,-23.37288],[-45.89186,-23.37267],[-45.89202,-23.3719],[-45.89215,-23.37152],[-45.8926,-23.37162],[-45.89281,-23.37164],[-45.89326,-23.37164],[-45.89351,-23.37161],[-45.89399,-23.37149],[-45.89414,-23.37144],[-45.89463,-23.37123],[-45.89465,-23.37121],[-45.89594,-23.37061],[-45.89787,-23.3698],[-45.89797,-23.36975],[-45.89906,-23.36913],[-45.89921,-23.36906],[-45.89957,-23.36923],[-45.90014,-23.36965],[-45.90055,-23.37002],[-45.90092,-23.37065],[-45.90097,-23.37078],[-45.90097,-23.37086],[-45.9009,-23.37099],[-45.90042,-23.37168],[-45.89912,-23.37289],[-45.899,-23.37303],[-45.89737,-23.37529],[-45.89646,-23.37597],[-45.89633,-23.37609],[-45.89622,-23.37623],[-45.89579,-23.3769],[-45.89424,-23.37884],[-45.8942,-23.37891],[-45.91185,-23.37891],[-45.91193,-23.37884],[-45.91239,-23.37839],[-45.91252,-23.37823],[-45.91262,-23.37806],[-45.9129,-23.37736],[-45.91294,-23.37726],[-45.91319,-23.37637],[-45.91322,-23.37621],[-45.91332,-23.37534],[-45.91347,-23.37471],[-45.91351,-23.37464],[-45.91361,-23.37466],[-45.91393,-23.3748],[-45.91566,-23.37569],[-45.91582,-23.37576],[-45.916,-23.37579],[-45.91718,-23.37593],[-45.91734,-23.37594],[-45.91852,-23.37588],[-45.91875,-23.37584],[-45.92008,-23.37547],[-45.92028,-23.37538],[-45.92187,-23.37451],[-45.92194,-23.37447],[-45.92364,-23.37335],[-45.92374,-23.37327],[-45.92604,-23.3713],[-45.92612,-23.37122],[-45.92846,-23.3687],[-45.92847,-23.36869],[-45.92975,-23.36724],[-45.93,-23.36711],[-45.93014,-23.36709],[-45.92993,-23.36936],[-45.92982,-23.37032],[-45.92981,-23.37047],[-45.92998,-23.37444],[-45.92995,-23.37462],[-45.92928,-23.37457],[-45.9292,-23.37457],[-45.92862,-23.37457],[-45.92844,-23.37458],[-45.92793,-23.37468],[-45.92531,-23.37455],[-45.92513,-23.37456],[-45.92436,-23.37465],[-45.92415,-23.3747],[-45.92396,-23.37479],[-45.92366,-23.37498],[-45.92349,-23.37511],[-45.92335,-23.37527],[-45.92315,-23.37558],[-45.92306,-23.37573],[-45.92301,-23.3759],[-45.92298,-23.37607],[-45.92294,-23.37671],[-45.92294,-23.37676],[-45.92289,-23.37891],[-46.04541,-23.37891],[-46.04857,-23.37605],[-46.04863,-23.376],[-46.05026,-23.37429],[-46.05038,-23.37414],[-46.05047,-23.37397],[-46.05052,-23.37379],[-46.0508,-23.37236],[-46.05085,-23.37231],[-46.05095,-23.37213],[-46.05157,-23.37075],[-46.05164,-23.37054],[-46.05166,-23.37032],[-46.05165,-23.37025],[-46.05214,-23.36958],[-46.05239,-23.36944],[-46.0544,-23.36897],[-46.05457,-23.36891],[-46.05469,-23.36885],[-46.05469,-23.33496],[-46.01074,-23.33496]]],[[[-45.9668,-23.24707],[-45.9668,-23.25806],[-45.9668,-23.26355],[-45.9668,-23.29102],[-46.01074,-23.29102],[-46.05469,-23.29102],[-46.05469,-23.20312],[-45.96224,-23.20312],[-45.96155,-23.20347],[-45.95882,-23.20485],[-45.95843,-23.20505],[-45.95342,-23.20327],[-45.95323,-23.20322],[-45.95304,-23.20321],[-45.95285,-23.20324],[-45.95266,-23.2033],[-45.95249,-23.2034],[-45.95235,-23.20353],[-45.95223,-23.20369],[-45.95215,-23.20386],[-45.9521,-23.20405],[-45.95209,-23.20424],[-45.95211,-23.20444],[-45.95218,-23.20462],[-45.95263,-23.20561],[-45.95207,-23.20597],[-45.94959,-23.20754],[-45.94939,-23.20771],[-45.9482,-23.20901],[-45.94798,-23.20925],[-45.94786,-23.2094],[-45.94778,-23.20958],[-45.94773,-23.20976],[-45.94771,-23.20995],[-45.94773,-23.21014],[-45.94779,-23.21032],[-45.94788,-23.21052],[-45.94784,-23.2106],[-45.94751,-23.21108],[-45.94739,-23.21133],[-45.9471,-23.2122],[-45.94706,-23.21236],[-45.94705,-23.21253],[-45.94707,-23.2127],[-45.94736,-23.21418],[-45.94741,-23.21435],[-45.94749,-23.21451],[-45.94792,-23.21521],[-45.94805,-23.21538],[-45.94876,-23.2161],[-45.94889,-23.21622],[-45.94904,-23.21631],[-45.95072,-23.21712],[-45.95093,-23.21719],[-45.95115,-23.21722],[-45.95258,-23.21722],[-45.953,-23.21729],[-45.95327,-23.21777],[-45.95325,-23.21892],[-45.95325,-23.21895],[-45.95325,-23.21899],[-45.95328,-23.2202],[-45.9533,-23.22042],[-45.95338,-23.22062],[-45.95349,-23.2208],[-45.9539,-23.22131],[-45.95433,-23.22186],[-45.95448,-23.22201],[-45.95466,-23.22213],[-45.95486,-23.22221],[-45.95507,-23.22224],[-45.95527,-23.22225],[-45.95578,-23.22227],[-45.95598,-23.22226],[-45.95618,-23.2222],[-45.95637,-23.22211],[-45.95653,-23.22198],[-45.95757,-23.22094],[-45.95773,-23.22073],[-45.95799,-23.22029],[-45.95814,-23.22016],[-45.95858,-23.22007],[-45.95965,-23.22029],[-45.95988,-23.22049],[-45.9601,-23.22082],[-45.96009,-23.22107],[-45.95982,-23.2218],[-45.95977,-23.22197],[-45.95954,-23.22321],[-45.95953,-23.22345],[-45.95957,-23.22368],[-45.95985,-23.22463],[-45.95992,-23.22479],[-45.96,-23.22493],[-45.96058,-23.22572],[-45.96071,-23.22587],[-45.96088,-23.226],[-45.9612,-23.22618],[-45.96137,-23.22626],[-45.96157,-23.22631],[-45.96178,-23.22634],[-45.96188,-23.22635],[-45.96205,-23.22637],[-45.96234,-23.22641],[-45.96263,-23.22641],[-45.96329,-23.22631],[-45.96351,-23.22625],[-45.9637,-23.22614],[-45.96392,-23.22599],[-45.96392,-23.22599],[-45.96409,-23.22611],[-45.9642,-23.22629],[-45.96418,-23.2265],[-45.96409,-23.22662],[-45.96361,-23.22729],[-45.96359,-23.22732],[-45.96291,-23.22834],[-45.96281,-23.22852],[-45.96276,-23.2287],[-45.96261,-23.22941],[-45.96259,-23.22961],[-45.96259,-23.23011],[-45.96261,-23.23032],[-45.96273,-23.23087],[-45.96279,-23.23106],[-45.96289,-23.23124],[-45.96302,-23.23139],[-45.96318,-23.23151],[-45.96381,-23.23191],[-45.96393,-23.23198],[-45.96543,-23.23263],[-45.96557,-23.23269],[-45.96784,-23.23329],[-45.96811,-23.23333],[-45.96981,-23.2333],[-45.96984,-23.23332],[-45.96972,-23.23337],[-45.96651,-23.23406],[-45.96635,-23.23411],[-45.96463,-23.2348],[-45.96448,-23.23487],[-45.96335,-23.23555],[-45.96315,-23.2357],[-45.96284,-23.23602],[-45.96273,-23.23615],[-45.96231,-23.23676],[-45.96221,-23.23695],[-45.96198,-23.23751],[-45.96194,-23.23764],[-45.96184,-23.23801],[-45.96181,-23.23823],[-45.96183,-23.23844],[-45.96189,-23.23865],[-45.96197,-23.23884],[-45.96205,-23.23899],[-45.96217,-23.23913],[-45.96245,-23.23943],[-45.96259,-23.23955],[-45.96275,-23.23965],[-45.96294,-23.23974],[-45.96293,-23.23984],[-45.96292,-23.23991],[-45.9628,-23.24315],[-45.96174,-23.24565],[-45.96049,-23.24698],[-45.96039,-23.24707],[-45.9668,-23.24707]]]]},"properties":{"ghs":"6gz7","size":20.8,"ghs_len":4,"ghs_area":251.56,"ghs_bytes":1285306,"ghs_items":5973,"size_unit":"km2","ghsval_unit":"bytes","ghs_itemsdensity":23.74,"size_unitdensity":0.08}},{"type":"Feature","geometry":{"type":"Polygon","coordinates":[[[-46.01074,-23.29102],[-46.01074,-23.3075],[-46.01074,-23.31299],[-46.01074,-23.33496],[-46.05469,-23.33496],[-46.05469,-23.29102],[-46.01074,-23.29102]]]},"properties":{"ghs":"6gz72","size":7.53,"ghs_len":5,"ghs_area":21.88,"ghs_bytes":1880165,"ghs_items":8380,"size_unit":"km2","ghsval_unit":"bytes","ghs_itemsdensity":383.06,"size_unitdensity":0.34}},{"type":"Feature","geometry":{"type":"Polygon","coordinates":[[[-45.99976,-23.31299],[-45.99976,-23.3075],[-46.01074,-23.3075],[-46.01074,-23.29102],[-45.9668,-23.29102],[-45.9668,-23.29651],[-45.97778,-23.29651],[-45.97778,-23.302],[-45.97778,-23.3075],[-45.9668,-23.3075],[-45.9668,-23.31299],[-45.9668,-23.33496],[-46.01074,-23.33496],[-46.01074,-23.31299],[-45.99976,-23.31299]],[[-45.97778,-23.31848],[-45.97778,-23.31299],[-45.98877,-23.31299],[-45.98877,-23.31848],[-45.97778,-23.31848]]]},"properties":{"ghs":"6gz73","size":9.88,"ghs_len":5,"ghs_area":19.14,"ghs_bytes":2907930,"ghs_items":14104,"size_unit":"km2","ghsval_unit":"bytes","ghs_itemsdensity":736.82,"size_unitdensity":0.52}},{"type":"Feature","geometry":{"type":"Polygon","coordinates":[[[-45.98877,-23.31299],[-45.97778,-23.31299],[-45.97778,-23.31848],[-45.98877,-23.31848],[-45.98877,-23.31299]]]},"properties":{"ghs":"6gz73e","size":0.48,"ghs_len":6,"ghs_area":0.68,"ghs_bytes":263305,"ghs_items":1280,"size_unit":"km2","ghsval_unit":"bytes","ghs_itemsdensity":1872.39,"size_unitdensity":0.7}},{"type":"Feature","geometry":{"type":"Polygon","coordinates":[[[-46.01074,-23.3075],[-45.99976,-23.3075],[-45.99976,-23.31299],[-46.01074,-23.31299],[-46.01074,-23.3075]]]},"properties":{"ghs":"6gz73h","size":0.46,"ghs_len":6,"ghs_area":0.68,"ghs_bytes":313347,"ghs_items":1624,"size_unit":"km2","ghsval_unit":"bytes","ghs_itemsdensity":2375.5,"size_unitdensity":0.68}},{"type":"Feature","geometry":{"type":"Polygon","coordinates":[[[-45.97778,-23.302],[-45.9668,-23.302],[-45.9668,-23.3075],[-45.97778,-23.3075],[-45.97778,-23.302]]]},"properties":{"ghs":"6gz73v","size":0.46,"ghs_len":6,"ghs_area":0.68,"ghs_bytes":255809,"ghs_items":1229,"size_unit":"km2","ghsval_unit":"bytes","ghs_itemsdensity":1797.64,"size_unitdensity":0.67}},{"type":"Feature","geometry":{"type":"Polygon","coordinates":[[[-45.97778,-23.29651],[-45.9668,-23.29651],[-45.9668,-23.302],[-45.97778,-23.302],[-45.97778,-23.29651]]]},"properties":{"ghs":"6gz73y","size":0.42,"ghs_len":6,"ghs_area":0.68,"ghs_bytes":259027,"ghs_items":1341,"size_unit":"km2","ghsval_unit":"bytes","ghs_itemsdensity":1961.38,"size_unitdensity":0.61}},{"type":"Feature","geometry":{"type":"MultiPolygon","coordinates":[[[[-45.95581,-23.31299],[-45.95581,-23.3075],[-45.95581,-23.302],[-45.94482,-23.302],[-45.93384,-23.302],[-45.92285,-23.302],[-45.92285,-23.33496],[-45.9668,-23.33496],[-45.9668,-23.31299],[-45.95581,-23.31299]]],[[[-45.92285,-23.29651],[-45.93384,-23.29651],[-45.94482,-23.29651],[-45.95581,-23.29651],[-45.95581,-23.29102],[-45.92285,-23.29102],[-45.92285,-23.29651]]]]},"properties":{"ghs":"6gz76","size":8.6,"ghs_len":5,"ghs_area":17.09,"ghs_bytes":2945757,"ghs_items":14951,"size_unit":"km2","ghsval_unit":"bytes","ghs_itemsdensity":874.8,"size_unitdensity":0.5}},{"type":"Feature","geometry":{"type":"Polygon","coordinates":[[[-45.9668,-23.3075],[-45.95581,-23.3075],[-45.95581,-23.31299],[-45.9668,-23.31299],[-45.9668,-23.3075]]]},"properties":{"ghs":"6gz76h","size":0.5,"ghs_len":6,"ghs_area":0.68,"ghs_bytes":432450,"ghs_items":2172,"size_unit":"km2","ghsval_unit":"bytes","ghs_itemsdensity":3177.08,"size_unitdensity":0.73}},{"type":"Feature","geometry":{"type":"Polygon","coordinates":[[[-45.9668,-23.302],[-45.95581,-23.302],[-45.95581,-23.3075],[-45.9668,-23.3075],[-45.9668,-23.302]]]},"properties":{"ghs":"6gz76j","size":0.52,"ghs_len":6,"ghs_area":0.68,"ghs_bytes":375772,"ghs_items":1735,"size_unit":"km2","ghsval_unit":"bytes","ghs_itemsdensity":2537.76,"size_unitdensity":0.75}},{"type":"Feature","geometry":{"type":"Polygon","coordinates":[[[-45.9668,-23.29651],[-45.95581,-23.29651],[-45.95581,-23.302],[-45.9668,-23.302],[-45.9668,-23.29651]]]},"properties":{"ghs":"6gz76n","size":0.52,"ghs_len":6,"ghs_area":0.68,"ghs_bytes":340396,"ghs_items":1728,"size_unit":"km2","ghsval_unit":"bytes","ghs_itemsdensity":2527.42,"size_unitdensity":0.75}},{"type":"Feature","geometry":{"type":"Polygon","coordinates":[[[-45.9668,-23.29102],[-45.95581,-23.29102],[-45.95581,-23.29651],[-45.9668,-23.29651],[-45.9668,-23.29102]]]},"properties":{"ghs":"6gz76p","size":0.48,"ghs_len":6,"ghs_area":0.68,"ghs_bytes":289978,"ghs_items":1532,"size_unit":"km2","ghsval_unit":"bytes","ghs_itemsdensity":2240.65,"size_unitdensity":0.7}},{"type":"Feature","geometry":{"type":"Polygon","coordinates":[[[-45.95581,-23.29651],[-45.94482,-23.29651],[-45.94482,-23.302],[-45.95581,-23.302],[-45.95581,-23.29651]]]},"properties":{"ghs":"6gz76q","size":0.44,"ghs_len":6,"ghs_area":0.68,"ghs_bytes":310502,"ghs_items":1574,"size_unit":"km2","ghsval_unit":"bytes","ghs_itemsdensity":2302.17,"size_unitdensity":0.64}},{"type":"Feature","geometry":{"type":"Polygon","coordinates":[[[-45.94482,-23.29651],[-45.93384,-23.29651],[-45.93384,-23.302],[-45.94482,-23.302],[-45.94482,-23.29651]]]},"properties":{"ghs":"6gz76w","size":0.49,"ghs_len":6,"ghs_area":0.68,"ghs_bytes":443857,"ghs_items":2280,"size_unit":"km2","ghsval_unit":"bytes","ghs_itemsdensity":3334.79,"size_unitdensity":0.72}},{"type":"Feature","geometry":{"type":"Polygon","coordinates":[[[-45.93384,-23.29651],[-45.92285,-23.29651],[-45.92285,-23.302],[-45.93384,-23.302],[-45.93384,-23.29651]]]},"properties":{"ghs":"6gz76y","size":0.43,"ghs_len":6,"ghs_area":0.68,"ghs_bytes":355962,"ghs_items":2000,"size_unit":"km2","ghsval_unit":"bytes","ghs_itemsdensity":2925.25,"size_unitdensity":0.62}},{"type":"Feature","geometry":{"type":"Polygon","coordinates":[[[-45.95581,-23.26355],[-45.95581,-23.25806],[-45.9668,-23.25806],[-45.9668,-23.24707],[-45.96039,-23.24707],[-45.95988,-23.24749],[-45.95985,-23.24752],[-45.95456,-23.25237],[-45.95442,-23.25253],[-45.95431,-23.25272],[-45.95316,-23.25542],[-45.95259,-23.25595],[-45.95221,-23.25631],[-45.95171,-23.25618],[-45.95156,-23.25615],[-45.95133,-23.25609],[-45.95117,-23.25607],[-45.951,-23.25607],[-45.95084,-23.25609],[-45.94836,-23.25674],[-45.94798,-23.25684],[-45.94781,-23.25689],[-45.94766,-23.25698],[-45.94748,-23.2571],[-45.94535,-23.25764],[-45.94527,-23.25766],[-45.94371,-23.25819],[-45.94168,-23.25867],[-45.93706,-23.25715],[-45.93692,-23.25711],[-45.9356,-23.25688],[-45.93452,-23.25598],[-45.93437,-23.25588],[-45.93421,-23.2558],[-45.93403,-23.25576],[-45.93385,-23.25575],[-45.93088,-23.25583],[-45.93073,-23.25585],[-45.93058,-23.25589],[-45.9292,-23.25637],[-45.92902,-23.25645],[-45.92785,-23.25713],[-45.92777,-23.25718],[-45.92285,-23.26075],[-45.92285,-23.29102],[-45.95581,-23.29102],[-45.9668,-23.29102],[-45.9668,-23.26355],[-45.95581,-23.26355]],[[-45.94482,-23.26355],[-45.94482,-23.26904],[-45.93384,-23.26904],[-45.93384,-23.26355],[-45.94482,-23.26355]]]},"properties":{"ghs":"6gz7d","size":10.2,"ghs_len":5,"ghs_area":16.73,"ghs_bytes":2846774,"ghs_items":14133,"size_unit":"km2","ghsval_unit":"bytes","ghs_itemsdensity":844.8,"size_unitdensity":0.61}},{"type":"Feature","geometry":{"type":"Polygon","coordinates":[[[-45.9668,-23.25806],[-45.95581,-23.25806],[-45.95581,-23.26355],[-45.9668,-23.26355],[-45.9668,-23.25806]]]},"properties":{"ghs":"6gz7dj","size":0.34,"ghs_len":6,"ghs_area":0.68,"ghs_bytes":283052,"ghs_items":1397,"size_unit":"km2","ghsval_unit":"bytes","ghs_itemsdensity":2042.71,"size_unitdensity":0.49}},{"type":"Feature","geometry":{"type":"Polygon","coordinates":[[[-45.94482,-23.26355],[-45.93384,-23.26355],[-45.93384,-23.26904],[-45.94482,-23.26904],[-45.94482,-23.26355]]]},"properties":{"ghs":"6gz7ds","size":0.48,"ghs_len":6,"ghs_area":0.68,"ghs_bytes":381075,"ghs_items":1608,"size_unit":"km2","ghsval_unit":"bytes","ghs_itemsdensity":2351.33,"size_unitdensity":0.71}}]}
