{"type": "FeatureCollection", "features": [
{"type": "Feature", "geometry": {"type": "Polygon", "coordinates": [[[-46.30211, -23.724319], [-46.300157, -23.723538], [-46.297595, -23.722542], [-46.296428, -23.72207], [-46.296409, -23.722171], [-46.296427, -23.722351], [-46.296473, -23.722555], [-46.296532, -23.722703], [-46.296585, -23.72293], [-46.296617, -23.723119], [-46.296649, -23.723373], [-46.296696, -23.723625], [-46.296809, -23.723762], [-46.296944, -23.723896], [-46.2971, -23.724056], [-46.297265, -23.724237], [-46.297344, -23.724343], [-46.297414, -23.724473], [-46.297424, -23.724603], [-46.297568, -23.724832], [-46.297695, -23.725048], [-46.297816, -23.725193], [-46.297964, -23.725299], [-46.298245, -23.725385], [-46.298371, -23.725404], [-46.298483, -23.725425], [-46.298578, -23.725445], [-46.298661, -23.725468], [-46.298743, -23.725506], [-46.298826, -23.725549], [-46.298932, -23.725626], [-46.299015, -23.725684], [-46.299108, -23.725753], [-46.299221, -23.725828], [-46.29934, -23.725881], [-46.299441, -23.72594], [-46.299719, -23.726115], [-46.299869, -23.726215], [-46.30007, -23.726335], [-46.300246, -23.726411], [-46.30036, -23.726464], [-46.300487, -23.726533], [-46.300593, -23.726594], [-46.300808, -23.726761], [-46.300937, -23.726871], [-46.301083, -23.727024], [-46.301146, -23.727129], [-46.301208, -23.727292], [-46.301238, -23.727585], [-46.301251, -23.727832], [-46.301277, -23.727993], [-46.301305, -23.728081], [-46.301375, -23.728161], [-46.301476, -23.728258], [-46.301547, -23.728322], [-46.301726, -23.72853], [-46.301818, -23.728644], [-46.301884, -23.728773], [-46.301959, -23.728943], [-46.302028, -23.729248], [-46.302051, -23.729363], [-46.30211, -23.729458], [-46.302209, -23.729533], [-46.30234, -23.729603], [-46.302521, -23.729677], [-46.302699, -23.729744], [-46.302912, -23.729825], [-46.303032, -23.729857], [-46.303205, -23.729874], [-46.303337, -23.72989], [-46.303488, -23.729966], [-46.303595, -23.730014], [-46.303802, -23.730159], [-46.303892, -23.730231], [-46.30401, -23.73035], [-46.304107, -23.730457], [-46.304226, -23.730596], [-46.3043, -23.730695], [-46.304421, -23.73077], [-46.30452, -23.730842], [-46.304638, -23.730897], [-46.304734, -23.730963], [-46.304824, -23.731027], [-46.304974, -23.73118], [-46.305096, -23.731293], [-46.305164, -23.731357], [-46.305523, -23.731517], [-46.305778, -23.731593], [-46.306001, -23.731674], [-46.306141, -23.731748], [-46.306186, -23.73179], [-46.306237, -23.731847], [-46.306443, -23.732208], [-46.306487, -23.732257], [-46.306569, -23.732355], [-46.306597, -23.732448], [-46.306617, -23.732547], [-46.306641, -23.732739], [-46.306642, -23.733035], [-46.306654, -23.733254], [-46.306646, -23.733402], [-46.306641, -23.733534], [-46.306656, -23.733629], [-46.306684, -23.733705], [-46.30692, -23.734311], [-46.30698, -23.734447], [-46.307125, -23.734692], [-46.307274, -23.734998], [-46.307371, -23.735141], [-46.307482, -23.735318], [-46.307513, -23.735458], [-46.30756, -23.735624], [-46.307608, -23.735703], [-46.3077, -23.73584], [-46.307748, -23.735961], [-46.307764, -23.736064], [-46.307745, -23.736272], [-46.307748, -23.736341], [-46.307777, -23.736403], [-46.30785, -23.736459], [-46.307931, -23.736505], [-46.308041, -23.736532], [-46.308144, -23.736541], [-46.308261, -23.736564], [-46.308347, -23.736599], [-46.308572, -23.736709], [-46.30865, -23.736771], [-46.308759, -23.736877], [-46.308824, -23.736919], [-46.308939, -23.736973], [-46.309105, -23.737057], [-46.309205, -23.737116], [-46.309342, -23.73721], [-46.309542, -23.737395], [-46.309639, -23.737517], [-46.309771, -23.737664], [-46.309849, -23.737806], [-46.309926, -23.737957], [-46.309982, -23.738187], [-46.310017, -23.738329], [-46.31008, -23.738425], [-46.310221, -23.738581], [-46.31045, -23.738817], [-46.310632, -23.738975], [-46.310852, -23.739162], [-46.311047, -23.739347], [-46.311305, -23.739666], [-46.311422, -23.739811], [-46.311607, -23.740026], [-46.311813, -23.740265], [-46.312112, -23.740566], [-46.312336, -23.740753], [-46.312516, -23.740923], [-46.312644, -23.741064], [-46.312743, -23.741165], [-46.312827, -23.741234], [-46.313028, -23.741364], [-46.31333, -23.741528], [-46.313422, -23.741579], [-46.313532, -23.741629], [-46.313632, -23.74166], [-46.313759, -23.741679], [-46.313926, -23.741665], [-46.314037, -23.741638], [-46.314206, -23.741621], [-46.314344, -23.741616], [-46.31452, -23.741612], [-46.314673, -23.741633], [-46.314848, -23.741652], [-46.315008, -23.741684], [-46.315119, -23.741724], [-46.315246, -23.741787], [-46.315361, -23.741873], [-46.315583, -23.742068], [-46.315721, -23.742227], [-46.315851, -23.74242], [-46.315949, -23.742506], [-46.316069, -23.742611], [-46.31616, -23.742723], [-46.316294, -23.742914], [-46.316493, -23.743127], [-46.316552, -23.743172], [-46.316711, -23.743301], [-46.316806, -23.743408], [-46.316923, -23.743513], [-46.317019, -23.743582], [-46.317101, -23.743619], [-46.317172, -23.743641], [-46.317331, -23.743688], [-46.317483, -23.743728], [-46.317607, -23.743759], [-46.317688, -23.743781], [-46.317773, -23.743799], [-46.317811, -23.743823], [-46.317882, -23.743876], [-46.318087, -23.744066], [-46.318271, -23.744202], [-46.318343, -23.744279], [-46.318382, -23.744373], [-46.318429, -23.744562], [-46.318462, -23.744667], [-46.318488, -23.744736], [-46.318539, -23.74481], [-46.318613, -23.744867], [-46.318718, -23.744973], [-46.318819, -23.745109], [-46.318898, -23.745242], [-46.318965, -23.745394], [-46.319028, -23.745472], [-46.319138, -23.745563], [-46.319349, -23.745868], [-46.319436, -23.745988], [-46.319475, -23.746055], [-46.319515, -23.746122], [-46.319602, -23.746197], [-46.319724, -23.746283], [-46.319953, -23.746317], [-46.32017, -23.746315], [-46.320381, -23.746313], [-46.320615, -23.7463], [-46.320787, -23.74625], [-46.320895, -23.746198], [-46.320993, -23.746097], [-46.321104, -23.745953], [-46.321254, -23.745757], [-46.321304, -23.745657], [-46.32136, -23.745544], [-46.321409, -23.745337], [-46.321622, -23.744949], [-46.32171, -23.744738], [-46.321822, -23.744617], [-46.321972, -23.744529], [-46.322239, -23.74449], [-46.322302, -23.744331], [-46.322287, -23.744189], [-46.322257, -23.74413], [-46.322255, -23.743999], [-46.322297, -23.743844], [-46.322364, -23.743698], [-46.322367, -23.743595], [-46.32234, -23.74348], [-46.322312, -23.743374], [-46.322277, -23.743245], [-46.322208, -23.743091], [-46.322067, -23.742975], [-46.321831, -23.742885], [-46.32165, -23.742849], [-46.321474, -23.742881], [-46.321302, -23.742891], [-46.321162, -23.742857], [-46.321008, -23.742779], [-46.320883, -23.742674], [-46.320723, -23.742521], [-46.320568, -23.742337], [-46.320466, -23.742136], [-46.320411, -23.741972], [-46.320404, -23.741857], [-46.320325, -23.741754], [-46.320235, -23.741645], [-46.32015, -23.741465], [-46.319945, -23.741209], [-46.319783, -23.741041], [-46.319519, -23.740857], [-46.31938, -23.740784], [-46.319293, -23.740781], [-46.31919, -23.740764], [-46.319072, -23.740744], [-46.318985, -23.740717], [-46.318855, -23.740617], [-46.318617, -23.740427], [-46.318426, -23.740247], [-46.318261, -23.74014], [-46.317979, -23.739983], [-46.317754, -23.73979], [-46.317556, -23.739658], [-46.317501, -23.739571], [-46.317504, -23.739502], [-46.317503, -23.739357], [-46.317479, -23.739212], [-46.317436, -23.739049], [-46.317325, -23.73886], [-46.317226, -23.738681], [-46.317119, -23.738516], [-46.317073, -23.738444], [-46.317049, -23.738359], [-46.316918, -23.738272], [-46.316782, -23.738156], [-46.316691, -23.738089], [-46.316671, -23.737972], [-46.316675, -23.737806], [-46.3167, -23.737706], [-46.316913, -23.737524], [-46.317, -23.737442], [-46.317131, -23.737319], [-46.317192, -23.73728], [-46.31739, -23.737188], [-46.317469, -23.73712], [-46.317647, -23.736926], [-46.317709, -23.736812], [-46.317791, -23.736649], [-46.31785, -23.736597], [-46.317963, -23.736574], [-46.318069, -23.736583], [-46.318169, -23.736625], [-46.318307, -23.736712], [-46.31851, -23.736756], [-46.318612, -23.736792], [-46.318725, -23.73676], [-46.318874, -23.736614], [-46.318994, -23.736557], [-46.319167, -23.736461], [-46.319364, -23.736453], [-46.319491, -23.736452], [-46.319581, -23.736448], [-46.319608, -23.736383], [-46.319606, -23.73626], [-46.319622, -23.736189], [-46.319685, -23.73613], [-46.319891, -23.73597], [-46.3201, -23.735723], [-46.320344, -23.735542], [-46.320531, -23.735339], [-46.32075, -23.735248], [-46.320838, -23.735141], [-46.321021, -23.734955], [-46.321147, -23.734891], [-46.321341, -23.734836], [-46.321467, -23.734747], [-46.321577, -23.734679], [-46.321797, -23.734585], [-46.321923, -23.73454], [-46.322133, -23.734506], [-46.322413, -23.734422], [-46.322566, -23.734418], [-46.322658, -23.734458], [-46.322788, -23.734535], [-46.322908, -23.734603], [-46.32301, -23.734674], [-46.323109, -23.734704], [-46.323224, -23.734683], [-46.323173, -23.73462], [-46.323071, -23.734543], [-46.322875, -23.734372], [-46.322819, -23.734226], [-46.322811, -23.734062], [-46.322839, -23.733952], [-46.322894, -23.733925], [-46.322951, -23.733845], [-46.32294, -23.73372], [-46.322922, -23.733456], [-46.323007, -23.733165], [-46.323062, -23.732879], [-46.323204, -23.732457], [-46.323279, -23.732181], [-46.323392, -23.731787], [-46.323414, -23.731568], [-46.323478, -23.731192], [-46.323467, -23.730986], [-46.323497, -23.730655], [-46.323474, -23.730274], [-46.323527, -23.730198], [-46.323652, -23.73006], [-46.323854, -23.729927], [-46.323946, -23.72985], [-46.324082, -23.729826], [-46.324596, -23.729782], [-46.324906, -23.729716], [-46.325253, -23.729573], [-46.325566, -23.729399], [-46.32588, -23.729251], [-46.326057, -23.729167], [-46.326227, -23.729087], [-46.326465, -23.728987], [-46.326692, -23.728908], [-46.326844, -23.728798], [-46.326992, -23.728633], [-46.32715, -23.728523], [-46.327217, -23.728445], [-46.327285, -23.728335], [-46.327299, -23.728246], [-46.327286, -23.728149], [-46.327151, -23.72804], [-46.32696, -23.728015], [-46.326778, -23.727976], [-46.326645, -23.727918], [-46.326536, -23.727811], [-46.32654, -23.727653], [-46.32659, -23.727351], [-46.326614, -23.72722], [-46.32675, -23.727101], [-46.326857, -23.727074], [-46.326984, -23.727045], [-46.327027, -23.726973], [-46.3271, -23.72686], [-46.327147, -23.726732], [-46.327145, -23.726536], [-46.327189, -23.726147], [-46.32722, -23.725762], [-46.32716, -23.725635], [-46.327092, -23.72557], [-46.327032, -23.725451], [-46.327002, -23.725206], [-46.327001, -23.725101], [-46.326909, -23.725007], [-46.326801, -23.72491], [-46.326742, -23.72486], [-46.32665, -23.724792], [-46.326507, -23.724666], [-46.32644, -23.724634], [-46.326293, -23.724599], [-46.326127, -23.724553], [-46.326059, -23.724423], [-46.326034, -23.724311], [-46.326024, -23.724137], [-46.326051, -23.724024], [-46.326066, -23.723917], [-46.326257, -23.723789], [-46.326362, -23.723651], [-46.326547, -23.723569], [-46.32672, -23.723471], [-46.326837, -23.723372], [-46.326948, -23.723257], [-46.326933, -23.722983], [-46.326931, -23.72284], [-46.32693, -23.722725], [-46.326997, -23.722588], [-46.327034, -23.722507], [-46.326945, -23.722336], [-46.326838, -23.722229], [-46.326639, -23.722179], [-46.326447, -23.72212], [-46.326324, -23.722008], [-46.326408, -23.721869], [-46.326537, -23.721749], [-46.32662, -23.721477], [-46.326626, -23.721458], [-46.322966, -23.721833], [-46.316705, -23.722694], [-46.309936, -23.723595], [-46.306343, -23.724156], [-46.303723, -23.724506], [-46.30211, -23.724319]]]}, "properties": {"info": {}, "address": "EST DO PASSA QUATRO, 0"}}]}
