{"type": "FeatureCollection", "features": [
{"type": "Feature", "geometry": {"type": "LineString", "coordinates": [[-68.541918, 0.131374], [-68.54191, 0.129917], [-68.541892, 0.12945], [-68.541895, 0.129186], [-68.541897, 0.129178]]}, "properties": {"info": {}}},
{"type": "Feature", "geometry": {"type": "LineString", "coordinates": [[-68.541897, 0.129178], [-68.542385, 0.127893], [-68.542379, 0.12788], [-68.542379, 0.127869], [-68.542382, 0.12786], [-68.542387, 0.127853]]}, "properties": {"info": {}}},
{"type": "Feature", "geometry": {"type": "LineString", "coordinates": [[-68.54285, 0.127498], [-68.54275, 0.127577], [-68.542672, 0.127636], [-68.542549, 0.127701], [-68.542387, 0.127853]]}, "properties": {"info": {}}},
{"type": "Feature", "geometry": {"type": "LineString", "coordinates": [[-68.545446, 0.121806], [-68.545088, 0.122947], [-68.544709, 0.12434], [-68.544316, 0.124938], [-68.544156, 0.125462], [-68.543282, 0.126769], [-68.54285, 0.127497]]}, "properties": {"info": {"tot_res": 75, "tot_geral": 87}}},
{"type": "Feature", "geometry": {"type": "LineString", "coordinates": [[-68.541967, 0.129945], [-68.541976, 0.131373]]}, "properties": {"info": {"tot_res": 0, "tot_geral": 0}}},
{"type": "Feature", "geometry": {"type": "LineString", "coordinates": [[-68.543218, 0.130389], [-68.543244, 0.130004], [-68.543222, 0.129959], [-68.543177, 0.129941], [-68.543067, 0.12992], [-68.542735, 0.129932], [-68.542464, 0.129948], [-68.542363, 0.129947], [-68.541967, 0.129947]]}, "properties": {"info": {"tot_res": 0, "tot_geral": 0}}},
{"type": "Feature", "geometry": {"type": "LineString", "coordinates": [[-68.543279, 0.130386], [-68.543305, 0.129993], [-68.543274, 0.129923], [-68.543259, 0.129907], [-68.543192, 0.129882], [-68.543076, 0.129858], [-68.542735, 0.129874], [-68.542493, 0.129884]]}, "properties": {"info": {"tot_res": 0, "tot_geral": 0}}},
{"type": "Feature", "geometry": {"type": "LineString", "coordinates": [[-68.542666, 0.128432], [-68.542679, 0.128622], [-68.542648, 0.128887], [-68.542579, 0.129197], [-68.542524, 0.129669], [-68.542489, 0.129883]]}, "properties": {"info": {"tot_res": 0, "tot_geral": 0}}},
{"type": "Feature", "geometry": {"type": "LineString", "coordinates": [[-68.542889, 0.128439], [-68.542666, 0.128432]]}, "properties": {"info": {"tot_res": 0, "tot_geral": 0}}},
{"type": "Feature", "geometry": {"type": "LineString", "coordinates": [[-68.542892, 0.128378], [-68.542655, 0.128371]]}, "properties": {"info": {"tot_res": 0, "tot_geral": 0}}},
{"type": "Feature", "geometry": {"type": "LineString", "coordinates": [[-68.542445, 0.127881], [-68.54258, 0.128155], [-68.542655, 0.128371]]}, "properties": {"info": {"tot_res": 0, "tot_geral": 0}}},
{"type": "Feature", "geometry": {"type": "LineString", "coordinates": [[-68.543814, 0.126998], [-68.543398, 0.127248], [-68.54289, 0.127549], [-68.542708, 0.127684], [-68.542582, 0.127752], [-68.542445, 0.127881]]}, "properties": {"info": {"tot_res": 0, "tot_geral": 0}}},
{"type": "Feature", "geometry": {"type": "LineString", "coordinates": [[-68.544983, 0.128817], [-68.544604, 0.128271], [-68.544168, 0.127493], [-68.544047, 0.12721], [-68.543814, 0.126998]]}, "properties": {"info": {"tot_res": 0, "tot_geral": 0}}},
{"type": "Feature", "geometry": {"type": "LineString", "coordinates": [[-68.543869, 0.126964], [-68.544096, 0.127176], [-68.544226, 0.127471], [-68.544657, 0.128243], [-68.54503, 0.128779]]}, "properties": {"info": {"tot_res": 0, "tot_geral": 0}}},
{"type": "Feature", "geometry": {"type": "LineString", "coordinates": [[-68.5468, 0.126303], [-68.546585, 0.126478], [-68.546489, 0.126531], [-68.546358, 0.126569], [-68.545816, 0.126596], [-68.545321, 0.126603], [-68.544799, 0.126639], [-68.544677, 0.12667], [-68.544397, 0.126696], [-68.544145, 0.126796], [-68.54387, 0.126964]]}, "properties": {"info": {"tot_res": 0, "tot_geral": 0}}},
{"type": "Feature", "geometry": {"type": "LineString", "coordinates": [[-68.546753, 0.126262], [-68.546544, 0.126432], [-68.546472, 0.126472], [-68.546344, 0.126513], [-68.545852, 0.126533], [-68.545318, 0.126542], [-68.545252, 0.126548], [-68.544792, 0.126581], [-68.544671, 0.126612], [-68.544385, 0.126637], [-68.544195, 0.12671], [-68.544117, 0.126741], [-68.543121, 0.127346], [-68.542955, 0.127438]]}, "properties": {"info": {"tot_res": 0, "tot_geral": 0}}},
{"type": "Feature", "geometry": {"type": "LineString", "coordinates": [[-68.542955, 0.127437], [-68.543314, 0.12683], [-68.544205, 0.125495], [-68.544371, 0.124965], [-68.544771, 0.124348], [-68.545125, 0.12304], [-68.545502, 0.121826]]}, "properties": {"info": {"tot_res": 0, "tot_geral": 0}}},
{"type": "Feature", "geometry": {"type": "LineString", "coordinates": [[-68.541966, 0.129886], [-68.542429, 0.129889]]}, "properties": {"info": {"tot_res": 0, "tot_geral": 0}}},
{"type": "Feature", "geometry": {"type": "LineString", "coordinates": [[-68.541952, 0.129452], [-68.541966, 0.129885]]}, "properties": {"info": {"tot_res": 0, "tot_geral": 0}}},
{"type": "Feature", "geometry": {"type": "LineString", "coordinates": [[-68.542514, 0.129248], [-68.542473, 0.129242], [-68.542357, 0.129239], [-68.542159, 0.12924], [-68.542009, 0.129238], [-68.542002, 0.129237], [-68.541955, 0.129225]]}, "properties": {"info": {"tot_res": 0, "tot_geral": 0}}},
{"type": "Feature", "geometry": {"type": "LineString", "coordinates": [[-68.542513, 0.12925], [-68.542462, 0.129674], [-68.542429, 0.129888]]}, "properties": {"info": {"tot_res": 0, "tot_geral": 0}}},
{"type": "Feature", "geometry": {"type": "LineString", "coordinates": [[-68.54252, 0.129188], [-68.542473, 0.129182], [-68.5423, 0.12918], [-68.542173, 0.129182], [-68.542013, 0.129177], [-68.541966, 0.129167]]}, "properties": {"info": {"tot_res": 0, "tot_geral": 0}}},
{"type": "Feature", "geometry": {"type": "LineString", "coordinates": [[-68.542421, 0.127969], [-68.541967, 0.129166]]}, "properties": {"info": {"tot_res": 0, "tot_geral": 0}}},
{"type": "Feature", "geometry": {"type": "LineString", "coordinates": [[-68.542421, 0.127969], [-68.542526, 0.128185], [-68.542605, 0.128408], [-68.542618, 0.12862], [-68.542585, 0.128897], [-68.542521, 0.129186], [-68.54252, 0.129188]]}, "properties": {"info": {"tot_res": 0, "tot_geral": 0}}},
{"type": "Feature", "geometry": {"type": "LineString", "coordinates": [[-69.794895, 0.259624], [-69.794887, 0.259696], [-69.794857, 0.259881], [-69.794829, 0.260105], [-69.794783, 0.260461], [-69.79477, 0.260763], [-69.794755, 0.261053], [-69.79477, 0.261276], [-69.794734, 0.261471], [-69.794677, 0.262214], [-69.794651, 0.263282], [-69.794776, 0.264447]]}, "properties": {"info": {}}},
{"type": "Feature", "geometry": {"type": "LineString", "coordinates": [[-69.792455, 0.263149], [-69.792358, 0.263811]]}, "properties": {"info": {}}},
{"type": "Feature", "geometry": {"type": "LineString", "coordinates": [[-69.792295, 0.263156], [-69.792316, 0.263219], [-69.792287, 0.263491], [-69.792248, 0.263743]]}, "properties": {"info": {}}},
{"type": "Feature", "geometry": {"type": "LineString", "coordinates": [[-69.791908, 0.263094], [-69.79217, 0.26312], [-69.792295, 0.263156]]}, "properties": {"info": {}}},
{"type": "Feature", "geometry": {"type": "LineString", "coordinates": [[-69.792428, 0.262364], [-69.792324, 0.262979], [-69.792319, 0.263031], [-69.792235, 0.263006], [-69.791846, 0.26297], [-69.791575, 0.262907], [-69.791539, 0.262898], [-69.791409, 0.262747], [-69.791307, 0.262575], [-69.791289, 0.262539], [-69.791101, 0.262324], [-69.791066, 0.262288], [-69.79103, 0.262261], [-69.790923, 0.262149]]}, "properties": {"info": {}}},
{"type": "Feature", "geometry": {"type": "LineString", "coordinates": [[-69.792428, 0.262364], [-69.792199, 0.262341], [-69.791717, 0.262305], [-69.79161, 0.262287], [-69.791297, 0.262241], [-69.790923, 0.262149]]}, "properties": {"info": {}}},
{"type": "Feature", "geometry": {"type": "LineString", "coordinates": [[-69.793127, 0.263122], [-69.79311, 0.263113], [-69.792851, 0.263095], [-69.792797, 0.263059], [-69.792797, 0.263023], [-69.792806, 0.262987], [-69.792851, 0.262592]]}, "properties": {"info": {}}},
{"type": "Feature", "geometry": {"type": "LineString", "coordinates": [[-69.792779, 0.262628], [-69.792779, 0.262637], [-69.792726, 0.263068], [-69.792681, 0.263086], [-69.792476, 0.263068], [-69.792414, 0.263059], [-69.792414, 0.262979], [-69.792431, 0.262799], [-69.792494, 0.262511]]}, "properties": {"info": {}}},
{"type": "Feature", "geometry": {"type": "LineString", "coordinates": [[-69.788071, 0.252968], [-69.788, 0.253334], [-69.78802, 0.253578], [-69.788046, 0.253792], [-69.788137, 0.254102], [-69.788183, 0.254341], [-69.788203, 0.2546], [-69.788168, 0.254839], [-69.788101, 0.255068], [-69.788056, 0.255282], [-69.788051, 0.255694], [-69.788025, 0.256111], [-69.78801, 0.256492], [-69.787945, 0.256851], [-69.787891, 0.257062], [-69.787908, 0.257346], [-69.787944, 0.257636], [-69.787843, 0.257881], [-69.786859, 0.260123], [-69.786387, 0.260538], [-69.783937, 0.260635], [-69.783416, 0.26105]]}, "properties": {"info": {"tot_res": 17, "tot_geral": 20}}},
{"type": "Feature", "geometry": {"type": "LineString", "coordinates": [[-69.787898, 0.252917], [-69.787791, 0.253253], [-69.787751, 0.253568], [-69.787827, 0.253812], [-69.787918, 0.254107], [-69.787974, 0.254336], [-69.788005, 0.25456], [-69.787974, 0.254753], [-69.787878, 0.255033], [-69.787807, 0.255266], [-69.787817, 0.255607], [-69.787827, 0.256207], [-69.787786, 0.256517], [-69.78772, 0.256812], [-69.787675, 0.257103], [-69.787686, 0.257324], [-69.787751, 0.257468], [-69.787771, 0.2576], [-69.786712, 0.259984], [-69.786346, 0.260359], [-69.783849, 0.260494], [-69.783294, 0.260904]]}, "properties": {"info": {"tot_res": 12, "tot_geral": 12}}},
{"type": "Feature", "geometry": {"type": "LineString", "coordinates": [[-69.794776, 0.264447], [-69.794789, 0.264536], [-69.794494, 0.264805], [-69.794337, 0.264989], [-69.794172, 0.26496], [-69.791988, 0.263698], [-69.791908, 0.263643], [-69.791866, 0.263546], [-69.791874, 0.263345], [-69.791908, 0.263094]]}, "properties": {"info": {"tot_res": 12, "tot_geral": 17}}},
{"type": "Feature", "geometry": {"type": "LineString", "coordinates": [[-69.792373, 0.254961], [-69.792592, 0.254961], [-69.792858, 0.255066], [-69.793095, 0.255216], [-69.79367, 0.255564], [-69.79397, 0.25575], [-69.794356, 0.255989], [-69.794565, 0.256106], [-69.79474, 0.256228], [-69.794926, 0.256426], [-69.795091, 0.256619], [-69.795137, 0.256884], [-69.795123, 0.257116], [-69.795073, 0.257692], [-69.79502, 0.258099], [-69.794974, 0.258434], [-69.794974, 0.258564], [-69.794964, 0.258778], [-69.794959, 0.258887], [-69.794936, 0.259233], [-69.794905, 0.259482]]}, "properties": {"via": "VILA DOMBOSCO 2", "info": {"tot_res": 10, "tot_geral": 11}}},
{"type": "Feature", "geometry": {"type": "LineString", "coordinates": [[-69.785493, 0.250146], [-69.785345, 0.250522], [-69.785356, 0.250649], [-69.785508, 0.250761], [-69.785569, 0.250904], [-69.785551, 0.251097], [-69.785625, 0.251315], [-69.785788, 0.251514], [-69.786022, 0.251651], [-69.786317, 0.251961], [-69.786469, 0.252246], [-69.786774, 0.25251], [-69.787212, 0.252643], [-69.787705, 0.252663], [-69.788325, 0.252821], [-69.788681, 0.252856], [-69.789022, 0.252902], [-69.789749, 0.252592], [-69.790578, 0.252307], [-69.791249, 0.252002], [-69.791751, 0.251831], [-69.791951, 0.25188], [-69.792098, 0.252083], [-69.79222, 0.252368], [-69.792327, 0.252683], [-69.792388, 0.252897], [-69.792308, 0.253041], [-69.791869, 0.253187], [-69.791737, 0.253294], [-69.791829, 0.253532], [-69.791905, 0.253777], [-69.792266, 0.254748], [-69.792408, 0.254829], [-69.792724, 0.254819], [-69.792907, 0.254921], [-69.794865, 0.2561], [-69.795053, 0.256263], [-69.79517, 0.256431], [-69.795261, 0.256583], [-69.795287, 0.256787], [-69.795292, 0.257041], [-69.795104, 0.258429], [-69.794976, 0.260112], [-69.794926, 0.260763], [-69.794926, 0.260936], [-69.794818, 0.26234], [-69.794782, 0.263261], [-69.79486, 0.264093], [-69.794912, 0.264517], [-69.794949, 0.264732], [-69.794954, 0.264832], [-69.794939, 0.265015], [-69.794933, 0.265229]]}, "properties": {"info": {"tot_res": 31, "tot_geral": 35}}},
{"type": "Feature", "geometry": {"type": "LineString", "coordinates": [[-69.785381, 0.250054], [-69.785218, 0.250319], [-69.785173, 0.250522], [-69.785157, 0.250715], [-69.785311, 0.250877], [-69.785394, 0.251066], [-69.785437, 0.251356], [-69.785549, 0.25156], [-69.785778, 0.251774], [-69.786032, 0.251931], [-69.78617, 0.252127], [-69.786362, 0.252414], [-69.786779, 0.252704], [-69.787273, 0.252836], [-69.787532, 0.252841], [-69.787705, 0.252887], [-69.787898, 0.252917]]}, "properties": {"via": "RUA DOMPEDRO MASSA 1", "info": {"tot_res": 1, "tot_geral": 3}}},
{"type": "Feature", "geometry": {"type": "LineString", "coordinates": [[-69.792169, 0.2549], [-69.792275, 0.25501], [-69.792293, 0.255046], [-69.79232, 0.255082], [-69.792338, 0.255118], [-69.792445, 0.255415], [-69.792463, 0.255442], [-69.792552, 0.255621], [-69.792552, 0.25563], [-69.792633, 0.255819], [-69.792742, 0.256019], [-69.792858, 0.256182], [-69.792968, 0.256378], [-69.793148, 0.256629], [-69.793253, 0.256784], [-69.793385, 0.256945], [-69.79356, 0.257217], [-69.793881, 0.257725], [-69.793919, 0.257801], [-69.794104, 0.258076], [-69.794222, 0.258243], [-69.794219, 0.25831], [-69.794401, 0.258746], [-69.794412, 0.258869], [-69.794435, 0.259087], [-69.794486, 0.259484], [-69.794529, 0.259594], [-69.79458, 0.25969], [-69.79466, 0.259707], [-69.794678, 0.259707], [-69.794785, 0.259698], [-69.794875, 0.259645], [-69.794895, 0.259624]]}, "properties": {"info": {"tot_res": 5, "tot_geral": 5}}},
{"type": "Feature", "geometry": {"type": "LineString", "coordinates": [[-69.792373, 0.254961], [-69.79236, 0.25503], [-69.792424, 0.255089], [-69.792533, 0.25535], [-69.792657, 0.255598], [-69.792767, 0.255821], [-69.792963, 0.256123], [-69.793092, 0.256327], [-69.793275, 0.256609], [-69.793395, 0.256736], [-69.793685, 0.257196], [-69.793985, 0.257662], [-69.794013, 0.257753], [-69.794188, 0.258], [-69.794303, 0.258198], [-69.79432, 0.258256], [-69.794488, 0.258704], [-69.794487, 0.258831], [-69.794552, 0.259052], [-69.794553, 0.259214], [-69.794595, 0.259457], [-69.79463, 0.259612], [-69.794728, 0.259614], [-69.794821, 0.259571], [-69.794905, 0.259482]]}, "properties": {"via": "VILA SAOJOSE", "info": {"tot_res": 9, "tot_geral": 12}}},
{"type": "Feature", "geometry": {"type": "LineString", "coordinates": [[-69.794805, 0.265177], [-69.794813, 0.264871], [-69.794779, 0.264675], [-69.794572, 0.264881], [-69.794543, 0.264941], [-69.794473, 0.265004], [-69.794392, 0.265088], [-69.794295, 0.265106], [-69.794098, 0.26503], [-69.79189, 0.263804], [-69.791784, 0.263717], [-69.791738, 0.263594], [-69.791745, 0.263303], [-69.791782, 0.263057], [-69.791392, 0.262955], [-69.790672, 0.262793]]}, "properties": {"info": {"tot_res": 4, "tot_geral": 4}}},
{"type": "Feature", "geometry": {"type": "LineString", "coordinates": [[-69.79279, 0.263175], [-69.793122, 0.263193]]}, "properties": {"info": {"tot_res": 4, "tot_geral": 7}}},
{"type": "Feature", "geometry": {"type": "LineString", "coordinates": [[-69.792711, 0.26315], [-69.792455, 0.263149]]}, "properties": {"via": "ESTRADA SAOMIGUEL", "info": {"tot_res": 2, "tot_geral": 2}}},
{"type": "Feature", "geometry": {"type": "LineString", "coordinates": [[-69.788071, 0.252968], [-69.788427, 0.253055], [-69.788635, 0.2531], [-69.788934, 0.253137], [-69.789106, 0.2531], [-69.789505, 0.252917], [-69.790461, 0.252546], [-69.791417, 0.25218], [-69.791744, 0.252064], [-69.791915, 0.252205], [-69.792046, 0.252455], [-69.792175, 0.252826], [-69.792103, 0.252912], [-69.791639, 0.253047], [-69.791539, 0.253243], [-69.791681, 0.253624], [-69.791808, 0.254061], [-69.792169, 0.2549]]}, "properties": {"via": "RUA DOMPEDRO MASSA", "info": {"tot_res": 2, "tot_geral": 6}}},
{"type": "Feature", "geometry": {"type": "LineString", "coordinates": [[-69.792706, 0.263897], [-69.79279, 0.263175]]}, "properties": {"info": {"tot_res": 4, "tot_geral": 5}}},
{"type": "Feature", "geometry": {"type": "LineString", "coordinates": [[-69.792607, 0.263896], [-69.792711, 0.26315]]}, "properties": {"via": "VILA DOMBOSCO", "info": {"tot_res": 12, "tot_geral": 12}}},
{"type": "Feature", "geometry": {"type": "LineString", "coordinates": [[-69.201671, 0.600421], [-69.201972, 0.600042], [-69.202556, 0.599515], [-69.202941, 0.599096], [-69.203276, 0.598607]]}, "properties": {"info": {"tot_res": 20, "tot_geral": 20}}},
{"type": "Feature", "geometry": {"type": "LineString", "coordinates": [[-69.202308, 0.602408], [-69.202439, 0.602559], [-69.202439, 0.60283], [-69.202477, 0.602981], [-69.202594, 0.603143], [-69.203532, 0.603252], [-69.204289, 0.603817], [-69.205585, 0.604676], [-69.205868, 0.604974], [-69.206154, 0.605524]]}, "properties": {"via": "VILA SANTAMARIA", "info": {"tot_res": 34, "tot_geral": 35}}},
{"type": "Feature", "geometry": {"type": "LineString", "coordinates": [[-69.198955, 0.597476], [-69.19915, 0.598147], [-69.199339, 0.598505], [-69.199523, 0.598731], [-69.199893, 0.599089], [-69.200251, 0.599334], [-69.200624, 0.599454], [-69.201008, 0.599714], [-69.201253, 0.599963], [-69.201543, 0.600291], [-69.201671, 0.600421]]}, "properties": {"via": "VILA SAOPEDRO", "info": {"tot_res": 9, "tot_geral": 9}}},
{"type": "Feature", "geometry": {"type": "LineString", "coordinates": [[-69.201761, 0.600603], [-69.201965, 0.600954], [-69.202142, 0.601383], [-69.202228, 0.601707], [-69.202259, 0.602163], [-69.202308, 0.602408]]}, "properties": {"info": {"tot_res": 6, "tot_geral": 6}}},
{"type": "Feature", "geometry": {"type": "LineString", "coordinates": [[-69.203415, 0.598701], [-69.20308, 0.599228], [-69.202613, 0.599741], [-69.202156, 0.600147], [-69.201761, 0.600603]]}, "properties": {"info": {"tot_res": 0, "tot_geral": 0}}},
{"type": "Feature", "geometry": {"type": "LineString", "coordinates": [[-69.198834, 0.597631], [-69.198985, 0.598147], [-69.199196, 0.598531], [-69.199452, 0.598912], [-69.199814, 0.599273], [-69.200145, 0.599454], [-69.200544, 0.599594], [-69.200925, 0.599835], [-69.201143, 0.600065], [-69.20143, 0.600389], [-69.201671, 0.600731], [-69.20184, 0.601029], [-69.20201, 0.601421], [-69.202085, 0.601711], [-69.202115, 0.602163], [-69.202128, 0.602389]]}, "properties": {"via": "VILA SAOPEDRO", "info": {"tot_res": 0, "tot_geral": 0}}},
{"type": "Feature", "geometry": {"type": "LineString", "coordinates": [[-69.202128, 0.602389], [-69.201855, 0.602449], [-69.201565, 0.602562], [-69.201366, 0.602683]]}, "properties": {"via": "VILA SANTAMARIA", "info": {"tot_res": 0, "tot_geral": 0}}},
{"type": "Feature", "geometry": {"type": "LineString", "coordinates": [[-69.201907, 0.602574], [-69.201871, 0.602596], [-69.201626, 0.602694], [-69.201407, 0.602792]]}, "properties": {"via": "VILA SANTAMARIA", "info": {"tot_res": 0, "tot_geral": 0}}},
{"type": "Feature", "geometry": {"type": "LineString", "coordinates": [[-69.201907, 0.602574], [-69.201916, 0.602691], [-69.201878, 0.602751], [-69.201584, 0.603271], [-69.201471, 0.603425]]}, "properties": {"via": "VILA SANTAMARIA", "info": {"tot_res": 0, "tot_geral": 0}}},
{"type": "Feature", "geometry": {"type": "LineString", "coordinates": [[-69.202008, 0.602536], [-69.202014, 0.602694], [-69.20198, 0.602811], [-69.201667, 0.603339], [-69.201554, 0.603497]]}, "properties": {"via": "VILA SANTAMARIA", "info": {"tot_res": 0, "tot_geral": 0}}},
{"type": "Feature", "geometry": {"type": "LineString", "coordinates": [[-69.202179, 0.602517], [-69.202008, 0.602536]]}, "properties": {"via": "VILA SANTAMARIA", "info": {"tot_res": 0, "tot_geral": 0}}},
{"type": "Feature", "geometry": {"type": "LineString", "coordinates": [[-69.202179, 0.602517], [-69.202265, 0.602529], [-69.202277, 0.602619], [-69.202293, 0.602875], [-69.202349, 0.603064], [-69.202526, 0.603263], [-69.203475, 0.603391], [-69.204191, 0.603968], [-69.205484, 0.604804], [-69.20574, 0.605064], [-69.206015, 0.605561]]}, "properties": {"via": "VILA SANTAMARIA", "info": {"tot_res": 0, "tot_geral": 0}}},
{"type": "Feature", "geometry": {"type": "LineString", "coordinates": [[-69.195684, 0.608554], [-69.195992, 0.608257], [-69.196143, 0.60815], [-69.196246, 0.608065], [-69.196346, 0.607954], [-69.196547, 0.607676], [-69.196664, 0.607409]]}, "properties": {"info": {"is_agg": true, "properties_agg": [{"feature_id": 381605}], "geom_cmp_equals": [true], "geom_cmp_frechet": [0]}}},
{"type": "Feature", "geometry": {"type": "LineString", "coordinates": [[-69.198032, 0.611069], [-69.197628, 0.610292], [-69.197603, 0.610084], [-69.197503, 0.609828], [-69.197375, 0.609673], [-69.197168, 0.609668], [-69.196889, 0.60987], [-69.196699, 0.610066], [-69.196519, 0.610262]]}, "properties": {"info": {"is_agg": true, "properties_agg": [{"feature_id": 381563}], "geom_cmp_equals": [true], "geom_cmp_frechet": [0]}}},
{"type": "Feature", "geometry": {"type": "LineString", "coordinates": [[-69.194465, 0.609834], [-69.195084, 0.609816], [-69.195404, 0.609761], [-69.195524, 0.609726], [-69.195661, 0.609632], [-69.195764, 0.609478]]}, "properties": {"info": {"is_agg": true, "properties_agg": [{"feature_id": 381564}], "geom_cmp_equals": [true], "geom_cmp_frechet": [0]}}},
{"type": "Feature", "geometry": {"type": "LineString", "coordinates": [[-69.195539, 0.610745], [-69.195682, 0.610358], [-69.195747, 0.609806], [-69.19576, 0.609574]]}, "properties": {"info": {"is_agg": true, "properties_agg": [{"feature_id": 381565}], "geom_cmp_equals": [true], "geom_cmp_frechet": [0]}}},
{"type": "Feature", "geometry": {"type": "LineString", "coordinates": [[-69.197578, 0.610292], [-69.197555, 0.610099], [-69.197458, 0.609849], [-69.197355, 0.609721], [-69.197183, 0.609717], [-69.196924, 0.609906], [-69.196559, 0.610292]]}, "properties": {"info": {"is_agg": true, "properties_agg": [{"feature_id": 381567}], "geom_cmp_equals": [true], "geom_cmp_frechet": [0]}}},
{"type": "Feature", "geometry": {"type": "LineString", "coordinates": [[-69.193949, 0.609883], [-69.194374, 0.609885]]}, "properties": {"info": {"is_agg": true, "properties_agg": [{"feature_id": 381591}], "geom_cmp_equals": [true], "geom_cmp_frechet": [0]}}},
{"type": "Feature", "geometry": {"type": "LineString", "coordinates": [[-69.194917, 0.615526], [-69.194694, 0.615315], [-69.193993, 0.614447], [-69.193645, 0.613809]]}, "properties": {"info": {"is_agg": true, "properties_agg": [{"feature_id": 381582}], "geom_cmp_equals": [true], "geom_cmp_frechet": [0]}}},
{"type": "Feature", "geometry": {"type": "LineString", "coordinates": [[-69.195634, 0.608557], [-69.195191, 0.608172]]}, "properties": {"info": {"is_agg": true, "properties_agg": [{"feature_id": 381589}], "geom_cmp_equals": [true], "geom_cmp_frechet": [0]}}},
{"type": "Feature", "geometry": {"type": "LineString", "coordinates": [[-69.195191, 0.608172], [-69.194465, 0.609834]]}, "properties": {"info": {"is_agg": true, "properties_agg": [{"feature_id": 381590}], "geom_cmp_equals": [true], "geom_cmp_frechet": [0]}}},
{"type": "Feature", "geometry": {"type": "LineString", "coordinates": [[-69.197785, 0.613831], [-69.1967, 0.613434]]}, "properties": {"info": {"is_agg": true, "properties_agg": [{"feature_id": 381592}], "geom_cmp_equals": [true], "geom_cmp_frechet": [0]}}},
{"type": "Feature", "geometry": {"type": "LineString", "coordinates": [[-69.1967, 0.613434], [-69.196798, 0.612829], [-69.197013, 0.612351], [-69.19725, 0.61196], [-69.19745, 0.611697], [-69.198026, 0.611091], [-69.198032, 0.611069]]}, "properties": {"info": {"is_agg": true, "properties_agg": [{"feature_id": 381593}], "geom_cmp_equals": [true], "geom_cmp_frechet": [0]}}},
{"type": "Feature", "geometry": {"type": "LineString", "coordinates": [[-69.193025, 0.610192], [-69.192944, 0.610563], [-69.192837, 0.61085], [-69.192716, 0.611039], [-69.192565, 0.611167], [-69.191936, 0.611661], [-69.191612, 0.611635], [-69.191179, 0.611716], [-69.191096, 0.611777], [-69.190428, 0.611829], [-69.189971, 0.611497]]}, "properties": {"info": {"is_agg": true, "properties_agg": [{"feature_id": 381598}], "geom_cmp_equals": [true], "geom_cmp_frechet": [0]}}},
{"type": "Feature", "geometry": {"type": "LineString", "coordinates": [[-69.196651, 0.613427], [-69.19675, 0.612817], [-69.19697, 0.612326], [-69.197209, 0.611931], [-69.197412, 0.611663], [-69.197977, 0.611069]]}, "properties": {"info": {"is_agg": true, "properties_agg": [{"feature_id": 381595}], "geom_cmp_equals": [true], "geom_cmp_frechet": [0]}}},
{"type": "Feature", "geometry": {"type": "LineString", "coordinates": [[-69.1976, 0.610345], [-69.197153, 0.610901], [-69.196673, 0.611459], [-69.196327, 0.61158], [-69.195877, 0.611954], [-69.19573, 0.612219], [-69.195652, 0.612413], [-69.195649, 0.61269]]}, "properties": {"info": {"is_agg": true, "properties_agg": [{"feature_id": 381596}], "geom_cmp_equals": [true], "geom_cmp_frechet": [0]}}},
{"type": "Feature", "geometry": {"type": "LineString", "coordinates": [[-69.195649, 0.61269], [-69.195948, 0.613175], [-69.196442, 0.613434], [-69.196651, 0.613427]]}, "properties": {"info": {"is_agg": true, "properties_agg": [{"feature_id": 381597}], "geom_cmp_equals": [true], "geom_cmp_frechet": [0]}}},
{"type": "Feature", "geometry": {"type": "LineString", "coordinates": [[-69.190776, 0.612211], [-69.191052, 0.611831], [-69.190414, 0.611879], [-69.189936, 0.611532]]}, "properties": {"info": {"is_agg": true, "properties_agg": [{"feature_id": 381601}], "geom_cmp_equals": [true], "geom_cmp_frechet": [0]}}},
{"type": "Feature", "geometry": {"type": "LineString", "coordinates": [[-69.193074, 0.610203], [-69.192993, 0.610575], [-69.192883, 0.61087], [-69.192756, 0.611069], [-69.192596, 0.611206], [-69.191951, 0.61171], [-69.191618, 0.611684], [-69.191204, 0.611763], [-69.191122, 0.61182], [-69.190816, 0.61224]]}, "properties": {"info": {"is_agg": true, "properties_agg": [{"feature_id": 381602}], "geom_cmp_equals": [true], "geom_cmp_frechet": [0]}}},
{"type": "Feature", "geometry": {"type": "LineString", "coordinates": [[-69.193593, 0.609358], [-69.193192, 0.609687], [-69.193174, 0.609733], [-69.193074, 0.610203]]}, "properties": {"info": {"is_agg": true, "properties_agg": [{"feature_id": 381603}], "geom_cmp_equals": [true], "geom_cmp_frechet": [0]}}},
{"type": "Feature", "geometry": {"type": "LineString", "coordinates": [[-69.193593, 0.609358], [-69.193708, 0.609528], [-69.193789, 0.609645], [-69.193841, 0.609733], [-69.193894, 0.609865], [-69.193938, 0.610051]]}, "properties": {"info": {"is_agg": true, "properties_agg": [{"feature_id": 381604}], "geom_cmp_equals": [true], "geom_cmp_frechet": [0]}}},
{"type": "Feature", "geometry": {"type": "LineString", "coordinates": [[-69.19775, 0.616142], [-69.197174, 0.615633]]}, "properties": {"info": {"is_agg": true, "properties_agg": [{"feature_id": 381577}], "geom_cmp_equals": [true], "geom_cmp_frechet": [0]}}},
{"type": "Feature", "geometry": {"type": "LineString", "coordinates": [[-69.197788, 0.616111], [-69.197228, 0.615614]]}, "properties": {"info": {"is_agg": true, "properties_agg": [{"feature_id": 381575}], "geom_cmp_equals": [true], "geom_cmp_frechet": [0]}}},
{"type": "Feature", "geometry": {"type": "LineString", "coordinates": [[-69.197228, 0.615614], [-69.197675, 0.615371]]}, "properties": {"info": {"is_agg": true, "properties_agg": [{"feature_id": 381576}], "geom_cmp_equals": [true], "geom_cmp_frechet": [0]}}},
{"type": "Feature", "geometry": {"type": "LineString", "coordinates": [[-69.194206, 0.616244], [-69.194257, 0.616219], [-69.194421, 0.616091], [-69.194493, 0.616018], [-69.194541, 0.615941]]}, "properties": {"info": {"is_agg": true, "properties_agg": [{"feature_id": 381579}], "geom_cmp_equals": [true], "geom_cmp_frechet": [0]}}},
{"type": "Feature", "geometry": {"type": "LineString", "coordinates": [[-69.191869, 0.614148], [-69.191901, 0.61403], [-69.192031, 0.613846], [-69.192235, 0.613659], [-69.192437, 0.613507]]}, "properties": {"info": {"is_agg": true, "properties_agg": [{"feature_id": 381584}], "geom_cmp_equals": [true], "geom_cmp_frechet": [0]}}},
{"type": "Feature", "geometry": {"type": "LineString", "coordinates": [[-69.193049, 0.615152], [-69.192818, 0.614962], [-69.192443, 0.614722], [-69.19216, 0.614465], [-69.191869, 0.614148]]}, "properties": {"info": {"is_agg": true, "properties_agg": [{"feature_id": 381583}], "geom_cmp_equals": [true], "geom_cmp_frechet": [0]}}},
{"type": "Feature", "geometry": {"type": "LineString", "coordinates": [[-69.193017, 0.615191], [-69.19279, 0.615003], [-69.192411, 0.61476], [-69.192125, 0.614501], [-69.191854, 0.614205]]}, "properties": {"info": {"is_agg": true, "properties_agg": [{"feature_id": 381585}], "geom_cmp_equals": [true], "geom_cmp_frechet": [0]}}},
{"type": "Feature", "geometry": {"type": "LineString", "coordinates": [[-69.195803, 0.609704], [-69.195827, 0.609841], [-69.195872, 0.609928], [-69.196217, 0.610148], [-69.196509, 0.610313], [-69.1971, 0.610885]]}, "properties": {"info": {"is_agg": true, "properties_agg": [{"feature_id": 381570}], "geom_cmp_equals": [true], "geom_cmp_frechet": [0]}}},
{"type": "Feature", "geometry": {"type": "LineString", "coordinates": [[-69.193938, 0.610051], [-69.193942, 0.610245], [-69.193919, 0.610457], [-69.193854, 0.610654], [-69.193719, 0.610988], [-69.19362, 0.611125], [-69.193443, 0.611304], [-69.19321, 0.611475], [-69.192854, 0.611709], [-69.192619, 0.61182], [-69.19253, 0.611907], [-69.192448, 0.61201], [-69.192405, 0.612115], [-69.192398, 0.612237], [-69.192428, 0.612496], [-69.192536, 0.612651], [-69.192658, 0.612887], [-69.192699, 0.613057], [-69.192689, 0.613167], [-69.192629, 0.613255], [-69.192415, 0.613462], [-69.192204, 0.613619], [-69.191996, 0.613811], [-69.191853, 0.614013], [-69.19179, 0.614253], [-69.191772, 0.614472], [-69.191772, 0.614661], [-69.191763, 0.614838], [-69.191745, 0.615011], [-69.191718, 0.615176], [-69.191709, 0.615357], [-69.191664, 0.615716], [-69.191629, 0.615887], [-69.191602, 0.616023], [-69.191584, 0.616103], [-69.191231, 0.617404], [-69.191336, 0.618087], [-69.191496, 0.618671], [-69.191466, 0.618937], [-69.191105, 0.619985]]}, "properties": {"info": {"is_agg": true, "properties_agg": [{"feature_id": 381568}], "geom_cmp_equals": [true], "geom_cmp_frechet": [0]}}},
{"type": "Feature", "geometry": {"type": "LineString", "coordinates": [[-69.195586, 0.610762], [-69.19573, 0.610373], [-69.195803, 0.609704]]}, "properties": {"info": {"is_agg": true, "properties_agg": [{"feature_id": 381569}], "geom_cmp_equals": [true], "geom_cmp_frechet": [0]}}},
{"type": "Feature", "geometry": {"type": "LineString", "coordinates": [[-69.193645, 0.613809], [-69.194074, 0.613899], [-69.194197, 0.61388], [-69.19431, 0.613831], [-69.194418, 0.61375], [-69.194766, 0.613511]]}, "properties": {"info": {"is_agg": true, "properties_agg": [{"feature_id": 381571}], "geom_cmp_equals": [true], "geom_cmp_frechet": [0]}}},
{"type": "Feature", "geometry": {"type": "LineString", "coordinates": [[-69.194142, 0.616272], [-69.194953, 0.61662], [-69.195164, 0.616631], [-69.195533, 0.616498], [-69.195728, 0.616409], [-69.195958, 0.616151], [-69.196234, 0.615966], [-69.197174, 0.615633]]}, "properties": {"info": {"is_agg": true, "properties_agg": [{"feature_id": 381580}], "geom_cmp_equals": [true], "geom_cmp_frechet": [0]}}},
{"type": "Feature", "geometry": {"type": "LineString", "coordinates": [[-69.194766, 0.613511], [-69.195307, 0.614247], [-69.195663, 0.614615], [-69.196472, 0.614667], [-69.196494, 0.614656], [-69.196584, 0.614319], [-69.196987, 0.614076], [-69.197307, 0.614081]]}, "properties": {"info": {"is_agg": true, "properties_agg": [{"feature_id": 381572}], "geom_cmp_equals": [true], "geom_cmp_frechet": [0]}}},
{"type": "Feature", "geometry": {"type": "LineString", "coordinates": [[-69.1973, 0.614032], [-69.196967, 0.614029], [-69.196542, 0.614288], [-69.196454, 0.614615], [-69.195685, 0.614568], [-69.195346, 0.614216], [-69.194809, 0.613485]]}, "properties": {"info": {"is_agg": true, "properties_agg": [{"feature_id": 381573}], "geom_cmp_equals": [true], "geom_cmp_frechet": [0]}}},
{"type": "Feature", "geometry": {"type": "LineString", "coordinates": [[-69.194809, 0.613485], [-69.195183, 0.613278], [-69.195489, 0.613016], [-69.195626, 0.612747]]}, "properties": {"info": {"is_agg": true, "properties_agg": [{"feature_id": 381574}], "geom_cmp_equals": [true], "geom_cmp_frechet": [0]}}},
{"type": "Feature", "geometry": {"type": "LineString", "coordinates": [[-69.195626, 0.612747], [-69.19591, 0.613207], [-69.196425, 0.613482], [-69.196668, 0.613476], [-69.197756, 0.613868]]}, "properties": {"info": {"is_agg": true, "properties_agg": [{"feature_id": 381594}], "geom_cmp_equals": [true], "geom_cmp_frechet": [0]}}},
{"type": "Feature", "geometry": {"type": "LineString", "coordinates": [[-69.194882, 0.615562], [-69.194656, 0.615348], [-69.19395, 0.614473], [-69.19358, 0.613794]]}, "properties": {"info": {"is_agg": true, "properties_agg": [{"feature_id": 381581}], "geom_cmp_equals": [true], "geom_cmp_frechet": [0]}}},
{"type": "Feature", "geometry": {"type": "LineString", "coordinates": [[-69.192097, 0.610568], [-69.192623, 0.61018], [-69.193111, 0.609789]]}, "properties": {"info": {"is_agg": true, "properties_agg": [{"feature_id": 381599}], "geom_cmp_equals": [true], "geom_cmp_frechet": [0]}}},
{"type": "Feature", "geometry": {"type": "LineString", "coordinates": [[-69.193111, 0.609789], [-69.193025, 0.610192]]}, "properties": {"info": {"is_agg": true, "properties_agg": [{"feature_id": 381600}], "geom_cmp_equals": [true], "geom_cmp_frechet": [0]}}},
{"type": "Feature", "geometry": {"type": "LineString", "coordinates": [[-69.197641, 0.615338], [-69.197217, 0.615565], [-69.196214, 0.61592], [-69.195928, 0.616111], [-69.195702, 0.616366], [-69.195515, 0.616451], [-69.195161, 0.616581], [-69.194969, 0.616572], [-69.1946, 0.616403], [-69.194206, 0.616244]]}, "properties": {"info": {"is_agg": true, "properties_agg": [{"feature_id": 381578}], "geom_cmp_equals": [true], "geom_cmp_frechet": [0]}}},
{"type": "Feature", "geometry": {"type": "LineString", "coordinates": [[-69.196519, 0.610262], [-69.19591, 0.609894], [-69.195874, 0.609822], [-69.195815, 0.60948], [-69.195684, 0.608554]]}, "properties": {"info": {"is_agg": true, "properties_agg": [{"feature_id": 381606}], "geom_cmp_equals": [true], "geom_cmp_frechet": [0]}}},
{"type": "Feature", "geometry": {"type": "LineString", "coordinates": [[-69.195764, 0.609478], [-69.195634, 0.608557]]}, "properties": {"info": {"is_agg": true, "properties_agg": [{"feature_id": 381607}], "geom_cmp_equals": [true], "geom_cmp_frechet": [0]}}},
{"type": "Feature", "geometry": {"type": "LineString", "coordinates": [[-69.194438, 0.609885], [-69.193966, 0.610474], [-69.193901, 0.610671], [-69.193762, 0.611015], [-69.193657, 0.611159], [-69.193477, 0.611341], [-69.193474, 0.611343], [-69.193238, 0.611517], [-69.19288, 0.611751], [-69.192645, 0.611863], [-69.192568, 0.611939], [-69.192492, 0.612033], [-69.192455, 0.612123], [-69.192445, 0.612267], [-69.192476, 0.612478], [-69.19258, 0.612627], [-69.192706, 0.612873], [-69.192748, 0.613049], [-69.192738, 0.613178], [-69.192666, 0.613289], [-69.192483, 0.613465]]}, "properties": {"info": {"is_agg": true, "properties_agg": [{"feature_id": 381588}], "geom_cmp_equals": [true], "geom_cmp_frechet": [0]}}},
{"type": "Feature", "geometry": {"type": "LineString", "coordinates": [[-69.197132, 0.610847], [-69.197578, 0.610292]]}, "properties": {"info": {"is_agg": true, "properties_agg": [{"feature_id": 381548}], "geom_cmp_equals": [true], "geom_cmp_frechet": [0]}}},
{"type": "Feature", "geometry": {"type": "LineString", "coordinates": [[-69.194374, 0.609885], [-69.193978, 0.61038]]}, "properties": {"info": {"is_agg": true, "properties_agg": [{"feature_id": 381546}], "geom_cmp_equals": [true], "geom_cmp_frechet": [0]}}},
{"type": "Feature", "geometry": {"type": "LineString", "coordinates": [[-69.193978, 0.61038], [-69.193992, 0.610245], [-69.193987, 0.610042], [-69.193949, 0.609883]]}, "properties": {"info": {"is_agg": true, "properties_agg": [{"feature_id": 381547}], "geom_cmp_equals": [true], "geom_cmp_frechet": [0]}}},
{"type": "Feature", "geometry": {"type": "LineString", "coordinates": [[-69.196559, 0.610292], [-69.197132, 0.610847]]}, "properties": {"info": {"is_agg": true, "properties_agg": [{"feature_id": 381550}], "geom_cmp_equals": [true], "geom_cmp_frechet": [0]}}},
{"type": "Feature", "geometry": {"type": "LineString", "coordinates": [[-69.197977, 0.611069], [-69.1976, 0.610345]]}, "properties": {"info": {"is_agg": true, "properties_agg": [{"feature_id": 381556}], "geom_cmp_equals": [true], "geom_cmp_frechet": [0]}}},
{"type": "Feature", "geometry": {"type": "LineString", "coordinates": [[-69.1971, 0.610885], [-69.196643, 0.611417], [-69.196305, 0.611534], [-69.195835, 0.611925], [-69.195684, 0.612199], [-69.195602, 0.612408], [-69.195599, 0.61269], [-69.195452, 0.612982], [-69.195153, 0.613239], [-69.194757, 0.613456], [-69.194389, 0.613709], [-69.194283, 0.613789], [-69.19418, 0.613832], [-69.19408, 0.613849], [-69.193604, 0.61375], [-69.193015, 0.61356], [-69.192483, 0.613465]]}, "properties": {"info": {"is_agg": true, "properties_agg": [{"feature_id": 381557}], "geom_cmp_equals": [true], "geom_cmp_frechet": [0]}}},
{"type": "Feature", "geometry": {"type": "LineString", "coordinates": [[-69.19358, 0.613794], [-69.193001, 0.613608], [-69.192437, 0.613507]]}, "properties": {"info": {"is_agg": true, "properties_agg": [{"feature_id": 381558}], "geom_cmp_equals": [true], "geom_cmp_frechet": [0]}}},
{"type": "Feature", "geometry": {"type": "LineString", "coordinates": [[-69.191854, 0.614205], [-69.191839, 0.614259], [-69.191822, 0.614473], [-69.191822, 0.614663], [-69.191794, 0.615019], [-69.191768, 0.61518], [-69.191759, 0.615361], [-69.191741, 0.615543], [-69.191713, 0.615725], [-69.191678, 0.615897], [-69.191652, 0.616033]]}, "properties": {"info": {"is_agg": true, "properties_agg": [{"feature_id": 381559}], "geom_cmp_equals": [true], "geom_cmp_frechet": [0]}}},
{"type": "Feature", "geometry": {"type": "LineString", "coordinates": [[-69.194438, 0.609885], [-69.195091, 0.609865], [-69.195416, 0.609809], [-69.19555, 0.60977], [-69.195693, 0.60967], [-69.19576, 0.609574]]}, "properties": {"info": {"is_agg": true, "properties_agg": [{"feature_id": 381566}], "geom_cmp_equals": [true], "geom_cmp_frechet": [0]}}},
{"type": "Feature", "geometry": {"type": "LineString", "coordinates": [[-69.194504, 0.615909], [-69.194455, 0.615985], [-69.194386, 0.616054], [-69.194307, 0.616117], [-69.194228, 0.616178], [-69.194133, 0.616222], [-69.194027, 0.616257], [-69.193929, 0.616293], [-69.193824, 0.616311], [-69.193736, 0.616329], [-69.193637, 0.616338], [-69.193546, 0.616356], [-69.193449, 0.616365], [-69.193056, 0.616365], [-69.192954, 0.616356], [-69.192864, 0.616365], [-69.192667, 0.616383], [-69.192597, 0.616383], [-69.19245, 0.616374], [-69.192355, 0.61634], [-69.192258, 0.616286], [-69.192154, 0.61623], [-69.191869, 0.616149], [-69.191737, 0.616079], [-69.191691, 0.61606], [-69.191652, 0.616033]]}, "properties": {"info": {"is_agg": true, "properties_agg": [{"feature_id": 381560}], "geom_cmp_equals": [true], "geom_cmp_frechet": [0]}}},
{"type": "Feature", "geometry": {"type": "LineString", "coordinates": [[-69.194142, 0.616272], [-69.194043, 0.616305], [-69.193944, 0.616341], [-69.193832, 0.61636], [-69.19374, 0.616378], [-69.193643, 0.616387], [-69.193552, 0.616406], [-69.19345, 0.616415], [-69.193053, 0.616415], [-69.192958, 0.616406], [-69.192868, 0.616415], [-69.192752, 0.616424], [-69.192669, 0.616433], [-69.192522, 0.616433], [-69.192429, 0.616422], [-69.192333, 0.616385], [-69.192234, 0.61633], [-69.192138, 0.616277], [-69.192042, 0.616251], [-69.191943, 0.616224], [-69.191853, 0.616197], [-69.191777, 0.616159], [-69.191714, 0.616123], [-69.191639, 0.616086]]}, "properties": {"info": {"is_agg": true, "properties_agg": [{"feature_id": 381586}], "geom_cmp_equals": [true], "geom_cmp_frechet": [0]}}},
{"type": "Feature", "geometry": {"type": "LineString", "coordinates": [[-69.191639, 0.616086], [-69.191599, 0.616216], [-69.191281, 0.617402], [-69.191386, 0.618078], [-69.191546, 0.618672], [-69.191514, 0.61895], [-69.191159, 0.619975]]}, "properties": {"info": {"is_agg": true, "properties_agg": [{"feature_id": 381587}], "geom_cmp_equals": [true], "geom_cmp_frechet": [0]}}},
{"type": "Feature", "geometry": {"type": "LineString", "coordinates": [[-69.18893, 0.609065], [-69.188477, 0.609722]]}, "properties": {"info": {"is_agg": true, "properties_agg": [{"feature_id": 381616}], "geom_cmp_equals": [true], "geom_cmp_frechet": [0]}}},
{"type": "Feature", "geometry": {"type": "LineString", "coordinates": [[-69.190728, 0.610963], [-69.1903, 0.610425], [-69.190023, 0.610215], [-69.189757, 0.610213], [-69.189549, 0.610062], [-69.18937, 0.609879], [-69.189253, 0.609721], [-69.18915, 0.609553], [-69.189112, 0.609454], [-69.189099, 0.609357], [-69.189013, 0.609208], [-69.188979, 0.609058], [-69.188993, 0.608964], [-69.189067, 0.608875], [-69.189806, 0.608256], [-69.190313, 0.60766], [-69.190465, 0.607164]]}, "properties": {"info": {"is_agg": true, "properties_agg": [{"feature_id": 381642}], "geom_cmp_equals": [true], "geom_cmp_frechet": [0]}}},
{"type": "Feature", "geometry": {"type": "LineString", "coordinates": [[-69.191142, 0.60728], [-69.190732, 0.607222], [-69.190465, 0.607164]]}, "properties": {"info": {"is_agg": true, "properties_agg": [{"feature_id": 381619}], "geom_cmp_equals": [true], "geom_cmp_frechet": [0]}}},
{"type": "Feature", "geometry": {"type": "LineString", "coordinates": [[-69.191146, 0.608647], [-69.190353, 0.608961]]}, "properties": {"info": {"is_agg": true, "properties_agg": [{"feature_id": 381620}], "geom_cmp_equals": [true], "geom_cmp_frechet": [0]}}},
{"type": "Feature", "geometry": {"type": "LineString", "coordinates": [[-69.190416, 0.607152], [-69.190271, 0.607632], [-69.189772, 0.608219], [-69.18903, 0.608842], [-69.188949, 0.60894], [-69.188436, 0.609694]]}, "properties": {"info": {"is_agg": true, "properties_agg": [{"feature_id": 381621}], "geom_cmp_equals": [true], "geom_cmp_frechet": [0]}}},
{"type": "Feature", "geometry": {"type": "LineString", "coordinates": [[-69.192803, 0.608901], [-69.192697, 0.608706]]}, "properties": {"info": {"is_agg": true, "properties_agg": [{"feature_id": 381631}], "geom_cmp_equals": [true], "geom_cmp_frechet": [0]}}},
{"type": "Feature", "geometry": {"type": "LineString", "coordinates": [[-69.191147, 0.608701], [-69.190371, 0.609008]]}, "properties": {"info": {"is_agg": true, "properties_agg": [{"feature_id": 381623}], "geom_cmp_equals": [true], "geom_cmp_frechet": [0]}}},
{"type": "Feature", "geometry": {"type": "LineString", "coordinates": [[-69.191531, 0.610012], [-69.191851, 0.60978], [-69.191987, 0.609558], [-69.192242, 0.609399], [-69.192359, 0.60926], [-69.192541, 0.609111], [-69.192588, 0.609051], [-69.192803, 0.608901]]}, "properties": {"info": {"is_agg": true, "properties_agg": [{"feature_id": 381630}], "geom_cmp_equals": [true], "geom_cmp_frechet": [0]}}},
{"type": "Feature", "geometry": {"type": "LineString", "coordinates": [[-69.190689, 0.610994], [-69.190262, 0.610459], [-69.190014, 0.610265], [-69.189749, 0.610263], [-69.189518, 0.610102], [-69.189418, 0.610008], [-69.189313, 0.609901], [-69.189211, 0.609748], [-69.189106, 0.609577], [-69.189064, 0.609469], [-69.189045, 0.609364], [-69.188967, 0.60923], [-69.18893, 0.609065]]}, "properties": {"info": {"is_agg": true, "properties_agg": [{"feature_id": 381624}], "geom_cmp_equals": [true], "geom_cmp_frechet": [0]}}},
{"type": "Feature", "geometry": {"type": "LineString", "coordinates": [[-69.193145, 0.609671], [-69.193129, 0.60971], [-69.192592, 0.61014], [-69.192062, 0.610534]]}, "properties": {"info": {"is_agg": true, "properties_agg": [{"feature_id": 381640}], "geom_cmp_equals": [true], "geom_cmp_frechet": [0]}}},
{"type": "Feature", "geometry": {"type": "LineString", "coordinates": [[-69.191243, 0.609424], [-69.191273, 0.608825], [-69.191148, 0.608745], [-69.191147, 0.608701]]}, "properties": {"info": {"is_agg": true, "properties_agg": [{"feature_id": 381632}], "geom_cmp_equals": [true], "geom_cmp_frechet": [0]}}},
{"type": "Feature", "geometry": {"type": "LineString", "coordinates": [[-69.191293, 0.609427], [-69.191323, 0.608804], [-69.191197, 0.608722], [-69.191192, 0.607287]]}, "properties": {"info": {"is_agg": true, "properties_agg": [{"feature_id": 381633}], "geom_cmp_equals": [true], "geom_cmp_frechet": [0]}}},
{"type": "Feature", "geometry": {"type": "LineString", "coordinates": [[-69.193564, 0.609317], [-69.193183, 0.60963]]}, "properties": {"info": {"is_agg": true, "properties_agg": [{"feature_id": 381635}], "geom_cmp_equals": [true], "geom_cmp_frechet": [0]}}},
{"type": "Feature", "geometry": {"type": "LineString", "coordinates": [[-69.193183, 0.60963], [-69.193031, 0.609217], [-69.19273, 0.608671], [-69.192755, 0.608658]]}, "properties": {"info": {"is_agg": true, "properties_agg": [{"feature_id": 381636}], "geom_cmp_equals": [true], "geom_cmp_frechet": [0]}}},
{"type": "Feature", "geometry": {"type": "LineString", "coordinates": [[-69.193145, 0.609671], [-69.192986, 0.609239], [-69.192826, 0.608945]]}, "properties": {"info": {"is_agg": true, "properties_agg": [{"feature_id": 381637}], "geom_cmp_equals": [true], "geom_cmp_frechet": [0]}}},
{"type": "Feature", "geometry": {"type": "LineString", "coordinates": [[-69.192826, 0.608945], [-69.192625, 0.609085], [-69.192392, 0.609297], [-69.192278, 0.609434], [-69.192027, 0.609589], [-69.191885, 0.609817], [-69.191561, 0.610045]]}, "properties": {"info": {"is_agg": true, "properties_agg": [{"feature_id": 381634}], "geom_cmp_equals": [true], "geom_cmp_frechet": [0]}}},
{"type": "Feature", "geometry": {"type": "LineString", "coordinates": [[-69.191142, 0.60728], [-69.191146, 0.608647]]}, "properties": {"info": {"is_agg": true, "properties_agg": [{"feature_id": 381641}], "geom_cmp_equals": [true], "geom_cmp_frechet": [0]}}},
{"type": "Feature", "geometry": {"type": "LineString", "coordinates": [[-69.193563, 0.609318], [-69.19342, 0.609102], [-69.193285, 0.608894], [-69.193132, 0.608648], [-69.193014, 0.608439], [-69.192916, 0.608268], [-69.192836, 0.608125], [-69.192746, 0.607999], [-69.192659, 0.607866], [-69.192487, 0.607725], [-69.192137, 0.607478], [-69.191879, 0.607385], [-69.191705, 0.607342], [-69.191192, 0.607287]]}, "properties": {"info": {"is_agg": true, "properties_agg": [{"feature_id": 381643}], "geom_cmp_equals": [true], "geom_cmp_frechet": [0]}}},
{"type": "Feature", "geometry": {"type": "LineString", "coordinates": [[-69.192342, 0.603574], [-69.192049, 0.603766], [-69.191577, 0.604141], [-69.191332, 0.60431], [-69.191233, 0.604444], [-69.190937, 0.604895], [-69.190323, 0.605925], [-69.190149, 0.606327], [-69.190141, 0.606402], [-69.190178, 0.606824], [-69.190187, 0.607019]]}, "properties": {"info": {"tot_res": 1, "tot_geral": 1}}},
{"type": "Feature", "geometry": {"type": "LineString", "coordinates": [[-69.196666, 0.607401], [-69.197446, 0.605587], [-69.197447, 0.605584], [-69.197478, 0.605477], [-69.197477, 0.605393]]}, "properties": {"info": {"tot_res": 4, "tot_geral": 4}}},
{"type": "Feature", "geometry": {"type": "LineString", "coordinates": [[-69.194375, 0.606977], [-69.194479, 0.60677], [-69.19457, 0.606624], [-69.19465, 0.606481], [-69.194703, 0.606347], [-69.194792, 0.606097], [-69.194809, 0.60599], [-69.194828, 0.60589], [-69.194873, 0.605708], [-69.19489, 0.605628], [-69.194899, 0.605515], [-69.194918, 0.605391], [-69.194944, 0.60531], [-69.194953, 0.60522], [-69.194989, 0.605023], [-69.194998, 0.604816], [-69.194989, 0.604686], [-69.194971, 0.604585], [-69.194962, 0.604458], [-69.194953, 0.60434], [-69.194917, 0.603897], [-69.194898, 0.603276], [-69.194905, 0.603037]]}, "properties": {"info": {"tot_res": 28, "tot_geral": 40}}},
{"type": "Feature", "geometry": {"type": "LineString", "coordinates": [[-69.196651, 0.603849], [-69.196664, 0.603986], [-69.196665, 0.604126], [-69.196637, 0.604267], [-69.196609, 0.604365]]}, "properties": {"info": {"tot_res": 1, "tot_geral": 1}}},
{"type": "Feature", "geometry": {"type": "LineString", "coordinates": [[-69.197477, 0.605393], [-69.197471, 0.605378], [-69.196609, 0.604365]]}, "properties": {"info": {"tot_res": 0, "tot_geral": 0}}},
{"type": "Feature", "geometry": {"type": "LineString", "coordinates": [[-69.194905, 0.603037], [-69.194717, 0.603034], [-69.194539, 0.603034], [-69.194397, 0.603052], [-69.194282, 0.60307], [-69.194175, 0.603096], [-69.194047, 0.603115], [-69.193907, 0.603133], [-69.193575, 0.603115], [-69.1934, 0.603079], [-69.193219, 0.603033], [-69.193043, 0.602959], [-69.192872, 0.602868], [-69.192702, 0.602778], [-69.19255, 0.602706], [-69.192476, 0.602655]]}, "properties": {"info": {"tot_res": 0, "tot_geral": 0}}},
{"type": "Feature", "geometry": {"type": "LineString", "coordinates": [[-69.192476, 0.602655], [-69.192387, 0.60268], [-69.192302, 0.60269], [-69.192224, 0.602699], [-69.192173, 0.602716], [-69.192104, 0.602742], [-69.192054, 0.602775], [-69.191992, 0.602829], [-69.191938, 0.602865], [-69.191888, 0.602914], [-69.191818, 0.602949], [-69.191757, 0.602993], [-69.191692, 0.60303], [-69.191551, 0.603119], [-69.191401, 0.603253], [-69.191333, 0.60333], [-69.1913, 0.603411], [-69.191317, 0.603607], [-69.191387, 0.603739], [-69.191425, 0.603851], [-69.191461, 0.604035], [-69.191453, 0.604107], [-69.191404, 0.6042], [-69.191548, 0.6041], [-69.192018, 0.603727], [-69.192315, 0.603532]]}, "properties": {"info": {"tot_res": 0, "tot_geral": 0}}},
{"type": "Feature", "geometry": {"type": "LineString", "coordinates": [[-69.194375, 0.606977], [-69.194114, 0.60682], [-69.194018, 0.60678], [-69.193729, 0.606728], [-69.193336, 0.606692], [-69.192688, 0.606855], [-69.192405, 0.606888], [-69.19218, 0.606978], [-69.191703, 0.607292]]}, "properties": {"via": "RUA SAOMIGUEL ARCANJO", "info": {"tot_res": 0, "tot_geral": 0}}},
{"type": "Feature", "geometry": {"type": "LineString", "coordinates": [[-69.191703, 0.607292], [-69.191538, 0.607272], [-69.191332, 0.607254], [-69.19117, 0.607233], [-69.19074, 0.607173], [-69.190562, 0.607137], [-69.190187, 0.607019]]}, "properties": {"info": {"tot_res": 0, "tot_geral": 0}}},
{"type": "Feature", "geometry": {"type": "LineString", "coordinates": [[-69.190416, 0.607152], [-69.190154, 0.60706], [-69.190074, 0.607069], [-69.189969, 0.607051], [-69.189737, 0.607033], [-69.189514, 0.606995], [-69.188958, 0.606797], [-69.188759, 0.606742], [-69.188587, 0.606678], [-69.188425, 0.606606], [-69.188252, 0.606532], [-69.188089, 0.60643], [-69.188007, 0.606255], [-69.187938, 0.606018], [-69.187843, 0.605597], [-69.187477, 0.604546], [-69.187476, 0.604543], [-69.187395, 0.604099], [-69.187375, 0.603947], [-69.187407, 0.603815]]}, "properties": {"info": {"tot_res": 1, "tot_geral": 2}}},
{"type": "Feature", "geometry": {"type": "LineString", "coordinates": [[-69.195657, 0.608511], [-69.195309, 0.608205], [-69.195206, 0.608114], [-69.195131, 0.607989], [-69.194908, 0.607699], [-69.194547, 0.607157], [-69.194415, 0.607009], [-69.194523, 0.606794], [-69.194696, 0.606501], [-69.19475, 0.606365], [-69.194795, 0.606238], [-69.194841, 0.606107], [-69.194859, 0.605999], [-69.194877, 0.6059], [-69.194894, 0.60581], [-69.194921, 0.605719], [-69.19494, 0.605636], [-69.194949, 0.605573], [-69.194949, 0.605517], [-69.194958, 0.605465], [-69.194967, 0.605402], [-69.194975, 0.605369], [-69.194992, 0.605325], [-69.195003, 0.605229], [-69.19502, 0.60514], [-69.195039, 0.60503], [-69.195048, 0.604872]]}, "properties": {"via": "RUA SAOMIGUEL ARCANJO", "info": {"tot_res": 48, "tot_geral": 60}}},
{"type": "Feature", "geometry": {"type": "LineString", "coordinates": [[-69.195157, 0.608128], [-69.19441, 0.609835]]}, "properties": {"info": {"tot_res": 18, "tot_geral": 24}}},
{"type": "Feature", "geometry": {"type": "LineString", "coordinates": [[-69.196601, 0.603851], [-69.196615, 0.604126], [-69.196588, 0.604256], [-69.19657, 0.60432]]}, "properties": {"info": {"tot_res": 0, "tot_geral": 0}}},
{"type": "Feature", "geometry": {"type": "LineString", "coordinates": [[-69.19657, 0.60432], [-69.196166, 0.603863], [-69.196055, 0.603747]]}, "properties": {"info": {"tot_res": 0, "tot_geral": 0}}},
{"type": "Feature", "geometry": {"type": "LineString", "coordinates": [[-69.196055, 0.603747], [-69.1962, 0.602779], [-69.196183, 0.602578], [-69.195881, 0.602207], [-69.195548, 0.601881]]}, "properties": {"info": {"tot_res": 0, "tot_geral": 0}}},
{"type": "Feature", "geometry": {"type": "LineString", "coordinates": [[-69.195737, 0.605691], [-69.195273, 0.605101], [-69.195134, 0.604948], [-69.195048, 0.604872]]}, "properties": {"info": {"tot_res": 0, "tot_geral": 0}}},
{"type": "Feature", "geometry": {"type": "LineString", "coordinates": [[-69.196011, 0.603703], [-69.19615, 0.602775], [-69.196135, 0.602597], [-69.195838, 0.602235], [-69.19556, 0.601969]]}, "properties": {"info": {"tot_res": 0, "tot_geral": 0}}},
{"type": "Feature", "geometry": {"type": "LineString", "coordinates": [[-69.196011, 0.603703], [-69.195884, 0.603581], [-69.195777, 0.603445], [-69.19562, 0.603304], [-69.195398, 0.603116], [-69.195233, 0.603025], [-69.195071, 0.603002], [-69.194956, 0.60299]]}, "properties": {"info": {"tot_res": 0, "tot_geral": 0}}},
{"type": "Feature", "geometry": {"type": "LineString", "coordinates": [[-69.193935, 0.609833], [-69.19441, 0.609835]]}, "properties": {"info": {"tot_res": 6, "tot_geral": 8}}},
{"type": "Feature", "geometry": {"type": "LineString", "coordinates": [[-69.193935, 0.609833], [-69.193887, 0.609713], [-69.193831, 0.609619], [-69.193749, 0.6095], [-69.193623, 0.609315]]}, "properties": {"info": {"tot_res": 2, "tot_geral": 2}}},
{"type": "Feature", "geometry": {"type": "LineString", "coordinates": [[-69.195657, 0.608511], [-69.195958, 0.60822], [-69.19621, 0.60803], [-69.196307, 0.607924], [-69.196505, 0.607649], [-69.196618, 0.607387], [-69.197399, 0.605568], [-69.197429, 0.605467]]}, "properties": {"info": {"tot_res": 35, "tot_geral": 38}}},
{"type": "Feature", "geometry": {"type": "LineString", "coordinates": [[-69.19556, 0.601969], [-69.195186, 0.602088], [-69.195055, 0.602438], [-69.195038, 0.602491], [-69.194967, 0.60275], [-69.194956, 0.60299]]}, "properties": {"info": {"tot_res": 0, "tot_geral": 0}}},
{"type": "Feature", "geometry": {"type": "LineString", "coordinates": [[-69.195776, 0.60566], [-69.195646, 0.605496], [-69.195312, 0.60507], [-69.19517, 0.604913], [-69.195048, 0.604805]]}, "properties": {"info": {"tot_res": 0, "tot_geral": 0}}},
{"type": "Feature", "geometry": {"type": "LineString", "coordinates": [[-69.195048, 0.604805], [-69.195039, 0.60468], [-69.195021, 0.60458], [-69.195012, 0.604455], [-69.194994, 0.60421], [-69.194969, 0.603915]]}, "properties": {"via": "RUA SAOMIGUEL ARCANJO", "info": {"tot_res": 0, "tot_geral": 0}}},
{"type": "Feature", "geometry": {"type": "LineString", "coordinates": [[-69.195859, 0.603626], [-69.195148, 0.603874], [-69.194969, 0.603915]]}, "properties": {"info": {"tot_res": 0, "tot_geral": 0}}},
{"type": "Feature", "geometry": {"type": "LineString", "coordinates": [[-69.197429, 0.605467], [-69.197428, 0.605404], [-69.196563, 0.604387], [-69.19601, 0.603773], [-69.195859, 0.603626]]}, "properties": {"info": {"tot_res": 0, "tot_geral": 0}}},
{"type": "Feature", "geometry": {"type": "LineString", "coordinates": [[-69.193949, 0.608169], [-69.193889, 0.608449], [-69.19387, 0.60856], [-69.193834, 0.608712], [-69.193824, 0.608825], [-69.193788, 0.608934], [-69.193751, 0.609036], [-69.193704, 0.609131], [-69.193652, 0.609201], [-69.193628, 0.609257], [-69.193623, 0.609315]]}, "properties": {"info": {"tot_res": 0, "tot_geral": 0}}},
{"type": "Feature", "geometry": {"type": "LineString", "coordinates": [[-69.193902, 0.608151], [-69.193839, 0.608441], [-69.193839, 0.608471], [-69.193821, 0.608549], [-69.193785, 0.608703], [-69.193776, 0.608812], [-69.193706, 0.609015], [-69.193663, 0.609103], [-69.19361, 0.609173], [-69.193578, 0.609252]]}, "properties": {"info": {"tot_res": 0, "tot_geral": 0}}},
{"type": "Feature", "geometry": {"type": "LineString", "coordinates": [[-69.19358, 0.609242], [-69.193328, 0.608867], [-69.192879, 0.608099], [-69.192788, 0.607971], [-69.192693, 0.60783], [-69.192516, 0.607684], [-69.192158, 0.607432], [-69.191895, 0.607337], [-69.191771, 0.607307]]}, "properties": {"info": {"tot_res": 0, "tot_geral": 0}}},
{"type": "Feature", "geometry": {"type": "LineString", "coordinates": [[-69.195157, 0.608128], [-69.19509, 0.608018], [-69.194868, 0.607729], [-69.194506, 0.607186], [-69.194368, 0.607032], [-69.194093, 0.606865], [-69.194006, 0.606828], [-69.193724, 0.606777], [-69.193335, 0.606743], [-69.192699, 0.606904], [-69.192414, 0.606937], [-69.192206, 0.607022], [-69.191771, 0.607307]]}, "properties": {"via": "RUA SAOMIGUEL ARCANJO", "info": {"tot_res": 0, "tot_geral": 0}}},
{"type": "Feature", "geometry": {"type": "LineString", "coordinates": [[-69.194954, 0.60304], [-69.195221, 0.603074], [-69.195368, 0.603156], [-69.19574, 0.603478], [-69.195824, 0.603586]]}, "properties": {"info": {"tot_res": 0, "tot_geral": 0}}},
{"type": "Feature", "geometry": {"type": "LineString", "coordinates": [[-69.195824, 0.603586], [-69.195518, 0.603695], [-69.195133, 0.603826], [-69.194966, 0.603864]]}, "properties": {"info": {"tot_res": 0, "tot_geral": 0}}},
{"type": "Feature", "geometry": {"type": "LineString", "coordinates": [[-69.194966, 0.603864], [-69.194948, 0.603276], [-69.194954, 0.60304]]}, "properties": {"via": "RUA SAOMIGUEL ARCANJO", "info": {"tot_res": 0, "tot_geral": 0}}},
{"type": "Feature", "geometry": {"type": "LineString", "coordinates": [[-69.195511, 0.601908], [-69.195445, 0.601952], [-69.195152, 0.602048], [-69.195008, 0.602421], [-69.19499, 0.602477], [-69.194917, 0.602745], [-69.194906, 0.602987], [-69.194534, 0.602984], [-69.194273, 0.60302], [-69.194202, 0.603038]]}, "properties": {"info": {"tot_res": 1, "tot_geral": 1}}},
{"type": "Feature", "geometry": {"type": "LineString", "coordinates": [[-69.194148, 0.60305], [-69.193907, 0.603083], [-69.193579, 0.603065], [-69.193411, 0.60303], [-69.193233, 0.602985], [-69.193065, 0.602914], [-69.192896, 0.602824], [-69.192723, 0.602733], [-69.192573, 0.602661], [-69.192482, 0.602598], [-69.192383, 0.602543], [-69.192278, 0.60249], [-69.192148, 0.602377], [-69.192068, 0.602261], [-69.191887, 0.602032]]}, "properties": {"info": {"tot_res": 14, "tot_geral": 21}}},
{"type": "Feature", "geometry": {"type": "LineString", "coordinates": [[-69.194202, 0.603038], [-69.194383, 0.602179]]}, "properties": {"info": {"tot_res": 8, "tot_geral": 10}}},
{"type": "Feature", "geometry": {"type": "LineString", "coordinates": [[-69.194334, 0.602169], [-69.194148, 0.60305]]}, "properties": {"info": {"tot_res": 30, "tot_geral": 33}}},
{"type": "Feature", "geometry": {"type": "LineString", "coordinates": [[-69.195543, 0.60187], [-69.195056, 0.601468], [-69.19491, 0.601231], [-69.194805, 0.600962], [-69.194652, 0.600615], [-69.194543, 0.600347], [-69.194519, 0.599985], [-69.194542, 0.599753], [-69.194551, 0.599554], [-69.194512, 0.599423]]}, "properties": {"info": {"tot_res": 8, "tot_geral": 9}}},
{"type": "Feature", "geometry": {"type": "LineString", "coordinates": [[-69.195511, 0.601908], [-69.195021, 0.601504], [-69.195016, 0.601498], [-69.194867, 0.601255], [-69.194759, 0.60098], [-69.194606, 0.600634], [-69.194493, 0.600355], [-69.194471, 0.600021]]}, "properties": {"info": {"tot_res": 38, "tot_geral": 43}}},
{"type": "Feature", "geometry": {"type": "LineString", "coordinates": [[-69.19447, 0.599967], [-69.194492, 0.599749], [-69.1945, 0.599556], [-69.194463, 0.59943]]}, "properties": {"via": "RUA SAOJOSE", "info": {"tot_res": 6, "tot_geral": 7}}},
{"type": "Feature", "geometry": {"type": "LineString", "coordinates": [[-69.191852, 0.601989], [-69.191607, 0.601707]]}, "properties": {"info": {"tot_res": 0, "tot_geral": 0}}},
{"type": "Feature", "geometry": {"type": "LineString", "coordinates": [[-69.19455, 0.596834], [-69.194794, 0.59855], [-69.194685, 0.59867], [-69.192834, 0.599746], [-69.191848, 0.600359], [-69.191762, 0.600455], [-69.191701, 0.600552], [-69.191648, 0.600632], [-69.191605, 0.600753], [-69.191587, 0.600868], [-69.191543, 0.601122], [-69.191538, 0.601184], [-69.19157, 0.601506], [-69.191607, 0.601707]]}, "properties": {"info": {"tot_res": 0, "tot_geral": 0}}},
{"type": "Feature", "geometry": {"type": "LineString", "coordinates": [[-69.1945, 0.596841], [-69.194745, 0.598531], [-69.194656, 0.598628], [-69.192808, 0.599703], [-69.191814, 0.600323], [-69.191721, 0.600426], [-69.191658, 0.600525], [-69.191605, 0.600607], [-69.191557, 0.600739], [-69.191538, 0.600861], [-69.19152, 0.600996], [-69.191489, 0.601172], [-69.191359, 0.601279], [-69.191202, 0.601377], [-69.190935, 0.601486], [-69.189879, 0.602073], [-69.189155, 0.602454], [-69.18835, 0.602991]]}, "properties": {"info": {"tot_res": 0, "tot_geral": 0}}},
{"type": "Feature", "geometry": {"type": "LineString", "coordinates": [[-69.19447, 0.599967], [-69.194012, 0.600158], [-69.193561, 0.600385], [-69.192714, 0.600744], [-69.192701, 0.600756]]}, "properties": {"info": {"tot_res": 15, "tot_geral": 16}}},
{"type": "Feature", "geometry": {"type": "LineString", "coordinates": [[-69.194471, 0.600021], [-69.194003, 0.600218], [-69.193582, 0.600431], [-69.193273, 0.600562], [-69.192758, 0.600781]]}, "properties": {"info": {"tot_res": 22, "tot_geral": 23}}},
{"type": "Feature", "geometry": {"type": "LineString", "coordinates": [[-69.193043, 0.601438], [-69.192701, 0.600779], [-69.192701, 0.600756]]}, "properties": {"info": {"tot_res": 6, "tot_geral": 6}}},
{"type": "Feature", "geometry": {"type": "LineString", "coordinates": [[-69.193043, 0.601438], [-69.192512, 0.601748], [-69.192453, 0.601814], [-69.192372, 0.601871], [-69.191852, 0.601989]]}, "properties": {"info": {"tot_res": 0, "tot_geral": 0}}},
{"type": "Feature", "geometry": {"type": "LineString", "coordinates": [[-69.18835, 0.602991], [-69.187985, 0.602243]]}, "properties": {"info": {"tot_res": 0, "tot_geral": 0}}},
{"type": "Feature", "geometry": {"type": "LineString", "coordinates": [[-69.192758, 0.600781], [-69.193087, 0.601413]]}, "properties": {"via": "RUA PADREANTONIO SCOLARO", "info": {"tot_res": 19, "tot_geral": 22}}},
{"type": "Feature", "geometry": {"type": "LineString", "coordinates": [[-69.193087, 0.601413], [-69.193288, 0.601296], [-69.193426, 0.601153], [-69.194075, 0.600704]]}, "properties": {"info": {"tot_res": 1, "tot_geral": 1}}},
{"type": "Feature", "geometry": {"type": "LineString", "coordinates": [[-69.194103, 0.600745], [-69.193581, 0.601095], [-69.193321, 0.601333], [-69.193316, 0.601338], [-69.193085, 0.601469], [-69.192541, 0.601789], [-69.192485, 0.601853], [-69.192388, 0.601918], [-69.191887, 0.602032]]}, "properties": {"info": {"tot_res": 4, "tot_geral": 9}}},
{"type": "Feature", "geometry": {"type": "LineString", "coordinates": [[-69.188309, 0.60302], [-69.187941, 0.602265]]}, "properties": {"info": {"tot_res": 0, "tot_geral": 0}}},
{"type": "Feature", "geometry": {"type": "LineString", "coordinates": [[-69.188309, 0.60302], [-69.187862, 0.603335], [-69.187478, 0.60365], [-69.187409, 0.6038]]}, "properties": {"info": {"tot_res": 0, "tot_geral": 0}}},
{"type": "Feature", "geometry": {"type": "LineString", "coordinates": [[-69.192418, 0.602619], [-69.192252, 0.602534], [-69.192112, 0.602412], [-69.192028, 0.602291], [-69.191824, 0.602033], [-69.191566, 0.601736], [-69.191322, 0.601535], [-69.191208, 0.601428]]}, "properties": {"info": {"tot_res": 0, "tot_geral": 0}}},
{"type": "Feature", "geometry": {"type": "LineString", "coordinates": [[-69.192418, 0.602619], [-69.192376, 0.602631], [-69.192216, 0.602649], [-69.192079, 0.602699], [-69.192025, 0.602735], [-69.191961, 0.60279], [-69.191904, 0.602828], [-69.191862, 0.602871], [-69.191794, 0.602905], [-69.191729, 0.602952], [-69.191666, 0.602988], [-69.191594, 0.603033], [-69.191519, 0.603081], [-69.191447, 0.603144], [-69.191364, 0.603219], [-69.191288, 0.603307], [-69.191252, 0.603398], [-69.191259, 0.603546], [-69.191271, 0.603627], [-69.191342, 0.603761], [-69.191377, 0.603866], [-69.191395, 0.603964], [-69.191412, 0.604041], [-69.191404, 0.604096], [-69.191379, 0.604146], [-69.191294, 0.604277], [-69.191191, 0.604416], [-69.190894, 0.604869], [-69.190279, 0.605901], [-69.190278, 0.605904], [-69.190102, 0.60631], [-69.190091, 0.606404], [-69.190128, 0.606826], [-69.190138, 0.607013]]}, "properties": {"info": {"tot_res": 0, "tot_geral": 0}}},
{"type": "Feature", "geometry": {"type": "LineString", "coordinates": [[-69.190138, 0.607013], [-69.190082, 0.607019], [-69.189974, 0.607001], [-69.189741, 0.606983], [-69.189529, 0.606947], [-69.189333, 0.606876], [-69.189154, 0.606812], [-69.188972, 0.606749], [-69.188775, 0.606695], [-69.18861, 0.606633], [-69.188445, 0.60656], [-69.188276, 0.606488], [-69.188131, 0.606402], [-69.188056, 0.606236], [-69.187986, 0.606005], [-69.187892, 0.605585], [-69.187714, 0.605073], [-69.187619, 0.604796], [-69.187599, 0.604752], [-69.187525, 0.604532], [-69.187444, 0.604091], [-69.187427, 0.603951], [-69.187461, 0.603804], [-69.187521, 0.603676], [-69.187891, 0.603376], [-69.188386, 0.603027], [-69.189181, 0.602497], [-69.189903, 0.602117], [-69.190959, 0.60153], [-69.191208, 0.601428]]}, "properties": {"info": {"tot_res": 0, "tot_geral": 0}}},
{"type": "Feature", "geometry": {"type": "LineString", "coordinates": [[-69.191546, 0.601656], [-69.191254, 0.601403]]}, "properties": {"info": {"tot_res": 0, "tot_geral": 0}}},
{"type": "Feature", "geometry": {"type": "LineString", "coordinates": [[-69.191254, 0.601403], [-69.191387, 0.60132], [-69.191492, 0.601234]]}, "properties": {"info": {"tot_res": 0, "tot_geral": 0}}},
{"type": "Feature", "geometry": {"type": "LineString", "coordinates": [[-69.191492, 0.601234], [-69.191508, 0.601446], [-69.191546, 0.601656]]}, "properties": {"info": {"tot_res": 0, "tot_geral": 0}}},
{"type": "Feature", "geometry": {"type": "LineString", "coordinates": [[-67.595233, 1.069174], [-67.594498, 1.068725]]}, "properties": {"info": {"is_agg": true, "properties_agg": [{"feature_id": 382589}], "geom_cmp_equals": [true], "geom_cmp_frechet": [0]}}},
{"type": "Feature", "geometry": {"type": "LineString", "coordinates": [[-67.596019, 1.069786], [-67.595251, 1.069246]]}, "properties": {"info": {"is_agg": true, "properties_agg": [{"feature_id": 382590}], "geom_cmp_equals": [true], "geom_cmp_frechet": [0]}}},
{"type": "Feature", "geometry": {"type": "LineString", "coordinates": [[-67.595209, 1.069218], [-67.594466, 1.068775]]}, "properties": {"info": {"is_agg": true, "properties_agg": [{"feature_id": 382591}], "geom_cmp_equals": [true], "geom_cmp_frechet": [0]}}},
{"type": "Feature", "geometry": {"type": "LineString", "coordinates": [[-67.597719, 1.070953], [-67.595933, 1.070422]]}, "properties": {"info": {"is_agg": true, "properties_agg": [{"feature_id": 382593}], "geom_cmp_equals": [true], "geom_cmp_frechet": [0]}}},
{"type": "Feature", "geometry": {"type": "LineString", "coordinates": [[-67.598, 1.070303], [-67.597756, 1.070998], [-67.597536, 1.071821], [-67.597514, 1.072208], [-67.597751, 1.072536]]}, "properties": {"info": {"is_agg": true, "properties_agg": [{"feature_id": 382594}], "geom_cmp_equals": [true], "geom_cmp_frechet": [0]}}},
{"type": "Feature", "geometry": {"type": "LineString", "coordinates": [[-67.597946, 1.070316], [-67.597719, 1.070953]]}, "properties": {"info": {"is_agg": true, "properties_agg": [{"feature_id": 382600}], "geom_cmp_equals": [true], "geom_cmp_frechet": [0]}}},
{"type": "Feature", "geometry": {"type": "LineString", "coordinates": [[-67.597706, 1.072574], [-67.597459, 1.072246], [-67.597484, 1.071796], [-67.597521, 1.071716], [-67.597706, 1.071]]}, "properties": {"info": {"is_agg": true, "properties_agg": [{"feature_id": 382599}], "geom_cmp_equals": [true], "geom_cmp_frechet": [0]}}},
{"type": "Feature", "geometry": {"type": "LineString", "coordinates": [[-67.597706, 1.071], [-67.595894, 1.070466], [-67.595583, 1.070391], [-67.594816, 1.070296]]}, "properties": {"info": {"is_agg": true, "properties_agg": [{"feature_id": 382601}], "geom_cmp_equals": [true], "geom_cmp_frechet": [0]}}},
{"type": "Feature", "geometry": {"type": "LineString", "coordinates": [[-67.595878, 1.07041], [-67.595586, 1.070344], [-67.594813, 1.070249]]}, "properties": {"info": {"is_agg": true, "properties_agg": [{"feature_id": 382602}], "geom_cmp_equals": [true], "geom_cmp_frechet": [0]}}},
{"type": "Feature", "geometry": {"type": "LineString", "coordinates": [[-67.596019, 1.069786], [-67.595878, 1.07041]]}, "properties": {"info": {"is_agg": true, "properties_agg": [{"feature_id": 382603}], "geom_cmp_equals": [true], "geom_cmp_frechet": [0]}}},
{"type": "Feature", "geometry": {"type": "LineString", "coordinates": [[-67.595233, 1.069174], [-67.595731, 1.068347], [-67.595953, 1.067687], [-67.595862, 1.067295], [-67.59563, 1.066669], [-67.595724, 1.066048]]}, "properties": {"info": {"tot_res": 16, "tot_geral": 20}}},
{"type": "Feature", "geometry": {"type": "LineString", "coordinates": [[-67.595275, 1.069202], [-67.595777, 1.068366], [-67.595913, 1.067968]]}, "properties": {"info": {"tot_res": 4, "tot_geral": 5}}},
{"type": "Feature", "geometry": {"type": "LineString", "coordinates": [[-67.595913, 1.067968], [-67.596055, 1.068026], [-67.596392, 1.068145], [-67.596714, 1.068285], [-67.596908, 1.068437]]}, "properties": {"info": {"tot_res": 19, "tot_geral": 24}}},
{"type": "Feature", "geometry": {"type": "LineString", "coordinates": [[-67.596908, 1.068437], [-67.596781, 1.068883], [-67.596598, 1.069193], [-67.596297, 1.069544], [-67.59605, 1.069742]]}, "properties": {"info": {"tot_res": 9, "tot_geral": 9}}},
{"type": "Feature", "geometry": {"type": "LineString", "coordinates": [[-67.59605, 1.069742], [-67.595275, 1.069202]]}, "properties": {"info": {"tot_res": 2, "tot_geral": 7}}},
{"type": "Feature", "geometry": {"type": "LineString", "coordinates": [[-67.596621, 1.069242], [-67.596337, 1.069583], [-67.596073, 1.069787], [-67.595933, 1.070422]]}, "properties": {"info": {"tot_res": 15, "tot_geral": 19}}},
{"type": "Feature", "geometry": {"type": "LineString", "coordinates": [[-67.596621, 1.069242], [-67.597663, 1.070061], [-67.597946, 1.070316]]}, "properties": {"info": {"tot_res": 15, "tot_geral": 16}}},
{"type": "Feature", "geometry": {"type": "LineString", "coordinates": [[-67.596651, 1.069201], [-67.597696, 1.070023], [-67.598, 1.070303]]}, "properties": {"info": {"tot_res": 4, "tot_geral": 9}}},
{"type": "Feature", "geometry": {"type": "LineString", "coordinates": [[-67.600159, 1.063842], [-67.599031, 1.064705], [-67.59868, 1.065254], [-67.598709, 1.065488], [-67.598703, 1.065507], [-67.598209, 1.066122], [-67.598062, 1.066283], [-67.597831, 1.066437], [-67.597697, 1.066567], [-67.597565, 1.066851], [-67.597453, 1.067191], [-67.597373, 1.0674], [-67.597319, 1.067618], [-67.597238, 1.06783], [-67.597127, 1.067989], [-67.59696, 1.068435], [-67.596826, 1.068906], [-67.596651, 1.069201]]}, "properties": {"info": {"tot_res": 2, "tot_geral": 6}}},
{"type": "Feature", "geometry": {"type": "LineString", "coordinates": [[-67.596925, 1.068387], [-67.597081, 1.067968], [-67.597195, 1.067804], [-67.597272, 1.067602], [-67.597325, 1.067387], [-67.597406, 1.067174], [-67.597518, 1.066834], [-67.597655, 1.06654], [-67.597802, 1.066397], [-67.598027, 1.066248], [-67.59817, 1.06609], [-67.598658, 1.065484], [-67.598633, 1.065235], [-67.598992, 1.064674], [-67.598997, 1.064668], [-67.600128, 1.063802]]}, "properties": {"info": {"tot_res": 6, "tot_geral": 7}}},
{"type": "Feature", "geometry": {"type": "LineString", "coordinates": [[-67.595929, 1.067921], [-67.596058, 1.067975], [-67.596405, 1.068099], [-67.596737, 1.06824], [-67.596925, 1.068387]]}, "properties": {"info": {"tot_res": 1, "tot_geral": 13}}},
{"type": "Feature", "geometry": {"type": "LineString", "coordinates": [[-67.595929, 1.067921], [-67.596003, 1.067696], [-67.596004, 1.067683], [-67.59591, 1.067282], [-67.59579, 1.066999], [-67.595681, 1.06667], [-67.595767, 1.066069]]}, "properties": {"info": {"tot_res": 4, "tot_geral": 7}}},
{"type": "Feature", "geometry": {"type": "LineString", "coordinates": [[-67.595209, 1.069218], [-67.595037, 1.069566], [-67.595027, 1.06971], [-67.594961, 1.070088]]}, "properties": {"info": {"tot_res": 1, "tot_geral": 2}}},
{"type": "Feature", "geometry": {"type": "LineString", "coordinates": [[-67.595251, 1.069246], [-67.595075, 1.069591], [-67.595076, 1.069717], [-67.59501, 1.070097]]}, "properties": {"info": {"tot_res": 0, "tot_geral": 0}}},
{"type": "Feature", "geometry": {"type": "LineString", "coordinates": [[-67.594186, 1.070189], [-67.594174, 1.070327], [-67.594121, 1.070843], [-67.594008, 1.071079]]}, "properties": {"info": {"tot_res": 3, "tot_geral": 4}}},
{"type": "Feature", "geometry": {"type": "LineString", "coordinates": [[-67.594237, 1.070174], [-67.594168, 1.070861], [-67.594053, 1.071101]]}, "properties": {"info": {"tot_res": 0, "tot_geral": 2}}}]}
