{"type": "FeatureCollection", "features": [
{"type": "Feature", "geometry": {"type": "LineString", "coordinates": [[-32.412794, -3.845947], [-32.412725, -3.845986]]}, "properties": {"info": {}}},
{"type": "Feature", "geometry": {"type": "LineString", "coordinates": [[-32.412276, -3.84509], [-32.412365, -3.845053]]}, "properties": {"info": {}}},
{"type": "Feature", "geometry": {"type": "LineString", "coordinates": [[-32.415341, -3.847085], [-32.415472, -3.846808]]}, "properties": {"info": {}}},
{"type": "Feature", "geometry": {"type": "LineString", "coordinates": [[-32.412862, -3.845232], [-32.413419, -3.846451], [-32.413414, -3.846556], [-32.413342, -3.846669]]}, "properties": {"info": {}}},
{"type": "Feature", "geometry": {"type": "LineString", "coordinates": [[-32.41659, -3.847989], [-32.416834, -3.847602]]}, "properties": {"info": {}}},
{"type": "Feature", "geometry": {"type": "LineString", "coordinates": [[-32.415612, -3.847818], [-32.415866, -3.847352]]}, "properties": {"info": {}}},
{"type": "Feature", "geometry": {"type": "LineString", "coordinates": [[-32.414879, -3.846246], [-32.414689, -3.846509]]}, "properties": {"info": {}}},
{"type": "Feature", "geometry": {"type": "LineString", "coordinates": [[-32.415472, -3.846808], [-32.41533, -3.846593], [-32.414879, -3.846246]]}, "properties": {"info": {}}},
{"type": "Feature", "geometry": {"type": "LineString", "coordinates": [[-32.414689, -3.846509], [-32.41429, -3.84632]]}, "properties": {"info": {}}},
{"type": "Feature", "geometry": {"type": "LineString", "coordinates": [[-32.412826, -3.845077], [-32.41247, -3.845269]]}, "properties": {"info": {}}},
{"type": "Feature", "geometry": {"type": "LineString", "coordinates": [[-32.412725, -3.845986], [-32.412633, -3.845873], [-32.412276, -3.84509]]}, "properties": {"info": {}}},
{"type": "Feature", "geometry": {"type": "LineString", "coordinates": [[-32.415581, -3.84799], [-32.415777, -3.847922], [-32.416124, -3.847922], [-32.41636, -3.847991], [-32.416812, -3.84828]]}, "properties": {"info": {}}},
{"type": "Feature", "geometry": {"type": "LineString", "coordinates": [[-32.413638, -3.843019], [-32.413716, -3.843128], [-32.413776, -3.843173], [-32.413839, -3.843165], [-32.414139, -3.843055]]}, "properties": {"info": {}}},
{"type": "Feature", "geometry": {"type": "LineString", "coordinates": [[-32.413218, -3.843149], [-32.413638, -3.843019]]}, "properties": {"info": {}}},
{"type": "Feature", "geometry": {"type": "LineString", "coordinates": [[-32.414121, -3.843002], [-32.413884, -3.843091], [-32.4138, -3.843094], [-32.413719, -3.843026]]}, "properties": {"info": {}}},
{"type": "Feature", "geometry": {"type": "LineString", "coordinates": [[-32.41598, -3.847328], [-32.41573, -3.847816]]}, "properties": {"info": {}}},
{"type": "Feature", "geometry": {"type": "LineString", "coordinates": [[-32.412365, -3.845053], [-32.41247, -3.845269]]}, "properties": {"info": {}}},
{"type": "Feature", "geometry": {"type": "LineString", "coordinates": [[-32.428559, -3.846988], [-32.428061, -3.84675]]}, "properties": {"info": {}}},
{"type": "Feature", "geometry": {"type": "LineString", "coordinates": [[-32.41406, -3.842865], [-32.413921, -3.842887], [-32.413771, -3.842939], [-32.413719, -3.843026]]}, "properties": {"info": {}}},
{"type": "Feature", "geometry": {"type": "LineString", "coordinates": [[-32.415866, -3.847352], [-32.415341, -3.847085]]}, "properties": {"info": {}}},
{"type": "Feature", "geometry": {"type": "LineString", "coordinates": [[-32.412513, -3.845353], [-32.412794, -3.845947]]}, "properties": {"info": {}}},
{"type": "Feature", "geometry": {"type": "LineString", "coordinates": [[-32.412862, -3.845232], [-32.412513, -3.845353]]}, "properties": {"info": {}}},
{"type": "Feature", "geometry": {"type": "LineString", "coordinates": [[-32.409936, -3.838528], [-32.410449, -3.838248], [-32.410743, -3.838091]]}, "properties": {"info": {"tot_res": 0, "tot_geral": 1}}},
{"type": "Feature", "geometry": {"type": "LineString", "coordinates": [[-32.41143, -3.839692], [-32.411182, -3.839723], [-32.411074, -3.839737], [-32.411004, -3.839771], [-32.410908, -3.839774], [-32.410787, -3.839706], [-32.410661, -3.839737], [-32.41055, -3.839709], [-32.410473, -3.839649], [-32.410376, -3.839631], [-32.41034, -3.83958], [-32.41026, -3.83959], [-32.410114, -3.839608], [-32.409994, -3.839641], [-32.40991, -3.839677], [-32.409821, -3.839689]]}, "properties": {"info": {"tot_res": 0, "tot_geral": 3}}},
{"type": "Feature", "geometry": {"type": "LineString", "coordinates": [[-32.414684, -3.839686], [-32.414665, -3.839894], [-32.41458, -3.84011], [-32.414625, -3.840282], [-32.414621, -3.840376], [-32.414505, -3.840525], [-32.414442, -3.840629], [-32.414366, -3.840695]]}, "properties": {"info": {"tot_res": 0, "tot_geral": 1}}},
{"type": "Feature", "geometry": {"type": "LineString", "coordinates": [[-32.410683, -3.839888], [-32.41092, -3.839908], [-32.411429, -3.839899]]}, "properties": {"info": {"tot_res": 0, "tot_geral": 0}}},
{"type": "Feature", "geometry": {"type": "LineString", "coordinates": [[-32.410808, -3.84058], [-32.410705, -3.840391], [-32.410651, -3.840239], [-32.410601, -3.840054], [-32.410617, -3.839968], [-32.410683, -3.839888]]}, "properties": {"via": "RUA SAOMIGUEL", "info": {"tot_res": 1, "tot_geral": 4}}},
{"type": "Feature", "geometry": {"type": "LineString", "coordinates": [[-32.410808, -3.84058], [-32.411099, -3.84061]]}, "properties": {"via": "RUA SAOMIGUEL", "info": {"tot_res": 0, "tot_geral": 1}}},
{"type": "Feature", "geometry": {"type": "LineString", "coordinates": [[-32.411099, -3.84061], [-32.411509, -3.840665], [-32.411624, -3.840669], [-32.411817, -3.840666]]}, "properties": {"info": {"tot_res": 1, "tot_geral": 1}}},
{"type": "Feature", "geometry": {"type": "LineString", "coordinates": [[-32.41734, -3.841952], [-32.417309, -3.842263], [-32.417274, -3.842504], [-32.417209, -3.842678], [-32.417081, -3.842832], [-32.416954, -3.843016], [-32.416824, -3.843148], [-32.416778, -3.843167], [-32.416751, -3.84317], [-32.416731, -3.843132]]}, "properties": {"info": {"tot_res": 2, "tot_geral": 2}}},
{"type": "Feature", "geometry": {"type": "LineString", "coordinates": [[-32.416122, -3.841973], [-32.416382, -3.842069], [-32.416605, -3.84223], [-32.416689, -3.842149]]}, "properties": {"info": {"tot_res": 1, "tot_geral": 2}}},
{"type": "Feature", "geometry": {"type": "LineString", "coordinates": [[-32.416122, -3.841973], [-32.41603, -3.842234]]}, "properties": {"info": {"tot_res": 2, "tot_geral": 2}}},
{"type": "Feature", "geometry": {"type": "LineString", "coordinates": [[-32.416731, -3.843132], [-32.41603, -3.842234]]}, "properties": {"info": {"tot_res": 12, "tot_geral": 12}}},
{"type": "Feature", "geometry": {"type": "LineString", "coordinates": [[-32.416689, -3.842149], [-32.416513, -3.842018], [-32.41612, -3.841869], [-32.415895, -3.841624], [-32.415807, -3.84151], [-32.415637, -3.841289], [-32.415556, -3.841161], [-32.415179, -3.840866], [-32.414964, -3.840752], [-32.414727, -3.840711], [-32.414366, -3.840695]]}, "properties": {"info": {"tot_res": 0, "tot_geral": 0}}},
{"type": "Feature", "geometry": {"type": "LineString", "coordinates": [[-32.411709, -3.840738], [-32.412244, -3.840759]]}, "properties": {"info": {"tot_res": 2, "tot_geral": 2}}},
{"type": "Feature", "geometry": {"type": "LineString", "coordinates": [[-32.411709, -3.840738], [-32.411668, -3.841252]]}, "properties": {"via": "RUA GENERALDUTRA", "info": {"tot_res": 3, "tot_geral": 4}}},
{"type": "Feature", "geometry": {"type": "LineString", "coordinates": [[-32.411197, -3.841218], [-32.411668, -3.841252]]}, "properties": {"via": "RUA GENERALDUTRA", "info": {"tot_res": 0, "tot_geral": 0}}},
{"type": "Feature", "geometry": {"type": "LineString", "coordinates": [[-32.411197, -3.841218], [-32.411173, -3.841696]]}, "properties": {"via": "RUA CABOELIAS", "info": {"tot_res": 0, "tot_geral": 0}}},
{"type": "Feature", "geometry": {"type": "LineString", "coordinates": [[-32.41127, -3.8417], [-32.411173, -3.841696]]}, "properties": {"info": {"tot_res": 0, "tot_geral": 0}}},
{"type": "Feature", "geometry": {"type": "LineString", "coordinates": [[-32.41127, -3.8417], [-32.411465, -3.841682], [-32.411651, -3.841656], [-32.41182, -3.841621], [-32.411935, -3.84159], [-32.41201, -3.841551], [-32.412119, -3.841486], [-32.412377, -3.841346], [-32.412479, -3.841296], [-32.412633, -3.84122], [-32.412729, -3.841194], [-32.412883, -3.841175], [-32.413034, -3.841204], [-32.413158, -3.841242], [-32.413371, -3.84129], [-32.413561, -3.84134], [-32.413738, -3.84135], [-32.413885, -3.841374], [-32.414001, -3.841425]]}, "properties": {"info": {"tot_res": 1, "tot_geral": 1}}},
{"type": "Feature", "geometry": {"type": "LineString", "coordinates": [[-32.411638, -3.840733], [-32.411498, -3.840736], [-32.411378, -3.840722], [-32.411235, -3.840687], [-32.411069, -3.840696], [-32.410915, -3.840703]]}, "properties": {"via": "RUA SAOMIGUEL", "info": {"tot_res": 0, "tot_geral": 1}}},
{"type": "Feature", "geometry": {"type": "LineString", "coordinates": [[-32.410915, -3.840703], [-32.410848, -3.841699]]}, "properties": {"via": "RUA SAOMIGUEL", "info": {"tot_res": 0, "tot_geral": 1}}},
{"type": "Feature", "geometry": {"type": "LineString", "coordinates": [[-32.410848, -3.841699], [-32.411093, -3.841718]]}, "properties": {"via": "RUA SAOMIGUEL", "info": {"tot_res": 0, "tot_geral": 0}}},
{"type": "Feature", "geometry": {"type": "LineString", "coordinates": [[-32.411093, -3.841718], [-32.411139, -3.841143]]}, "properties": {"via": "RUA CABOELIAS", "info": {"tot_res": 0, "tot_geral": 0}}},
{"type": "Feature", "geometry": {"type": "LineString", "coordinates": [[-32.411139, -3.841143], [-32.411608, -3.841181]]}, "properties": {"via": "RUA GENERALDUTRA", "info": {"tot_res": 0, "tot_geral": 0}}},
{"type": "Feature", "geometry": {"type": "LineString", "coordinates": [[-32.411608, -3.841181], [-32.411638, -3.840733]]}, "properties": {"via": "RUA GENERALDUTRA", "info": {"tot_res": 0, "tot_geral": 0}}},
{"type": "Feature", "geometry": {"type": "LineString", "coordinates": [[-32.421495, -3.849377], [-32.421265, -3.849073], [-32.420917, -3.848727], [-32.420632, -3.848437], [-32.418343, -3.84716]]}, "properties": {"info": {"tot_res": 1, "tot_geral": 2}}},
{"type": "Feature", "geometry": {"type": "LineString", "coordinates": [[-32.418837, -3.84984], [-32.417779, -3.849243]]}, "properties": {"info": {"tot_res": 0, "tot_geral": 0}}},
{"type": "Feature", "geometry": {"type": "LineString", "coordinates": [[-32.418837, -3.84984], [-32.41894, -3.84979], [-32.419099, -3.849343]]}, "properties": {"info": {"tot_res": 0, "tot_geral": 0}}},
{"type": "Feature", "geometry": {"type": "LineString", "coordinates": [[-32.419099, -3.849343], [-32.419664, -3.849531]]}, "properties": {"info": {"tot_res": 15, "tot_geral": 15}}},
{"type": "Feature", "geometry": {"type": "LineString", "coordinates": [[-32.419664, -3.849531], [-32.419747, -3.849348], [-32.420066, -3.849085], [-32.420163, -3.849213]]}, "properties": {"info": {"tot_res": 1, "tot_geral": 2}}},
{"type": "Feature", "geometry": {"type": "LineString", "coordinates": [[-32.420163, -3.849213], [-32.419955, -3.849356]]}, "properties": {"info": {"tot_res": 4, "tot_geral": 4}}},
{"type": "Feature", "geometry": {"type": "LineString", "coordinates": [[-32.419955, -3.849356], [-32.419847, -3.849445]]}, "properties": {"info": {"tot_res": 0, "tot_geral": 0}}},
{"type": "Feature", "geometry": {"type": "LineString", "coordinates": [[-32.419847, -3.849445], [-32.419784, -3.849897], [-32.419765, -3.850375]]}, "properties": {"info": {"tot_res": 0, "tot_geral": 1}}},
{"type": "Feature", "geometry": {"type": "LineString", "coordinates": [[-32.419765, -3.850375], [-32.42004, -3.85049], [-32.420592, -3.850746], [-32.421286, -3.851014], [-32.422276, -3.849942], [-32.423956, -3.849849], [-32.42438, -3.849843], [-32.425244, -3.849824], [-32.425403, -3.849801]]}, "properties": {"info": {"tot_res": 25, "tot_geral": 34}}},
{"type": "Feature", "geometry": {"type": "LineString", "coordinates": [[-32.425403, -3.849801], [-32.425584, -3.849737], [-32.425724, -3.849586]]}, "properties": {"info": {"tot_res": 0, "tot_geral": 1}}},
{"type": "Feature", "geometry": {"type": "LineString", "coordinates": [[-32.425724, -3.849586], [-32.425635, -3.84927], [-32.425501, -3.849027]]}, "properties": {"via": "RUA DOUTORJOSE ALBERTO PULGA NLOBEY", "info": {"tot_res": 0, "tot_geral": 0}}},
{"type": "Feature", "geometry": {"type": "LineString", "coordinates": [[-32.41573, -3.847816], [-32.41611, -3.847791]]}, "properties": {"info": {"tot_res": 1, "tot_geral": 6}}},
{"type": "Feature", "geometry": {"type": "LineString", "coordinates": [[-32.411393, -3.841746], [-32.411993, -3.841666], [-32.412073, -3.841619], [-32.412504, -3.841335], [-32.412788, -3.841233], [-32.41381, -3.841436], [-32.413945, -3.841438]]}, "properties": {"info": {"tot_res": 10, "tot_geral": 10}}},
{"type": "Feature", "geometry": {"type": "LineString", "coordinates": [[-32.412329, -3.843688], [-32.412195, -3.843423], [-32.412105, -3.843254], [-32.411956, -3.843022], [-32.411806, -3.842771], [-32.411594, -3.842388], [-32.411541, -3.84233], [-32.411393, -3.841746]]}, "properties": {"info": {"tot_res": 4, "tot_geral": 6}}},
{"type": "Feature", "geometry": {"type": "LineString", "coordinates": [[-32.412927, -3.844961], [-32.412329, -3.843688]]}, "properties": {"info": {"tot_res": 0, "tot_geral": 0}}},
{"type": "Feature", "geometry": {"type": "LineString", "coordinates": [[-32.412826, -3.845077], [-32.412555, -3.844365], [-32.412396, -3.844014], [-32.412294, -3.843802], [-32.41208, -3.843478], [-32.411932, -3.843193], [-32.411739, -3.842837], [-32.41157, -3.842566], [-32.411493, -3.84241]]}, "properties": {"info": {"tot_res": 0, "tot_geral": 0}}},
{"type": "Feature", "geometry": {"type": "LineString", "coordinates": [[-32.413425, -3.843863], [-32.41343, -3.843623], [-32.413218, -3.843149]]}, "properties": {"info": {"tot_res": 2, "tot_geral": 3}}},
{"type": "Feature", "geometry": {"type": "LineString", "coordinates": [[-32.413159, -3.845447], [-32.413131, -3.845398], [-32.413044, -3.845124], [-32.413027, -3.845048], [-32.413098, -3.844877], [-32.413161, -3.844685], [-32.413224, -3.844589], [-32.41338, -3.844412], [-32.413384, -3.844262], [-32.413392, -3.844148], [-32.413425, -3.843863]]}, "properties": {"info": {"tot_res": 4, "tot_geral": 7}}},
{"type": "Feature", "geometry": {"type": "LineString", "coordinates": [[-32.413634, -3.845125], [-32.413779, -3.845028]]}, "properties": {"info": {"tot_res": 0, "tot_geral": 0}}},
{"type": "Feature", "geometry": {"type": "LineString", "coordinates": [[-32.413634, -3.845125], [-32.413652, -3.845255], [-32.413657, -3.845335], [-32.413695, -3.845393], [-32.41378, -3.84564], [-32.413805, -3.845694], [-32.413952, -3.84613], [-32.414043, -3.846266]]}, "properties": {"info": {"tot_res": 18, "tot_geral": 18}}},
{"type": "Feature", "geometry": {"type": "LineString", "coordinates": [[-32.414043, -3.846266], [-32.414174, -3.846342], [-32.414254, -3.846234], [-32.414308, -3.846222], [-32.41454, -3.846298], [-32.414726, -3.846284], [-32.414858, -3.846075]]}, "properties": {"info": {"tot_res": 0, "tot_geral": 0}}},
{"type": "Feature", "geometry": {"type": "LineString", "coordinates": [[-32.414858, -3.846075], [-32.415428, -3.846527], [-32.415839, -3.847167], [-32.416162, -3.847339]]}, "properties": {"info": {"tot_res": 1, "tot_geral": 1}}},
{"type": "Feature", "geometry": {"type": "LineString", "coordinates": [[-32.41392, -3.847079], [-32.41429, -3.84632]]}, "properties": {"info": {"tot_res": 0, "tot_geral": 1}}},
{"type": "Feature", "geometry": {"type": "LineString", "coordinates": [[-32.41392, -3.847079], [-32.414803, -3.847549], [-32.414971, -3.847486], [-32.415612, -3.847818]]}, "properties": {"info": {"tot_res": 0, "tot_geral": 1}}},
{"type": "Feature", "geometry": {"type": "LineString", "coordinates": [[-32.414115, -3.846405], [-32.413841, -3.847011]]}, "properties": {"info": {"tot_res": 6, "tot_geral": 10}}},
{"type": "Feature", "geometry": {"type": "LineString", "coordinates": [[-32.411493, -3.84241], [-32.410865, -3.842741], [-32.410791, -3.842786], [-32.410712, -3.84284]]}, "properties": {"via": "RUA MESTREGOUVEIA", "info": {"tot_res": 5, "tot_geral": 8}}},
{"type": "Feature", "geometry": {"type": "LineString", "coordinates": [[-32.411998, -3.845975], [-32.411759, -3.845658], [-32.411412, -3.845147], [-32.411122, -3.844739], [-32.410865, -3.844316], [-32.410637, -3.843856], [-32.410577, -3.843495], [-32.410544, -3.843141], [-32.410712, -3.84284]]}, "properties": {"via": "RUA SAOMIGUEL", "info": {"tot_res": 16, "tot_geral": 25}}},
{"type": "Feature", "geometry": {"type": "LineString", "coordinates": [[-32.413342, -3.846669], [-32.412533, -3.846214], [-32.411998, -3.845975]]}, "properties": {"info": {"tot_res": 4, "tot_geral": 13}}},
{"type": "Feature", "geometry": {"type": "LineString", "coordinates": [[-32.417779, -3.849243], [-32.417, -3.848783]]}, "properties": {"info": {"tot_res": 1, "tot_geral": 1}}},
{"type": "Feature", "geometry": {"type": "LineString", "coordinates": [[-32.421427, -3.849442], [-32.421226, -3.849146], [-32.420537, -3.848536], [-32.41932, -3.847864], [-32.419037, -3.847703], [-32.418302, -3.847298], [-32.418135, -3.847132]]}, "properties": {"info": {"tot_res": 0, "tot_geral": 0}}},
{"type": "Feature", "geometry": {"type": "LineString", "coordinates": [[-32.417, -3.848783], [-32.416756, -3.848639]]}, "properties": {"info": {"tot_res": 0, "tot_geral": 0}}},
{"type": "Feature", "geometry": {"type": "LineString", "coordinates": [[-32.416756, -3.848639], [-32.415581, -3.84799]]}, "properties": {"info": {"tot_res": 0, "tot_geral": 0}}},
{"type": "Feature", "geometry": {"type": "LineString", "coordinates": [[-32.416832, -3.848158], [-32.416641, -3.848071]]}, "properties": {"info": {"tot_res": 0, "tot_geral": 1}}},
{"type": "Feature", "geometry": {"type": "LineString", "coordinates": [[-32.416641, -3.848071], [-32.416907, -3.847689]]}, "properties": {"info": {"tot_res": 0, "tot_geral": 0}}},
{"type": "Feature", "geometry": {"type": "LineString", "coordinates": [[-32.41611, -3.847791], [-32.41659, -3.847989]]}, "properties": {"info": {"tot_res": 0, "tot_geral": 1}}},
{"type": "Feature", "geometry": {"type": "LineString", "coordinates": [[-32.414115, -3.846405], [-32.413901, -3.846245], [-32.413698, -3.845715]]}, "properties": {"info": {"tot_res": 2, "tot_geral": 3}}},
{"type": "Feature", "geometry": {"type": "LineString", "coordinates": [[-32.413698, -3.845715], [-32.413293, -3.84585]]}, "properties": {"info": {"tot_res": 0, "tot_geral": 0}}},
{"type": "Feature", "geometry": {"type": "LineString", "coordinates": [[-32.413293, -3.84585], [-32.413546, -3.846502], [-32.413416, -3.846796]]}, "properties": {"info": {"tot_res": 6, "tot_geral": 9}}},
{"type": "Feature", "geometry": {"type": "LineString", "coordinates": [[-32.413416, -3.846796], [-32.413841, -3.847011]]}, "properties": {"info": {"tot_res": 0, "tot_geral": 0}}},
{"type": "Feature", "geometry": {"type": "LineString", "coordinates": [[-32.413663, -3.845621], [-32.413567, -3.845378], [-32.41355, -3.845209], [-32.413578, -3.845092], [-32.413655, -3.845059]]}, "properties": {"info": {"tot_res": 3, "tot_geral": 3}}},
{"type": "Feature", "geometry": {"type": "LineString", "coordinates": [[-32.413159, -3.845447], [-32.413258, -3.845758]]}, "properties": {"info": {"tot_res": 4, "tot_geral": 4}}},
{"type": "Feature", "geometry": {"type": "LineString", "coordinates": [[-32.413258, -3.845758], [-32.413663, -3.845621]]}, "properties": {"info": {"tot_res": 0, "tot_geral": 0}}},
{"type": "Feature", "geometry": {"type": "LineString", "coordinates": [[-32.41388, -3.84283], [-32.413131, -3.843106]]}, "properties": {"info": {"tot_res": 0, "tot_geral": 1}}},
{"type": "Feature", "geometry": {"type": "LineString", "coordinates": [[-32.413324, -3.843609], [-32.413264, -3.844127], [-32.412927, -3.844961]]}, "properties": {"info": {"tot_res": 0, "tot_geral": 0}}},
{"type": "Feature", "geometry": {"type": "LineString", "coordinates": [[-32.413131, -3.843106], [-32.413324, -3.843609]]}, "properties": {"info": {"tot_res": 2, "tot_geral": 2}}},
{"type": "Feature", "geometry": {"type": "LineString", "coordinates": [[-32.411244, -3.841783], [-32.410788, -3.84183]]}, "properties": {"info": {"tot_res": 0, "tot_geral": 0}}},
{"type": "Feature", "geometry": {"type": "LineString", "coordinates": [[-32.410769, -3.842664], [-32.410788, -3.84183]]}, "properties": {"via": "RUA SAOMIGUEL", "info": {"tot_res": 4, "tot_geral": 7}}},
{"type": "Feature", "geometry": {"type": "LineString", "coordinates": [[-32.410769, -3.842664], [-32.410876, -3.84263], [-32.411082, -3.842486], [-32.411331, -3.8424], [-32.41142, -3.842336]]}, "properties": {"via": "RUA MESTREGOUVEIA", "info": {"tot_res": 4, "tot_geral": 5}}},
{"type": "Feature", "geometry": {"type": "LineString", "coordinates": [[-32.411244, -3.841783], [-32.41142, -3.842336]]}, "properties": {"info": {"tot_res": 2, "tot_geral": 4}}},
{"type": "Feature", "geometry": {"type": "LineString", "coordinates": [[-32.410684, -3.842015], [-32.41066, -3.842726]]}, "properties": {"via": "PRACA SAOMIGUEL", "info": {"tot_res": 0, "tot_geral": 0}}},
{"type": "Feature", "geometry": {"type": "LineString", "coordinates": [[-32.410684, -3.842015], [-32.410645, -3.841975], [-32.410584, -3.841951], [-32.410538, -3.841983], [-32.4105, -3.842052]]}, "properties": {"via": "PRACA SAOMIGUEL", "info": {"tot_res": 0, "tot_geral": 0}}},
{"type": "Feature", "geometry": {"type": "LineString", "coordinates": [[-32.4105, -3.842052], [-32.410516, -3.842768]]}, "properties": {"via": "PRACA SAOMIGUEL", "info": {"tot_res": 0, "tot_geral": 0}}},
{"type": "Feature", "geometry": {"type": "LineString", "coordinates": [[-32.410516, -3.842768], [-32.41057, -3.842791], [-32.410621, -3.842783], [-32.41066, -3.842726]]}, "properties": {"via": "PRACA SAOMIGUEL", "info": {"tot_res": 0, "tot_geral": 0}}},
{"type": "Feature", "geometry": {"type": "LineString", "coordinates": [[-32.42549, -3.84897], [-32.425476, -3.84883], [-32.425564, -3.848571], [-32.425826, -3.848253]]}, "properties": {"via": "RUA DOUTORJOSE ALBERTO PULGA NLOBEY", "info": {"tot_res": 6, "tot_geral": 7}}},
{"type": "Feature", "geometry": {"type": "LineString", "coordinates": [[-32.425847, -3.848222], [-32.426065, -3.848009], [-32.42625, -3.84783], [-32.426477, -3.847597]]}, "properties": {"via": "RUA DOUTORJOSE ALBERTO PULGA NLOBEY", "info": {"tot_res": 0, "tot_geral": 0}}},
{"type": "Feature", "geometry": {"type": "LineString", "coordinates": [[-32.42655, -3.847656], [-32.425771, -3.848422], [-32.425682, -3.848532], [-32.425634, -3.848606], [-32.425574, -3.848699], [-32.425549, -3.848788], [-32.425544, -3.848878], [-32.425564, -3.848949], [-32.425578, -3.849005], [-32.425629, -3.849094]]}, "properties": {"via": "RUA DOUTORJOSE ALBERTO PULGA NLOBEY", "info": {"tot_res": 5, "tot_geral": 6}}},
{"type": "Feature", "geometry": {"type": "LineString", "coordinates": [[-32.425881, -3.848548], [-32.425799, -3.848732], [-32.425735, -3.848885], [-32.425629, -3.849094]]}, "properties": {"via": "RUA DOUTORJOSE ALBERTO PULGA NLOBEY", "info": {"tot_res": 10, "tot_geral": 12}}},
{"type": "Feature", "geometry": {"type": "LineString", "coordinates": [[-32.425956, -3.848523], [-32.425842, -3.848767], [-32.425767, -3.848948], [-32.425703, -3.849122], [-32.425691, -3.849186], [-32.425736, -3.849246], [-32.425752, -3.84933], [-32.425745, -3.849422], [-32.425827, -3.849528]]}, "properties": {"via": "RUA DOUTORJOSE ALBERTO PULGA NLOBEY", "info": {"tot_res": 4, "tot_geral": 4}}},
{"type": "Feature", "geometry": {"type": "LineString", "coordinates": [[-32.425827, -3.849528], [-32.426057, -3.849289], [-32.42626, -3.849079], [-32.426455, -3.848895], [-32.426747, -3.848629], [-32.42738, -3.848029], [-32.427673, -3.84776], [-32.427975, -3.847513], [-32.428465, -3.847141], [-32.428559, -3.846988]]}, "properties": {"info": {"tot_res": 4, "tot_geral": 9}}},
{"type": "Feature", "geometry": {"type": "LineString", "coordinates": [[-32.42818, -3.846683], [-32.4284, -3.846779], [-32.428521, -3.846843], [-32.4286, -3.846903]]}, "properties": {"info": {"tot_res": 3, "tot_geral": 4}}},
{"type": "Feature", "geometry": {"type": "LineString", "coordinates": [[-32.4286, -3.846903], [-32.428674, -3.846783], [-32.428739, -3.846658], [-32.428823, -3.846533], [-32.428872, -3.84646], [-32.428928, -3.846331], [-32.428916, -3.846243], [-32.428846, -3.846125]]}, "properties": {"info": {"tot_res": 0, "tot_geral": 0}}},
{"type": "Feature", "geometry": {"type": "LineString", "coordinates": [[-32.428846, -3.846125], [-32.428699, -3.84607], [-32.428554, -3.846037], [-32.428399, -3.84601], [-32.427988, -3.845901], [-32.427584, -3.845795], [-32.42725, -3.845596], [-32.427054, -3.845449], [-32.426565, -3.845146], [-32.426413, -3.84505]]}, "properties": {"info": {"tot_res": 1, "tot_geral": 2}}},
{"type": "Feature", "geometry": {"type": "LineString", "coordinates": [[-32.426614, -3.84499], [-32.427236, -3.845474], [-32.427337, -3.845578], [-32.427472, -3.845644], [-32.427686, -3.845762], [-32.427976, -3.845823], [-32.42827, -3.845885], [-32.428582, -3.845944], [-32.428795, -3.845997], [-32.428892, -3.846009], [-32.428964, -3.846126], [-32.429001, -3.846182], [-32.429049, -3.846259], [-32.429057, -3.846295], [-32.429041, -3.846388], [-32.428972, -3.84648], [-32.428823, -3.846706], [-32.428622, -3.847077], [-32.428485, -3.847242], [-32.428263, -3.847439], [-32.42815, -3.847536], [-32.427884, -3.847721], [-32.427542, -3.848016], [-32.427344, -3.848197], [-32.42705, -3.848459], [-32.426784, -3.848709], [-32.426257, -3.849216]]}, "properties": {"info": {"tot_res": 2, "tot_geral": 7}}},
{"type": "Feature", "geometry": {"type": "LineString", "coordinates": [[-32.426814, -3.849763], [-32.426257, -3.849216]]}, "properties": {"info": {"tot_res": 0, "tot_geral": 0}}},
{"type": "Feature", "geometry": {"type": "LineString", "coordinates": [[-32.426814, -3.849763], [-32.427988, -3.849705], [-32.428554, -3.849362], [-32.429399, -3.849236], [-32.430842, -3.849065]]}, "properties": {"info": {"tot_res": 0, "tot_geral": 0}}},
{"type": "Feature", "geometry": {"type": "LineString", "coordinates": [[-32.426196, -3.849273], [-32.425789, -3.849652], [-32.425737, -3.849731], [-32.425766, -3.849802]]}, "properties": {"info": {"tot_res": 0, "tot_geral": 2}}},
{"type": "Feature", "geometry": {"type": "LineString", "coordinates": [[-32.426742, -3.849792], [-32.425766, -3.849802]]}, "properties": {"info": {"tot_res": 0, "tot_geral": 0}}},
{"type": "Feature", "geometry": {"type": "LineString", "coordinates": [[-32.426742, -3.849792], [-32.426196, -3.849273]]}, "properties": {"info": {"tot_res": 0, "tot_geral": 0}}},
{"type": "Feature", "geometry": {"type": "LineString", "coordinates": [[-32.406749, -3.843516], [-32.406819, -3.842957], [-32.406929, -3.842285], [-32.406992, -3.84219], [-32.407029, -3.841439], [-32.407073, -3.841184]]}, "properties": {"info": {}}},
{"type": "Feature", "geometry": {"type": "LineString", "coordinates": [[-32.409584, -3.844976], [-32.409614, -3.844854], [-32.409706, -3.844652], [-32.409903, -3.844124], [-32.409993, -3.843747], [-32.410108, -3.843287], [-32.410158, -3.843135], [-32.410219, -3.842956], [-32.410269, -3.842839], [-32.410374, -3.842668], [-32.410421, -3.842377]]}, "properties": {"info": {}}},
{"type": "Feature", "geometry": {"type": "LineString", "coordinates": [[-32.404406, -3.848262], [-32.404344, -3.848272], [-32.404278, -3.848234], [-32.404214, -3.848147], [-32.404128, -3.848059], [-32.404099, -3.84802], [-32.40409, -3.847899], [-32.40411, -3.847871], [-32.404164, -3.847824], [-32.404202, -3.847803], [-32.404237, -3.84779], [-32.404379, -3.84777]]}, "properties": {"info": {}}},
{"type": "Feature", "geometry": {"type": "LineString", "coordinates": [[-32.404379, -3.84777], [-32.404413, -3.847985], [-32.404433, -3.848168], [-32.404406, -3.848262]]}, "properties": {"info": {}}},
{"type": "Feature", "geometry": {"type": "LineString", "coordinates": [[-32.406702, -3.844408], [-32.406662, -3.84429], [-32.40666, -3.844159], [-32.406723, -3.843645]]}, "properties": {"info": {}}},
{"type": "Feature", "geometry": {"type": "LineString", "coordinates": [[-32.406574, -3.846203], [-32.406963, -3.845919], [-32.407129, -3.84579], [-32.407342, -3.845638], [-32.407365, -3.845556], [-32.407315, -3.845399], [-32.407195, -3.845186], [-32.407231, -3.844923], [-32.407289, -3.844805], [-32.407292, -3.844731]]}, "properties": {"info": {}}},
{"type": "Feature", "geometry": {"type": "LineString", "coordinates": [[-32.406728, -3.844591], [-32.407292, -3.844731]]}, "properties": {"info": {}}},
{"type": "Feature", "geometry": {"type": "LineString", "coordinates": [[-32.407381, -3.844742], [-32.407286, -3.84491], [-32.407255, -3.845125], [-32.407281, -3.845246], [-32.407407, -3.845525], [-32.407439, -3.845646], [-32.407368, -3.845696], [-32.407116, -3.845837], [-32.407047, -3.845914], [-32.407008, -3.845987], [-32.406637, -3.846242]]}, "properties": {"info": {}}},
{"type": "Feature", "geometry": {"type": "LineString", "coordinates": [[-32.407381, -3.844742], [-32.409448, -3.845132]]}, "properties": {"info": {}}},
{"type": "Feature", "geometry": {"type": "LineString", "coordinates": [[-32.406574, -3.846203], [-32.406049, -3.845556], [-32.406054, -3.845481]]}, "properties": {"info": {}}},
{"type": "Feature", "geometry": {"type": "LineString", "coordinates": [[-32.404285, -3.847401], [-32.404048, -3.847525], [-32.403881, -3.847633]]}, "properties": {"info": {}}},
{"type": "Feature", "geometry": {"type": "LineString", "coordinates": [[-32.410519, -3.841842], [-32.410721, -3.841756]]}, "properties": {"via": "RUA SAOMIGUEL", "info": {"tot_res": 0, "tot_geral": 1}}},
{"type": "Feature", "geometry": {"type": "LineString", "coordinates": [[-32.410721, -3.841756], [-32.410792, -3.841125], [-32.410809, -3.840765]]}, "properties": {"via": "RUA SAOMIGUEL", "info": {"tot_res": 4, "tot_geral": 8}}},
{"type": "Feature", "geometry": {"type": "LineString", "coordinates": [[-32.410809, -3.840765], [-32.410704, -3.840614], [-32.4106, -3.84042], [-32.410492, -3.840419], [-32.410356, -3.840437], [-32.410304, -3.840257], [-32.410175, -3.839875], [-32.410337, -3.839802], [-32.41047, -3.839765]]}, "properties": {"via": "RUA SAOMIGUEL", "info": {"tot_res": 5, "tot_geral": 7}}},
{"type": "Feature", "geometry": {"type": "LineString", "coordinates": [[-32.407073, -3.841184], [-32.4072, -3.841081], [-32.407364, -3.840965], [-32.407488, -3.840877], [-32.40771, -3.840713], [-32.407893, -3.840611], [-32.408079, -3.840542], [-32.408385, -3.840421], [-32.408648, -3.840348], [-32.409067, -3.840157], [-32.409501, -3.839956], [-32.409596, -3.839914], [-32.409834, -3.8398]]}, "properties": {"info": {"tot_res": 4, "tot_geral": 4}}},
{"type": "Feature", "geometry": {"type": "LineString", "coordinates": [[-32.410519, -3.841842], [-32.410398, -3.841844], [-32.409985, -3.84173], [-32.40944, -3.841599], [-32.409326, -3.841724], [-32.408772, -3.841713], [-32.408533, -3.841678], [-32.408447, -3.841855], [-32.408212, -3.841947], [-32.408025, -3.842034], [-32.407812, -3.842158], [-32.407616, -3.842276], [-32.407502, -3.842412], [-32.407389, -3.842622], [-32.407246, -3.842852], [-32.407123, -3.843004], [-32.407014, -3.843186], [-32.406908, -3.84333], [-32.406806, -3.84345], [-32.406749, -3.843516]]}, "properties": {"info": {"tot_res": 0, "tot_geral": 0}}},
{"type": "Feature", "geometry": {"type": "LineString", "coordinates": [[-32.405494, -3.846308], [-32.404939, -3.846769], [-32.404307, -3.847229], [-32.403881, -3.847513], [-32.403791, -3.847613]]}, "properties": {"via": "RUA MAJORCOSTA", "info": {"tot_res": 22, "tot_geral": 28}}},
{"type": "Feature", "geometry": {"type": "LineString", "coordinates": [[-32.406542, -3.843922], [-32.406385, -3.844401], [-32.406096, -3.845178], [-32.405964, -3.845413], [-32.405879, -3.845599], [-32.405761, -3.84586], [-32.405494, -3.846308]]}, "properties": {"via": "RUA MAJORCOSTA", "info": {"tot_res": 16, "tot_geral": 19}}},
{"type": "Feature", "geometry": {"type": "LineString", "coordinates": [[-32.406062, -3.843853], [-32.406362, -3.843885], [-32.406542, -3.843922]]}, "properties": {"via": "RUA MAJORCOSTA", "info": {"tot_res": 0, "tot_geral": 0}}},
{"type": "Feature", "geometry": {"type": "LineString", "coordinates": [[-32.406062, -3.843853], [-32.405803, -3.844515]]}, "properties": {"via": "RUA MAJORCOSTA", "info": {"tot_res": 3, "tot_geral": 3}}},
{"type": "Feature", "geometry": {"type": "LineString", "coordinates": [[-32.405709, -3.844478], [-32.405803, -3.844515]]}, "properties": {"via": "RUA MAJORCOSTA", "info": {"tot_res": 0, "tot_geral": 0}}},
{"type": "Feature", "geometry": {"type": "LineString", "coordinates": [[-32.405927, -3.843808], [-32.405868, -3.844015], [-32.405794, -3.844221], [-32.405709, -3.844478]]}, "properties": {"via": "RUA MAJORCOSTA", "info": {"tot_res": 7, "tot_geral": 8}}},
{"type": "Feature", "geometry": {"type": "LineString", "coordinates": [[-32.406723, -3.843645], [-32.407384, -3.842766], [-32.40762, -3.842377], [-32.408041, -3.842086], [-32.408452, -3.841929], [-32.408504, -3.841914], [-32.408594, -3.841757], [-32.408816, -3.841797], [-32.408979, -3.84179], [-32.409395, -3.841804], [-32.409458, -3.841685], [-32.409873, -3.841751], [-32.410124, -3.841852], [-32.410376, -3.841908], [-32.410464, -3.841923]]}, "properties": {"info": {"tot_res": 1, "tot_geral": 4}}},
{"type": "Feature", "geometry": {"type": "LineString", "coordinates": [[-32.40953, -3.844959], [-32.409224, -3.84491], [-32.409073, -3.844874], [-32.408806, -3.844835], [-32.408485, -3.844785], [-32.408141, -3.844735], [-32.407671, -3.84466], [-32.406822, -3.844494], [-32.406702, -3.844408]]}, "properties": {"info": {"tot_res": 11, "tot_geral": 14}}},
{"type": "Feature", "geometry": {"type": "LineString", "coordinates": [[-32.40953, -3.844959], [-32.409547, -3.84484], [-32.409553, -3.844784], [-32.409586, -3.844705], [-32.409634, -3.844612], [-32.409687, -3.84452], [-32.409735, -3.844408], [-32.409811, -3.844197], [-32.409845, -3.84402], [-32.409898, -3.843871], [-32.409937, -3.843762], [-32.409965, -3.843633], [-32.410002, -3.843478], [-32.410047, -3.843301], [-32.410061, -3.843186], [-32.410094, -3.84308], [-32.410128, -3.842995], [-32.410148, -3.842917], [-32.41018, -3.84273], [-32.410196, -3.842611], [-32.410212, -3.842499], [-32.410245, -3.842364], [-32.41027, -3.842276], [-32.410303, -3.842166], [-32.410357, -3.842086], [-32.410412, -3.841993], [-32.410464, -3.841923]]}, "properties": {"info": {"tot_res": 10, "tot_geral": 14}}},
{"type": "Feature", "geometry": {"type": "LineString", "coordinates": [[-32.410421, -3.842377], [-32.410449, -3.842496], [-32.410433, -3.84298], [-32.41043, -3.843323], [-32.410451, -3.843479], [-32.4105, -3.843917], [-32.410539, -3.844086], [-32.41082, -3.844593]]}, "properties": {"via": "RUA SAOMIGUEL", "info": {"tot_res": 1, "tot_geral": 2}}},
{"type": "Feature", "geometry": {"type": "LineString", "coordinates": [[-32.40976, -3.845025], [-32.409584, -3.844976]]}, "properties": {"info": {"tot_res": 0, "tot_geral": 0}}},
{"type": "Feature", "geometry": {"type": "LineString", "coordinates": [[-32.41082, -3.844593], [-32.410726, -3.844643], [-32.410517, -3.844763], [-32.410295, -3.844817], [-32.410096, -3.84489], [-32.409955, -3.844917], [-32.409832, -3.844954], [-32.40976, -3.845025]]}, "properties": {"info": {"tot_res": 0, "tot_geral": 0}}},
{"type": "Feature", "geometry": {"type": "LineString", "coordinates": [[-32.410949, -3.844684], [-32.410725, -3.844748], [-32.410512, -3.844882], [-32.410184, -3.844958], [-32.409964, -3.845006], [-32.409812, -3.845074]]}, "properties": {"info": {"tot_res": 0, "tot_geral": 0}}},
{"type": "Feature", "geometry": {"type": "LineString", "coordinates": [[-32.411902, -3.846003], [-32.409812, -3.845074]]}, "properties": {"info": {"tot_res": 0, "tot_geral": 0}}},
{"type": "Feature", "geometry": {"type": "LineString", "coordinates": [[-32.411902, -3.846003], [-32.410949, -3.844684]]}, "properties": {"via": "RUA SAOMIGUEL", "info": {"tot_res": 0, "tot_geral": 0}}},
{"type": "Feature", "geometry": {"type": "LineString", "coordinates": [[-32.406054, -3.845481], [-32.406384, -3.844781], [-32.406437, -3.84467], [-32.406539, -3.844614], [-32.406728, -3.844591]]}, "properties": {"info": {"tot_res": 3, "tot_geral": 7}}},
{"type": "Feature", "geometry": {"type": "LineString", "coordinates": [[-32.406637, -3.846242], [-32.407019, -3.846703], [-32.407208, -3.846957]]}, "properties": {"info": {"tot_res": 10, "tot_geral": 18}}},
{"type": "Feature", "geometry": {"type": "LineString", "coordinates": [[-32.407208, -3.846957], [-32.408855, -3.845645]]}, "properties": {"via": "RUA DOMJUQUINHA I", "info": {"tot_res": 10, "tot_geral": 15}}},
{"type": "Feature", "geometry": {"type": "LineString", "coordinates": [[-32.408855, -3.845645], [-32.408986, -3.845502], [-32.409153, -3.845376], [-32.409276, -3.84525], [-32.409448, -3.845132]]}, "properties": {"via": "RUA DOMJUQUINHA I", "info": {"tot_res": 7, "tot_geral": 9}}},
{"type": "Feature", "geometry": {"type": "LineString", "coordinates": [[-32.404285, -3.847401], [-32.404371, -3.84768]]}, "properties": {"info": {"tot_res": 0, "tot_geral": 0}}},
{"type": "Feature", "geometry": {"type": "LineString", "coordinates": [[-32.404371, -3.84768], [-32.404321, -3.847701], [-32.404226, -3.847714], [-32.404132, -3.847732], [-32.404015, -3.847847], [-32.404042, -3.84806], [-32.404268, -3.848294], [-32.404377, -3.848345]]}, "properties": {"info": {"tot_res": 5, "tot_geral": 5}}},
{"type": "Feature", "geometry": {"type": "LineString", "coordinates": [[-32.407138, -3.847268], [-32.40741, -3.847703]]}, "properties": {"info": {}}},
{"type": "Feature", "geometry": {"type": "LineString", "coordinates": [[-32.414876, -3.847757], [-32.415357, -3.848026]]}, "properties": {"info": {}}},
{"type": "Feature", "geometry": {"type": "LineString", "coordinates": [[-32.411892, -3.848474], [-32.411736, -3.848411], [-32.411163, -3.848874], [-32.411069, -3.848989], [-32.411111, -3.849038]]}, "properties": {"info": {}}},
{"type": "Feature", "geometry": {"type": "LineString", "coordinates": [[-32.405385, -3.847502], [-32.405375, -3.847575], [-32.405296, -3.847627], [-32.405181, -3.847682], [-32.405068, -3.847685]]}, "properties": {"info": {}}},
{"type": "Feature", "geometry": {"type": "LineString", "coordinates": [[-32.404879, -3.847485], [-32.40497, -3.847627], [-32.404989, -3.847722], [-32.405036, -3.847848], [-32.405057, -3.848016]]}, "properties": {"info": {}}},
{"type": "Feature", "geometry": {"type": "LineString", "coordinates": [[-32.405385, -3.847502], [-32.405175, -3.847267]]}, "properties": {"info": {}}},
{"type": "Feature", "geometry": {"type": "LineString", "coordinates": [[-32.411906, -3.848643], [-32.412118, -3.848922]]}, "properties": {"info": {}}},
{"type": "Feature", "geometry": {"type": "LineString", "coordinates": [[-32.405462, -3.847613], [-32.405512, -3.847703], [-32.40559, -3.847798]]}, "properties": {"info": {}}},
{"type": "Feature", "geometry": {"type": "LineString", "coordinates": [[-32.405136, -3.8472], [-32.404894, -3.847401]]}, "properties": {"info": {}}},
{"type": "Feature", "geometry": {"type": "LineString", "coordinates": [[-32.404962, -3.847456], [-32.405044, -3.847588], [-32.405068, -3.847685]]}, "properties": {"info": {}}},
{"type": "Feature", "geometry": {"type": "LineString", "coordinates": [[-32.407363, -3.84775], [-32.407045, -3.84729]]}, "properties": {"info": {}}},
{"type": "Feature", "geometry": {"type": "LineString", "coordinates": [[-32.404962, -3.847456], [-32.405065, -3.847354], [-32.405175, -3.847267]]}, "properties": {"info": {}}},
{"type": "Feature", "geometry": {"type": "LineString", "coordinates": [[-32.412033, -3.848933], [-32.411812, -3.848675], [-32.411913, -3.84855], [-32.411816, -3.848544], [-32.411718, -3.848544], [-32.411232, -3.849038], [-32.411111, -3.849038]]}, "properties": {"info": {}}},
{"type": "Feature", "geometry": {"type": "LineString", "coordinates": [[-32.405111, -3.847809], [-32.40517, -3.847971]]}, "properties": {"info": {}}},
{"type": "Feature", "geometry": {"type": "LineString", "coordinates": [[-32.407045, -3.84729], [-32.406672, -3.847511]]}, "properties": {"info": {}}},
{"type": "Feature", "geometry": {"type": "LineString", "coordinates": [[-32.412028, -3.848415], [-32.411384, -3.847696], [-32.411384, -3.84766]]}, "properties": {"info": {}}},
{"type": "Feature", "geometry": {"type": "LineString", "coordinates": [[-32.413742, -3.847099], [-32.413413, -3.846898]]}, "properties": {"info": {}}},
{"type": "Feature", "geometry": {"type": "LineString", "coordinates": [[-32.406619, -3.847443], [-32.406898, -3.847246], [-32.407068, -3.84723], [-32.407174, -3.847095]]}, "properties": {"info": {}}},
{"type": "Feature", "geometry": {"type": "LineString", "coordinates": [[-32.410287, -3.847749], [-32.410261, -3.848361], [-32.410161, -3.848411], [-32.410153, -3.848547], [-32.410294, -3.848526]]}, "properties": {"info": {"tot_res": 5, "tot_geral": 6}}},
{"type": "Feature", "geometry": {"type": "LineString", "coordinates": [[-32.41067, -3.847704], [-32.410287, -3.847749]]}, "properties": {"info": {"tot_res": 0, "tot_geral": 1}}},
{"type": "Feature", "geometry": {"type": "LineString", "coordinates": [[-32.41067, -3.847704], [-32.410672, -3.846765]]}, "properties": {"info": {"tot_res": 5, "tot_geral": 5}}},
{"type": "Feature", "geometry": {"type": "LineString", "coordinates": [[-32.411303, -3.846757], [-32.410672, -3.846765]]}, "properties": {"info": {"tot_res": 0, "tot_geral": 0}}},
{"type": "Feature", "geometry": {"type": "LineString", "coordinates": [[-32.41136, -3.845902], [-32.411312, -3.84607], [-32.411303, -3.846757]]}, "properties": {"info": {"tot_res": 1, "tot_geral": 3}}},
{"type": "Feature", "geometry": {"type": "LineString", "coordinates": [[-32.41136, -3.845902], [-32.410783, -3.845626], [-32.409983, -3.845274], [-32.409635, -3.845138]]}, "properties": {"info": {"tot_res": 0, "tot_geral": 2}}},
{"type": "Feature", "geometry": {"type": "LineString", "coordinates": [[-32.40896, -3.845737], [-32.409182, -3.845536], [-32.409635, -3.845138]]}, "properties": {"via": "RUA DOMJUQUINHA I", "info": {"tot_res": 11, "tot_geral": 24}}},
{"type": "Feature", "geometry": {"type": "LineString", "coordinates": [[-32.40896, -3.845737], [-32.407324, -3.847074], [-32.407138, -3.847268]]}, "properties": {"via": "RUA DOMJUQUINHA I", "info": {"tot_res": 0, "tot_geral": 0}}},
{"type": "Feature", "geometry": {"type": "LineString", "coordinates": [[-32.407174, -3.847095], [-32.406967, -3.846818], [-32.406705, -3.846471], [-32.406438, -3.846183]]}, "properties": {"info": {"tot_res": 1, "tot_geral": 4}}},
{"type": "Feature", "geometry": {"type": "LineString", "coordinates": [[-32.406149, -3.846431], [-32.406438, -3.846183]]}, "properties": {"info": {"tot_res": 0, "tot_geral": 2}}},
{"type": "Feature", "geometry": {"type": "LineString", "coordinates": [[-32.406149, -3.846431], [-32.405755, -3.84599]]}, "properties": {"info": {"tot_res": 0, "tot_geral": 1}}},
{"type": "Feature", "geometry": {"type": "LineString", "coordinates": [[-32.405755, -3.84599], [-32.405614, -3.846323]]}, "properties": {"via": "RUA MAJORCOSTA", "info": {"tot_res": 0, "tot_geral": 0}}},
{"type": "Feature", "geometry": {"type": "LineString", "coordinates": [[-32.405614, -3.846323], [-32.405011, -3.846845]]}, "properties": {"via": "RUA MAJORCOSTA", "info": {"tot_res": 0, "tot_geral": 0}}},
{"type": "Feature", "geometry": {"type": "LineString", "coordinates": [[-32.405625, -3.847699], [-32.405011, -3.846845]]}, "properties": {"info": {"tot_res": 0, "tot_geral": 0}}},
{"type": "Feature", "geometry": {"type": "LineString", "coordinates": [[-32.405462, -3.847613], [-32.405346, -3.8477], [-32.405111, -3.847809]]}, "properties": {"info": {"tot_res": 0, "tot_geral": 0}}},
{"type": "Feature", "geometry": {"type": "LineString", "coordinates": [[-32.405136, -3.8472], [-32.404925, -3.846917]]}, "properties": {"info": {"tot_res": 6, "tot_geral": 9}}},
{"type": "Feature", "geometry": {"type": "LineString", "coordinates": [[-32.404925, -3.846917], [-32.404346, -3.847374]]}, "properties": {"via": "RUA MAJORCOSTA", "info": {"tot_res": 0, "tot_geral": 0}}},
{"type": "Feature", "geometry": {"type": "LineString", "coordinates": [[-32.404346, -3.847374], [-32.404578, -3.847351], [-32.404894, -3.847401]]}, "properties": {"info": {"tot_res": 3, "tot_geral": 3}}},
{"type": "Feature", "geometry": {"type": "LineString", "coordinates": [[-32.405806, -3.84591], [-32.405991, -3.845618]]}, "properties": {"via": "RUA MAJORCOSTA", "info": {"tot_res": 0, "tot_geral": 2}}},
{"type": "Feature", "geometry": {"type": "LineString", "coordinates": [[-32.406153, -3.846307], [-32.405806, -3.84591]]}, "properties": {"info": {"tot_res": 0, "tot_geral": 0}}},
{"type": "Feature", "geometry": {"type": "LineString", "coordinates": [[-32.406407, -3.846123], [-32.406153, -3.846307]]}, "properties": {"info": {"tot_res": 0, "tot_geral": 0}}},
{"type": "Feature", "geometry": {"type": "LineString", "coordinates": [[-32.406407, -3.846123], [-32.405991, -3.845618]]}, "properties": {"info": {"tot_res": 0, "tot_geral": 0}}},
{"type": "Feature", "geometry": {"type": "LineString", "coordinates": [[-32.404879, -3.847485], [-32.404391, -3.847441]]}, "properties": {"info": {"tot_res": 6, "tot_geral": 7}}},
{"type": "Feature", "geometry": {"type": "LineString", "coordinates": [[-32.404555, -3.848204], [-32.404518, -3.848096], [-32.404391, -3.847441]]}, "properties": {"info": {"tot_res": 7, "tot_geral": 8}}},
{"type": "Feature", "geometry": {"type": "LineString", "coordinates": [[-32.410884, -3.847783], [-32.410909, -3.848196], [-32.410988, -3.848188]]}, "properties": {"info": {"tot_res": 0, "tot_geral": 1}}},
{"type": "Feature", "geometry": {"type": "LineString", "coordinates": [[-32.410381, -3.847845], [-32.410499, -3.847856], [-32.410696, -3.847803], [-32.410884, -3.847783]]}, "properties": {"info": {"tot_res": 0, "tot_geral": 1}}},
{"type": "Feature", "geometry": {"type": "LineString", "coordinates": [[-32.410294, -3.848526], [-32.410385, -3.848452], [-32.410381, -3.847845]]}, "properties": {"info": {"tot_res": 1, "tot_geral": 3}}},
{"type": "Feature", "geometry": {"type": "LineString", "coordinates": [[-32.412582, -3.847916], [-32.412294, -3.848233], [-32.412138, -3.848318], [-32.412028, -3.848415]]}, "properties": {"info": {"tot_res": 11, "tot_geral": 14}}},
{"type": "Feature", "geometry": {"type": "LineString", "coordinates": [[-32.412577, -3.847613], [-32.412582, -3.847916]]}, "properties": {"info": {"tot_res": 1, "tot_geral": 1}}},
{"type": "Feature", "geometry": {"type": "LineString", "coordinates": [[-32.412577, -3.847613], [-32.411384, -3.84766]]}, "properties": {"info": {"tot_res": 1, "tot_geral": 3}}},
{"type": "Feature", "geometry": {"type": "LineString", "coordinates": [[-32.411331, -3.846838], [-32.411294, -3.847746], [-32.411892, -3.848474]]}, "properties": {"info": {"tot_res": 3, "tot_geral": 5}}},
{"type": "Feature", "geometry": {"type": "LineString", "coordinates": [[-32.411331, -3.846838], [-32.411042, -3.846841], [-32.410788, -3.846851]]}, "properties": {"info": {"tot_res": 0, "tot_geral": 0}}},
{"type": "Feature", "geometry": {"type": "LineString", "coordinates": [[-32.410788, -3.846851], [-32.410782, -3.84767]]}, "properties": {"info": {"tot_res": 0, "tot_geral": 6}}},
{"type": "Feature", "geometry": {"type": "LineString", "coordinates": [[-32.410988, -3.848188], [-32.411078, -3.848117], [-32.411028, -3.848042], [-32.410998, -3.847996], [-32.410971, -3.847712], [-32.410782, -3.84767]]}, "properties": {"info": {"tot_res": 1, "tot_geral": 2}}},
{"type": "Feature", "geometry": {"type": "LineString", "coordinates": [[-32.412603, -3.848056], [-32.412575, -3.84848], [-32.412394, -3.848524], [-32.412409, -3.848633], [-32.412521, -3.848668]]}, "properties": {"info": {"tot_res": 2, "tot_geral": 3}}},
{"type": "Feature", "geometry": {"type": "LineString", "coordinates": [[-32.412603, -3.848056], [-32.412205, -3.848387], [-32.411906, -3.848643]]}, "properties": {"info": {"tot_res": 3, "tot_geral": 7}}},
{"type": "Feature", "geometry": {"type": "LineString", "coordinates": [[-32.413198, -3.847903], [-32.413203, -3.848569], [-32.413049, -3.848821], [-32.413201, -3.848893]]}, "properties": {"info": {"tot_res": 9, "tot_geral": 9}}},
{"type": "Feature", "geometry": {"type": "LineString", "coordinates": [[-32.413198, -3.847903], [-32.412693, -3.847901]]}, "properties": {"info": {"tot_res": 0, "tot_geral": 0}}},
{"type": "Feature", "geometry": {"type": "LineString", "coordinates": [[-32.412693, -3.847901], [-32.412667, -3.848608]]}, "properties": {"info": {"tot_res": 2, "tot_geral": 4}}},
{"type": "Feature", "geometry": {"type": "LineString", "coordinates": [[-32.412847, -3.846608], [-32.412147, -3.846223], [-32.411871, -3.846112], [-32.411467, -3.845925]]}, "properties": {"info": {"tot_res": 4, "tot_geral": 6}}},
{"type": "Feature", "geometry": {"type": "LineString", "coordinates": [[-32.411467, -3.845925], [-32.411445, -3.847493]]}, "properties": {"info": {"tot_res": 5, "tot_geral": 7}}},
{"type": "Feature", "geometry": {"type": "LineString", "coordinates": [[-32.411445, -3.847493], [-32.411945, -3.847499]]}, "properties": {"info": {"tot_res": 0, "tot_geral": 1}}},
{"type": "Feature", "geometry": {"type": "LineString", "coordinates": [[-32.411959, -3.846693], [-32.411945, -3.847499]]}, "properties": {"info": {"tot_res": 2, "tot_geral": 5}}},
{"type": "Feature", "geometry": {"type": "LineString", "coordinates": [[-32.4121, -3.846683], [-32.411959, -3.846693]]}, "properties": {"info": {"tot_res": 0, "tot_geral": 0}}},
{"type": "Feature", "geometry": {"type": "LineString", "coordinates": [[-32.412027, -3.847488], [-32.412035, -3.846864], [-32.412115, -3.846808], [-32.4121, -3.846683]]}, "properties": {"info": {"tot_res": 0, "tot_geral": 5}}},
{"type": "Feature", "geometry": {"type": "LineString", "coordinates": [[-32.412563, -3.847503], [-32.412027, -3.847488]]}, "properties": {"info": {"tot_res": 0, "tot_geral": 0}}},
{"type": "Feature", "geometry": {"type": "LineString", "coordinates": [[-32.412847, -3.846608], [-32.412602, -3.847031], [-32.412581, -3.847078], [-32.412563, -3.847503]]}, "properties": {"info": {"tot_res": 1, "tot_geral": 6}}},
{"type": "Feature", "geometry": {"type": "LineString", "coordinates": [[-32.414876, -3.847757], [-32.414621, -3.848053], [-32.414282, -3.848335], [-32.413824, -3.848797], [-32.413703, -3.848854], [-32.413545, -3.84901], [-32.413508, -3.849161], [-32.41339, -3.84937]]}, "properties": {"info": {"tot_res": 23, "tot_geral": 26}}},
{"type": "Feature", "geometry": {"type": "LineString", "coordinates": [[-32.413381, -3.849214], [-32.413434, -3.849062], [-32.413563, -3.848903], [-32.413875, -3.848602], [-32.413739, -3.848246], [-32.413684, -3.847239], [-32.413742, -3.847099]]}, "properties": {"info": {"tot_res": 4, "tot_geral": 4}}},
{"type": "Feature", "geometry": {"type": "LineString", "coordinates": [[-32.413339, -3.846863], [-32.412933, -3.846631]]}, "properties": {"info": {"tot_res": 1, "tot_geral": 2}}},
{"type": "Feature", "geometry": {"type": "LineString", "coordinates": [[-32.412933, -3.846631], [-32.412716, -3.8471], [-32.412686, -3.847791]]}, "properties": {"info": {"tot_res": 3, "tot_geral": 4}}},
{"type": "Feature", "geometry": {"type": "LineString", "coordinates": [[-32.413207, -3.847802], [-32.412686, -3.847791]]}, "properties": {"info": {"tot_res": 0, "tot_geral": 2}}},
{"type": "Feature", "geometry": {"type": "LineString", "coordinates": [[-32.413207, -3.847802], [-32.413259, -3.847081], [-32.413339, -3.846863]]}, "properties": {"info": {"tot_res": 1, "tot_geral": 1}}},
{"type": "Feature", "geometry": {"type": "LineString", "coordinates": [[-32.413413, -3.846898], [-32.413339, -3.847112], [-32.413315, -3.848769], [-32.413201, -3.848893]]}, "properties": {"info": {"tot_res": 5, "tot_geral": 11}}},
{"type": "Feature", "geometry": {"type": "LineString", "coordinates": [[-32.414816, -3.847713], [-32.413798, -3.847132]]}, "properties": {"info": {"tot_res": 3, "tot_geral": 4}}},
{"type": "Feature", "geometry": {"type": "LineString", "coordinates": [[-32.41392, -3.848529], [-32.413836, -3.848317], [-32.413786, -3.848069], [-32.413801, -3.847802], [-32.413773, -3.847389], [-32.413798, -3.847132]]}, "properties": {"info": {"tot_res": 4, "tot_geral": 5}}},
{"type": "Feature", "geometry": {"type": "LineString", "coordinates": [[-32.414816, -3.847713], [-32.414605, -3.847964], [-32.41412, -3.848398], [-32.41392, -3.848529]]}, "properties": {"info": {"tot_res": 5, "tot_geral": 8}}},
{"type": "Feature", "geometry": {"type": "LineString", "coordinates": [[-32.427706, -3.85887], [-32.427681, -3.858684], [-32.427723, -3.858384], [-32.428474, -3.856902], [-32.428648, -3.856897]]}, "properties": {"info": {}}},
{"type": "Feature", "geometry": {"type": "LineString", "coordinates": [[-32.426996, -3.857089], [-32.427413, -3.857627], [-32.427628, -3.857911], [-32.42766, -3.857974], [-32.427765, -3.858074]]}, "properties": {"info": {}}},
{"type": "Feature", "geometry": {"type": "LineString", "coordinates": [[-32.428648, -3.856897], [-32.428737, -3.857086], [-32.428742, -3.857711], [-32.428863, -3.858684], [-32.429018, -3.858924], [-32.429155, -3.859281], [-32.428798, -3.859833], [-32.428076, -3.860941]]}, "properties": {"info": {}}},
{"type": "Feature", "geometry": {"type": "LineString", "coordinates": [[-32.424918, -3.851989], [-32.424893, -3.852287], [-32.424919, -3.852623]]}, "properties": {"info": {}}},
{"type": "Feature", "geometry": {"type": "LineString", "coordinates": [[-32.424814, -3.851987], [-32.424851, -3.852213], [-32.42483, -3.852397], [-32.424835, -3.852555], [-32.424862, -3.852629]]}, "properties": {"info": {}}},
{"type": "Feature", "geometry": {"type": "LineString", "coordinates": [[-32.424814, -3.851987], [-32.424021, -3.851882]]}, "properties": {"info": {}}},
{"type": "Feature", "geometry": {"type": "LineString", "coordinates": [[-32.423921, -3.851861], [-32.423254, -3.851782], [-32.422841, -3.851734]]}, "properties": {"info": {}}},
{"type": "Feature", "geometry": {"type": "LineString", "coordinates": [[-32.424021, -3.851882], [-32.424404, -3.852781]]}, "properties": {"info": {}}},
{"type": "Feature", "geometry": {"type": "LineString", "coordinates": [[-32.428331, -3.856927], [-32.427765, -3.858074]]}, "properties": {"info": {}}},
{"type": "Feature", "geometry": {"type": "LineString", "coordinates": [[-32.423921, -3.851861], [-32.424094, -3.852324], [-32.424326, -3.852812]]}, "properties": {"info": {}}},
{"type": "Feature", "geometry": {"type": "LineString", "coordinates": [[-32.423575, -3.8532], [-32.423494, -3.85303], [-32.423335, -3.852744], [-32.423319, -3.852649], [-32.423267, -3.852539], [-32.423032, -3.852041], [-32.422662, -3.851799], [-32.42217, -3.851611], [-32.421193, -3.8512]]}, "properties": {"info": {"tot_res": 6, "tot_geral": 7}}},
{"type": "Feature", "geometry": {"type": "LineString", "coordinates": [[-32.415407, -3.848062], [-32.416576, -3.848753], [-32.417623, -3.849349], [-32.418425, -3.849812], [-32.419609, -3.850515], [-32.420444, -3.850889], [-32.421193, -3.8512]]}, "properties": {"info": {"tot_res": 0, "tot_geral": 1}}},
{"type": "Feature", "geometry": {"type": "LineString", "coordinates": [[-32.424105, -3.850001], [-32.426013, -3.849934]]}, "properties": {"info": {"tot_res": 0, "tot_geral": 0}}},
{"type": "Feature", "geometry": {"type": "LineString", "coordinates": [[-32.421532, -3.85099], [-32.422418, -3.85009], [-32.422935, -3.850053], [-32.423216, -3.850063], [-32.423513, -3.850024], [-32.423846, -3.850012], [-32.424105, -3.850001]]}, "properties": {"info": {"tot_res": 0, "tot_geral": 0}}},
{"type": "Feature", "geometry": {"type": "LineString", "coordinates": [[-32.426013, -3.849934], [-32.426072, -3.849986], [-32.426193, -3.850093], [-32.426279, -3.850215], [-32.426322, -3.850372], [-32.42635, -3.850472], [-32.426415, -3.850579], [-32.426472, -3.850715], [-32.426565, -3.850879], [-32.426629, -3.851072], [-32.426686, -3.851215], [-32.426686, -3.851344], [-32.426629, -3.851501], [-32.426508, -3.851722], [-32.426389, -3.851901], [-32.426308, -3.85203], [-32.4262, -3.852065], [-32.426065, -3.852051], [-32.425872, -3.852023], [-32.425636, -3.852001], [-32.4254, -3.851965], [-32.425136, -3.85193], [-32.424921, -3.851901], [-32.424721, -3.851851], [-32.424514, -3.851823], [-32.424257, -3.851794], [-32.424071, -3.851758], [-32.4239, -3.851744], [-32.423657, -3.851715], [-32.423414, -3.85168], [-32.423221, -3.851658], [-32.423035, -3.851637], [-32.422849, -3.851658], [-32.422764, -3.851687], [-32.422663, -3.85168], [-32.422521, -3.851622], [-32.422335, -3.851537], [-32.422163, -3.851451], [-32.421963, -3.851358], [-32.421763, -3.851294], [-32.421656, -3.851222], [-32.421577, -3.851187], [-32.421544, -3.851123], [-32.421516, -3.851048], [-32.421532, -3.85099]]}, "properties": {"info": {"tot_res": 3, "tot_geral": 4}}},
{"type": "Feature", "geometry": {"type": "LineString", "coordinates": [[-32.433295, -3.853042], [-32.433549, -3.853092], [-32.433678, -3.853096], [-32.433787, -3.853208], [-32.433891, -3.853316], [-32.433945, -3.853473], [-32.433916, -3.853867], [-32.433665, -3.854189], [-32.432137, -3.854327], [-32.430479, -3.855313], [-32.429551, -3.856097], [-32.429008, -3.856608], [-32.428813, -3.856705], [-32.428679, -3.856696], [-32.428414, -3.856736], [-32.428221, -3.856759], [-32.428124, -3.85675], [-32.427844, -3.85677], [-32.427301, -3.856823], [-32.42696, -3.856967], [-32.426551, -3.856465], [-32.426331, -3.856289], [-32.426239, -3.85613], [-32.426028, -3.855858], [-32.42584, -3.855723], [-32.425462, -3.855534], [-32.425133, -3.855424], [-32.424667, -3.855408], [-32.424305, -3.855345], [-32.424084, -3.855301]]}, "properties": {"info": {"tot_res": 0, "tot_geral": 4}}},
{"type": "Feature", "geometry": {"type": "LineString", "coordinates": [[-32.426054, -3.849886], [-32.428104, -3.849871], [-32.428233, -3.85007], [-32.428403, -3.85035], [-32.428612, -3.850699], [-32.428886, -3.851091], [-32.429527, -3.851709], [-32.429876, -3.852067], [-32.430383, -3.852554], [-32.430802, -3.85281], [-32.431284, -3.853002], [-32.431838, -3.853152], [-32.432549, -3.853105], [-32.433295, -3.853042]]}, "properties": {"info": {"tot_res": 3, "tot_geral": 5}}},
{"type": "Feature", "geometry": {"type": "LineString", "coordinates": [[-32.426054, -3.849886], [-32.426171, -3.850037], [-32.426269, -3.850139], [-32.426329, -3.850275], [-32.426374, -3.850428], [-32.42652, -3.850707], [-32.426641, -3.850993], [-32.426742, -3.851253], [-32.426755, -3.851364], [-32.42665, -3.851596], [-32.426533, -3.851834], [-32.426451, -3.852039], [-32.426374, -3.852149], [-32.4261, -3.852146], [-32.425332, -3.852022], [-32.424918, -3.851989]]}, "properties": {"info": {"tot_res": 4, "tot_geral": 4}}},
{"type": "Feature", "geometry": {"type": "LineString", "coordinates": [[-32.422841, -3.851734], [-32.42281, -3.851796], [-32.422986, -3.851868], [-32.42309, -3.852008], [-32.423393, -3.852588], [-32.4237, -3.853171]]}, "properties": {"info": {"tot_res": 17, "tot_geral": 20}}},
{"type": "Feature", "geometry": {"type": "LineString", "coordinates": [[-32.427706, -3.85887], [-32.428263, -3.859184]]}, "properties": {"info": {"tot_res": 2, "tot_geral": 2}}},
{"type": "Feature", "geometry": {"type": "LineString", "coordinates": [[-32.428263, -3.859184], [-32.428375, -3.858966], [-32.428863, -3.858948]]}, "properties": {"info": {"tot_res": 0, "tot_geral": 0}}},
{"type": "Feature", "geometry": {"type": "LineString", "coordinates": [[-32.428863, -3.858948], [-32.428863, -3.859027], [-32.428454, -3.859027], [-32.428344, -3.859223], [-32.427731, -3.860405]]}, "properties": {"info": {"tot_res": 7, "tot_geral": 8}}},
{"type": "Feature", "geometry": {"type": "LineString", "coordinates": [[-32.427731, -3.860405], [-32.427153, -3.860135]]}, "properties": {"info": {"tot_res": 0, "tot_geral": 0}}},
{"type": "Feature", "geometry": {"type": "LineString", "coordinates": [[-32.427153, -3.860135], [-32.427037, -3.860379]]}, "properties": {"info": {"tot_res": 0, "tot_geral": 0}}},
{"type": "Feature", "geometry": {"type": "LineString", "coordinates": [[-32.427037, -3.860379], [-32.428076, -3.860941]]}, "properties": {"info": {"tot_res": 6, "tot_geral": 6}}},
{"type": "Feature", "geometry": {"type": "LineString", "coordinates": [[-32.427556, -3.858944], [-32.427042, -3.859935]]}, "properties": {"info": {"tot_res": 6, "tot_geral": 6}}},
{"type": "Feature", "geometry": {"type": "LineString", "coordinates": [[-32.427042, -3.859935], [-32.427707, -3.860271]]}, "properties": {"info": {"tot_res": 0, "tot_geral": 0}}},
{"type": "Feature", "geometry": {"type": "LineString", "coordinates": [[-32.427707, -3.860271], [-32.428205, -3.859271]]}, "properties": {"info": {"tot_res": 6, "tot_geral": 6}}},
{"type": "Feature", "geometry": {"type": "LineString", "coordinates": [[-32.428205, -3.859271], [-32.427556, -3.858944]]}, "properties": {"info": {"tot_res": 0, "tot_geral": 0}}},
{"type": "Feature", "geometry": {"type": "LineString", "coordinates": [[-32.427639, -3.858433], [-32.427502, -3.858521], [-32.42741, -3.858728], [-32.42752, -3.858783], [-32.427636, -3.858551], [-32.427639, -3.858433]]}, "properties": {"info": {"tot_res": 0, "tot_geral": 0}}},
{"type": "Feature", "geometry": {"type": "LineString", "coordinates": [[-32.427338, -3.858847], [-32.427102, -3.859297]]}, "properties": {"info": {"tot_res": 0, "tot_geral": 0}}},
{"type": "Feature", "geometry": {"type": "LineString", "coordinates": [[-32.427102, -3.859297], [-32.427255, -3.859375]]}, "properties": {"info": {"tot_res": 0, "tot_geral": 0}}},
{"type": "Feature", "geometry": {"type": "LineString", "coordinates": [[-32.427255, -3.859375], [-32.427487, -3.858912]]}, "properties": {"info": {"tot_res": 0, "tot_geral": 0}}},
{"type": "Feature", "geometry": {"type": "LineString", "coordinates": [[-32.427487, -3.858912], [-32.427338, -3.858847]]}, "properties": {"info": {"tot_res": 0, "tot_geral": 0}}},
{"type": "Feature", "geometry": {"type": "LineString", "coordinates": [[-32.427065, -3.85937], [-32.426848, -3.859798]]}, "properties": {"info": {"tot_res": 0, "tot_geral": 0}}},
{"type": "Feature", "geometry": {"type": "LineString", "coordinates": [[-32.426848, -3.859798], [-32.426969, -3.859863]]}, "properties": {"info": {"tot_res": 0, "tot_geral": 0}}},
{"type": "Feature", "geometry": {"type": "LineString", "coordinates": [[-32.426969, -3.859863], [-32.427205, -3.85945]]}, "properties": {"info": {"tot_res": 0, "tot_geral": 0}}},
{"type": "Feature", "geometry": {"type": "LineString", "coordinates": [[-32.427205, -3.85945], [-32.427065, -3.85937]]}, "properties": {"info": {"tot_res": 0, "tot_geral": 0}}},
{"type": "Feature", "geometry": {"type": "LineString", "coordinates": [[-32.426996, -3.857089], [-32.427365, -3.856928], [-32.428229, -3.856878], [-32.428331, -3.856927]]}, "properties": {"info": {"tot_res": 0, "tot_geral": 3}}},
{"type": "Feature", "geometry": {"type": "LineString", "coordinates": [[-32.424903, -3.857286], [-32.425318, -3.856972], [-32.425644, -3.856634], [-32.425939, -3.856359], [-32.426126, -3.856241], [-32.426433, -3.856555], [-32.426814, -3.85704], [-32.426991, -3.857316], [-32.427208, -3.85755], [-32.42751, -3.857895]]}, "properties": {"info": {"tot_res": 0, "tot_geral": 3}}},
{"type": "Feature", "geometry": {"type": "LineString", "coordinates": [[-32.42751, -3.857895], [-32.427228, -3.857785], [-32.4271, -3.857714], [-32.426992, -3.857714], [-32.426673, -3.857708], [-32.426423, -3.857701], [-32.426224, -3.857622], [-32.426003, -3.857561], [-32.425785, -3.857519], [-32.425581, -3.857439], [-32.425268, -3.85738], [-32.424903, -3.857286]]}, "properties": {"info": {"tot_res": 1, "tot_geral": 1}}},
{"type": "Feature", "geometry": {"type": "LineString", "coordinates": [[-32.422496, -3.858759], [-32.42198, -3.858113], [-32.421704, -3.85769], [-32.421275, -3.857138], [-32.420772, -3.856476], [-32.420503, -3.85609], [-32.420245, -3.855765], [-32.420216, -3.855715], [-32.42019, -3.855659]]}, "properties": {"info": {"tot_res": 9, "tot_geral": 9}}},
{"type": "Feature", "geometry": {"type": "LineString", "coordinates": [[-32.425886, -3.85602], [-32.425854, -3.856235], [-32.425676, -3.856444], [-32.425372, -3.856726], [-32.424611, -3.857315], [-32.424003, -3.857874], [-32.423605, -3.858186], [-32.423543, -3.858242], [-32.423304, -3.858389], [-32.422932, -3.858732], [-32.422496, -3.858759]]}, "properties": {"info": {"tot_res": 5, "tot_geral": 6}}},
{"type": "Feature", "geometry": {"type": "LineString", "coordinates": [[-32.426424, -3.866239], [-32.426238, -3.866254]]}, "properties": {"info": {"tot_res": 0, "tot_geral": 1}}},
{"type": "Feature", "geometry": {"type": "LineString", "coordinates": [[-32.426424, -3.866239], [-32.427184, -3.86546], [-32.427534, -3.865109], [-32.427744, -3.864877], [-32.427952, -3.864662], [-32.428199, -3.864396], [-32.428351, -3.864206], [-32.428444, -3.864045], [-32.42842, -3.863745], [-32.428382, -3.863507], [-32.42829, -3.863149], [-32.428152, -3.862731], [-32.428101, -3.862371], [-32.427887, -3.861417], [-32.427874, -3.861217], [-32.42798, -3.861009]]}, "properties": {"info": {"tot_res": 0, "tot_geral": 2}}},
{"type": "Feature", "geometry": {"type": "LineString", "coordinates": [[-32.42798, -3.861009], [-32.426941, -3.860425], [-32.426922, -3.860406]]}, "properties": {"info": {"tot_res": 6, "tot_geral": 6}}},
{"type": "Feature", "geometry": {"type": "LineString", "coordinates": [[-32.426922, -3.860406], [-32.427026, -3.860141]]}, "properties": {"info": {"tot_res": 0, "tot_geral": 0}}},
{"type": "Feature", "geometry": {"type": "LineString", "coordinates": [[-32.427026, -3.860141], [-32.426648, -3.859934]]}, "properties": {"info": {"tot_res": 0, "tot_geral": 1}}},
{"type": "Feature", "geometry": {"type": "LineString", "coordinates": [[-32.426648, -3.859934], [-32.427315, -3.858448], [-32.42752, -3.858348]]}, "properties": {"info": {"tot_res": 6, "tot_geral": 7}}},
{"type": "Feature", "geometry": {"type": "LineString", "coordinates": [[-32.424796, -3.857397], [-32.425554, -3.857535], [-32.42583, -3.857669], [-32.426157, -3.857719], [-32.426491, -3.857822], [-32.426676, -3.857834], [-32.427454, -3.858038], [-32.427537, -3.858044], [-32.427594, -3.858175], [-32.42752, -3.858348]]}, "properties": {"info": {"tot_res": 0, "tot_geral": 0}}},
{"type": "Feature", "geometry": {"type": "LineString", "coordinates": [[-32.422927, -3.861391], [-32.422942, -3.861181], [-32.422947, -3.860903], [-32.422936, -3.860375], [-32.422894, -3.859966], [-32.422832, -3.859555], [-32.422799, -3.859242], [-32.422841, -3.859046], [-32.42295, -3.858863], [-32.42311, -3.858775], [-32.423287, -3.858622], [-32.423958, -3.858111], [-32.424796, -3.857397]]}, "properties": {"info": {"tot_res": 13, "tot_geral": 13}}}]}
