{"type":"FeatureCollection","features":[{"type":"Feature","geometry":{"type":"Polygon","coordinates":[[[-46.323,-23.74351],[-46.3229,-23.74334],[-46.32275,-23.7432],[-46.32259,-23.74309],[-46.3224,-23.74301],[-46.32205,-23.7429],[-46.32186,-23.74287],[-46.32166,-23.74287],[-46.32147,-23.74291],[-46.32129,-23.74298],[-46.32113,-23.74309],[-46.32099,-23.74323],[-46.32088,-23.74339],[-46.32064,-23.74383],[-46.32026,-23.74364],[-46.32009,-23.74358],[-46.31912,-23.74329],[-46.31867,-23.74285],[-46.31866,-23.74285],[-46.31769,-23.74191],[-46.31757,-23.74181],[-46.31679,-23.74126],[-46.31667,-23.74118],[-46.31643,-23.74106],[-46.3157,-23.74065],[-46.31551,-23.74057],[-46.31532,-23.74053],[-46.31446,-23.74043],[-46.31436,-23.74043],[-46.31401,-23.74043],[-46.31388,-23.74043],[-46.31378,-23.74044],[-46.31363,-23.74036],[-46.31348,-23.74026],[-46.3131,-23.73986],[-46.31267,-23.73937],[-46.31169,-23.73823],[-46.31159,-23.73814],[-46.31107,-23.73767],[-46.31088,-23.73715],[-46.31081,-23.737],[-46.31071,-23.73687],[-46.3106,-23.73675],[-46.30974,-23.73599],[-46.3095,-23.73584],[-46.30885,-23.73553],[-46.30867,-23.735],[-46.30859,-23.73483],[-46.30785,-23.73354],[-46.30783,-23.73239],[-46.3078,-23.73216],[-46.30772,-23.73195],[-46.30741,-23.73133],[-46.30729,-23.73116],[-46.30714,-23.73101],[-46.30697,-23.7309],[-46.30606,-23.73044],[-46.30598,-23.73031],[-46.30581,-23.73014],[-46.30513,-23.7296],[-46.30488,-23.72935],[-46.30471,-23.72921],[-46.3045,-23.72911],[-46.30398,-23.72892],[-46.30321,-23.72798],[-46.30308,-23.72785],[-46.30294,-23.72774],[-46.3028,-23.72766],[-46.30279,-23.72762],[-46.30294,-23.72712],[-46.30299,-23.72689],[-46.30297,-23.72665],[-46.30293,-23.72644],[-46.30288,-23.72624],[-46.30278,-23.72605],[-46.30265,-23.72589],[-46.30224,-23.72549],[-46.30207,-23.72536],[-46.30187,-23.72526],[-46.30165,-23.72521],[-46.30089,-23.72513],[-46.30036,-23.72472],[-46.30034,-23.72462],[-46.30026,-23.72445],[-46.30015,-23.72429],[-46.30001,-23.72416],[-46.29985,-23.72406],[-46.2992,-23.72373],[-46.299,-23.72365],[-46.29879,-23.72362],[-46.29857,-23.72363],[-46.29843,-23.72366],[-46.29832,-23.72351],[-46.29804,-23.72322],[-46.29808,-23.72309],[-46.2981,-23.72287],[-46.29807,-23.72266],[-46.29799,-23.72245],[-46.29794,-23.72234],[-46.29797,-23.72228],[-46.29806,-23.72211],[-46.2981,-23.72194],[-46.29812,-23.72176],[-46.29811,-23.72158],[-46.29806,-23.7214],[-46.29798,-23.72124],[-46.29774,-23.72085],[-46.29713,-23.71969],[-46.29704,-23.71954],[-46.29692,-23.71941],[-46.29648,-23.71901],[-46.29651,-23.71889],[-46.29654,-23.71876],[-46.29672,-23.71751],[-46.29693,-23.71642],[-46.29708,-23.71604],[-46.29714,-23.71583],[-46.29715,-23.71562],[-46.29711,-23.7154],[-46.29709,-23.7153],[-46.29715,-23.71523],[-46.29744,-23.71484],[-46.29755,-23.71467],[-46.29761,-23.71448],[-46.29764,-23.71428],[-46.29763,-23.71409],[-46.2976,-23.71397],[-46.29761,-23.71391],[-46.29762,-23.71357],[-46.2976,-23.71335],[-46.29754,-23.71314],[-46.29743,-23.71295],[-46.29728,-23.71279],[-46.29686,-23.71242],[-46.29677,-23.7123],[-46.29666,-23.71218],[-46.29664,-23.71211],[-46.29616,-23.71108],[-46.29605,-23.7109],[-46.2959,-23.71074],[-46.29579,-23.71066],[-46.29579,-23.71065],[-46.29593,-23.71056],[-46.29596,-23.71053],[-46.29649,-23.71051],[-46.2967,-23.71048],[-46.29689,-23.71041],[-46.29706,-23.7103],[-46.29721,-23.71016],[-46.29733,-23.70999],[-46.29741,-23.7098],[-46.29746,-23.70962],[-46.2975,-23.70936],[-46.29753,-23.70828],[-46.29756,-23.70748],[-46.29785,-23.70729],[-46.29803,-23.70714],[-46.29817,-23.70696],[-46.29819,-23.7069],[-46.29827,-23.70682],[-46.29837,-23.70666],[-46.29844,-23.70648],[-46.29848,-23.7063],[-46.29848,-23.70611],[-46.29845,-23.70592],[-46.2984,-23.70581],[-46.29874,-23.70496],[-46.2988,-23.7048],[-46.29882,-23.70462],[-46.29881,-23.70445],[-46.29877,-23.70428],[-46.29842,-23.7032],[-46.2983,-23.70295],[-46.29805,-23.70258],[-46.29794,-23.70244],[-46.2978,-23.70232],[-46.29764,-23.70223],[-46.29747,-23.70217],[-46.29638,-23.70189],[-46.29613,-23.70186],[-46.29572,-23.70186],[-46.2952,-23.70137],[-46.29519,-23.7013],[-46.29512,-23.70111],[-46.29501,-23.70093],[-46.29487,-23.70078],[-46.2945,-23.70045],[-46.29414,-23.7001],[-46.29401,-23.69999],[-46.29386,-23.69991],[-46.29358,-23.69978],[-46.29347,-23.69974],[-46.29269,-23.69949],[-46.29265,-23.69946],[-46.29248,-23.69939],[-46.29231,-23.69936],[-46.29231,-23.69911],[-46.29228,-23.6989],[-46.29221,-23.6987],[-46.29209,-23.69852],[-46.29195,-23.69837],[-46.29177,-23.69826],[-46.29158,-23.69818],[-46.29143,-23.69814],[-46.29135,-23.69808],[-46.29072,-23.69758],[-46.29067,-23.69755],[-46.29046,-23.6974],[-46.2903,-23.69731],[-46.28981,-23.69709],[-46.28964,-23.69703],[-46.28946,-23.697],[-46.28928,-23.697],[-46.28891,-23.69705],[-46.2889,-23.69687],[-46.28886,-23.69661],[-46.28883,-23.69653],[-46.2888,-23.69642],[-46.28873,-23.69621],[-46.2887,-23.69611],[-46.28869,-23.69607],[-46.28862,-23.69591],[-46.28853,-23.69576],[-46.28841,-23.69563],[-46.28817,-23.69541],[-46.28803,-23.69531],[-46.28787,-23.69522],[-46.2877,-23.69517],[-46.28753,-23.69515],[-46.28627,-23.69511],[-46.28521,-23.69501],[-46.28499,-23.69501],[-46.28478,-23.69506],[-46.28455,-23.69514],[-46.2843,-23.69482],[-46.28417,-23.69467],[-46.28401,-23.69456],[-46.28383,-23.69448],[-46.28364,-23.69443],[-46.28345,-23.69442],[-46.28325,-23.69445],[-46.28307,-23.69452],[-46.28241,-23.69484],[-46.28229,-23.69455],[-46.2822,-23.69438],[-46.28208,-23.69424],[-46.28194,-23.69412],[-46.28178,-23.69403],[-46.28161,-23.69396],[-46.28135,-23.6939],[-46.28043,-23.69257],[-46.28031,-23.69242],[-46.28019,-23.69233],[-46.28019,-23.69231],[-46.28022,-23.69212],[-46.28021,-23.69192],[-46.28016,-23.69173],[-46.28008,-23.69156],[-46.27997,-23.6914],[-46.27982,-23.69127],[-46.27966,-23.69117],[-46.27947,-23.6911],[-46.27859,-23.69087],[-46.27805,-23.69067],[-46.27759,-23.6903],[-46.2774,-23.69017],[-46.27638,-23.68968],[-46.27621,-23.68961],[-46.27362,-23.6889],[-46.27342,-23.68887],[-46.27322,-23.68887],[-46.27303,-23.68892],[-46.27286,-23.689],[-46.27242,-23.68873],[-46.27216,-23.68862],[-46.27091,-23.68828],[-46.26992,-23.6875],[-46.26984,-23.68651],[-46.26981,-23.68633],[-46.26975,-23.68616],[-46.26966,-23.686],[-46.26955,-23.68587],[-46.26941,-23.68575],[-46.26925,-23.68567],[-46.26805,-23.68514],[-46.26772,-23.68487],[-46.26735,-23.68433],[-46.26774,-23.68413],[-46.2679,-23.68402],[-46.26803,-23.68388],[-46.26814,-23.68373],[-46.26822,-23.68355],[-46.26826,-23.68336],[-46.26827,-23.68317],[-46.26821,-23.68242],[-46.26818,-23.68224],[-46.26812,-23.68207],[-46.26803,-23.68191],[-46.26794,-23.68181],[-46.26794,-23.68179],[-46.26794,-23.68159],[-46.2679,-23.6814],[-46.26782,-23.68122],[-46.26747,-23.68057],[-46.26737,-23.68042],[-46.26688,-23.67981],[-46.26675,-23.67968],[-46.26675,-23.67968],[-46.26678,-23.67958],[-46.26682,-23.67939],[-46.26681,-23.6792],[-46.26678,-23.67902],[-46.26671,-23.67885],[-46.26661,-23.67869],[-46.26659,-23.67867],[-46.26661,-23.67848],[-46.26658,-23.67828],[-46.26653,-23.67809],[-46.26643,-23.67792],[-46.2663,-23.67777],[-46.26615,-23.67764],[-46.26597,-23.67755],[-46.26578,-23.6775],[-46.26552,-23.67746],[-46.2642,-23.67583],[-46.26402,-23.67551],[-46.26411,-23.67536],[-46.26418,-23.67518],[-46.26421,-23.67499],[-46.26421,-23.6748],[-46.26417,-23.67462],[-46.2641,-23.67444],[-46.26383,-23.67394],[-46.26372,-23.67378],[-46.26359,-23.67364],[-46.26343,-23.67354],[-46.26326,-23.67346],[-46.26307,-23.67342],[-46.26289,-23.67341],[-46.26258,-23.67343],[-46.26252,-23.67331],[-46.26244,-23.67317],[-46.26197,-23.67247],[-46.26169,-23.67176],[-46.26117,-23.67031],[-46.26107,-23.6701],[-46.26092,-23.66992],[-46.26039,-23.66941],[-46.26021,-23.66928],[-46.26001,-23.66918],[-46.25979,-23.66914],[-46.25888,-23.66905],[-46.25888,-23.66903],[-46.25889,-23.66883],[-46.25886,-23.66862],[-46.25879,-23.66842],[-46.25877,-23.66839],[-46.25878,-23.66828],[-46.25878,-23.66822],[-46.25891,-23.66819],[-46.25908,-23.66811],[-46.25923,-23.66799],[-46.25936,-23.66785],[-46.25946,-23.66769],[-46.2597,-23.66721],[-46.25976,-23.66702],[-46.2598,-23.66683],[-46.2598,-23.6668],[-46.25982,-23.66677],[-46.25992,-23.66659],[-46.25998,-23.66639],[-46.26,-23.66618],[-46.25997,-23.666],[-46.26002,-23.6659],[-46.26006,-23.66571],[-46.26006,-23.66552],[-46.26002,-23.66533],[-46.25995,-23.66515],[-46.25985,-23.66499],[-46.25972,-23.66485],[-46.25957,-23.66474],[-46.25948,-23.6647],[-46.25947,-23.66463],[-46.25938,-23.66445],[-46.25926,-23.66429],[-46.25919,-23.66422],[-46.25921,-23.66417],[-46.25926,-23.664],[-46.25929,-23.66382],[-46.25928,-23.66364],[-46.25924,-23.66347],[-46.25917,-23.6633],[-46.25907,-23.66316],[-46.25909,-23.66308],[-46.25908,-23.66301],[-46.2591,-23.663],[-46.25925,-23.66285],[-46.25933,-23.66275],[-46.25943,-23.66258],[-46.2595,-23.6624],[-46.25954,-23.66221],[-46.25954,-23.66219],[-46.25961,-23.66213],[-46.25974,-23.66196],[-46.25983,-23.66177],[-46.25988,-23.66155],[-46.2599,-23.66144],[-46.2599,-23.66121],[-46.25985,-23.66099],[-46.25982,-23.66091],[-46.25975,-23.66076],[-46.25975,-23.66075],[-46.25973,-23.66053],[-46.25968,-23.66039],[-46.25968,-23.66033],[-46.25971,-23.66003],[-46.25971,-23.65983],[-46.25966,-23.65963],[-46.25958,-23.65945],[-46.25951,-23.65932],[-46.25942,-23.65919],[-46.25932,-23.65908],[-46.25915,-23.65893],[-46.25903,-23.65884],[-46.25901,-23.65882],[-46.25882,-23.65866],[-46.25861,-23.65856],[-46.25862,-23.65852],[-46.25862,-23.65847],[-46.25863,-23.65843],[-46.25865,-23.65824],[-46.25863,-23.65804],[-46.25857,-23.65785],[-46.25848,-23.65768],[-46.25846,-23.65766],[-46.25854,-23.65758],[-46.25866,-23.65742],[-46.25875,-23.65724],[-46.25879,-23.65713],[-46.25884,-23.65695],[-46.25884,-23.65691],[-46.2589,-23.65676],[-46.25894,-23.65658],[-46.25894,-23.6564],[-46.25891,-23.65622],[-46.2589,-23.65616],[-46.25884,-23.65599],[-46.25874,-23.65582],[-46.25861,-23.65568],[-46.2586,-23.65567],[-46.25858,-23.65563],[-46.25843,-23.65546],[-46.25838,-23.65541],[-46.25821,-23.65529],[-46.25816,-23.65526],[-46.25802,-23.6552],[-46.25806,-23.65502],[-46.25806,-23.65483],[-46.25803,-23.65463],[-46.25795,-23.65445],[-46.25782,-23.65419],[-46.25772,-23.65403],[-46.2576,-23.6539],[-46.25745,-23.65379],[-46.25738,-23.65376],[-46.25735,-23.65356],[-46.25728,-23.65337],[-46.25717,-23.6532],[-46.25702,-23.653],[-46.25703,-23.65288],[-46.25702,-23.6527],[-46.25698,-23.65252],[-46.2569,-23.65235],[-46.2568,-23.65219],[-46.25663,-23.65199],[-46.25648,-23.65185],[-46.2563,-23.65174],[-46.25611,-23.65167],[-46.25591,-23.65164],[-46.25579,-23.65165],[-46.25575,-23.65151],[-46.25565,-23.65133],[-46.25563,-23.65131],[-46.25564,-23.65122],[-46.25564,-23.65103],[-46.25564,-23.65102],[-46.25571,-23.65091],[-46.25577,-23.65071],[-46.25578,-23.65051],[-46.25576,-23.65031],[-46.25574,-23.65024],[-46.25573,-23.65021],[-46.25577,-23.65013],[-46.25584,-23.64995],[-46.25585,-23.64988],[-46.25598,-23.64977],[-46.25611,-23.6496],[-46.25613,-23.64955],[-46.25622,-23.64936],[-46.25626,-23.64917],[-46.25635,-23.64908],[-46.25646,-23.64892],[-46.25653,-23.64877],[-46.25661,-23.64858],[-46.25664,-23.64837],[-46.25663,-23.64815],[-46.25657,-23.64795],[-46.25654,-23.6479],[-46.25659,-23.64781],[-46.25674,-23.64765],[-46.25717,-23.64724],[-46.25721,-23.6472],[-46.2573,-23.64714],[-46.25742,-23.64713],[-46.2576,-23.64708],[-46.25766,-23.64706],[-46.25781,-23.64698],[-46.25794,-23.64688],[-46.25806,-23.64676],[-46.25816,-23.64664],[-46.25827,-23.64648],[-46.25835,-23.64629],[-46.25839,-23.64609],[-46.25839,-23.6459],[-46.25838,-23.64588],[-46.25843,-23.64571],[-46.25845,-23.64552],[-46.25843,-23.64533],[-46.25841,-23.64525],[-46.2584,-23.6452],[-46.25838,-23.64514],[-46.25841,-23.64507],[-46.2585,-23.64501],[-46.25863,-23.64486],[-46.25873,-23.64468],[-46.25879,-23.64449],[-46.25882,-23.6443],[-46.2588,-23.6441],[-46.2588,-23.64409],[-46.25889,-23.64395],[-46.25895,-23.64379],[-46.25897,-23.64373],[-46.25909,-23.64361],[-46.25919,-23.64346],[-46.25926,-23.64328],[-46.25931,-23.6431],[-46.25931,-23.64291],[-46.25928,-23.64273],[-46.25922,-23.64255],[-46.25921,-23.64253],[-46.25924,-23.64236],[-46.25926,-23.64208],[-46.25929,-23.64196],[-46.25932,-23.64176],[-46.2593,-23.64155],[-46.25924,-23.64135],[-46.25914,-23.64117],[-46.25901,-23.64101],[-46.25885,-23.64089],[-46.25866,-23.6408],[-46.25865,-23.64079],[-46.25865,-23.64075],[-46.25906,-23.63999],[-46.25914,-23.63981],[-46.25918,-23.63961],[-46.25918,-23.63941],[-46.25917,-23.63938],[-46.25919,-23.63934],[-46.25927,-23.63917],[-46.25929,-23.63906],[-46.25969,-23.63873],[-46.25972,-23.63872],[-46.2599,-23.63863],[-46.26006,-23.63851],[-46.26019,-23.63835],[-46.26041,-23.63805],[-46.2605,-23.63788],[-46.26056,-23.6377],[-46.26058,-23.63751],[-46.26057,-23.63732],[-46.26052,-23.63713],[-46.26044,-23.63696],[-46.26037,-23.63684],[-46.26035,-23.63681],[-46.26036,-23.63677],[-46.26038,-23.63657],[-46.26036,-23.63642],[-46.26037,-23.63638],[-46.26047,-23.63622],[-46.26054,-23.63603],[-46.26058,-23.63584],[-46.26057,-23.63564],[-46.26052,-23.63544],[-46.26045,-23.63528],[-46.26045,-23.63528],[-46.26046,-23.63528],[-46.26063,-23.63516],[-46.26078,-23.635],[-46.26082,-23.63493],[-46.2609,-23.63487],[-46.26095,-23.63483],[-46.26101,-23.63482],[-46.26121,-23.63477],[-46.26138,-23.63471],[-46.26153,-23.63462],[-46.26167,-23.6345],[-46.26178,-23.63436],[-46.26185,-23.63427],[-46.26194,-23.63411],[-46.262,-23.63393],[-46.26201,-23.63384],[-46.26205,-23.63382],[-46.26217,-23.63373],[-46.26219,-23.63373],[-46.2623,-23.63368],[-46.26231,-23.63368],[-46.2624,-23.63364],[-46.26253,-23.63357],[-46.26255,-23.63357],[-46.26267,-23.63356],[-46.26287,-23.63353],[-46.26307,-23.63345],[-46.26325,-23.63334],[-46.26339,-23.63319],[-46.26351,-23.63301],[-46.26357,-23.63289],[-46.26365,-23.63281],[-46.26373,-23.63282],[-46.2639,-23.63285],[-46.26409,-23.63287],[-46.26428,-23.63286],[-46.26446,-23.6328],[-46.26463,-23.63272],[-46.26485,-23.63258],[-46.26501,-23.63246],[-46.26513,-23.63231],[-46.26523,-23.63214],[-46.26529,-23.63195],[-46.26532,-23.63183],[-46.26535,-23.63162],[-46.26534,-23.63151],[-46.26536,-23.63149],[-46.26546,-23.63132],[-46.26552,-23.63113],[-46.26554,-23.63094],[-46.26553,-23.63074],[-46.26548,-23.63055],[-46.26539,-23.63038],[-46.2653,-23.63023],[-46.26518,-23.63008],[-46.26519,-23.63008],[-46.26524,-23.62989],[-46.26526,-23.6297],[-46.26526,-23.62968],[-46.26528,-23.62967],[-46.26539,-23.62953],[-46.26552,-23.62936],[-46.2656,-23.62915],[-46.26564,-23.62894],[-46.26563,-23.62885],[-46.26566,-23.62878],[-46.2657,-23.62859],[-46.2657,-23.6284],[-46.26566,-23.62821],[-46.26552,-23.62774],[-46.26542,-23.62752],[-46.2653,-23.62732],[-46.2652,-23.62718],[-46.26509,-23.62707],[-46.26507,-23.62705],[-46.26507,-23.62704],[-46.26506,-23.62684],[-46.26503,-23.62666],[-46.26504,-23.62661],[-46.26507,-23.62649],[-46.26508,-23.62627],[-46.26505,-23.62606],[-46.26498,-23.62585],[-46.26486,-23.62567],[-46.26485,-23.62565],[-46.26488,-23.62555],[-46.2649,-23.62535],[-46.26488,-23.62516],[-46.26482,-23.62497],[-46.26475,-23.62484],[-46.26476,-23.62474],[-46.26474,-23.62455],[-46.26467,-23.62437],[-46.26458,-23.6242],[-46.2645,-23.62411],[-46.26447,-23.62397],[-46.26441,-23.62381],[-46.26433,-23.62366],[-46.26422,-23.62353],[-46.26418,-23.62348],[-46.26416,-23.62344],[-46.26406,-23.62324],[-46.26395,-23.62312],[-46.26396,-23.62312],[-46.26393,-23.62309],[-46.26391,-23.62301],[-46.26387,-23.62288],[-46.26378,-23.62266],[-46.26364,-23.62246],[-46.26346,-23.62228],[-46.26344,-23.62222],[-46.2634,-23.62205],[-46.26332,-23.6219],[-46.26322,-23.62176],[-46.26317,-23.6217],[-46.26316,-23.62166],[-46.26311,-23.62147],[-46.26307,-23.62135],[-46.26297,-23.62116],[-46.26289,-23.62106],[-46.26287,-23.62087],[-46.2628,-23.62069],[-46.26279,-23.62066],[-46.26287,-23.62056],[-46.26293,-23.62047],[-46.26298,-23.62038],[-46.26305,-23.62027],[-46.26312,-23.62009],[-46.26316,-23.6199],[-46.26316,-23.61971],[-46.26312,-23.61953],[-46.26305,-23.61935],[-46.26299,-23.61923],[-46.26295,-23.61916],[-46.26297,-23.61912],[-46.26306,-23.6188],[-46.2631,-23.61853],[-46.2631,-23.6182],[-46.26312,-23.61818],[-46.2632,-23.61801],[-46.26325,-23.61783],[-46.26326,-23.61764],[-46.26324,-23.61746],[-46.26318,-23.61728],[-46.26317,-23.61726],[-46.26318,-23.61719],[-46.26318,-23.61716],[-46.26319,-23.61714],[-46.26324,-23.61695],[-46.26325,-23.61676],[-46.26323,-23.61658],[-46.2632,-23.61645],[-46.26314,-23.61626],[-46.26305,-23.61609],[-46.26295,-23.61598],[-46.26295,-23.61594],[-46.26292,-23.61574],[-46.26285,-23.61556],[-46.26279,-23.61547],[-46.26281,-23.61542],[-46.26284,-23.61528],[-46.26286,-23.61508],[-46.26284,-23.61488],[-46.26279,-23.61469],[-46.26273,-23.61455],[-46.26263,-23.61437],[-46.2625,-23.61421],[-46.26234,-23.61409],[-46.26216,-23.614],[-46.26201,-23.61395],[-46.26181,-23.6137],[-46.26166,-23.61323],[-46.26158,-23.61305],[-46.26147,-23.61289],[-46.26132,-23.61275],[-46.26116,-23.61264],[-46.26077,-23.61245],[-46.26065,-23.61223],[-46.26056,-23.61209],[-46.26044,-23.61196],[-46.2603,-23.61186],[-46.25976,-23.61152],[-46.25944,-23.61128],[-46.26466,-23.60676],[-46.2648,-23.6066],[-46.26491,-23.60641],[-46.26498,-23.6062],[-46.26745,-23.59402],[-46.26764,-23.59357],[-46.26843,-23.59268],[-46.27586,-23.58598],[-46.27598,-23.58586],[-46.27607,-23.58572],[-46.28201,-23.57498],[-46.28209,-23.57482],[-46.28213,-23.57464],[-46.2826,-23.57141],[-46.28261,-23.57132],[-46.28263,-23.57093],[-46.28277,-23.57082],[-46.28277,-23.57082],[-46.28284,-23.57078],[-46.28418,-23.56989],[-46.28439,-23.56972],[-46.28453,-23.56955],[-46.28464,-23.56941],[-46.28467,-23.56935],[-46.28474,-23.56927],[-46.28485,-23.56909],[-46.28493,-23.56889],[-46.28495,-23.56879],[-46.28498,-23.56858],[-46.28496,-23.56837],[-46.28494,-23.56824],[-46.2849,-23.56809],[-46.28484,-23.56795],[-46.28483,-23.56793],[-46.28484,-23.56778],[-46.28484,-23.56762],[-46.28484,-23.5676],[-46.2849,-23.56757],[-46.28505,-23.56748],[-46.28518,-23.56737],[-46.28529,-23.56723],[-46.28561,-23.56675],[-46.28567,-23.56667],[-46.28574,-23.56658],[-46.28585,-23.56641],[-46.28592,-23.56623],[-46.28596,-23.56604],[-46.28596,-23.56584],[-46.28592,-23.56565],[-46.28584,-23.56547],[-46.28573,-23.56531],[-46.28568,-23.56525],[-46.28554,-23.56511],[-46.28545,-23.56505],[-46.28541,-23.56498],[-46.28538,-23.56494],[-46.28515,-23.56458],[-46.28505,-23.56445],[-46.28494,-23.56434],[-46.28494,-23.56434],[-46.28492,-23.56427],[-46.28491,-23.56421],[-46.28487,-23.564],[-46.28485,-23.56395],[-46.28481,-23.56377],[-46.28471,-23.56355],[-46.28464,-23.56341],[-46.28451,-23.56323],[-46.28434,-23.56308],[-46.28433,-23.56308],[-46.2843,-23.56294],[-46.28425,-23.56279],[-46.28418,-23.56265],[-46.28412,-23.56256],[-46.28405,-23.56244],[-46.28401,-23.56238],[-46.28369,-23.56195],[-46.28354,-23.56166],[-46.28346,-23.56152],[-46.28346,-23.5615],[-46.28343,-23.5613],[-46.28335,-23.56111],[-46.2833,-23.56101],[-46.2832,-23.56085],[-46.28308,-23.56072],[-46.28294,-23.56062],[-46.28288,-23.56048],[-46.2828,-23.56034],[-46.28273,-23.56027],[-46.28265,-23.56013],[-46.28252,-23.55998],[-46.2824,-23.55989],[-46.28236,-23.55979],[-46.28229,-23.55963],[-46.28219,-23.55949],[-46.28185,-23.55909],[-46.28184,-23.55906],[-46.28174,-23.5589],[-46.28161,-23.55876],[-46.2816,-23.55874],[-46.2817,-23.55856],[-46.28177,-23.55836],[-46.28179,-23.55815],[-46.2818,-23.55787],[-46.28181,-23.5578],[-46.28183,-23.55762],[-46.28181,-23.5575],[-46.28182,-23.55747],[-46.28183,-23.55731],[-46.28181,-23.55716],[-46.28169,-23.55644],[-46.28169,-23.55635],[-46.28168,-23.55615],[-46.28164,-23.55597],[-46.28162,-23.5559],[-46.28154,-23.55575],[-46.28145,-23.5556],[-46.28133,-23.55548],[-46.28107,-23.55525],[-46.28094,-23.55511],[-46.28079,-23.55499],[-46.28074,-23.55495],[-46.28058,-23.55487],[-46.28053,-23.55485],[-46.28044,-23.55475],[-46.2804,-23.55471],[-46.28026,-23.5546],[-46.28013,-23.55453],[-46.2801,-23.55439],[-46.28008,-23.55434],[-46.28004,-23.55424],[-46.28009,-23.55422],[-46.28024,-23.55409],[-46.28032,-23.55402],[-46.28038,-23.55398],[-46.2805,-23.5539],[-46.28067,-23.55378],[-46.28079,-23.55367],[-46.2809,-23.55354],[-46.28098,-23.55342],[-46.28099,-23.55341],[-46.28108,-23.5534],[-46.28118,-23.55337],[-46.28133,-23.55333],[-46.28146,-23.55326],[-46.28155,-23.55323],[-46.28172,-23.55312],[-46.28186,-23.55299],[-46.28197,-23.55283],[-46.28205,-23.55265],[-46.28209,-23.55245],[-46.2821,-23.55245],[-46.28211,-23.55234],[-46.28211,-23.55215],[-46.28208,-23.55197],[-46.28214,-23.55189],[-46.28223,-23.55172],[-46.28228,-23.55153],[-46.28229,-23.55144],[-46.2823,-23.55135],[-46.28231,-23.55131],[-46.28236,-23.55113],[-46.28238,-23.55095],[-46.28238,-23.55085],[-46.28236,-23.55065],[-46.2823,-23.55045],[-46.28229,-23.55045],[-46.28231,-23.55038],[-46.28233,-23.55031],[-46.28235,-23.55015],[-46.28234,-23.54998],[-46.2823,-23.54982],[-46.28228,-23.54974],[-46.28219,-23.54954],[-46.28215,-23.54948],[-46.28213,-23.54934],[-46.28211,-23.54929],[-46.28215,-23.54901],[-46.28215,-23.54884],[-46.28214,-23.54868],[-46.28209,-23.54852],[-46.28206,-23.54844],[-46.28197,-23.54825],[-46.28184,-23.54809],[-46.28168,-23.54796],[-46.28152,-23.54786],[-46.28135,-23.54776],[-46.28119,-23.54771],[-46.28117,-23.5477],[-46.28106,-23.54765],[-46.28102,-23.54749],[-46.28097,-23.54738],[-46.28055,-23.54602],[-46.28047,-23.54584],[-46.2803,-23.54552],[-46.28015,-23.54532],[-46.27985,-23.545],[-46.27967,-23.54485],[-46.27925,-23.54457],[-46.27917,-23.54451],[-46.27916,-23.54449],[-46.27905,-23.54434],[-46.27892,-23.54422],[-46.27877,-23.54412],[-46.27869,-23.54408],[-46.27852,-23.54401],[-46.27834,-23.54397],[-46.27816,-23.54396],[-46.27808,-23.54397],[-46.27788,-23.544],[-46.2777,-23.54407],[-46.27741,-23.54421],[-46.27581,-23.54409],[-46.27558,-23.5441],[-46.27536,-23.54416],[-46.27528,-23.5442],[-46.27524,-23.54419],[-46.27201,-23.54408],[-46.27215,-23.54147],[-46.27214,-23.54129],[-46.27211,-23.54102],[-46.27207,-23.54086],[-46.27201,-23.5407],[-46.27198,-23.54064],[-46.27189,-23.54049],[-46.27177,-23.54035],[-46.27163,-23.54024],[-46.27159,-23.54022],[-46.27156,-23.54009],[-46.27153,-23.53997],[-46.27149,-23.53983],[-46.27144,-23.53972],[-46.27143,-23.53969],[-46.27135,-23.53951],[-46.27129,-23.53939],[-46.27128,-23.53937],[-46.27116,-23.53918],[-46.27104,-23.53903],[-46.2709,-23.53891],[-46.27034,-23.53849],[-46.27015,-23.53837],[-46.27006,-23.53835],[-46.26995,-23.53825],[-46.26992,-23.53715],[-46.2699,-23.53697],[-46.26985,-23.5368],[-46.26977,-23.53664],[-46.26966,-23.5365],[-46.26936,-23.53618],[-46.26924,-23.53607],[-46.2692,-23.53605],[-46.26918,-23.53592],[-46.26912,-23.53573],[-46.26903,-23.53556],[-46.26891,-23.53541],[-46.26876,-23.53528],[-46.26867,-23.53522],[-46.26848,-23.53512],[-46.26829,-23.53506],[-46.26808,-23.53505],[-46.26793,-23.53505],[-46.26765,-23.5351],[-46.26753,-23.53514],[-46.26744,-23.53518],[-46.26734,-23.53513],[-46.26717,-23.53505],[-46.26699,-23.53501],[-46.26681,-23.53501],[-46.2668,-23.53501],[-46.26678,-23.535],[-46.26659,-23.53491],[-46.26639,-23.53487],[-46.26618,-23.53486],[-46.26605,-23.53487],[-46.26584,-23.53492],[-46.26582,-23.5349],[-46.26555,-23.5347],[-46.2654,-23.5346],[-46.26524,-23.53454],[-46.2649,-23.53443],[-46.2649,-23.53443],[-46.26493,-23.53441],[-46.26504,-23.53432],[-46.26518,-23.53418],[-46.26527,-23.53406],[-46.26536,-23.53392],[-46.26541,-23.53384],[-46.26547,-23.53368],[-46.26551,-23.53352],[-46.26553,-23.53336],[-46.26553,-23.53327],[-46.26552,-23.53323],[-46.26559,-23.53316],[-46.26568,-23.53301],[-46.2657,-23.53298],[-46.26578,-23.53275],[-46.26581,-23.53252],[-46.26581,-23.53247],[-46.2658,-23.53228],[-46.26574,-23.53211],[-46.26566,-23.53194],[-46.26555,-23.53179],[-46.26544,-23.53168],[-46.26534,-23.53159],[-46.26531,-23.53154],[-46.26516,-23.5314],[-46.26517,-23.53134],[-46.26513,-23.5311],[-46.26499,-23.53064],[-46.26497,-23.53061],[-46.265,-23.53005],[-46.26499,-23.52987],[-46.26495,-23.52968],[-46.26309,-23.52411],[-46.26991,-23.51246],[-46.26999,-23.51228],[-46.27004,-23.51208],[-46.27004,-23.51187],[-46.27,-23.51167],[-46.26696,-23.50173],[-46.26505,-23.49406],[-46.26767,-23.48707],[-46.28246,-23.48842],[-46.284,-23.48981],[-46.28415,-23.48992],[-46.28432,-23.49],[-46.2845,-23.49005],[-46.28469,-23.49007],[-46.28802,-23.49],[-46.28821,-23.48998],[-46.28839,-23.48992],[-46.28856,-23.48983],[-46.28871,-23.4897],[-46.28883,-23.48955],[-46.29083,-23.48655],[-46.29092,-23.48638],[-46.29098,-23.48619],[-46.291,-23.486],[-46.29098,-23.48581],[-46.29092,-23.48562],[-46.29083,-23.48545],[-46.28883,-23.48245],[-46.28869,-23.48228],[-46.28851,-23.48214],[-46.28831,-23.48205],[-46.28517,-23.48103],[-46.28507,-23.481],[-46.28468,-23.48092],[-46.2827,-23.4802],[-46.28256,-23.48014],[-46.28207,-23.47966],[-46.28296,-23.47431],[-46.28589,-23.46845],[-46.28596,-23.46829],[-46.28599,-23.46813],[-46.286,-23.46796],[-46.28564,-23.4589],[-46.28562,-23.45871],[-46.28555,-23.45852],[-46.28546,-23.45836],[-46.28533,-23.45821],[-46.28517,-23.45809],[-46.285,-23.458],[-46.28481,-23.45795],[-46.28464,-23.45792],[-46.28442,-23.45791],[-46.2842,-23.45795],[-46.284,-23.45803],[-46.28399,-23.45803],[-46.28377,-23.45779],[-46.28352,-23.45731],[-46.28341,-23.45715],[-46.28328,-23.45702],[-46.28313,-23.45691],[-46.28296,-23.45683],[-46.28277,-23.45678],[-46.28107,-23.45653],[-46.28096,-23.45652],[-46.28078,-23.45652],[-46.28031,-23.45623],[-46.27994,-23.45562],[-46.27986,-23.45528],[-46.27981,-23.45512],[-46.27973,-23.45497],[-46.27963,-23.45484],[-46.27922,-23.45439],[-46.27911,-23.45363],[-46.27905,-23.45343],[-46.27896,-23.45324],[-46.27883,-23.45308],[-46.27629,-23.45051],[-46.27627,-23.45049],[-46.27565,-23.44989],[-46.27565,-23.44988],[-46.2757,-23.44969],[-46.27579,-23.44911],[-46.27583,-23.44893],[-46.27585,-23.44874],[-46.27583,-23.44856],[-46.27578,-23.44838],[-46.2757,-23.44822],[-46.27562,-23.4481],[-46.27574,-23.44797],[-46.27587,-23.44792],[-46.27605,-23.44781],[-46.27621,-23.44766],[-46.27621,-23.44766],[-46.27628,-23.44763],[-46.27643,-23.44751],[-46.27656,-23.44736],[-46.27666,-23.44719],[-46.27677,-23.44695],[-46.27684,-23.44676],[-46.27686,-23.44657],[-46.27685,-23.44638],[-46.2768,-23.44619],[-46.27672,-23.44601],[-46.2766,-23.44586],[-46.27646,-23.44573],[-46.27599,-23.44538],[-46.27584,-23.44529],[-46.27567,-23.44523],[-46.27557,-23.44521],[-46.27551,-23.44514],[-46.27517,-23.44483],[-46.27502,-23.44472],[-46.27486,-23.44464],[-46.27468,-23.44459],[-46.27453,-23.44458],[-46.27446,-23.44454],[-46.27449,-23.44398],[-46.27448,-23.44378],[-46.27444,-23.44349],[-46.27438,-23.44328],[-46.27428,-23.44309],[-46.27414,-23.44292],[-46.27397,-23.44279],[-46.27391,-23.44275],[-46.27365,-23.4419],[-46.27393,-23.44118],[-46.27398,-23.44097],[-46.27399,-23.44075],[-46.27396,-23.44054],[-46.27394,-23.44048],[-46.27401,-23.44031],[-46.27404,-23.44012],[-46.27405,-23.43993],[-46.27401,-23.43974],[-46.27394,-23.43956],[-46.27384,-23.4394],[-46.27366,-23.43918],[-46.27366,-23.43913],[-46.2741,-23.4381],[-46.27416,-23.4379],[-46.27418,-23.43769],[-46.27415,-23.43748],[-46.27402,-23.43692],[-46.27396,-23.43674],[-46.27387,-23.43658],[-46.27375,-23.43644],[-46.27361,-23.43632],[-46.27281,-23.43578],[-46.27275,-23.43568],[-46.27244,-23.43482],[-46.27216,-23.4327],[-46.27212,-23.43254],[-46.27096,-23.42871],[-46.27089,-23.42854],[-46.27079,-23.42839],[-46.27066,-23.42825],[-46.27052,-23.42814],[-46.27035,-23.42806],[-46.26265,-23.42518],[-46.25683,-23.41645],[-46.25671,-23.4163],[-46.25656,-23.41617],[-46.25639,-23.41608],[-46.25014,-23.4134],[-46.25098,-23.4092],[-46.251,-23.40899],[-46.25098,-23.40878],[-46.25091,-23.40858],[-46.2508,-23.4084],[-46.2478,-23.4044],[-46.24767,-23.40426],[-46.24752,-23.40415],[-46.24735,-23.40406],[-46.24717,-23.40401],[-46.24698,-23.404],[-46.24679,-23.40402],[-46.24661,-23.40408],[-46.24644,-23.40417],[-46.24629,-23.40429],[-46.245,-23.40559],[-46.24341,-23.404],[-46.24471,-23.40271],[-46.24484,-23.40255],[-46.24493,-23.40236],[-46.24499,-23.40216],[-46.245,-23.40195],[-46.24497,-23.40175],[-46.24489,-23.40155],[-46.23989,-23.39155],[-46.23978,-23.39138],[-46.23964,-23.39123],[-46.23947,-23.39112],[-46.23927,-23.39104],[-46.23256,-23.38912],[-46.22676,-23.38235],[-46.22661,-23.3822],[-46.22643,-23.3821],[-46.22623,-23.38203],[-46.22602,-23.382],[-46.22581,-23.38202],[-46.22561,-23.38208],[-46.21957,-23.38467],[-46.21694,-23.37765],[-46.21685,-23.37747],[-46.21672,-23.37731],[-46.21657,-23.37718],[-46.21639,-23.37708],[-46.2162,-23.37702],[-46.216,-23.377],[-46.21244,-23.377],[-46.20274,-23.36633],[-46.20261,-23.36621],[-46.20246,-23.36611],[-46.20229,-23.36604],[-46.1895,-23.36211],[-46.18166,-23.35525],[-46.18151,-23.35514],[-46.18134,-23.35506],[-46.18116,-23.35501],[-46.18097,-23.355],[-46.18079,-23.35502],[-46.18061,-23.35508],[-46.18045,-23.35517],[-46.17776,-23.35696],[-46.1713,-23.35603],[-46.16559,-23.35318],[-46.16222,-23.3498],[-46.16389,-23.34645],[-46.16397,-23.34625],[-46.164,-23.34605],[-46.16399,-23.34584],[-46.16393,-23.34565],[-46.16384,-23.34546],[-46.16371,-23.3453],[-46.16355,-23.34517],[-46.15755,-23.34117],[-46.15737,-23.34107],[-46.15718,-23.34102],[-46.15697,-23.341],[-46.15677,-23.34103],[-46.15657,-23.3411],[-46.1564,-23.3412],[-46.15625,-23.34134],[-46.15613,-23.34151],[-46.15605,-23.3417],[-46.156,-23.3419],[-46.15501,-23.35187],[-46.15401,-23.35784],[-46.154,-23.358],[-46.154,-23.36181],[-46.15207,-23.36663],[-46.15202,-23.36681],[-46.152,-23.36701],[-46.15202,-23.3672],[-46.15208,-23.36738],[-46.15217,-23.36755],[-46.15408,-23.37043],[-46.159,-23.38714],[-46.159,-23.38783],[-46.15774,-23.39135],[-46.14542,-23.40019],[-46.14526,-23.40033],[-46.14513,-23.4005],[-46.14505,-23.40069],[-46.14501,-23.4009],[-46.14501,-23.40111],[-46.14505,-23.40132],[-46.14678,-23.40649],[-46.14155,-23.40911],[-46.1414,-23.4092],[-46.14126,-23.40933],[-46.14115,-23.40947],[-46.14107,-23.40964],[-46.14102,-23.40982],[-46.141,-23.41],[-46.141,-23.416],[-46.14102,-23.41619],[-46.14107,-23.41638],[-46.14116,-23.41655],[-46.14128,-23.4167],[-46.14143,-23.41682],[-46.14436,-23.41885],[-46.15333,-23.42506],[-46.14439,-23.43221],[-46.13685,-23.43786],[-46.12737,-23.43407],[-46.12717,-23.43401],[-46.12695,-23.434],[-46.12674,-23.43403],[-46.11561,-23.43697],[-46.11543,-23.43704],[-46.11526,-23.43715],[-46.11511,-23.43729],[-46.10237,-23.4522],[-46.09884,-23.45396],[-46.08388,-23.45154],[-46.07707,-23.45044],[-46.07686,-23.45043],[-46.07664,-23.45047],[-46.07645,-23.45055],[-46.07154,-23.45311],[-46.07136,-23.45323],[-46.06906,-23.45515],[-46.067,-23.45687],[-46.06617,-23.45756],[-46.06617,-23.45756],[-46.06573,-23.45792],[-46.06537,-23.45823],[-46.0647,-23.45878],[-46.0637,-23.45961],[-46.0614,-23.46117],[-46.06124,-23.46128],[-46.06066,-23.46167],[-46.06047,-23.4618],[-46.05994,-23.46216],[-46.0598,-23.46225],[-46.05922,-23.46264],[-46.05872,-23.46299],[-46.05855,-23.46309],[-46.05847,-23.46315],[-46.05844,-23.46317],[-46.0583,-23.46328],[-46.05818,-23.46342],[-46.05809,-23.46358],[-46.05808,-23.46362],[-46.05776,-23.4643],[-46.05755,-23.46475],[-46.0569,-23.46613],[-46.05658,-23.46683],[-46.05625,-23.46753],[-46.05624,-23.46756],[-46.05552,-23.4691],[-46.05547,-23.46917],[-46.05531,-23.46939],[-46.05344,-23.47206],[-46.05318,-23.47242],[-46.05309,-23.47258],[-46.05303,-23.47274],[-46.0522,-23.47585],[-46.052,-23.47664],[-46.05168,-23.47783],[-46.05076,-23.48126],[-46.05005,-23.48394],[-46.04903,-23.48774],[-46.049,-23.48793],[-46.04901,-23.48813],[-46.04905,-23.48832],[-46.04913,-23.48849],[-46.04924,-23.48865],[-46.04938,-23.48879],[-46.04954,-23.48889],[-46.04973,-23.48896],[-46.05933,-23.4917],[-46.06112,-23.49222],[-46.06191,-23.49244],[-46.0631,-23.49278],[-46.0642,-23.50046],[-46.06455,-23.50293],[-46.06469,-23.5039],[-46.06501,-23.50614],[-46.06506,-23.50635],[-46.06516,-23.50654],[-46.06529,-23.50671],[-46.06561,-23.50702],[-46.07129,-23.51271],[-46.07144,-23.51283],[-46.07162,-23.51292],[-46.0718,-23.51298],[-46.072,-23.513],[-46.0722,-23.51298],[-46.07238,-23.51292],[-46.07256,-23.51283],[-46.07271,-23.51271],[-46.07446,-23.51096],[-46.07603,-23.51724],[-46.0761,-23.51743],[-46.0762,-23.5176],[-46.07633,-23.51775],[-46.07649,-23.51786],[-46.07667,-23.51795],[-46.07687,-23.51799],[-46.07707,-23.518],[-46.07726,-23.51797],[-46.07745,-23.51789],[-46.07926,-23.51699],[-46.08204,-23.5156],[-46.08315,-23.51504],[-46.08466,-23.51429],[-46.08545,-23.51389],[-46.0856,-23.5138],[-46.08574,-23.51368],[-46.08585,-23.51353],[-46.08593,-23.51337],[-46.08629,-23.51246],[-46.08646,-23.51205],[-46.08704,-23.51059],[-46.08758,-23.50925],[-46.09268,-23.51095],[-46.09288,-23.51099],[-46.09309,-23.511],[-46.09329,-23.51096],[-46.10203,-23.50833],[-46.10209,-23.51047],[-46.10211,-23.51065],[-46.10216,-23.51082],[-46.10246,-23.51155],[-46.10255,-23.51173],[-46.10267,-23.51188],[-46.10281,-23.512],[-46.10298,-23.5121],[-46.10381,-23.51246],[-46.10395,-23.51251],[-46.1041,-23.51253],[-46.10463,-23.5126],[-46.10279,-23.5144],[-46.09833,-23.51874],[-46.09822,-23.51887],[-46.09813,-23.51902],[-46.09807,-23.51919],[-46.09804,-23.51936],[-46.09788,-23.52087],[-46.09789,-23.5211],[-46.09822,-23.52354],[-46.09827,-23.52374],[-46.09842,-23.52417],[-46.0986,-23.52468],[-46.09862,-23.52472],[-46.09878,-23.5251],[-46.09887,-23.52528],[-46.09899,-23.52543],[-46.10034,-23.5268],[-46.1005,-23.52694],[-46.10069,-23.52703],[-46.1009,-23.52709],[-46.10111,-23.5271],[-46.10132,-23.52706],[-46.10168,-23.52696],[-46.10189,-23.52721],[-46.10339,-23.52888],[-46.10702,-23.53294],[-46.10704,-23.53296],[-46.10808,-23.53406],[-46.10854,-23.53455],[-46.10857,-23.5347],[-46.10864,-23.53491],[-46.10875,-23.5351],[-46.1089,-23.53526],[-46.10942,-23.53572],[-46.10955,-23.53581],[-46.1097,-23.53589],[-46.11018,-23.53608],[-46.11013,-23.53732],[-46.10999,-23.53774],[-46.10995,-23.53793],[-46.10994,-23.53812],[-46.10997,-23.53831],[-46.11004,-23.53849],[-46.11014,-23.53866],[-46.11026,-23.53881],[-46.11031,-23.53897],[-46.11057,-23.53984],[-46.11098,-23.54118],[-46.11109,-23.54155],[-46.11113,-23.54168],[-46.11125,-23.54195],[-46.1114,-23.5422],[-46.11184,-23.54272],[-46.1121,-23.54328],[-46.1123,-23.54447],[-46.11254,-23.54591],[-46.1133,-23.55067],[-46.1133,-23.55068],[-46.11342,-23.55142],[-46.11342,-23.55142],[-46.11328,-23.55128],[-46.11313,-23.55117],[-46.11297,-23.55109],[-46.1128,-23.55103],[-46.11261,-23.55099],[-46.11241,-23.55097],[-46.1122,-23.55099],[-46.112,-23.55106],[-46.11184,-23.55113],[-46.11168,-23.55122],[-46.11154,-23.55133],[-46.11146,-23.55143],[-46.11141,-23.55144],[-46.11124,-23.55151],[-46.11108,-23.55161],[-46.11095,-23.55173],[-46.11094,-23.55174],[-46.11091,-23.55174],[-46.11077,-23.55173],[-46.11062,-23.55174],[-46.11046,-23.55176],[-46.11033,-23.5518],[-46.11017,-23.55186],[-46.11002,-23.55194],[-46.10984,-23.55206],[-46.10971,-23.55217],[-46.10961,-23.55229],[-46.10956,-23.55227],[-46.10937,-23.55225],[-46.10925,-23.55225],[-46.10907,-23.55225],[-46.10894,-23.55226],[-46.10875,-23.55228],[-46.10848,-23.55236],[-46.1083,-23.55244],[-46.10812,-23.55255],[-46.10797,-23.55269],[-46.10789,-23.55278],[-46.10775,-23.55297],[-46.10774,-23.553],[-46.10773,-23.55299],[-46.10753,-23.55297],[-46.10733,-23.55299],[-46.10723,-23.55301],[-46.10702,-23.55307],[-46.10683,-23.55318],[-46.10667,-23.55332],[-46.10658,-23.55342],[-46.10647,-23.55357],[-46.10639,-23.55373],[-46.10636,-23.55383],[-46.10623,-23.5538],[-46.10608,-23.55379],[-46.10599,-23.5538],[-46.10583,-23.5537],[-46.10564,-23.55363],[-46.10544,-23.5536],[-46.10535,-23.5536],[-46.10513,-23.55362],[-46.10491,-23.55369],[-46.10471,-23.5538],[-46.10467,-23.55384],[-46.10422,-23.55382],[-46.104,-23.55383],[-46.10384,-23.55388],[-46.10378,-23.55378],[-46.10363,-23.55362],[-46.10353,-23.55355],[-46.10345,-23.5535],[-46.10344,-23.55347],[-46.10336,-23.55332],[-46.10325,-23.55318],[-46.10316,-23.5531],[-46.10299,-23.55295],[-46.10278,-23.55285],[-46.10256,-23.5528],[-46.10244,-23.55279],[-46.10242,-23.55279],[-46.10241,-23.55277],[-46.10231,-23.55265],[-46.10219,-23.55256],[-46.10199,-23.55241],[-46.10184,-23.55232],[-46.10168,-23.55226],[-46.1015,-23.55223],[-46.10132,-23.55221],[-46.10113,-23.55221],[-46.10093,-23.55225],[-46.10075,-23.55232],[-46.10059,-23.55243],[-46.10057,-23.55245],[-46.10053,-23.55244],[-46.10042,-23.55244],[-46.10025,-23.55244],[-46.10008,-23.55247],[-46.09992,-23.55253],[-46.09977,-23.55262],[-46.09966,-23.5527],[-46.0995,-23.55283],[-46.09938,-23.55299],[-46.09934,-23.55308],[-46.09927,-23.55311],[-46.0992,-23.55303],[-46.09906,-23.55293],[-46.09891,-23.55285],[-46.09875,-23.5528],[-46.09863,-23.55277],[-46.09841,-23.55275],[-46.09818,-23.55278],[-46.09798,-23.55283],[-46.09794,-23.55284],[-46.09782,-23.55276],[-46.09768,-23.5527],[-46.0976,-23.55258],[-46.09748,-23.55245],[-46.09734,-23.55234],[-46.09725,-23.55228],[-46.09709,-23.5522],[-46.09693,-23.55215],[-46.09675,-23.55213],[-46.09658,-23.55214],[-46.09649,-23.55215],[-46.09639,-23.5521],[-46.09622,-23.55203],[-46.09605,-23.55199],[-46.09587,-23.55198],[-46.09565,-23.55199],[-46.0955,-23.55201],[-46.09535,-23.55205],[-46.09522,-23.5521],[-46.09506,-23.55217],[-46.09492,-23.55228],[-46.09479,-23.5524],[-46.09473,-23.5525],[-46.09459,-23.55258],[-46.09444,-23.55269],[-46.09436,-23.55278],[-46.09416,-23.5528],[-46.09395,-23.55285],[-46.09376,-23.55294],[-46.09361,-23.55303],[-46.09346,-23.55315],[-46.09333,-23.55329],[-46.09322,-23.55344],[-46.0931,-23.55365],[-46.09299,-23.5539],[-46.0929,-23.55394],[-46.09274,-23.55404],[-46.0926,-23.55417],[-46.09249,-23.55432],[-46.09241,-23.55449],[-46.09237,-23.55467],[-46.09084,-23.56399],[-46.09083,-23.56419],[-46.09085,-23.56439],[-46.09092,-23.56458],[-46.09102,-23.56475],[-46.09115,-23.5649],[-46.09131,-23.56502],[-46.09149,-23.5651],[-46.09169,-23.56515],[-46.09218,-23.56522],[-46.09216,-23.56524],[-46.09207,-23.56542],[-46.09205,-23.5655],[-46.09191,-23.56557],[-46.09176,-23.56568],[-46.09167,-23.56577],[-46.09154,-23.56591],[-46.09144,-23.56608],[-46.09138,-23.56625],[-46.08892,-23.56863],[-46.08879,-23.56878],[-46.08869,-23.56895],[-46.08863,-23.56913],[-46.08814,-23.57139],[-46.08698,-23.57545],[-46.08694,-23.57569],[-46.08685,-23.57803],[-46.08686,-23.57818],[-46.08689,-23.57833],[-46.08779,-23.58165],[-46.08787,-23.58186],[-46.088,-23.58205],[-46.08817,-23.5822],[-46.08957,-23.58321],[-46.08906,-23.5853],[-46.08903,-23.58545],[-46.08903,-23.58561],[-46.08916,-23.58736],[-46.08917,-23.58738],[-46.08962,-23.59226],[-46.08913,-23.59662],[-46.08775,-23.59939],[-46.08768,-23.59957],[-46.08765,-23.59977],[-46.08766,-23.59997],[-46.08771,-23.60036],[-46.08706,-23.60065],[-46.08689,-23.60074],[-46.08674,-23.60087],[-46.08662,-23.60103],[-46.08618,-23.6017],[-46.08608,-23.6019],[-46.08584,-23.60257],[-46.0858,-23.60278],[-46.08579,-23.60298],[-46.08583,-23.60319],[-46.08591,-23.60338],[-46.08602,-23.60356],[-46.08757,-23.60538],[-46.08753,-23.61099],[-46.08754,-23.61115],[-46.08758,-23.6113],[-46.08931,-23.61675],[-46.08938,-23.6169],[-46.0933,-23.62448],[-46.09328,-23.63253],[-46.09279,-23.63436],[-46.08989,-23.63857],[-46.08977,-23.63881],[-46.08944,-23.63976],[-46.0894,-23.63995],[-46.08939,-23.64014],[-46.08965,-23.64529],[-46.08967,-23.64546],[-46.08972,-23.64562],[-46.08979,-23.64577],[-46.09094,-23.64763],[-46.09104,-23.64777],[-46.09687,-23.65432],[-46.09689,-23.65452],[-46.09605,-23.65583],[-46.09596,-23.65601],[-46.0959,-23.6562],[-46.09589,-23.6564],[-46.09591,-23.65737],[-46.09594,-23.65755],[-46.09599,-23.65773],[-46.09684,-23.65974],[-46.09692,-23.65989],[-46.09702,-23.66002],[-46.10026,-23.6636],[-46.10152,-23.66541],[-46.10105,-23.66572],[-46.10091,-23.66583],[-46.10078,-23.66597],[-46.10038,-23.66652],[-46.10007,-23.66654],[-46.08219,-23.66293],[-46.08199,-23.66291],[-46.08179,-23.66293],[-46.0816,-23.66299],[-46.08143,-23.66309],[-46.08128,-23.66321],[-46.08115,-23.66337],[-46.08106,-23.66355],[-46.08043,-23.66514],[-46.08039,-23.6653],[-46.08036,-23.66547],[-46.08025,-23.66845],[-46.08026,-23.6686],[-46.08079,-23.67314],[-46.08077,-23.67318],[-46.08069,-23.67334],[-46.08067,-23.67339],[-46.08056,-23.67362],[-46.08049,-23.6738],[-46.08046,-23.674],[-46.08047,-23.67419],[-46.08178,-23.68343],[-46.08184,-23.68364],[-46.08194,-23.68384],[-46.0856,-23.68932],[-46.08841,-23.69779],[-46.08853,-23.69803],[-46.09044,-23.70089],[-46.09059,-23.70111],[-46.09075,-23.70146],[-46.09119,-23.70534],[-46.09123,-23.70554],[-46.09131,-23.70572],[-46.09202,-23.70695],[-46.09212,-23.7071],[-46.09225,-23.70723],[-46.0924,-23.70734],[-46.0943,-23.70838],[-46.09794,-23.71415],[-46.09763,-23.71506],[-46.09759,-23.71525],[-46.09758,-23.71544],[-46.09761,-23.71563],[-46.09803,-23.71725],[-46.0981,-23.71743],[-46.0982,-23.71759],[-46.09832,-23.71774],[-46.09848,-23.71785],[-46.09865,-23.71794],[-46.09883,-23.71799],[-46.09902,-23.718],[-46.09921,-23.71798],[-46.09939,-23.71792],[-46.09956,-23.71783],[-46.09971,-23.71771],[-46.10507,-23.71234],[-46.11438,-23.71978],[-46.11445,-23.71983],[-46.117,-23.72152],[-46.11757,-23.72353],[-46.11765,-23.72372],[-46.11776,-23.72389],[-46.11791,-23.72403],[-46.11808,-23.72415],[-46.11827,-23.72422],[-46.11848,-23.72425],[-46.11868,-23.72424],[-46.11888,-23.72419],[-46.11906,-23.7241],[-46.12225,-23.72213],[-46.12239,-23.72202],[-46.12251,-23.72189],[-46.12261,-23.72174],[-46.12268,-23.72158],[-46.12271,-23.7214],[-46.12291,-23.71976],[-46.12453,-23.71925],[-46.12471,-23.71917],[-46.12487,-23.71906],[-46.12501,-23.71892],[-46.12511,-23.71876],[-46.12519,-23.71858],[-46.12523,-23.71839],[-46.12523,-23.7182],[-46.12519,-23.71801],[-46.12512,-23.71783],[-46.12347,-23.71466],[-46.1255,-23.71416],[-46.1287,-23.71997],[-46.12885,-23.72018],[-46.13045,-23.72188],[-46.13051,-23.72425],[-46.13053,-23.72443],[-46.13058,-23.72459],[-46.13066,-23.72475],[-46.13076,-23.72489],[-46.13089,-23.72501],[-46.13219,-23.72602],[-46.13236,-23.72613],[-46.13255,-23.7262],[-46.13276,-23.72623],[-46.13296,-23.72622],[-46.13514,-23.72587],[-46.13876,-23.7289],[-46.13892,-23.72901],[-46.13909,-23.72908],[-46.13927,-23.72913],[-46.13946,-23.72913],[-46.13965,-23.7291],[-46.13983,-23.72904],[-46.13999,-23.72894],[-46.14013,-23.72882],[-46.14113,-23.72775],[-46.14178,-23.72819],[-46.14195,-23.72829],[-46.14214,-23.72835],[-46.14234,-23.72837],[-46.14253,-23.72835],[-46.14495,-23.72788],[-46.14652,-23.72892],[-46.14842,-23.73179],[-46.14923,-23.73316],[-46.14941,-23.73339],[-46.14995,-23.73389],[-46.15088,-23.73532],[-46.151,-23.73546],[-46.15113,-23.73558],[-46.15129,-23.73568],[-46.15146,-23.73574],[-46.15202,-23.73589],[-46.15217,-23.73592],[-46.15232,-23.73592],[-46.15317,-23.73588],[-46.15577,-23.73693],[-46.15596,-23.73698],[-46.15617,-23.737],[-46.15637,-23.73697],[-46.15656,-23.73691],[-46.15674,-23.7368],[-46.15689,-23.73666],[-46.15834,-23.73503],[-46.16069,-23.73411],[-46.16276,-23.73442],[-46.16353,-23.73491],[-46.16458,-23.73599],[-46.16474,-23.73612],[-46.16492,-23.73622],[-46.16512,-23.73628],[-46.16532,-23.7363],[-46.16553,-23.73627],[-46.16572,-23.7362],[-46.16849,-23.73492],[-46.16873,-23.73476],[-46.17004,-23.73362],[-46.17161,-23.73407],[-46.17171,-23.73532],[-46.17174,-23.73551],[-46.17181,-23.73569],[-46.17191,-23.73586],[-46.17204,-23.736],[-46.1722,-23.73611],[-46.1735,-23.73686],[-46.17371,-23.73696],[-46.17395,-23.737],[-46.17525,-23.73707],[-46.17559,-23.73813],[-46.17551,-23.7388],[-46.17551,-23.739],[-46.17554,-23.7392],[-46.17562,-23.73939],[-46.17573,-23.73956],[-46.17588,-23.7397],[-46.17605,-23.73981],[-46.17662,-23.7401],[-46.17727,-23.74151],[-46.17758,-23.74281],[-46.17726,-23.74332],[-46.17717,-23.74353],[-46.17712,-23.74375],[-46.17712,-23.74397],[-46.17742,-23.74632],[-46.17746,-23.7465],[-46.17753,-23.74667],[-46.17763,-23.74682],[-46.17775,-23.74695],[-46.1779,-23.74706],[-46.17806,-23.74713],[-46.17904,-23.74749],[-46.17921,-23.74754],[-46.1794,-23.74756],[-46.17958,-23.74754],[-46.17975,-23.74749],[-46.17991,-23.74741],[-46.18006,-23.7473],[-46.18104,-23.7464],[-46.18157,-23.74656],[-46.18178,-23.74659],[-46.18199,-23.74659],[-46.1822,-23.74653],[-46.18239,-23.74643],[-46.18374,-23.74556],[-46.18574,-23.74581],[-46.18827,-23.74791],[-46.18831,-23.74883],[-46.18834,-23.74903],[-46.18842,-23.74922],[-46.1896,-23.75162],[-46.18975,-23.75184],[-46.19123,-23.75349],[-46.19199,-23.75496],[-46.1921,-23.75513],[-46.19226,-23.75528],[-46.19244,-23.75539],[-46.19263,-23.75547],[-46.19284,-23.75549],[-46.19305,-23.75548],[-46.19435,-23.75524],[-46.19501,-23.75539],[-46.19522,-23.75542],[-46.19542,-23.7554],[-46.19562,-23.75534],[-46.1958,-23.75524],[-46.19784,-23.75385],[-46.19868,-23.754],[-46.19888,-23.75402],[-46.19908,-23.754],[-46.19927,-23.75393],[-46.19944,-23.75383],[-46.19986,-23.75354],[-46.20097,-23.75302],[-46.20167,-23.75282],[-46.20231,-23.75289],[-46.20256,-23.75288],[-46.20307,-23.7528],[-46.2033,-23.75274],[-46.20352,-23.75265],[-46.20368,-23.75257],[-46.20382,-23.75246],[-46.20395,-23.75232],[-46.20404,-23.75217],[-46.20408,-23.75207],[-46.20504,-23.75237],[-46.20523,-23.75241],[-46.20542,-23.75241],[-46.20561,-23.75237],[-46.20691,-23.75199],[-46.20782,-23.75225],[-46.20802,-23.75229],[-46.20823,-23.75229],[-46.20844,-23.75224],[-46.20862,-23.75214],[-46.20879,-23.75202],[-46.20892,-23.75186],[-46.20921,-23.75144],[-46.2093,-23.75126],[-46.20936,-23.75106],[-46.20938,-23.75086],[-46.20935,-23.75065],[-46.20928,-23.75046],[-46.20918,-23.75023],[-46.20963,-23.74977],[-46.20975,-23.7496],[-46.20984,-23.74942],[-46.20989,-23.74922],[-46.2099,-23.74901],[-46.20987,-23.74881],[-46.20979,-23.74862],[-46.20887,-23.74682],[-46.20886,-23.74623],[-46.20916,-23.74481],[-46.20918,-23.74465],[-46.2092,-23.74423],[-46.20948,-23.74421],[-46.20968,-23.74417],[-46.20987,-23.74409],[-46.21004,-23.74398],[-46.21155,-23.74271],[-46.21342,-23.74355],[-46.21541,-23.74462],[-46.21609,-23.74529],[-46.21625,-23.74541],[-46.21644,-23.74551],[-46.21664,-23.74556],[-46.21685,-23.74557],[-46.21705,-23.74553],[-46.21872,-23.74507],[-46.21887,-23.74501],[-46.21901,-23.74494],[-46.22072,-23.7438],[-46.22089,-23.74366],[-46.22271,-23.74175],[-46.22387,-23.74165],[-46.22504,-23.74172],[-46.22523,-23.74172],[-46.22542,-23.74167],[-46.2256,-23.74159],[-46.22576,-23.74148],[-46.22589,-23.74134],[-46.226,-23.74118],[-46.22607,-23.741],[-46.22669,-23.73882],[-46.22941,-23.73801],[-46.22974,-23.73795],[-46.23082,-23.73839],[-46.23104,-23.73845],[-46.23126,-23.73846],[-46.23185,-23.73842],[-46.23211,-23.73837],[-46.23298,-23.73807],[-46.23521,-23.73823],[-46.23542,-23.73823],[-46.23563,-23.73817],[-46.23583,-23.73807],[-46.236,-23.73793],[-46.23645,-23.73746],[-46.23742,-23.73678],[-46.23824,-23.73639],[-46.23826,-23.73639],[-46.23864,-23.73666],[-46.23897,-23.73714],[-46.23947,-23.73827],[-46.23955,-23.73843],[-46.23967,-23.73857],[-46.2398,-23.73868],[-46.24037,-23.73909],[-46.24062,-23.7398],[-46.24074,-23.74045],[-46.24078,-23.74061],[-46.24085,-23.74077],[-46.24095,-23.74091],[-46.24155,-23.74164],[-46.24172,-23.7418],[-46.24192,-23.74191],[-46.24314,-23.74246],[-46.24417,-23.74336],[-46.24427,-23.74431],[-46.24432,-23.74454],[-46.24491,-23.74621],[-46.24499,-23.74638],[-46.24511,-23.74654],[-46.24525,-23.74667],[-46.24542,-23.74677],[-46.24561,-23.74684],[-46.2458,-23.74687],[-46.24681,-23.74693],[-46.24685,-23.74697],[-46.24696,-23.74877],[-46.24677,-23.74976],[-46.24611,-23.75059],[-46.24601,-23.75073],[-46.24594,-23.75089],[-46.2459,-23.75106],[-46.24583,-23.75146],[-46.24554,-23.75235],[-46.24549,-23.75257],[-46.24549,-23.75279],[-46.24554,-23.753],[-46.24564,-23.7532],[-46.24609,-23.75392],[-46.24635,-23.75495],[-46.24641,-23.75511],[-46.24649,-23.75526],[-46.2466,-23.75539],[-46.2478,-23.75664],[-46.24869,-23.75795],[-46.24879,-23.75808],[-46.24892,-23.75819],[-46.24907,-23.75828],[-46.25216,-23.75983],[-46.25287,-23.76019],[-46.25307,-23.76026],[-46.25415,-23.76055],[-46.25381,-23.76112],[-46.25372,-23.76129],[-46.25367,-23.76148],[-46.25366,-23.76168],[-46.25369,-23.76187],[-46.25377,-23.76218],[-46.25384,-23.76237],[-46.25394,-23.76255],[-46.25408,-23.7627],[-46.25419,-23.76277],[-46.25414,-23.76305],[-46.25412,-23.76325],[-46.25415,-23.76345],[-46.25421,-23.76364],[-46.25431,-23.76381],[-46.25444,-23.76396],[-46.25593,-23.76537],[-46.25658,-23.76616],[-46.25671,-23.7663],[-46.25686,-23.7664],[-46.25776,-23.76691],[-46.25815,-23.76753],[-46.25825,-23.76767],[-46.25838,-23.76778],[-46.25958,-23.76875],[-46.25974,-23.76885],[-46.25991,-23.76892],[-46.26009,-23.76896],[-46.26027,-23.76896],[-46.26045,-23.76894],[-46.26063,-23.76888],[-46.26207,-23.76821],[-46.26397,-23.76885],[-46.26587,-23.76988],[-46.26605,-23.76996],[-46.26624,-23.77],[-46.26643,-23.77],[-46.26884,-23.76979],[-46.27105,-23.77064],[-46.27125,-23.77069],[-46.27146,-23.7707],[-46.27166,-23.77067],[-46.27186,-23.7706],[-46.27405,-23.76948],[-46.27449,-23.76941],[-46.27479,-23.76944],[-46.27614,-23.7704],[-46.27626,-23.77048],[-46.27792,-23.77133],[-46.2781,-23.7714],[-46.2783,-23.77143],[-46.27849,-23.77143],[-46.27868,-23.77139],[-46.27886,-23.77131],[-46.27903,-23.7712],[-46.27916,-23.77106],[-46.27944,-23.7707],[-46.27952,-23.77059],[-46.27952,-23.77059],[-46.28049,-23.7702],[-46.28065,-23.77012],[-46.28123,-23.76976],[-46.28135,-23.76967],[-46.28146,-23.76956],[-46.28202,-23.76891],[-46.28223,-23.76893],[-46.28242,-23.76893],[-46.28262,-23.7689],[-46.2828,-23.76883],[-46.28345,-23.76849],[-46.28364,-23.76837],[-46.28379,-23.76821],[-46.28447,-23.76733],[-46.28458,-23.76714],[-46.28474,-23.7668],[-46.2848,-23.76663],[-46.28483,-23.76645],[-46.28483,-23.76627],[-46.28479,-23.76587],[-46.28476,-23.76573],[-46.28464,-23.76528],[-46.28458,-23.76512],[-46.28454,-23.76504],[-46.28469,-23.76493],[-46.28481,-23.76483],[-46.28537,-23.76424],[-46.28545,-23.76415],[-46.28567,-23.76385],[-46.28576,-23.76372],[-46.28597,-23.76333],[-46.28605,-23.76312],[-46.28609,-23.7629],[-46.2861,-23.76268],[-46.2861,-23.7626],[-46.28609,-23.76201],[-46.28607,-23.76183],[-46.28602,-23.76166],[-46.28593,-23.7615],[-46.28582,-23.76131],[-46.28569,-23.76116],[-46.28558,-23.76106],[-46.28608,-23.75981],[-46.28614,-23.75963],[-46.28615,-23.75944],[-46.28615,-23.75891],[-46.28634,-23.75877],[-46.28647,-23.75866],[-46.28658,-23.75852],[-46.28666,-23.75837],[-46.28672,-23.75824],[-46.28678,-23.75805],[-46.2868,-23.75788],[-46.28691,-23.75782],[-46.2871,-23.75769],[-46.28725,-23.75753],[-46.28737,-23.75733],[-46.28756,-23.7569],[-46.28919,-23.75551],[-46.28987,-23.7551],[-46.29002,-23.75499],[-46.29014,-23.75487],[-46.29061,-23.75427],[-46.29115,-23.75389],[-46.29129,-23.75379],[-46.2914,-23.75366],[-46.29149,-23.75351],[-46.29164,-23.7532],[-46.29211,-23.7532],[-46.29236,-23.75316],[-46.29273,-23.75307],[-46.29292,-23.753],[-46.29309,-23.7529],[-46.29323,-23.75276],[-46.29363,-23.75232],[-46.29376,-23.75213],[-46.29391,-23.75186],[-46.29392,-23.75183],[-46.29424,-23.75119],[-46.29469,-23.75054],[-46.29593,-23.75008],[-46.29606,-23.75002],[-46.29666,-23.75053],[-46.29762,-23.75212],[-46.29775,-23.75229],[-46.2979,-23.75242],[-46.29809,-23.75252],[-46.29828,-23.75258],[-46.29849,-23.7526],[-46.29902,-23.7526],[-46.29921,-23.75258],[-46.29968,-23.75249],[-46.29989,-23.75242],[-46.30009,-23.75231],[-46.30025,-23.75215],[-46.30043,-23.75194],[-46.30084,-23.75178],[-46.30266,-23.75184],[-46.30286,-23.75183],[-46.30306,-23.75178],[-46.30324,-23.75169],[-46.30368,-23.7514],[-46.30374,-23.75136],[-46.30702,-23.74894],[-46.30903,-23.74901],[-46.30922,-23.749],[-46.30941,-23.74895],[-46.30958,-23.74887],[-46.31033,-23.74842],[-46.31111,-23.74828],[-46.31127,-23.74833],[-46.31164,-23.74864],[-46.3118,-23.74876],[-46.31198,-23.74884],[-46.31217,-23.74888],[-46.31236,-23.74888],[-46.31256,-23.74885],[-46.31274,-23.74878],[-46.3129,-23.74867],[-46.31305,-23.74854],[-46.31316,-23.74838],[-46.31324,-23.7482],[-46.31383,-23.74638],[-46.31467,-23.74486],[-46.31487,-23.74481],[-46.31599,-23.74561],[-46.31619,-23.74572],[-46.31641,-23.74578],[-46.31683,-23.74585],[-46.31684,-23.74614],[-46.31686,-23.74632],[-46.31691,-23.74649],[-46.317,-23.74665],[-46.31711,-23.74679],[-46.31726,-23.74696],[-46.31741,-23.74709],[-46.31759,-23.74719],[-46.31778,-23.74725],[-46.31798,-23.74727],[-46.31861,-23.74728],[-46.31882,-23.74727],[-46.31901,-23.74721],[-46.31952,-23.747],[-46.31971,-23.74689],[-46.31988,-23.74675],[-46.32,-23.74657],[-46.32005,-23.74647],[-46.32015,-23.74651],[-46.32035,-23.74653],[-46.32054,-23.74651],[-46.32073,-23.74646],[-46.32097,-23.74636],[-46.32121,-23.74637],[-46.32144,-23.74635],[-46.32165,-23.74629],[-46.32184,-23.74617],[-46.32286,-23.74542],[-46.32299,-23.7453],[-46.32311,-23.74516],[-46.32319,-23.745],[-46.32324,-23.74483],[-46.32326,-23.74465],[-46.32327,-23.74431],[-46.32327,-23.74415],[-46.32323,-23.74398],[-46.32317,-23.74383],[-46.323,-23.74351]]]},"properties":{"ghs":"6gz","size":1310.38,"ghs_len":3,"ghs_area":733.12,"ghs_bytes":771150,"ghs_items":3063,"size_unit":"km","ghsval_unit":"bytes","ghs_itemsdensity":4.18,"size_unitdensity":1.79}}]}
