{"type": "FeatureCollection", "features": [
{"type": "Feature", "geometry": {"type": "Polygon", "coordinates": [[[-47.808369, -16.001302], [-47.808415, -16.001336], [-47.808459, -16.00128], [-47.808386, -16.001227], [-47.808345, -16.00128], [-47.808371, -16.001299], [-47.808369, -16.001302]]]}, "properties": {}},
{"type": "Feature", "geometry": {"type": "Polygon", "coordinates": [[[-47.810784, -15.999559], [-47.810756, -15.99955], [-47.810745, -15.99958], [-47.810773, -15.99959], [-47.810784, -15.999559]]]}, "properties": {}},
{"type": "Feature", "geometry": {"type": "Polygon", "coordinates": [[[-47.810579, -16.000406], [-47.810617, -16.00034], [-47.810611, -16.000336], [-47.810577, -16.000318], [-47.810576, -16.000319], [-47.810539, -16.000384], [-47.810579, -16.000406]]]}, "properties": {}},
{"type": "Feature", "geometry": {"type": "Polygon", "coordinates": [[[-47.809023, -16.005889], [-47.808972, -16.00582], [-47.808917, -16.005857], [-47.808967, -16.005927], [-47.809023, -16.005889]]]}, "properties": {}},
{"type": "Feature", "geometry": {"type": "Polygon", "coordinates": [[[-47.811342, -16.005237], [-47.811367, -16.005205], [-47.811377, -16.005192], [-47.811343, -16.005168], [-47.811315, -16.005205], [-47.81131, -16.005212], [-47.811342, -16.005237]]]}, "properties": {}},
{"type": "Feature", "geometry": {"type": "Polygon", "coordinates": [[[-47.808904, -16.008379], [-47.808801, -16.008314], [-47.808754, -16.008383], [-47.808857, -16.008449], [-47.808904, -16.008379]]]}, "properties": {}},
{"type": "Feature", "geometry": {"type": "Polygon", "coordinates": [[[-47.811793, -16.007466], [-47.811792, -16.007438], [-47.811747, -16.007439], [-47.811747, -16.007467], [-47.811793, -16.007466]]]}, "properties": {}},
{"type": "Feature", "geometry": {"type": "Polygon", "coordinates": [[[-47.811658, -16.0057], [-47.811659, -16.005714], [-47.811727, -16.00571], [-47.811722, -16.005629], [-47.811659, -16.005633], [-47.811664, -16.0057], [-47.811658, -16.0057]]]}, "properties": {}},
{"type": "Feature", "geometry": {"type": "Polygon", "coordinates": [[[-47.811514, -16.006599], [-47.811509, -16.00655], [-47.811476, -16.006553], [-47.811482, -16.006602], [-47.811514, -16.006599]]]}, "properties": {}},
{"type": "Feature", "geometry": {"type": "Polygon", "coordinates": [[[-47.807525, -16.006853], [-47.807502, -16.006843], [-47.807489, -16.006868], [-47.80757, -16.006907], [-47.80762, -16.006808], [-47.807539, -16.00677], [-47.807523, -16.006803], [-47.807545, -16.006813], [-47.807525, -16.006853]]]}, "properties": {}},
{"type": "Feature", "geometry": {"type": "Polygon", "coordinates": [[[-47.811327, -15.998398], [-47.811365, -15.998413], [-47.811398, -15.998337], [-47.811337, -15.998312], [-47.811318, -15.998358], [-47.81134, -15.998367], [-47.811327, -15.998398]]]}, "properties": {}},
{"type": "Feature", "geometry": {"type": "Polygon", "coordinates": [[[-47.807764, -16.001736], [-47.807741, -16.001716], [-47.807704, -16.001755], [-47.807726, -16.001775], [-47.807764, -16.001736]]]}, "properties": {}},
{"type": "Feature", "geometry": {"type": "Polygon", "coordinates": [[[-47.809023, -16.003909], [-47.808991, -16.00389], [-47.808942, -16.003967], [-47.808974, -16.003986], [-47.809023, -16.003909]]]}, "properties": {}},
{"type": "Feature", "geometry": {"type": "Polygon", "coordinates": [[[-47.811022, -16.003175], [-47.810978, -16.003161], [-47.810957, -16.003223], [-47.811001, -16.003237], [-47.811022, -16.003175]]]}, "properties": {}},
{"type": "Feature", "geometry": {"type": "Polygon", "coordinates": [[[-47.810821, -16.002114], [-47.810882, -16.002031], [-47.8109, -16.002006], [-47.810899, -16.002005], [-47.810878, -16.00199], [-47.810833, -16.001959], [-47.810752, -16.002067], [-47.810821, -16.002115], [-47.810821, -16.002114]]]}, "properties": {}},
{"type": "Feature", "geometry": {"type": "Polygon", "coordinates": [[[-47.808962, -16.003688], [-47.808919, -16.003662], [-47.808917, -16.003665], [-47.808911, -16.003662], [-47.80889, -16.003693], [-47.808938, -16.003723], [-47.808962, -16.003688]]]}, "properties": {}},
{"type": "Feature", "geometry": {"type": "Polygon", "coordinates": [[[-47.808512, -16.006093], [-47.808459, -16.006084], [-47.808451, -16.006124], [-47.808504, -16.006133], [-47.808512, -16.006093]]]}, "properties": {}},
{"type": "Feature", "geometry": {"type": "Polygon", "coordinates": [[[-47.808596, -16.005982], [-47.808596, -16.005981], [-47.808564, -16.005924], [-47.808562, -16.005921], [-47.808501, -16.005953], [-47.808535, -16.006014], [-47.808596, -16.005982]]]}, "properties": {}},
{"type": "Feature", "geometry": {"type": "Polygon", "coordinates": [[[-47.808526, -16.005865], [-47.808547, -16.005835], [-47.808528, -16.005799], [-47.808489, -16.005798], [-47.808469, -16.005828], [-47.808486, -16.005864], [-47.808526, -16.005865]]]}, "properties": {}},
{"type": "Feature", "geometry": {"type": "Polygon", "coordinates": [[[-47.812415, -16.003284], [-47.812388, -16.003287], [-47.812395, -16.003344], [-47.812506, -16.003332], [-47.812534, -16.003329], [-47.812528, -16.003276], [-47.812506, -16.003279], [-47.812416, -16.003288], [-47.812415, -16.003284]]]}, "properties": {}},
{"type": "Feature", "geometry": {"type": "Polygon", "coordinates": [[[-47.808308, -16.006561], [-47.808283, -16.006463], [-47.80821, -16.006481], [-47.808235, -16.006579], [-47.808308, -16.006561]]]}, "properties": {}},
{"type": "Feature", "geometry": {"type": "Polygon", "coordinates": [[[-47.811632, -16.001867], [-47.811555, -16.001815], [-47.811511, -16.00188], [-47.811589, -16.00193], [-47.811632, -16.001867]]]}, "properties": {}},
{"type": "Feature", "geometry": {"type": "Polygon", "coordinates": [[[-47.811344, -15.998224], [-47.811262, -15.998195], [-47.811239, -15.998255], [-47.811318, -15.998284], [-47.811344, -15.998224]]]}, "properties": {}},
{"type": "Feature", "geometry": {"type": "Polygon", "coordinates": [[[-47.81162, -16.001982], [-47.811577, -16.001954], [-47.811501, -16.002063], [-47.811546, -16.002092], [-47.81162, -16.001982]]]}, "properties": {}},
{"type": "Feature", "geometry": {"type": "Polygon", "coordinates": [[[-47.80839, -16.005779], [-47.808319, -16.005802], [-47.808347, -16.005883], [-47.808443, -16.005854], [-47.808485, -16.00579], [-47.808442, -16.005763], [-47.808409, -16.005809], [-47.808399, -16.005814], [-47.80839, -16.005779]]]}, "properties": {}},
{"type": "Feature", "geometry": {"type": "Polygon", "coordinates": [[[-47.811189, -16.00803], [-47.81118, -16.007956], [-47.81112, -16.007963], [-47.811128, -16.008036], [-47.811189, -16.00803]]]}, "properties": {}},
{"type": "Feature", "geometry": {"type": "Polygon", "coordinates": [[[-47.811578, -16.00831], [-47.811662, -16.008311], [-47.811663, -16.008252], [-47.811604, -16.008251], [-47.811604, -16.008245], [-47.811596, -16.008245], [-47.811595, -16.008252], [-47.811579, -16.008252], [-47.811578, -16.00831]]]}, "properties": {}},
{"type": "Feature", "geometry": {"type": "Polygon", "coordinates": [[[-47.808277, -16.006228], [-47.808296, -16.00629], [-47.808354, -16.006273], [-47.808337, -16.006213], [-47.808378, -16.006201], [-47.808362, -16.006147], [-47.808248, -16.006179], [-47.808264, -16.006231], [-47.808277, -16.006228]]]}, "properties": {}},
{"type": "Feature", "geometry": {"type": "Polygon", "coordinates": [[[-47.810835, -16.007528], [-47.81083, -16.007486], [-47.810767, -16.007493], [-47.810772, -16.007535], [-47.810835, -16.007528]]]}, "properties": {}},
{"type": "Feature", "geometry": {"type": "Polygon", "coordinates": [[[-47.804346, -16.009511], [-47.804315, -16.009491], [-47.804252, -16.009575], [-47.804285, -16.009598], [-47.804346, -16.009511]]]}, "properties": {}},
{"type": "Feature", "geometry": {"type": "Polygon", "coordinates": [[[-47.809849, -16.005296], [-47.809944, -16.005327], [-47.809968, -16.005258], [-47.809913, -16.00524], [-47.809907, -16.005258], [-47.809866, -16.005245], [-47.809849, -16.005296]]]}, "properties": {}},
{"type": "Feature", "geometry": {"type": "Polygon", "coordinates": [[[-47.808682, -16.008457], [-47.808607, -16.008438], [-47.808596, -16.008477], [-47.808671, -16.008496], [-47.808682, -16.008457]]]}, "properties": {}},
{"type": "Feature", "geometry": {"type": "Polygon", "coordinates": [[[-47.803903, -16.007558], [-47.803812, -16.007541], [-47.803793, -16.007634], [-47.803884, -16.007651], [-47.803903, -16.007558]]]}, "properties": {}},
{"type": "Feature", "geometry": {"type": "Polygon", "coordinates": [[[-47.804278, -16.007582], [-47.804262, -16.007579], [-47.804267, -16.007555], [-47.804282, -16.007558], [-47.804298, -16.007497], [-47.804061, -16.007443], [-47.80403, -16.007568], [-47.804269, -16.007621], [-47.804278, -16.007582]], [[-47.804122, -16.007473], [-47.80412, -16.007487], [-47.804112, -16.007485], [-47.804115, -16.007472], [-47.804122, -16.007473]]]}, "properties": {}},
{"type": "Feature", "geometry": {"type": "Polygon", "coordinates": [[[-47.804801, -16.007048], [-47.804755, -16.006963], [-47.804674, -16.007005], [-47.80472, -16.007089], [-47.804801, -16.007048]]]}, "properties": {}},
{"type": "Feature", "geometry": {"type": "Polygon", "coordinates": [[[-47.806197, -16.004491], [-47.806186, -16.004478], [-47.806155, -16.004504], [-47.806166, -16.004517], [-47.806197, -16.004491]]]}, "properties": {}},
{"type": "Feature", "geometry": {"type": "Polygon", "coordinates": [[[-47.806002, -16.004461], [-47.806007, -16.004466], [-47.806004, -16.004469], [-47.806034, -16.004499], [-47.806074, -16.004462], [-47.806025, -16.004412], [-47.806, -16.004435], [-47.806014, -16.004449], [-47.806002, -16.004461]]]}, "properties": {}},
{"type": "Feature", "geometry": {"type": "Polygon", "coordinates": [[[-47.809422, -16.00282], [-47.809438, -16.002826], [-47.809467, -16.002759], [-47.809422, -16.002741], [-47.80939, -16.002816], [-47.809419, -16.002828], [-47.809422, -16.00282]]]}, "properties": {}},
{"type": "Feature", "geometry": {"type": "Polygon", "coordinates": [[[-47.809526, -16.002662], [-47.809528, -16.002663], [-47.809554, -16.002594], [-47.809437, -16.002552], [-47.809403, -16.002641], [-47.809518, -16.002682], [-47.809526, -16.002662]]]}, "properties": {}},
{"type": "Feature", "geometry": {"type": "Polygon", "coordinates": [[[-47.809173, -16.002563], [-47.80921, -16.002588], [-47.809243, -16.002541], [-47.809207, -16.002517], [-47.809195, -16.002535], [-47.809193, -16.002534], [-47.809173, -16.002563]]]}, "properties": {}},
{"type": "Feature", "geometry": {"type": "Polygon", "coordinates": [[[-47.808089, -16.001051], [-47.808129, -16.001075], [-47.808154, -16.001038], [-47.808159, -16.001041], [-47.808219, -16.00095], [-47.80815, -16.000907], [-47.80809, -16.000998], [-47.808114, -16.001013], [-47.808089, -16.001051]]]}, "properties": {}},
{"type": "Feature", "geometry": {"type": "Polygon", "coordinates": [[[-47.808404, -16.000845], [-47.808422, -16.000856], [-47.808421, -16.000859], [-47.808501, -16.000907], [-47.808557, -16.00082], [-47.808482, -16.000775], [-47.808462, -16.000806], [-47.808438, -16.000792], [-47.808404, -16.000845]]]}, "properties": {}},
{"type": "Feature", "geometry": {"type": "Polygon", "coordinates": [[[-47.808056, -16.00064], [-47.808085, -16.000656], [-47.808082, -16.00066], [-47.808116, -16.00068], [-47.808118, -16.000676], [-47.808215, -16.000732], [-47.80822, -16.000735], [-47.808223, -16.000731], [-47.808291, -16.000621], [-47.808154, -16.000543], [-47.808109, -16.000616], [-47.80808, -16.0006], [-47.808056, -16.00064]]]}, "properties": {}},
{"type": "Feature", "geometry": {"type": "Polygon", "coordinates": [[[-47.810058, -16.000381], [-47.810082, -16.000352], [-47.810066, -16.000318], [-47.810029, -16.000312], [-47.810006, -16.000341], [-47.810019, -16.000376], [-47.810058, -16.000381]]]}, "properties": {}},
{"type": "Feature", "geometry": {"type": "Polygon", "coordinates": [[[-47.810358, -16.000296], [-47.81033, -16.000271], [-47.810294, -16.000311], [-47.810323, -16.000335], [-47.810358, -16.000296]]]}, "properties": {}},
{"type": "Feature", "geometry": {"type": "Polygon", "coordinates": [[[-47.808501, -16.000333], [-47.808444, -16.000307], [-47.808416, -16.000362], [-47.808388, -16.000418], [-47.808362, -16.000468], [-47.808488, -16.000525], [-47.808521, -16.00046], [-47.808545, -16.000472], [-47.808558, -16.000446], [-47.808596, -16.000463], [-47.808622, -16.00041], [-47.808573, -16.000387], [-47.808588, -16.000357], [-47.808559, -16.000343], [-47.808574, -16.000313], [-47.808534, -16.000294], [-47.808504, -16.000353], [-47.808493, -16.000348], [-47.808501, -16.000333]]]}, "properties": {}},
{"type": "Feature", "geometry": {"type": "Polygon", "coordinates": [[[-47.810577, -16.000318], [-47.810611, -16.000336], [-47.810641, -16.000274], [-47.810602, -16.000256], [-47.810572, -16.000317], [-47.810576, -16.000319], [-47.810577, -16.000318]]]}, "properties": {}},
{"type": "Feature", "geometry": {"type": "Polygon", "coordinates": [[[-47.810718, -16.000117], [-47.810679, -16.000098], [-47.810649, -16.000155], [-47.810689, -16.000174], [-47.810718, -16.000117]]]}, "properties": {}},
{"type": "Feature", "geometry": {"type": "Polygon", "coordinates": [[[-47.810276, -16.000016], [-47.81028, -16.000036], [-47.810296, -16.000045], [-47.810319, -16.000042], [-47.81033, -16.000024], [-47.810326, -16.000004], [-47.810315, -15.999997], [-47.810308, -15.999994], [-47.810295, -15.999997], [-47.810286, -16], [-47.810276, -16.000016]]]}, "properties": {}},
{"type": "Feature", "geometry": {"type": "Polygon", "coordinates": [[[-47.810921, -15.999705], [-47.810963, -15.999625], [-47.810885, -15.999587], [-47.810853, -15.99965], [-47.810843, -15.999667], [-47.810921, -15.999705]]]}, "properties": {}},
{"type": "Feature", "geometry": {"type": "Polygon", "coordinates": [[[-47.809565, -16.005429], [-47.80948, -16.005344], [-47.809476, -16.005348], [-47.80946, -16.005332], [-47.809399, -16.005388], [-47.809501, -16.005489], [-47.809565, -16.005429]]]}, "properties": {}},
{"type": "Feature", "geometry": {"type": "Polygon", "coordinates": [[[-47.809012, -16.008866], [-47.809046, -16.008801], [-47.809041, -16.008798], [-47.809049, -16.008783], [-47.80905, -16.00878], [-47.809014, -16.008763], [-47.80897, -16.008847], [-47.809011, -16.008867], [-47.809012, -16.008866]]]}, "properties": {}},
{"type": "Feature", "geometry": {"type": "Polygon", "coordinates": [[[-47.809005, -16.008499], [-47.809033, -16.008516], [-47.809063, -16.008465], [-47.809048, -16.008456], [-47.80905, -16.008453], [-47.809017, -16.008437], [-47.808985, -16.008488], [-47.80899, -16.008491], [-47.809005, -16.008499]]]}, "properties": {}},
{"type": "Feature", "geometry": {"type": "Polygon", "coordinates": [[[-47.8124, -16.010204], [-47.812369, -16.010191], [-47.812392, -16.01014], [-47.812331, -16.010114], [-47.812288, -16.010208], [-47.81238, -16.010248], [-47.8124, -16.010204]]]}, "properties": {}},
{"type": "Feature", "geometry": {"type": "Polygon", "coordinates": [[[-47.812055, -16.01005], [-47.812088, -16.010085], [-47.812115, -16.010061], [-47.81213, -16.010077], [-47.812176, -16.010037], [-47.812177, -16.010038], [-47.81221, -16.01001], [-47.81216, -16.009956], [-47.812144, -16.009969], [-47.812146, -16.009972], [-47.812055, -16.01005]]]}, "properties": {}},
{"type": "Feature", "geometry": {"type": "Polygon", "coordinates": [[[-47.811989, -16.009157], [-47.812007, -16.009216], [-47.812097, -16.009193], [-47.812079, -16.009131], [-47.812074, -16.009132], [-47.812066, -16.009102], [-47.812023, -16.009114], [-47.812032, -16.009145], [-47.811989, -16.009157]]]}, "properties": {}},
{"type": "Feature", "geometry": {"type": "Polygon", "coordinates": [[[-47.811737, -16.009896], [-47.811779, -16.009943], [-47.811794, -16.009929], [-47.811796, -16.00993], [-47.81186, -16.009876], [-47.81186, -16.009872], [-47.811812, -16.009822], [-47.811824, -16.009812], [-47.811789, -16.009775], [-47.811779, -16.009784], [-47.811765, -16.00977], [-47.811697, -16.009829], [-47.81175, -16.009885], [-47.811737, -16.009896]]]}, "properties": {}},
{"type": "Feature", "geometry": {"type": "Polygon", "coordinates": [[[-47.81205, -16.009385], [-47.812047, -16.00938], [-47.812013, -16.0094], [-47.812028, -16.009424], [-47.812056, -16.009407], [-47.812069, -16.009428], [-47.812067, -16.009429], [-47.812074, -16.00944], [-47.812105, -16.009422], [-47.812106, -16.009423], [-47.812121, -16.009414], [-47.81212, -16.009413], [-47.812157, -16.009392], [-47.812127, -16.009343], [-47.812109, -16.009353], [-47.812108, -16.009351], [-47.81205, -16.009385]]]}, "properties": {}},
{"type": "Feature", "geometry": {"type": "Polygon", "coordinates": [[[-47.808949, -16.009623], [-47.808931, -16.009657], [-47.808923, -16.009653], [-47.808921, -16.009657], [-47.808912, -16.009653], [-47.808911, -16.009652], [-47.808897, -16.009678], [-47.808917, -16.009688], [-47.808922, -16.00968], [-47.808948, -16.009692], [-47.808944, -16.009699], [-47.808963, -16.009708], [-47.809005, -16.009625], [-47.808984, -16.009615], [-47.808982, -16.009618], [-47.808936, -16.009596], [-47.808928, -16.009613], [-47.808931, -16.009615], [-47.808949, -16.009623]]]}, "properties": {}},
{"type": "Feature", "geometry": {"type": "Polygon", "coordinates": [[[-47.809012, -16.008866], [-47.809036, -16.008878], [-47.809081, -16.008799], [-47.809049, -16.008783], [-47.809041, -16.008798], [-47.809046, -16.008801], [-47.809012, -16.008866]]]}, "properties": {}},
{"type": "Feature", "geometry": {"type": "Polygon", "coordinates": [[[-47.808627, -16.008796], [-47.808638, -16.008801], [-47.808628, -16.008818], [-47.808626, -16.008839], [-47.808652, -16.008852], [-47.80867, -16.008815], [-47.808684, -16.008824], [-47.808707, -16.008782], [-47.808696, -16.008776], [-47.808716, -16.008744], [-47.808713, -16.008742], [-47.808619, -16.008696], [-47.808601, -16.008729], [-47.80865, -16.008755], [-47.808627, -16.008796]]]}, "properties": {}},
{"type": "Feature", "geometry": {"type": "Polygon", "coordinates": [[[-47.808713, -16.008742], [-47.808732, -16.008707], [-47.808728, -16.008705], [-47.808675, -16.008679], [-47.808649, -16.008666], [-47.808627, -16.008658], [-47.808609, -16.008692], [-47.808619, -16.008696], [-47.808713, -16.008742]]]}, "properties": {}},
{"type": "Feature", "geometry": {"type": "Polygon", "coordinates": [[[-47.808696, -16.008654], [-47.80869, -16.008651], [-47.808684, -16.008661], [-47.808677, -16.008656], [-47.80868, -16.008651], [-47.808657, -16.008639], [-47.808645, -16.008658], [-47.808677, -16.008676], [-47.808675, -16.008679], [-47.808728, -16.008705], [-47.808754, -16.008661], [-47.808711, -16.008637], [-47.808707, -16.008644], [-47.808704, -16.008642], [-47.808696, -16.008654]]]}, "properties": {}},
{"type": "Feature", "geometry": {"type": "Polygon", "coordinates": [[[-47.80895, -16.008557], [-47.808784, -16.008461], [-47.808755, -16.008509], [-47.80892, -16.008605], [-47.80895, -16.008557]]]}, "properties": {}},
{"type": "Feature", "geometry": {"type": "Polygon", "coordinates": [[[-47.811065, -16.00748], [-47.811063, -16.007462], [-47.810935, -16.007474], [-47.810943, -16.007547], [-47.811072, -16.007535], [-47.811069, -16.007508], [-47.811104, -16.007506], [-47.811114, -16.007628], [-47.811301, -16.007613], [-47.811285, -16.007458], [-47.811099, -16.007473], [-47.8111, -16.007477], [-47.811065, -16.00748]], [[-47.811155, -16.007526], [-47.811171, -16.007524], [-47.811173, -16.00755], [-47.811158, -16.007551], [-47.811155, -16.007526]]]}, "properties": {}},
{"type": "Feature", "geometry": {"type": "Polygon", "coordinates": [[[-47.811702, -16.007275], [-47.811707, -16.007343], [-47.811779, -16.007337], [-47.811774, -16.007282], [-47.811808, -16.00728], [-47.811812, -16.007339], [-47.81186, -16.007335], [-47.811856, -16.007269], [-47.811846, -16.00727], [-47.811841, -16.007205], [-47.811861, -16.007204], [-47.811858, -16.007157], [-47.811703, -16.007168], [-47.81171, -16.007275], [-47.811702, -16.007275]]]}, "properties": {}},
{"type": "Feature", "geometry": {"type": "Polygon", "coordinates": [[[-47.808596, -16.005736], [-47.808592, -16.005728], [-47.808528, -16.00576], [-47.808567, -16.005832], [-47.808576, -16.005827], [-47.808614, -16.0059], [-47.808641, -16.005951], [-47.808846, -16.005851], [-47.80878, -16.005722], [-47.808751, -16.005736], [-47.808745, -16.005726], [-47.80878, -16.005709], [-47.80876, -16.005671], [-47.808673, -16.00571], [-47.808668, -16.005701], [-47.808596, -16.005736]]]}, "properties": {}},
{"type": "Feature", "geometry": {"type": "Polygon", "coordinates": [[[-47.811791, -16.006357], [-47.811788, -16.006323], [-47.811653, -16.006334], [-47.811666, -16.006496], [-47.811708, -16.006493], [-47.811708, -16.006486], [-47.811716, -16.006485], [-47.811718, -16.006506], [-47.811731, -16.006529], [-47.811774, -16.006545], [-47.811802, -16.006543], [-47.811799, -16.006509], [-47.811819, -16.006508], [-47.81181, -16.006409], [-47.811836, -16.006407], [-47.811829, -16.00632], [-47.811794, -16.006324], [-47.811797, -16.006356], [-47.811791, -16.006357]]]}, "properties": {}},
{"type": "Feature", "geometry": {"type": "Polygon", "coordinates": [[[-47.808021, -16.006028], [-47.808023, -16.006032], [-47.80807, -16.006017], [-47.808019, -16.005878], [-47.807834, -16.005932], [-47.807859, -16.006011], [-47.807948, -16.005984], [-47.807971, -16.006045], [-47.808021, -16.006028]]]}, "properties": {}},
{"type": "Feature", "geometry": {"type": "Polygon", "coordinates": [[[-47.808939, -16.004597], [-47.809095, -16.004719], [-47.809172, -16.004624], [-47.809157, -16.004612], [-47.809112, -16.004577], [-47.809144, -16.004538], [-47.809066, -16.00448], [-47.809022, -16.004533], [-47.809003, -16.004518], [-47.808939, -16.004597]]]}, "properties": {}},
{"type": "Feature", "geometry": {"type": "Polygon", "coordinates": [[[-47.811225, -16.005779], [-47.81123, -16.005847], [-47.811317, -16.005841], [-47.811313, -16.005766], [-47.811244, -16.00577], [-47.811245, -16.005778], [-47.811225, -16.005779]]]}, "properties": {}},
{"type": "Feature", "geometry": {"type": "Polygon", "coordinates": [[[-47.811864, -16.005386], [-47.811856, -16.005367], [-47.811898, -16.00535], [-47.811865, -16.005274], [-47.811756, -16.005317], [-47.811796, -16.005413], [-47.811864, -16.005386]]]}, "properties": {}},
{"type": "Feature", "geometry": {"type": "Polygon", "coordinates": [[[-47.810456, -16.003753], [-47.810392, -16.003722], [-47.810351, -16.003802], [-47.810416, -16.003833], [-47.810456, -16.003753]]]}, "properties": {}},
{"type": "Feature", "geometry": {"type": "Polygon", "coordinates": [[[-47.808923, -16.009653], [-47.808931, -16.009657], [-47.808949, -16.009623], [-47.808931, -16.009615], [-47.808912, -16.009653], [-47.808921, -16.009657], [-47.808923, -16.009653]]]}, "properties": {}},
{"type": "Feature", "geometry": {"type": "Polygon", "coordinates": [[[-47.810675, -16.003866], [-47.810581, -16.003822], [-47.810548, -16.003888], [-47.810642, -16.003932], [-47.810675, -16.003866]]]}, "properties": {}},
{"type": "Feature", "geometry": {"type": "Polygon", "coordinates": [[[-47.806021, -16.004544], [-47.80599, -16.004512], [-47.805966, -16.004534], [-47.805998, -16.004566], [-47.806021, -16.004544]]]}, "properties": {}},
{"type": "Feature", "geometry": {"type": "Polygon", "coordinates": [[[-47.808537, -16.009473], [-47.808585, -16.009491], [-47.808626, -16.009385], [-47.808607, -16.009379], [-47.808615, -16.009361], [-47.808616, -16.009361], [-47.808621, -16.00935], [-47.808606, -16.009345], [-47.808596, -16.009371], [-47.808579, -16.009365], [-47.808537, -16.009473]]]}, "properties": {}},
{"type": "Feature", "geometry": {"type": "Polygon", "coordinates": [[[-47.80474, -16.008235], [-47.804742, -16.008235], [-47.804751, -16.008201], [-47.804649, -16.008177], [-47.804633, -16.008241], [-47.804733, -16.008264], [-47.80474, -16.008235]]]}, "properties": {}},
{"type": "Feature", "geometry": {"type": "Polygon", "coordinates": [[[-47.804378, -16.008026], [-47.804305, -16.00801], [-47.80429, -16.008074], [-47.804365, -16.00809], [-47.804344, -16.008181], [-47.804403, -16.008194], [-47.804402, -16.0082], [-47.80443, -16.008206], [-47.804431, -16.0082], [-47.804578, -16.008233], [-47.804593, -16.008171], [-47.804547, -16.008161], [-47.804578, -16.00803], [-47.804446, -16.008001], [-47.804436, -16.008043], [-47.804377, -16.00803], [-47.804378, -16.008026]]]}, "properties": {}},
{"type": "Feature", "geometry": {"type": "Polygon", "coordinates": [[[-47.81039, -16.000255], [-47.810411, -16.000268], [-47.810436, -16.000232], [-47.810419, -16.000221], [-47.81045, -16.000177], [-47.810446, -16.000175], [-47.810457, -16.000159], [-47.810321, -16.00007], [-47.810253, -16.000167], [-47.810389, -16.000256], [-47.81039, -16.000255]]]}, "properties": {}},
{"type": "Feature", "geometry": {"type": "Polygon", "coordinates": [[[-47.805991, -16.004344], [-47.805917, -16.004265], [-47.805811, -16.004361], [-47.805885, -16.004438], [-47.805991, -16.004344]]]}, "properties": {}},
{"type": "Feature", "geometry": {"type": "Polygon", "coordinates": [[[-47.806036, -16.004226], [-47.806061, -16.004241], [-47.806088, -16.004233], [-47.806091, -16.004228], [-47.806098, -16.004233], [-47.806106, -16.00422], [-47.806099, -16.004216], [-47.806103, -16.004209], [-47.806096, -16.004184], [-47.80607, -16.004169], [-47.806044, -16.004174], [-47.806029, -16.004202], [-47.806036, -16.004226]]]}, "properties": {}},
{"type": "Feature", "geometry": {"type": "Polygon", "coordinates": [[[-47.810932, -16.001962], [-47.810951, -16.001976], [-47.811049, -16.001844], [-47.810958, -16.001782], [-47.810862, -16.001911], [-47.810911, -16.001947], [-47.810932, -16.001962]]]}, "properties": {}},
{"type": "Feature", "geometry": {"type": "Polygon", "coordinates": [[[-47.812047, -16.009887], [-47.811994, -16.009828], [-47.811885, -16.009921], [-47.811938, -16.009979], [-47.812047, -16.009887]]]}, "properties": {}}]}
