{"type":"FeatureCollection","features":[{"type":"Feature","geometry":{"type":"Polygon","coordinates":[[[-60.46875,-2.8125],[-59.81242,-2.8125],[-59.81042,-2.816],[-59.803,-2.816],[-59.80282,-2.81602],[-59.80264,-2.81607],[-59.80247,-2.81615],[-59.78188,-2.8289],[-59.75933,-2.82106],[-59.75914,-2.82101],[-59.75895,-2.821],[-59.75876,-2.82103],[-59.75858,-2.82109],[-59.75842,-2.82119],[-59.75142,-2.82619],[-59.75127,-2.82632],[-59.75115,-2.82648],[-59.73715,-2.84948],[-59.73707,-2.84964],[-59.73702,-2.84982],[-59.737,-2.85],[-59.737,-2.8575],[-59.7254,-2.8662],[-59.72521,-2.86638],[-59.71421,-2.88038],[-59.71411,-2.88054],[-59.71404,-2.88071],[-59.71401,-2.8809],[-59.714,-2.88109],[-59.71404,-2.88127],[-59.71411,-2.88145],[-59.71421,-2.88161],[-59.72688,-2.89819],[-59.72013,-2.91844],[-59.70732,-2.93027],[-59.70719,-2.93041],[-59.70709,-2.93058],[-59.70703,-2.93076],[-59.70519,-2.9381],[-59.65387,-2.94501],[-59.65368,-2.94505],[-59.6535,-2.94514],[-59.65334,-2.94525],[-59.63655,-2.96006],[-59.62004,-2.96298],[-59.59624,-2.95703],[-59.59606,-2.957],[-59.59588,-2.95701],[-59.579,-2.95899],[-59.54722,-2.95502],[-59.53232,-2.95005],[-59.53214,-2.95001],[-59.53196,-2.95],[-59.53178,-2.95002],[-59.53161,-2.95008],[-59.52461,-2.95308],[-59.52444,-2.95317],[-59.52429,-2.9533],[-59.52417,-2.95345],[-59.52033,-2.9592],[-59.50661,-2.96508],[-59.50647,-2.96515],[-59.50635,-2.96524],[-59.49935,-2.97124],[-59.4992,-2.9714],[-59.49909,-2.97158],[-59.49902,-2.97179],[-59.499,-2.972],[-59.499,-2.98632],[-59.48463,-2.99207],[-59.48448,-2.99215],[-59.48435,-2.99224],[-59.48423,-2.99236],[-59.4543,-3.02828],[-59.43056,-3.04708],[-59.40478,-3.05303],[-59.40453,-3.05312],[-59.37253,-3.07012],[-59.37239,-3.07021],[-59.37227,-3.07032],[-59.34627,-3.09832],[-59.34617,-3.09844],[-59.3461,-3.09857],[-59.34285,-3.10545],[-59.33547,-3.11137],[-59.31911,-3.11202],[-59.31889,-3.11206],[-59.31869,-3.11213],[-59.31851,-3.11225],[-59.31835,-3.11241],[-59.31222,-3.12038],[-59.30359,-3.13093],[-59.27715,-3.12701],[-59.27693,-3.127],[-59.26193,-3.128],[-59.26178,-3.12802],[-59.26164,-3.12807],[-59.23864,-3.13707],[-59.15964,-3.16707],[-59.15946,-3.16716],[-59.1593,-3.16729],[-59.15917,-3.16744],[-59.15907,-3.16762],[-59.15902,-3.16782],[-59.159,-3.16803],[-59.15903,-3.16823],[-59.15909,-3.16842],[-59.1592,-3.1686],[-59.1622,-3.1726],[-59.16223,-3.17264],[-59.16723,-3.17864],[-59.16737,-3.17877],[-59.16752,-3.17888],[-59.1677,-3.17895],[-59.16788,-3.17899],[-59.16807,-3.179],[-59.18199,-3.178],[-59.20592,-3.18],[-59.2062,-3.17998],[-59.2212,-3.17698],[-59.22139,-3.17692],[-59.22157,-3.17682],[-59.24148,-3.16289],[-59.26423,-3.15398],[-59.35058,-3.14604],[-59.35725,-3.15366],[-59.35738,-3.15378],[-59.35753,-3.15388],[-59.3577,-3.15395],[-59.37704,-3.16],[-59.3897,-3.16395],[-59.38992,-3.164],[-59.39015,-3.16399],[-59.39037,-3.16393],[-59.47922,-3.12899],[-59.51605,-3.127],[-59.51618,-3.12698],[-59.54918,-3.12098],[-59.5494,-3.12091],[-59.57277,-3.1106],[-59.5834,-3.10591],[-59.62638,-3.08693],[-59.68329,-3.06596],[-59.70012,-3.062],[-59.71696,-3.062],[-59.78581,-3.06799],[-59.80265,-3.07294],[-59.85849,-3.09887],[-59.8933,-3.12373],[-59.90306,-3.13602],[-59.91622,-3.15262],[-59.91636,-3.15277],[-59.91653,-3.15288],[-59.91673,-3.15296],[-59.92354,-3.15491],[-59.9321,-3.16157],[-59.93402,-3.17022],[-59.93409,-3.17041],[-59.93418,-3.17058],[-59.93431,-3.17073],[-59.93447,-3.17085],[-59.94218,-3.17567],[-59.95206,-3.20235],[-59.95215,-3.20253],[-59.95228,-3.20269],[-59.95243,-3.20282],[-59.95261,-3.20292],[-59.9528,-3.20298],[-59.953,-3.203],[-59.9532,-3.20298],[-59.95339,-3.20292],[-59.95939,-3.20035],[-59.96205,-3.20832],[-59.96214,-3.20851],[-59.96226,-3.20867],[-59.96242,-3.20881],[-59.96942,-3.21381],[-59.96958,-3.21391],[-59.96976,-3.21397],[-59.9856,-3.21793],[-59.99347,-3.22285],[-59.99365,-3.22294],[-59.99384,-3.22299],[-59.99404,-3.223],[-59.99423,-3.22297],[-59.99442,-3.22291],[-59.99459,-3.22281],[-59.99474,-3.22267],[-59.99486,-3.22251],[-60.00086,-3.21251],[-60.00094,-3.21233],[-60.00099,-3.21214],[-60.001,-3.21194],[-60.00097,-3.21174],[-60.0009,-3.21156],[-60.00079,-3.21139],[-60.00065,-3.21124],[-60.00049,-3.21113],[-60.00031,-3.21105],[-60.00011,-3.21101],[-59.99318,-3.21024],[-60.00032,-3.2031],[-60.00371,-3.19971],[-60.00384,-3.19955],[-60.00393,-3.19937],[-60.00398,-3.19917],[-60.004,-3.19897],[-60.00397,-3.19877],[-60.00391,-3.19858],[-60.0038,-3.1984],[-60.00367,-3.19825],[-60.0035,-3.19813],[-60.00332,-3.19805],[-60.00312,-3.19801],[-59.98784,-3.19621],[-59.99265,-3.18979],[-60.02344,-3.1749],[-60.02366,-3.17475],[-60.04009,-3.16025],[-60.04718,-3.16489],[-60.0472,-3.1649],[-60.05347,-3.16885],[-60.05363,-3.16893],[-60.05381,-3.16898],[-60.05399,-3.169],[-60.05417,-3.16898],[-60.05435,-3.16894],[-60.06324,-3.1656],[-60.07035,-3.16294],[-60.0706,-3.1628],[-60.0746,-3.1598],[-60.07473,-3.15968],[-60.07485,-3.15953],[-60.07493,-3.15937],[-60.07498,-3.1592],[-60.075,-3.15902],[-60.07499,-3.15884],[-60.07471,-3.15717],[-60.07468,-3.15701],[-60.07305,-3.14722],[-60.08512,-3.12864],[-60.09211,-3.1365],[-60.09604,-3.14929],[-60.09612,-3.14948],[-60.09624,-3.14964],[-60.09638,-3.14978],[-60.09655,-3.14989],[-60.09674,-3.14996],[-60.09693,-3.15],[-60.11193,-3.151],[-60.1121,-3.15099],[-60.11226,-3.15096],[-60.11242,-3.15091],[-60.14042,-3.13791],[-60.1406,-3.1378],[-60.14075,-3.13766],[-60.14087,-3.1375],[-60.14462,-3.13093],[-60.16812,-3.12799],[-60.16834,-3.12794],[-60.16855,-3.12784],[-60.16872,-3.12769],[-60.19559,-3.09983],[-60.21042,-3.09291],[-60.22517,-3.0861],[-60.23085,-3.08348],[-60.23374,-3.08247],[-60.23877,-3.08182],[-60.24183,-3.08174],[-60.24212,-3.08176],[-60.24232,-3.08175],[-60.24251,-3.0817],[-60.24296,-3.08153],[-60.24318,-3.08142],[-60.24418,-3.08074],[-60.24426,-3.08074],[-60.24443,-3.08072],[-60.24459,-3.08067],[-60.24474,-3.0806],[-60.24489,-3.08051],[-60.24564,-3.0805],[-60.24574,-3.08068],[-60.24588,-3.08089],[-60.24601,-3.08105],[-60.24618,-3.08117],[-60.24636,-3.08126],[-60.24656,-3.08131],[-60.24676,-3.08132],[-60.24696,-3.08129],[-60.24716,-3.08122],[-60.24733,-3.08111],[-60.24749,-3.08097],[-60.24761,-3.08086],[-60.24761,-3.08086],[-60.24778,-3.08083],[-60.25284,-3.08275],[-60.25304,-3.0828],[-60.25326,-3.08281],[-60.25347,-3.08278],[-60.2539,-3.08265],[-60.25414,-3.08271],[-60.25431,-3.08273],[-60.25448,-3.08273],[-60.2549,-3.08269],[-60.25554,-3.08273],[-60.2556,-3.08277],[-60.25579,-3.08286],[-60.25599,-3.08291],[-60.25619,-3.08292],[-60.2564,-3.08289],[-60.25659,-3.08281],[-60.25677,-3.0827],[-60.25698,-3.08252],[-60.25758,-3.08242],[-60.25865,-3.08248],[-60.26053,-3.08303],[-60.26067,-3.08306],[-60.26188,-3.08325],[-60.26185,-3.08329],[-60.26177,-3.08349],[-60.26173,-3.0837],[-60.26173,-3.08391],[-60.26178,-3.08412],[-60.26214,-3.08511],[-60.26222,-3.08528],[-60.26233,-3.08543],[-60.26246,-3.08556],[-60.26262,-3.08566],[-60.26279,-3.08573],[-60.26298,-3.08577],[-60.26317,-3.08577],[-60.26331,-3.08576],[-60.26508,-3.08837],[-60.2652,-3.08852],[-60.26535,-3.08864],[-60.26551,-3.08873],[-60.26826,-3.08993],[-60.26844,-3.08999],[-60.26863,-3.09001],[-60.26883,-3.08999],[-60.26901,-3.08994],[-60.26919,-3.08986],[-60.26934,-3.08974],[-60.26947,-3.0896],[-60.27048,-3.08821],[-60.27219,-3.08881],[-60.27189,-3.09022],[-60.27187,-3.09041],[-60.27188,-3.09061],[-60.27194,-3.0908],[-60.27203,-3.09098],[-60.27216,-3.09113],[-60.27352,-3.09249],[-60.27366,-3.09261],[-60.27383,-3.0927],[-60.27401,-3.09276],[-60.2742,-3.09278],[-60.27439,-3.09277],[-60.27457,-3.09272],[-60.27474,-3.09263],[-60.2749,-3.09252],[-60.27542,-3.09205],[-60.28234,-3.09481],[-60.28696,-3.10178],[-60.28709,-3.10194],[-60.28725,-3.10206],[-60.28744,-3.10216],[-60.28764,-3.10221],[-60.28784,-3.10222],[-60.28805,-3.10219],[-60.28824,-3.10212],[-60.28842,-3.102],[-60.29169,-3.09939],[-60.29182,-3.09927],[-60.29192,-3.09913],[-60.292,-3.09897],[-60.29205,-3.0988],[-60.29486,-3.0848],[-60.31082,-3.08037],[-60.31001,-3.08688],[-60.31,-3.08709],[-60.31005,-3.0873],[-60.31013,-3.0875],[-60.31413,-3.0945],[-60.31424,-3.09465],[-60.31437,-3.09478],[-60.31453,-3.09488],[-60.32753,-3.10188],[-60.3277,-3.10195],[-60.32788,-3.10199],[-60.32806,-3.102],[-60.32824,-3.10197],[-60.33624,-3.09997],[-60.3363,-3.09995],[-60.33999,-3.09878],[-60.36607,-3.09468],[-60.38428,-3.09315],[-60.43798,-3.094],[-60.43819,-3.09398],[-60.43839,-3.09392],[-60.44539,-3.09092],[-60.44555,-3.09084],[-60.44568,-3.09073],[-60.4458,-3.0906],[-60.4548,-3.0786],[-60.4549,-3.07844],[-60.45497,-3.07826],[-60.455,-3.07807],[-60.45527,-3.07423],[-60.45601,-3.08012],[-60.45605,-3.08031],[-60.45612,-3.08048],[-60.45623,-3.08064],[-60.45636,-3.08077],[-60.46836,-3.09077],[-60.4685,-3.09087],[-60.46866,-3.09094],[-60.46875,-3.09096],[-60.46875,-2.8125]]]},"properties":{"ghs":"6xm","size":483.4,"ghs_len":3,"ghs_area":3422.54,"ghs_bytes":425291,"ghs_items":63,"size_unit":"km2","ghsval_unit":"bytes","ghs_itemsdensity":0.02,"size_unitdensity":0.14}}]}
