{"type": "FeatureCollection", "features": [
{"type": "Feature", "geometry": {"type": "Point", "coordinates": [-52.646036, -26.095033]}, "properties": {"address": "?, 01"}},
{"type": "Feature", "geometry": {"type": "Point", "coordinates": [-52.646062, -26.095224]}, "properties": {"address": "?, 05"}},
{"type": "Feature", "geometry": {"type": "Point", "coordinates": [-52.646012, -26.094855]}, "properties": {"address": "?, 02"}},
{"type": "Feature", "geometry": {"type": "Point", "coordinates": [-52.645992, -26.094705]}, "properties": {"address": "?, 03"}},
{"type": "Feature", "geometry": {"type": "Point", "coordinates": [-52.645971, -26.094555]}, "properties": {"address": "?, 04"}},
{"type": "Feature", "geometry": {"type": "Point", "coordinates": [-52.6467, -26.094674]}, "properties": {"address": "?, 01"}},
{"type": "Feature", "geometry": {"type": "Point", "coordinates": [-52.647026, -26.09441]}, "properties": {"address": "?, 02"}},
{"type": "Feature", "geometry": {"type": "Point", "coordinates": [-52.646318, -26.094247]}, "properties": {"address": "?, 18"}},
{"type": "Feature", "geometry": {"type": "Point", "coordinates": [-52.646182, -26.094263]}, "properties": {"address": "?, 19"}},
{"type": "Feature", "geometry": {"type": "Point", "coordinates": [-52.645933, -26.094264]}, "properties": {"address": "?, 01"}},
{"type": "Feature", "geometry": {"type": "Point", "coordinates": [-52.645872, -26.094107]}, "properties": {"address": "?, 02"}},
{"type": "Feature", "geometry": {"type": "Point", "coordinates": [-52.645789, -26.093823]}, "properties": {"address": "?, 04"}},
{"type": "Feature", "geometry": {"type": "Point", "coordinates": [-52.645747, -26.093673]}, "properties": {"address": "?, 05"}},
{"type": "Feature", "geometry": {"type": "Point", "coordinates": [-52.645701, -26.093506]}, "properties": {"address": "?, 06"}},
{"type": "Feature", "geometry": {"type": "Point", "coordinates": [-52.645655, -26.093338]}, "properties": {"address": "?, 07"}},
{"type": "Feature", "geometry": {"type": "Point", "coordinates": [-52.645581, -26.093026]}, "properties": {"address": "?, 09"}},
{"type": "Feature", "geometry": {"type": "Point", "coordinates": [-52.646291, -26.094053]}, "properties": {"address": "?, 17"}},
{"type": "Feature", "geometry": {"type": "Point", "coordinates": [-52.646271, -26.0939]}, "properties": {"address": "?, 16"}},
{"type": "Feature", "geometry": {"type": "Point", "coordinates": [-52.64625, -26.093748]}, "properties": {"address": "?, 15"}},
{"type": "Feature", "geometry": {"type": "Point", "coordinates": [-52.646229, -26.093596]}, "properties": {"address": "?, 14"}},
{"type": "Feature", "geometry": {"type": "Point", "coordinates": [-52.646206, -26.093425]}, "properties": {"address": "?, 13"}},
{"type": "Feature", "geometry": {"type": "Point", "coordinates": [-52.646183, -26.093255]}, "properties": {"address": "?, 12"}},
{"type": "Feature", "geometry": {"type": "Point", "coordinates": [-52.646118, -26.092967]}, "properties": {"address": "?, 11"}},
{"type": "Feature", "geometry": {"type": "Point", "coordinates": [-52.64592, -26.092989]}, "properties": {"address": "?, 10"}},
{"type": "Feature", "geometry": {"type": "Point", "coordinates": [-52.64576, -26.093005]}, "properties": {"address": "?, 08"}},
{"type": "Feature", "geometry": {"type": "Point", "coordinates": [-52.645828, -26.093971]}, "properties": {"address": "?, 03"}},
{"type": "Feature", "geometry": {"type": "Point", "coordinates": [-52.646588, -26.094199]}, "properties": {"address": "?, 01"}},
{"type": "Feature", "geometry": {"type": "Point", "coordinates": [-52.646553, -26.094021]}, "properties": {"address": "?, 02"}},
{"type": "Feature", "geometry": {"type": "Point", "coordinates": [-52.646584, -26.093903]}, "properties": {"address": "?, 03"}},
{"type": "Feature", "geometry": {"type": "Point", "coordinates": [-52.646574, -26.09383]}, "properties": {"address": "?, 21"}},
{"type": "Feature", "geometry": {"type": "Point", "coordinates": [-52.646545, -26.093744]}, "properties": {"address": "?, 04"}},
{"type": "Feature", "geometry": {"type": "Point", "coordinates": [-52.646535, -26.093602]}, "properties": {"address": "?, 05"}},
{"type": "Feature", "geometry": {"type": "Point", "coordinates": [-52.646512, -26.093432]}, "properties": {"address": "?, 06"}},
{"type": "Feature", "geometry": {"type": "Point", "coordinates": [-52.64649, -26.093268]}, "properties": {"address": "?, 07"}},
{"type": "Feature", "geometry": {"type": "Point", "coordinates": [-52.646461, -26.092917]}, "properties": {"address": "?, 08"}},
{"type": "Feature", "geometry": {"type": "Point", "coordinates": [-52.646609, -26.0929]}, "properties": {"address": "?, 09"}},
{"type": "Feature", "geometry": {"type": "Point", "coordinates": [-52.646858, -26.092893]}, "properties": {"address": "?, 10"}},
{"type": "Feature", "geometry": {"type": "Point", "coordinates": [-52.647037, -26.092877]}, "properties": {"address": "?, 11"}},
{"type": "Feature", "geometry": {"type": "Point", "coordinates": [-52.647117, -26.09318]}, "properties": {"address": "?, 12"}},
{"type": "Feature", "geometry": {"type": "Point", "coordinates": [-52.647137, -26.093349]}, "properties": {"address": "?, 13"}},
{"type": "Feature", "geometry": {"type": "Point", "coordinates": [-52.647161, -26.09349]}, "properties": {"address": "?, 14"}},
{"type": "Feature", "geometry": {"type": "Point", "coordinates": [-52.647202, -26.093604]}, "properties": {"address": "?, 15"}},
{"type": "Feature", "geometry": {"type": "Point", "coordinates": [-52.647217, -26.093798]}, "properties": {"address": "?, 16"}},
{"type": "Feature", "geometry": {"type": "Point", "coordinates": [-52.647207, -26.09368]}, "properties": {"address": "?, 20"}},
{"type": "Feature", "geometry": {"type": "Point", "coordinates": [-52.647274, -26.094134]}, "properties": {"address": "?, 17"}},
{"type": "Feature", "geometry": {"type": "Point", "coordinates": [-52.647035, -26.094167]}, "properties": {"address": "?, 18"}},
{"type": "Feature", "geometry": {"type": "Point", "coordinates": [-52.646837, -26.094192]}, "properties": {"address": "?, 19"}},
{"type": "Feature", "geometry": {"type": "Point", "coordinates": [-52.646102, -26.092622]}, "properties": {"address": "?, 03"}},
{"type": "Feature", "geometry": {"type": "Point", "coordinates": [-52.645899, -26.092647]}, "properties": {"address": "?, 02"}},
{"type": "Feature", "geometry": {"type": "Point", "coordinates": [-52.645414, -26.092701]}, "properties": {"address": "?, 01"}},
{"type": "Feature", "geometry": {"type": "Point", "coordinates": [-52.646075, -26.092427]}, "properties": {"address": "?, 04"}},
{"type": "Feature", "geometry": {"type": "Point", "coordinates": [-52.646051, -26.092239]}, "properties": {"address": "?, 05"}},
{"type": "Feature", "geometry": {"type": "Point", "coordinates": [-52.646024, -26.092075]}, "properties": {"address": "?, 06"}},
{"type": "Feature", "geometry": {"type": "Point", "coordinates": [-52.645992, -26.091877]}, "properties": {"address": "?, 07"}},
{"type": "Feature", "geometry": {"type": "Point", "coordinates": [-52.645971, -26.091703]}, "properties": {"address": "?, 08"}},
{"type": "Feature", "geometry": {"type": "Point", "coordinates": [-52.64595, -26.091525]}, "properties": {"address": "?, 09"}},
{"type": "Feature", "geometry": {"type": "Point", "coordinates": [-52.64593, -26.091392]}, "properties": {"address": "?, 10"}},
{"type": "Feature", "geometry": {"type": "Point", "coordinates": [-52.645911, -26.091256]}, "properties": {"address": "?, 11"}},
{"type": "Feature", "geometry": {"type": "Point", "coordinates": [-52.645893, -26.091127]}, "properties": {"address": "?, 12"}},
{"type": "Feature", "geometry": {"type": "Point", "coordinates": [-52.645881, -26.091008]}, "properties": {"address": "?, 13"}},
{"type": "Feature", "geometry": {"type": "Point", "coordinates": [-52.64586, -26.090879]}, "properties": {"address": "?, 14"}},
{"type": "Feature", "geometry": {"type": "Point", "coordinates": [-52.646386, -26.09257]}, "properties": {"address": "?, 01"}},
{"type": "Feature", "geometry": {"type": "Point", "coordinates": [-52.646584, -26.092545]}, "properties": {"address": "?, 02"}},
{"type": "Feature", "geometry": {"type": "Point", "coordinates": [-52.646798, -26.092537]}, "properties": {"address": "?, 22"}},
{"type": "Feature", "geometry": {"type": "Point", "coordinates": [-52.646953, -26.092513]}, "properties": {"address": "?, 21"}},
{"type": "Feature", "geometry": {"type": "Point", "coordinates": [-52.646924, -26.092197]}, "properties": {"address": "?, 20"}},
{"type": "Feature", "geometry": {"type": "Point", "coordinates": [-52.646902, -26.092034]}, "properties": {"address": "?, 19"}},
{"type": "Feature", "geometry": {"type": "Point", "coordinates": [-52.646887, -26.091876]}, "properties": {"address": "?, 23"}},
{"type": "Feature", "geometry": {"type": "Point", "coordinates": [-52.64686, -26.091728]}, "properties": {"address": "?, 18"}},
{"type": "Feature", "geometry": {"type": "Point", "coordinates": [-52.646837, -26.09153]}, "properties": {"address": "?, 17"}},
{"type": "Feature", "geometry": {"type": "Point", "coordinates": [-52.646821, -26.091414]}, "properties": {"address": "?, 16"}},
{"type": "Feature", "geometry": {"type": "Point", "coordinates": [-52.6468, -26.091282]}, "properties": {"address": "?, 15"}},
{"type": "Feature", "geometry": {"type": "Point", "coordinates": [-52.646778, -26.091125]}, "properties": {"address": "?, 14"}},
{"type": "Feature", "geometry": {"type": "Point", "coordinates": [-52.646745, -26.09096]}, "properties": {"address": "?, 13"}},
{"type": "Feature", "geometry": {"type": "Point", "coordinates": [-52.646724, -26.090803]}, "properties": {"address": "?, 12"}},
{"type": "Feature", "geometry": {"type": "Point", "coordinates": [-52.646169, -26.090873]}, "properties": {"address": "?, 11"}},
{"type": "Feature", "geometry": {"type": "Point", "coordinates": [-52.646188, -26.091034]}, "properties": {"address": "?, 10"}},
{"type": "Feature", "geometry": {"type": "Point", "coordinates": [-52.646207, -26.091178]}, "properties": {"address": "?, 09"}},
{"type": "Feature", "geometry": {"type": "Point", "coordinates": [-52.646233, -26.091367]}, "properties": {"address": "?, 08"}},
{"type": "Feature", "geometry": {"type": "Point", "coordinates": [-52.646262, -26.091581]}, "properties": {"address": "?, 07"}},
{"type": "Feature", "geometry": {"type": "Point", "coordinates": [-52.646285, -26.091751]}, "properties": {"address": "?, 06"}},
{"type": "Feature", "geometry": {"type": "Point", "coordinates": [-52.646306, -26.091908]}, "properties": {"address": "?, 05"}},
{"type": "Feature", "geometry": {"type": "Point", "coordinates": [-52.64633, -26.092084]}, "properties": {"address": "?, 04"}},
{"type": "Feature", "geometry": {"type": "Point", "coordinates": [-52.646353, -26.092247]}, "properties": {"address": "?, 03"}},
{"type": "Feature", "geometry": {"type": "Point", "coordinates": [-52.646757, -26.090449]}, "properties": {"address": "?, 28"}},
{"type": "Feature", "geometry": {"type": "Point", "coordinates": [-52.646727, -26.090279]}, "properties": {"address": "?, 27"}},
{"type": "Feature", "geometry": {"type": "Point", "coordinates": [-52.646712, -26.090175]}, "properties": {"address": "?, 26"}},
{"type": "Feature", "geometry": {"type": "Point", "coordinates": [-52.646698, -26.090067]}, "properties": {"address": "?, 25"}},
{"type": "Feature", "geometry": {"type": "Point", "coordinates": [-52.646679, -26.089968]}, "properties": {"address": "?, 24"}},
{"type": "Feature", "geometry": {"type": "Point", "coordinates": [-52.646664, -26.089856]}, "properties": {"address": "?, 23"}},
{"type": "Feature", "geometry": {"type": "Point", "coordinates": [-52.646654, -26.089742]}, "properties": {"address": "?, 22"}},
{"type": "Feature", "geometry": {"type": "Point", "coordinates": [-52.64663, -26.08964]}, "properties": {"address": "?, 21"}},
{"type": "Feature", "geometry": {"type": "Point", "coordinates": [-52.646625, -26.089531]}, "properties": {"address": "?, 20"}},
{"type": "Feature", "geometry": {"type": "Point", "coordinates": [-52.646621, -26.089426]}, "properties": {"address": "?, 19"}},
{"type": "Feature", "geometry": {"type": "Point", "coordinates": [-52.646602, -26.089323]}, "properties": {"address": "?, 18"}},
{"type": "Feature", "geometry": {"type": "Point", "coordinates": [-52.646588, -26.089219]}, "properties": {"address": "?, 17"}},
{"type": "Feature", "geometry": {"type": "Point", "coordinates": [-52.646572, -26.089043]}, "properties": {"address": "?, 16"}},
{"type": "Feature", "geometry": {"type": "Point", "coordinates": [-52.646391, -26.089054]}, "properties": {"address": "?, 15"}},
{"type": "Feature", "geometry": {"type": "Point", "coordinates": [-52.646246, -26.08907]}, "properties": {"address": "?, 14"}},
{"type": "Feature", "geometry": {"type": "Point", "coordinates": [-52.646077, -26.089088]}, "properties": {"address": "?, 13"}},
{"type": "Feature", "geometry": {"type": "Point", "coordinates": [-52.645953, -26.089111]}, "properties": {"address": "?, 12"}},
{"type": "Feature", "geometry": {"type": "Point", "coordinates": [-52.646075, -26.090364]}, "properties": {"address": "?, 01"}},
{"type": "Feature", "geometry": {"type": "Point", "coordinates": [-52.646061, -26.090261]}, "properties": {"address": "?, 02"}},
{"type": "Feature", "geometry": {"type": "Point", "coordinates": [-52.646046, -26.090153]}, "properties": {"address": "?, 03"}},
{"type": "Feature", "geometry": {"type": "Point", "coordinates": [-52.646028, -26.090054]}, "properties": {"address": "?, 04"}},
{"type": "Feature", "geometry": {"type": "Point", "coordinates": [-52.646012, -26.089941]}, "properties": {"address": "?, 05"}},
{"type": "Feature", "geometry": {"type": "Point", "coordinates": [-52.646002, -26.089828]}, "properties": {"address": "?, 06"}},
{"type": "Feature", "geometry": {"type": "Point", "coordinates": [-52.645978, -26.089726]}, "properties": {"address": "?, 07"}},
{"type": "Feature", "geometry": {"type": "Point", "coordinates": [-52.645973, -26.089616]}, "properties": {"address": "?, 08"}},
{"type": "Feature", "geometry": {"type": "Point", "coordinates": [-52.645966, -26.089489]}, "properties": {"address": "?, 09"}},
{"type": "Feature", "geometry": {"type": "Point", "coordinates": [-52.645947, -26.089386]}, "properties": {"address": "?, 10"}},
{"type": "Feature", "geometry": {"type": "Point", "coordinates": [-52.645933, -26.089282]}, "properties": {"address": "?, 11"}},
{"type": "Feature", "geometry": {"type": "Point", "coordinates": [-52.646587, -26.090463]}, "properties": {"address": "?, 29"}},
{"type": "Feature", "geometry": {"type": "Point", "coordinates": [-52.646432, -26.090476]}, "properties": {"address": "?, 30"}},
{"type": "Feature", "geometry": {"type": "Point", "coordinates": [-52.646278, -26.090498]}, "properties": {"address": "?, 31"}},
{"type": "Feature", "geometry": {"type": "Point", "coordinates": [-52.646123, -26.090515]}, "properties": {"address": "?, 32"}},
{"type": "Feature", "geometry": {"type": "Point", "coordinates": [-52.645846, -26.090609]}, "properties": {"address": "?, 01"}},
{"type": "Feature", "geometry": {"type": "Point", "coordinates": [-52.645825, -26.090496]}, "properties": {"address": "?, 02"}},
{"type": "Feature", "geometry": {"type": "Point", "coordinates": [-52.645812, -26.090397]}, "properties": {"address": "?, 03"}},
{"type": "Feature", "geometry": {"type": "Point", "coordinates": [-52.645798, -26.090293]}, "properties": {"address": "?, 04"}},
{"type": "Feature", "geometry": {"type": "Point", "coordinates": [-52.645782, -26.090176]}, "properties": {"address": "?, 05"}},
{"type": "Feature", "geometry": {"type": "Point", "coordinates": [-52.645767, -26.090068]}, "properties": {"address": "?, 06"}},
{"type": "Feature", "geometry": {"type": "Point", "coordinates": [-52.645747, -26.089965]}, "properties": {"address": "?, 07"}},
{"type": "Feature", "geometry": {"type": "Point", "coordinates": [-52.645732, -26.089852]}, "properties": {"address": "?, 08"}},
{"type": "Feature", "geometry": {"type": "Point", "coordinates": [-52.64572, -26.089755]}, "properties": {"address": "?, 09"}},
{"type": "Feature", "geometry": {"type": "Point", "coordinates": [-52.64571, -26.089647]}, "properties": {"address": "?, 10"}},
{"type": "Feature", "geometry": {"type": "Point", "coordinates": [-52.64569, -26.089539]}, "properties": {"address": "?, 11"}},
{"type": "Feature", "geometry": {"type": "Point", "coordinates": [-52.645676, -26.089435]}, "properties": {"address": "?, 12"}},
{"type": "Feature", "geometry": {"type": "Point", "coordinates": [-52.645662, -26.089332]}, "properties": {"address": "?, 13"}},
{"type": "Feature", "geometry": {"type": "Point", "coordinates": [-52.645647, -26.089219]}, "properties": {"address": "?, 14"}},
{"type": "Feature", "geometry": {"type": "Point", "coordinates": [-52.645632, -26.089111]}, "properties": {"address": "?, 15"}},
{"type": "Feature", "geometry": {"type": "Point", "coordinates": [-52.647086, -26.090404]}, "properties": {"address": "?, 30"}},
{"type": "Feature", "geometry": {"type": "Point", "coordinates": [-52.647536, -26.0904]}, "properties": {"address": "?, 29"}},
{"type": "Feature", "geometry": {"type": "Point", "coordinates": [-52.647684, -26.09037]}, "properties": {"address": "?, 28"}},
{"type": "Feature", "geometry": {"type": "Point", "coordinates": [-52.64766, -26.090199]}, "properties": {"address": "?, 27"}},
{"type": "Feature", "geometry": {"type": "Point", "coordinates": [-52.647646, -26.090095]}, "properties": {"address": "?, 26"}},
{"type": "Feature", "geometry": {"type": "Point", "coordinates": [-52.64763, -26.089974]}, "properties": {"address": "?, 25"}},
{"type": "Feature", "geometry": {"type": "Point", "coordinates": [-52.64762, -26.089865]}, "properties": {"address": "?, 24"}},
{"type": "Feature", "geometry": {"type": "Point", "coordinates": [-52.647605, -26.089757]}, "properties": {"address": "?, 23"}},
{"type": "Feature", "geometry": {"type": "Point", "coordinates": [-52.647134, -26.088954]}, "properties": {"address": "?, 14"}},
{"type": "Feature", "geometry": {"type": "Point", "coordinates": [-52.647012, -26.088967]}, "properties": {"address": "?, 13"}},
{"type": "Feature", "geometry": {"type": "Point", "coordinates": [-52.646867, -26.08899]}, "properties": {"address": "?, 12"}},
{"type": "Feature", "geometry": {"type": "Point", "coordinates": [-52.646898, -26.089515]}, "properties": {"address": "?, 08"}},
{"type": "Feature", "geometry": {"type": "Point", "coordinates": [-52.646929, -26.08967]}, "properties": {"address": "?, 06"}},
{"type": "Feature", "geometry": {"type": "Point", "coordinates": [-52.646947, -26.089839]}, "properties": {"address": "?, 05"}},
{"type": "Feature", "geometry": {"type": "Point", "coordinates": [-52.64701, -26.089997]}, "properties": {"address": "?, 01"}},
{"type": "Feature", "geometry": {"type": "Point", "coordinates": [-52.647261, -26.08894]}, "properties": {"address": "?, 15"}},
{"type": "Feature", "geometry": {"type": "Point", "coordinates": [-52.647289, -26.08912]}, "properties": {"address": "?, 36"}},
{"type": "Feature", "geometry": {"type": "Point", "coordinates": [-52.647299, -26.08922]}, "properties": {"address": "?, 35"}},
{"type": "Feature", "geometry": {"type": "Point", "coordinates": [-52.647315, -26.089338]}, "properties": {"address": "?, 34"}},
{"type": "Feature", "geometry": {"type": "Point", "coordinates": [-52.647323, -26.089442]}, "properties": {"address": "?, 33"}},
{"type": "Feature", "geometry": {"type": "Point", "coordinates": [-52.647362, -26.089556]}, "properties": {"address": "?, 38"}},
{"type": "Feature", "geometry": {"type": "Point", "coordinates": [-52.647372, -26.089663]}, "properties": {"address": "?, 37"}},
{"type": "Feature", "geometry": {"type": "Point", "coordinates": [-52.647588, -26.089566]}, "properties": {"address": "?, 22"}},
{"type": "Feature", "geometry": {"type": "Point", "coordinates": [-52.647561, -26.089441]}, "properties": {"address": "?, 21"}},
{"type": "Feature", "geometry": {"type": "Point", "coordinates": [-52.647555, -26.089328]}, "properties": {"address": "?, 20"}},
{"type": "Feature", "geometry": {"type": "Point", "coordinates": [-52.647542, -26.089208]}, "properties": {"address": "?, 19"}},
{"type": "Feature", "geometry": {"type": "Point", "coordinates": [-52.647528, -26.089104]}, "properties": {"address": "?, 18"}},
{"type": "Feature", "geometry": {"type": "Point", "coordinates": [-52.647509, -26.08899]}, "properties": {"address": "?, 17"}},
{"type": "Feature", "geometry": {"type": "Point", "coordinates": [-52.647493, -26.088896]}, "properties": {"address": "?, 16"}},
{"type": "Feature", "geometry": {"type": "Point", "coordinates": [-52.646892, -26.089402]}, "properties": {"address": "?, 09"}},
{"type": "Feature", "geometry": {"type": "Point", "coordinates": [-52.646885, -26.089301]}, "properties": {"address": "?, 10"}},
{"type": "Feature", "geometry": {"type": "Point", "coordinates": [-52.646864, -26.089193]}, "properties": {"address": "?, 11"}},
{"type": "Feature", "geometry": {"type": "Point", "coordinates": [-52.647117, -26.090716]}, "properties": {"address": "?, 10"}},
{"type": "Feature", "geometry": {"type": "Point", "coordinates": [-52.64713, -26.090883]}, "properties": {"address": "?, 09"}},
{"type": "Feature", "geometry": {"type": "Point", "coordinates": [-52.647143, -26.091049]}, "properties": {"address": "?, 08"}},
{"type": "Feature", "geometry": {"type": "Point", "coordinates": [-52.647157, -26.091224]}, "properties": {"address": "?, 07"}},
{"type": "Feature", "geometry": {"type": "Point", "coordinates": [-52.647177, -26.091372]}, "properties": {"address": "?, 06"}},
{"type": "Feature", "geometry": {"type": "Point", "coordinates": [-52.647204, -26.091568]}, "properties": {"address": "?, 05"}},
{"type": "Feature", "geometry": {"type": "Point", "coordinates": [-52.647228, -26.091746]}, "properties": {"address": "?, 04"}},
{"type": "Feature", "geometry": {"type": "Point", "coordinates": [-52.647257, -26.09196]}, "properties": {"address": "?, 03"}},
{"type": "Feature", "geometry": {"type": "Point", "coordinates": [-52.647279, -26.09216]}, "properties": {"address": "?, 02"}},
{"type": "Feature", "geometry": {"type": "Point", "coordinates": [-52.647563, -26.09233]}, "properties": {"address": "?, 01"}},
{"type": "Feature", "geometry": {"type": "Point", "coordinates": [-52.647907, -26.09206]}, "properties": {"address": "?, 19"}},
{"type": "Feature", "geometry": {"type": "Point", "coordinates": [-52.647863, -26.091772]}, "properties": {"address": "?, 17"}},
{"type": "Feature", "geometry": {"type": "Point", "coordinates": [-52.647825, -26.091495]}, "properties": {"address": "?, 16"}},
{"type": "Feature", "geometry": {"type": "Point", "coordinates": [-52.647796, -26.091317]}, "properties": {"address": "?, 15"}},
{"type": "Feature", "geometry": {"type": "Point", "coordinates": [-52.647781, -26.091164]}, "properties": {"address": "?, 14"}},
{"type": "Feature", "geometry": {"type": "Point", "coordinates": [-52.647759, -26.09095]}, "properties": {"address": "?, 13"}},
{"type": "Feature", "geometry": {"type": "Point", "coordinates": [-52.647732, -26.090799]}, "properties": {"address": "?, 12"}},
{"type": "Feature", "geometry": {"type": "Point", "coordinates": [-52.647714, -26.090659]}, "properties": {"address": "?, 11"}},
{"type": "Feature", "geometry": {"type": "Point", "coordinates": [-52.647433, -26.092884]}, "properties": {"address": "?, 07"}},
{"type": "Feature", "geometry": {"type": "Point", "coordinates": [-52.647583, -26.092864]}, "properties": {"address": "?, 08"}},
{"type": "Feature", "geometry": {"type": "Point", "coordinates": [-52.647831, -26.092833]}, "properties": {"address": "?, 09"}},
{"type": "Feature", "geometry": {"type": "Point", "coordinates": [-52.647993, -26.09284]}, "properties": {"address": "?, 10"}},
{"type": "Feature", "geometry": {"type": "Point", "coordinates": [-52.648037, -26.093076]}, "properties": {"address": "?, 11"}},
{"type": "Feature", "geometry": {"type": "Point", "coordinates": [-52.648073, -26.093235]}, "properties": {"address": "?, 12"}},
{"type": "Feature", "geometry": {"type": "Point", "coordinates": [-52.648075, -26.093391]}, "properties": {"address": "?, 13"}},
{"type": "Feature", "geometry": {"type": "Point", "coordinates": [-52.648082, -26.093554]}, "properties": {"address": "?, 14"}},
{"type": "Feature", "geometry": {"type": "Point", "coordinates": [-52.647532, -26.09393]}, "properties": {"address": "?, 01"}},
{"type": "Feature", "geometry": {"type": "Point", "coordinates": [-52.647505, -26.093763]}, "properties": {"address": "?, 02"}},
{"type": "Feature", "geometry": {"type": "Point", "coordinates": [-52.647493, -26.093615]}, "properties": {"address": "?, 03"}},
{"type": "Feature", "geometry": {"type": "Point", "coordinates": [-52.647473, -26.093465]}, "properties": {"address": "?, 04"}},
{"type": "Feature", "geometry": {"type": "Point", "coordinates": [-52.647456, -26.093339]}, "properties": {"address": "?, 05"}},
{"type": "Feature", "geometry": {"type": "Point", "coordinates": [-52.647447, -26.09327]}, "properties": {"address": "?, 15"}},
{"type": "Feature", "geometry": {"type": "Point", "coordinates": [-52.647426, -26.093147]}, "properties": {"address": "?, 06"}},
{"type": "Feature", "geometry": {"type": "Point", "coordinates": [-52.648311, -26.092732]}, "properties": {"address": "?, 04"}},
{"type": "Feature", "geometry": {"type": "Point", "coordinates": [-52.648326, -26.092886]}, "properties": {"address": "?, 03"}},
{"type": "Feature", "geometry": {"type": "Point", "coordinates": [-52.648349, -26.093055]}, "properties": {"address": "?, 02"}},
{"type": "Feature", "geometry": {"type": "Point", "coordinates": [-52.648373, -26.093234]}, "properties": {"address": "?, 01"}},
{"type": "Feature", "geometry": {"type": "Point", "coordinates": [-52.648827, -26.093039]}, "properties": {"address": "?, 06"}},
{"type": "Feature", "geometry": {"type": "Point", "coordinates": [-52.648775, -26.09274]}, "properties": {"address": "?, 05"}},
{"type": "Feature", "geometry": {"type": "Point", "coordinates": [-52.649073, -26.09267]}, "properties": {"address": "?, 04"}},
{"type": "Feature", "geometry": {"type": "Point", "coordinates": [-52.649075, -26.092771]}, "properties": {"address": "?, 03"}},
{"type": "Feature", "geometry": {"type": "Point", "coordinates": [-52.649089, -26.09292]}, "properties": {"address": "?, 02"}},
{"type": "Feature", "geometry": {"type": "Point", "coordinates": [-52.649116, -26.093115]}, "properties": {"address": "?, 01"}},
{"type": "Feature", "geometry": {"type": "Point", "coordinates": [-52.649488, -26.093223]}, "properties": {"address": "?, 09"}},
{"type": "Feature", "geometry": {"type": "Point", "coordinates": [-52.64947, -26.093017]}, "properties": {"address": "?, 08"}},
{"type": "Feature", "geometry": {"type": "Point", "coordinates": [-52.649448, -26.092896]}, "properties": {"address": "?, 07"}},
{"type": "Feature", "geometry": {"type": "Point", "coordinates": [-52.649428, -26.092748]}, "properties": {"address": "?, 06"}},
{"type": "Feature", "geometry": {"type": "Point", "coordinates": [-52.649403, -26.092607]}, "properties": {"address": "?, 05"}},
{"type": "Feature", "geometry": {"type": "Point", "coordinates": [-52.648327, -26.09235]}, "properties": {"address": "?, 01"}},
{"type": "Feature", "geometry": {"type": "Point", "coordinates": [-52.648301, -26.092155]}, "properties": {"address": "?, 02"}},
{"type": "Feature", "geometry": {"type": "Point", "coordinates": [-52.648276, -26.091975]}, "properties": {"address": "?, 03"}},
{"type": "Feature", "geometry": {"type": "Point", "coordinates": [-52.648258, -26.091838]}, "properties": {"address": "?, 04"}},
{"type": "Feature", "geometry": {"type": "Point", "coordinates": [-52.64823, -26.09168]}, "properties": {"address": "?, 05"}},
{"type": "Feature", "geometry": {"type": "Point", "coordinates": [-52.648144, -26.091524]}, "properties": {"address": "?, 06"}},
{"type": "Feature", "geometry": {"type": "Point", "coordinates": [-52.64814, -26.091406]}, "properties": {"address": "?, 07"}},
{"type": "Feature", "geometry": {"type": "Point", "coordinates": [-52.648102, -26.091169]}, "properties": {"address": "?, 08"}},
{"type": "Feature", "geometry": {"type": "Point", "coordinates": [-52.648077, -26.090947]}, "properties": {"address": "?, 09"}},
{"type": "Feature", "geometry": {"type": "Point", "coordinates": [-52.648054, -26.090772]}, "properties": {"address": "?, 10"}},
{"type": "Feature", "geometry": {"type": "Point", "coordinates": [-52.648034, -26.090627]}, "properties": {"address": "?, 11"}},
{"type": "Feature", "geometry": {"type": "Point", "coordinates": [-52.648481, -26.090596]}, "properties": {"address": "?, 12"}},
{"type": "Feature", "geometry": {"type": "Point", "coordinates": [-52.648485, -26.090714]}, "properties": {"address": "?, 13"}},
{"type": "Feature", "geometry": {"type": "Point", "coordinates": [-52.648502, -26.090841]}, "properties": {"address": "?, 14"}},
{"type": "Feature", "geometry": {"type": "Point", "coordinates": [-52.648524, -26.091004]}, "properties": {"address": "?, 15"}},
{"type": "Feature", "geometry": {"type": "Point", "coordinates": [-52.648539, -26.091115]}, "properties": {"address": "?, 16"}},
{"type": "Feature", "geometry": {"type": "Point", "coordinates": [-52.648561, -26.091279]}, "properties": {"address": "?, 17"}},
{"type": "Feature", "geometry": {"type": "Point", "coordinates": [-52.648617, -26.091385]}, "properties": {"address": "?, 18"}},
{"type": "Feature", "geometry": {"type": "Point", "coordinates": [-52.648632, -26.091534]}, "properties": {"address": "?, 19"}},
{"type": "Feature", "geometry": {"type": "Point", "coordinates": [-52.648601, -26.091655]}, "properties": {"address": "?, 20"}},
{"type": "Feature", "geometry": {"type": "Point", "coordinates": [-52.648632, -26.091802]}, "properties": {"address": "?, 21"}},
{"type": "Feature", "geometry": {"type": "Point", "coordinates": [-52.648648, -26.091918]}, "properties": {"address": "?, 22"}},
{"type": "Feature", "geometry": {"type": "Point", "coordinates": [-52.648643, -26.092058]}, "properties": {"address": "?, 23"}},
{"type": "Feature", "geometry": {"type": "Point", "coordinates": [-52.648663, -26.0922]}, "properties": {"address": "?, 24"}},
{"type": "Feature", "geometry": {"type": "Point", "coordinates": [-52.648682, -26.092343]}, "properties": {"address": "?, 25"}},
{"type": "Feature", "geometry": {"type": "Point", "coordinates": [-52.649346, -26.092281]}, "properties": {"address": "?, 26"}},
{"type": "Feature", "geometry": {"type": "Point", "coordinates": [-52.649327, -26.092139]}, "properties": {"address": "?, 25"}},
{"type": "Feature", "geometry": {"type": "Point", "coordinates": [-52.649307, -26.091993]}, "properties": {"address": "?, 24"}},
{"type": "Feature", "geometry": {"type": "Point", "coordinates": [-52.649293, -26.091851]}, "properties": {"address": "?, 23"}},
{"type": "Feature", "geometry": {"type": "Point", "coordinates": [-52.649277, -26.091738]}, "properties": {"address": "?, 22"}},
{"type": "Feature", "geometry": {"type": "Point", "coordinates": [-52.649254, -26.091568]}, "properties": {"address": "?, 21"}},
{"type": "Feature", "geometry": {"type": "Point", "coordinates": [-52.649238, -26.091451]}, "properties": {"address": "?, 20"}},
{"type": "Feature", "geometry": {"type": "Point", "coordinates": [-52.64922, -26.091319]}, "properties": {"address": "?, 19"}},
{"type": "Feature", "geometry": {"type": "Point", "coordinates": [-52.6492, -26.091206]}, "properties": {"address": "?, 18"}},
{"type": "Feature", "geometry": {"type": "Point", "coordinates": [-52.649183, -26.091079]}, "properties": {"address": "?, 17"}},
{"type": "Feature", "geometry": {"type": "Point", "coordinates": [-52.649162, -26.090928]}, "properties": {"address": "?, 16"}},
{"type": "Feature", "geometry": {"type": "Point", "coordinates": [-52.649143, -26.090791]}, "properties": {"address": "?, 15"}},
{"type": "Feature", "geometry": {"type": "Point", "coordinates": [-52.649127, -26.090669]}, "properties": {"address": "?, 14"}},
{"type": "Feature", "geometry": {"type": "Point", "coordinates": [-52.648787, -26.090717]}, "properties": {"address": "?, 13"}},
{"type": "Feature", "geometry": {"type": "Point", "coordinates": [-52.648806, -26.090858]}, "properties": {"address": "?, 12"}},
{"type": "Feature", "geometry": {"type": "Point", "coordinates": [-52.648825, -26.091]}, "properties": {"address": "?, 11"}},
{"type": "Feature", "geometry": {"type": "Point", "coordinates": [-52.648842, -26.091122]}, "properties": {"address": "?, 10"}},
{"type": "Feature", "geometry": {"type": "Point", "coordinates": [-52.648843, -26.091236]}, "properties": {"address": "?, 09"}},
{"type": "Feature", "geometry": {"type": "Point", "coordinates": [-52.64887, -26.091382]}, "properties": {"address": "?, 08"}},
{"type": "Feature", "geometry": {"type": "Point", "coordinates": [-52.648893, -26.091513]}, "properties": {"address": "?, 07"}},
{"type": "Feature", "geometry": {"type": "Point", "coordinates": [-52.648916, -26.091645]}, "properties": {"address": "?, 06"}},
{"type": "Feature", "geometry": {"type": "Point", "coordinates": [-52.648937, -26.091762]}, "properties": {"address": "?, 05"}},
{"type": "Feature", "geometry": {"type": "Point", "coordinates": [-52.648958, -26.091913]}, "properties": {"address": "?, 04"}},
{"type": "Feature", "geometry": {"type": "Point", "coordinates": [-52.648987, -26.092073]}, "properties": {"address": "?, 03"}},
{"type": "Feature", "geometry": {"type": "Point", "coordinates": [-52.649014, -26.092194]}, "properties": {"address": "?, 02"}},
{"type": "Feature", "geometry": {"type": "Point", "coordinates": [-52.64902, -26.092306]}, "properties": {"address": "?, 01"}},
{"type": "Feature", "geometry": {"type": "Point", "coordinates": [-52.649437, -26.090767]}, "properties": {"address": "?, 01"}},
{"type": "Feature", "geometry": {"type": "Point", "coordinates": [-52.649467, -26.09095]}, "properties": {"address": "?, 02"}},
{"type": "Feature", "geometry": {"type": "Point", "coordinates": [-52.649494, -26.09111]}, "properties": {"address": "?, 03"}},
{"type": "Feature", "geometry": {"type": "Point", "coordinates": [-52.649509, -26.091223]}, "properties": {"address": "?, 04"}},
{"type": "Feature", "geometry": {"type": "Point", "coordinates": [-52.64952, -26.091341]}, "properties": {"address": "?, 05"}},
{"type": "Feature", "geometry": {"type": "Point", "coordinates": [-52.649534, -26.091445]}, "properties": {"address": "?, 06"}},
{"type": "Feature", "geometry": {"type": "Point", "coordinates": [-52.649543, -26.091549]}, "properties": {"address": "?, 07"}},
{"type": "Feature", "geometry": {"type": "Point", "coordinates": [-52.649564, -26.091666]}, "properties": {"address": "?, 08"}},
{"type": "Feature", "geometry": {"type": "Point", "coordinates": [-52.649579, -26.09177]}, "properties": {"address": "?, 09"}},
{"type": "Feature", "geometry": {"type": "Point", "coordinates": [-52.64957, -26.091867]}, "properties": {"address": "?, 10"}},
{"type": "Feature", "geometry": {"type": "Point", "coordinates": [-52.649606, -26.091973]}, "properties": {"address": "?, 11"}},
{"type": "Feature", "geometry": {"type": "Point", "coordinates": [-52.649608, -26.092182]}, "properties": {"address": "?, 12"}},
{"type": "Feature", "geometry": {"type": "Point", "coordinates": [-52.649728, -26.092169]}, "properties": {"address": "?, 13"}},
{"type": "Feature", "geometry": {"type": "Point", "coordinates": [-52.649854, -26.092159]}, "properties": {"address": "?, 14"}},
{"type": "Feature", "geometry": {"type": "Point", "coordinates": [-52.649988, -26.092135]}, "properties": {"address": "?, 15"}},
{"type": "Feature", "geometry": {"type": "Point", "coordinates": [-52.650109, -26.092128]}, "properties": {"address": "?, 16"}},
{"type": "Feature", "geometry": {"type": "Point", "coordinates": [-52.649701, -26.092617]}, "properties": {"address": "?, 05"}},
{"type": "Feature", "geometry": {"type": "Point", "coordinates": [-52.649842, -26.092602]}, "properties": {"address": "?, 04"}},
{"type": "Feature", "geometry": {"type": "Point", "coordinates": [-52.649719, -26.092792]}, "properties": {"address": "?, 06"}},
{"type": "Feature", "geometry": {"type": "Point", "coordinates": [-52.649733, -26.092896]}, "properties": {"address": "?, 07"}},
{"type": "Feature", "geometry": {"type": "Point", "coordinates": [-52.649752, -26.092994]}, "properties": {"address": "?, 08"}},
{"type": "Feature", "geometry": {"type": "Point", "coordinates": [-52.65002, -26.092591]}, "properties": {"address": "?, 03"}},
{"type": "Feature", "geometry": {"type": "Point", "coordinates": [-52.650161, -26.092576]}, "properties": {"address": "?, 02"}},
{"type": "Feature", "geometry": {"type": "Point", "coordinates": [-52.650297, -26.092561]}, "properties": {"address": "?, 01"}},
{"type": "Feature", "geometry": {"type": "Point", "coordinates": [-52.64671, -26.092888]}, "properties": {"address": "?, 22"}},
{"type": "Feature", "geometry": {"type": "Point", "coordinates": [-52.649038, -26.090279]}, "properties": {"address": "?, 01"}},
{"type": "Feature", "geometry": {"type": "Point", "coordinates": [-52.649025, -26.09019]}, "properties": {"address": "?, 02"}},
{"type": "Feature", "geometry": {"type": "Point", "coordinates": [-52.649013, -26.0901]}, "properties": {"address": "?, 03"}},
{"type": "Feature", "geometry": {"type": "Point", "coordinates": [-52.649001, -26.09001]}, "properties": {"address": "?, 04"}},
{"type": "Feature", "geometry": {"type": "Point", "coordinates": [-52.648988, -26.089912]}, "properties": {"address": "?, 05"}},
{"type": "Feature", "geometry": {"type": "Point", "coordinates": [-52.648977, -26.089831]}, "properties": {"address": "?, 06"}},
{"type": "Feature", "geometry": {"type": "Point", "coordinates": [-52.648965, -26.089742]}, "properties": {"address": "?, 07"}},
{"type": "Feature", "geometry": {"type": "Point", "coordinates": [-52.648952, -26.089652]}, "properties": {"address": "?, 08"}},
{"type": "Feature", "geometry": {"type": "Point", "coordinates": [-52.64894, -26.089562]}, "properties": {"address": "?, 09"}},
{"type": "Feature", "geometry": {"type": "Point", "coordinates": [-52.648928, -26.089473]}, "properties": {"address": "?, 10"}},
{"type": "Feature", "geometry": {"type": "Point", "coordinates": [-52.648916, -26.089383]}, "properties": {"address": "?, 11"}},
{"type": "Feature", "geometry": {"type": "Point", "coordinates": [-52.648904, -26.089294]}, "properties": {"address": "?, 12"}},
{"type": "Feature", "geometry": {"type": "Point", "coordinates": [-52.648892, -26.089204]}, "properties": {"address": "?, 13"}},
{"type": "Feature", "geometry": {"type": "Point", "coordinates": [-52.648879, -26.089114]}, "properties": {"address": "?, 14"}},
{"type": "Feature", "geometry": {"type": "Point", "coordinates": [-52.648867, -26.089025]}, "properties": {"address": "?, 15"}},
{"type": "Feature", "geometry": {"type": "Point", "coordinates": [-52.648855, -26.088937]}, "properties": {"address": "?, 16"}},
{"type": "Feature", "geometry": {"type": "Point", "coordinates": [-52.648843, -26.088846]}, "properties": {"address": "?, 17"}},
{"type": "Feature", "geometry": {"type": "Point", "coordinates": [-52.648831, -26.088756]}, "properties": {"address": "?, 18"}},
{"type": "Feature", "geometry": {"type": "Point", "coordinates": [-52.648658, -26.090321]}, "properties": {"address": "?, 19"}},
{"type": "Feature", "geometry": {"type": "Point", "coordinates": [-52.648645, -26.090232]}, "properties": {"address": "?, 20"}},
{"type": "Feature", "geometry": {"type": "Point", "coordinates": [-52.648633, -26.090142]}, "properties": {"address": "?, 21"}},
{"type": "Feature", "geometry": {"type": "Point", "coordinates": [-52.648621, -26.090052]}, "properties": {"address": "?, 22"}},
{"type": "Feature", "geometry": {"type": "Point", "coordinates": [-52.648608, -26.089955]}, "properties": {"address": "?, 23"}},
{"type": "Feature", "geometry": {"type": "Point", "coordinates": [-52.648597, -26.089873]}, "properties": {"address": "?, 24"}},
{"type": "Feature", "geometry": {"type": "Point", "coordinates": [-52.648585, -26.089784]}, "properties": {"address": "?, 25"}},
{"type": "Feature", "geometry": {"type": "Point", "coordinates": [-52.648572, -26.089694]}, "properties": {"address": "?, 26"}},
{"type": "Feature", "geometry": {"type": "Point", "coordinates": [-52.64856, -26.089604]}, "properties": {"address": "?, 27"}},
{"type": "Feature", "geometry": {"type": "Point", "coordinates": [-52.648548, -26.089515]}, "properties": {"address": "?, 28"}},
{"type": "Feature", "geometry": {"type": "Point", "coordinates": [-52.648536, -26.089425]}, "properties": {"address": "?, 29"}},
{"type": "Feature", "geometry": {"type": "Point", "coordinates": [-52.648524, -26.089336]}, "properties": {"address": "?, 30"}},
{"type": "Feature", "geometry": {"type": "Point", "coordinates": [-52.648512, -26.089246]}, "properties": {"address": "?, 31"}},
{"type": "Feature", "geometry": {"type": "Point", "coordinates": [-52.648499, -26.089156]}, "properties": {"address": "?, 32"}},
{"type": "Feature", "geometry": {"type": "Point", "coordinates": [-52.648487, -26.089067]}, "properties": {"address": "?, 33"}},
{"type": "Feature", "geometry": {"type": "Point", "coordinates": [-52.648475, -26.088979]}, "properties": {"address": "?, 34"}},
{"type": "Feature", "geometry": {"type": "Point", "coordinates": [-52.648463, -26.088888]}, "properties": {"address": "?, 35"}},
{"type": "Feature", "geometry": {"type": "Point", "coordinates": [-52.648451, -26.088798]}, "properties": {"address": "?, 36"}},
{"type": "Feature", "geometry": {"type": "Point", "coordinates": [-52.650144, -26.093166]}, "properties": {"address": "?, 09"}},
{"type": "Feature", "geometry": {"type": "Point", "coordinates": [-52.650084, -26.090136]}, "properties": {"address": "?, 18"}},
{"type": "Feature", "geometry": {"type": "Point", "coordinates": [-52.650071, -26.090005]}, "properties": {"address": "?, 17"}},
{"type": "Feature", "geometry": {"type": "Point", "coordinates": [-52.650059, -26.089898]}, "properties": {"address": "?, 16"}},
{"type": "Feature", "geometry": {"type": "Point", "coordinates": [-52.650044, -26.089796]}, "properties": {"address": "?, 15"}},
{"type": "Feature", "geometry": {"type": "Point", "coordinates": [-52.647739, -26.088506]}, "properties": {"address": "?, 14"}},
{"type": "Feature", "geometry": {"type": "Point", "coordinates": [-52.64772, -26.088399]}, "properties": {"address": "?, 13"}},
{"type": "Feature", "geometry": {"type": "Point", "coordinates": [-52.647709, -26.088291]}, "properties": {"address": "?, 12"}},
{"type": "Feature", "geometry": {"type": "Point", "coordinates": [-52.647692, -26.088188]}, "properties": {"address": "?, 11"}},
{"type": "Feature", "geometry": {"type": "Point", "coordinates": [-52.647677, -26.088075]}, "properties": {"address": "?, 10"}},
{"type": "Feature", "geometry": {"type": "Point", "coordinates": [-52.649138, -26.088794]}, "properties": {"address": "?, 05"}},
{"type": "Feature", "geometry": {"type": "Point", "coordinates": [-52.649183, -26.088952]}, "properties": {"address": "?, 06"}},
{"type": "Feature", "geometry": {"type": "Point", "coordinates": [-52.649207, -26.089178]}, "properties": {"address": "?, 08"}},
{"type": "Feature", "geometry": {"type": "Point", "coordinates": [-52.649232, -26.089282]}, "properties": {"address": "?, 09"}},
{"type": "Feature", "geometry": {"type": "Point", "coordinates": [-52.649238, -26.08939]}, "properties": {"address": "?, 10"}},
{"type": "Feature", "geometry": {"type": "Point", "coordinates": [-52.649258, -26.089503]}, "properties": {"address": "?, 11"}},
{"type": "Feature", "geometry": {"type": "Point", "coordinates": [-52.649276, -26.089613]}, "properties": {"address": "?, 12"}},
{"type": "Feature", "geometry": {"type": "Point", "coordinates": [-52.64908, -26.088373]}, "properties": {"address": "?, 04"}},
{"type": "Feature", "geometry": {"type": "Point", "coordinates": [-52.650025, -26.089684]}, "properties": {"address": "?, 14"}},
{"type": "Feature", "geometry": {"type": "Point", "coordinates": [-52.647792, -26.088626]}, "properties": {"address": "?, 15"}},
{"type": "Feature", "geometry": {"type": "Point", "coordinates": [-52.648647, -26.087555]}, "properties": {"address": "?, 08"}},
{"type": "Feature", "geometry": {"type": "Point", "coordinates": [-52.648677, -26.087691]}, "properties": {"address": "?, 07"}},
{"type": "Feature", "geometry": {"type": "Point", "coordinates": [-52.648695, -26.087826]}, "properties": {"address": "?, 06"}},
{"type": "Feature", "geometry": {"type": "Point", "coordinates": [-52.648715, -26.08796]}, "properties": {"address": "?, 05"}},
{"type": "Feature", "geometry": {"type": "Point", "coordinates": [-52.648733, -26.088094]}, "properties": {"address": "?, 04"}},
{"type": "Feature", "geometry": {"type": "Point", "coordinates": [-52.648751, -26.088229]}, "properties": {"address": "?, 03"}},
{"type": "Feature", "geometry": {"type": "Point", "coordinates": [-52.648769, -26.088363]}, "properties": {"address": "?, 02"}},
{"type": "Feature", "geometry": {"type": "Point", "coordinates": [-52.648786, -26.088498]}, "properties": {"address": "?, 01"}},
{"type": "Feature", "geometry": {"type": "Point", "coordinates": [-52.648409, -26.087582]}, "properties": {"address": "?, 09"}},
{"type": "Feature", "geometry": {"type": "Point", "coordinates": [-52.648439, -26.087717]}, "properties": {"address": "?, 10"}},
{"type": "Feature", "geometry": {"type": "Point", "coordinates": [-52.648457, -26.087852]}, "properties": {"address": "?, 11"}},
{"type": "Feature", "geometry": {"type": "Point", "coordinates": [-52.648477, -26.087986]}, "properties": {"address": "?, 12"}},
{"type": "Feature", "geometry": {"type": "Point", "coordinates": [-52.648495, -26.08812]}, "properties": {"address": "?, 13"}},
{"type": "Feature", "geometry": {"type": "Point", "coordinates": [-52.648513, -26.088255]}, "properties": {"address": "?, 14"}},
{"type": "Feature", "geometry": {"type": "Point", "coordinates": [-52.648499, -26.088396]}, "properties": {"address": "?, 15"}},
{"type": "Feature", "geometry": {"type": "Point", "coordinates": [-52.648539, -26.088525]}, "properties": {"address": "?, 16"}},
{"type": "Feature", "geometry": {"type": "Point", "coordinates": [-52.649978, -26.089533]}, "properties": {"address": "?, 13"}},
{"type": "Feature", "geometry": {"type": "Point", "coordinates": [-52.64917, -26.089061]}, "properties": {"address": "?, 07"}},
{"type": "Feature", "geometry": {"type": "Point", "coordinates": [-52.649076, -26.088224]}, "properties": {"address": "?, 03"}},
{"type": "Feature", "geometry": {"type": "Point", "coordinates": [-52.649061, -26.088097]}, "properties": {"address": "?, 02"}},
{"type": "Feature", "geometry": {"type": "Point", "coordinates": [-52.649057, -26.08796]}, "properties": {"address": "?, 01"}},
{"type": "Feature", "geometry": {"type": "Point", "coordinates": [-52.649472, -26.090123]}, "properties": {"address": "?, 19"}},
{"type": "Feature", "geometry": {"type": "Point", "coordinates": [-52.648117, -26.087799]}, "properties": {"address": "?, 08"}},
{"type": "Feature", "geometry": {"type": "Point", "coordinates": [-52.648135, -26.087908]}, "properties": {"address": "?, 07"}},
{"type": "Feature", "geometry": {"type": "Point", "coordinates": [-52.648156, -26.088013]}, "properties": {"address": "?, 06"}},
{"type": "Feature", "geometry": {"type": "Point", "coordinates": [-52.648164, -26.08812]}, "properties": {"address": "?, 05"}},
{"type": "Feature", "geometry": {"type": "Point", "coordinates": [-52.648179, -26.088224]}, "properties": {"address": "?, 04"}},
{"type": "Feature", "geometry": {"type": "Point", "coordinates": [-52.648198, -26.088336]}, "properties": {"address": "?, 03"}},
{"type": "Feature", "geometry": {"type": "Point", "coordinates": [-52.648212, -26.088434]}, "properties": {"address": "?, 02"}},
{"type": "Feature", "geometry": {"type": "Point", "coordinates": [-52.648222, -26.088557]}, "properties": {"address": "?, 01"}},
{"type": "Feature", "geometry": {"type": "Point", "coordinates": [-52.6481, -26.087694]}, "properties": {"address": "?, 09"}},
{"type": "Feature", "geometry": {"type": "Point", "coordinates": [-52.646805, -26.088587]}, "properties": {"address": "?, 02"}},
{"type": "Feature", "geometry": {"type": "Point", "coordinates": [-52.646816, -26.088711]}, "properties": {"address": "?, 01"}},
{"type": "Feature", "geometry": {"type": "Point", "coordinates": [-52.647073, -26.088691]}, "properties": {"address": "?, 03"}},
{"type": "Feature", "geometry": {"type": "Point", "coordinates": [-52.647183, -26.088679]}, "properties": {"address": "?, 04"}},
{"type": "Feature", "geometry": {"type": "Point", "coordinates": [-52.647306, -26.088665]}, "properties": {"address": "?, 05"}},
{"type": "Feature", "geometry": {"type": "Point", "coordinates": [-52.647443, -26.088641]}, "properties": {"address": "?, 06"}},
{"type": "Feature", "geometry": {"type": "Point", "coordinates": [-52.647423, -26.088283]}, "properties": {"address": "?, 08"}},
{"type": "Feature", "geometry": {"type": "Point", "coordinates": [-52.64744, -26.088392]}, "properties": {"address": "?, 07"}},
{"type": "Feature", "geometry": {"type": "Point", "coordinates": [-52.647406, -26.088178]}, "properties": {"address": "?, 09"}},
{"type": "Feature", "geometry": {"type": "Point", "coordinates": [-52.646153, -26.088807]}, "properties": {"address": "?, 02"}},
{"type": "Feature", "geometry": {"type": "Point", "coordinates": [-52.645924, -26.088831]}, "properties": {"address": "?, 01"}},
{"type": "Feature", "geometry": {"type": "Point", "coordinates": [-52.64635, -26.088775]}, "properties": {"address": "?, 03"}},
{"type": "Feature", "geometry": {"type": "Point", "coordinates": [-52.646504, -26.088753]}, "properties": {"address": "?, 04"}},
{"type": "Feature", "geometry": {"type": "Point", "coordinates": [-52.648762, -26.090549]}, "properties": {"address": "?, 27"}},
{"type": "Feature", "geometry": {"type": "Point", "coordinates": [-52.649132, -26.090516]}, "properties": {"address": "?, 28"}},
{"type": "Feature", "geometry": {"type": "Point", "coordinates": [-52.646266, -26.095607]}, "properties": {"address": "?, 07"}},
{"type": "Feature", "geometry": {"type": "Point", "coordinates": [-52.646793, -26.095197]}, "properties": {"address": "?, 06"}},
{"type": "Feature", "geometry": {"type": "Point", "coordinates": [-52.645101, -26.090968]}, "properties": {"address": "?, 15"}},
{"type": "Feature", "geometry": {"type": "Point", "coordinates": [-52.645278, -26.091843]}, "properties": {"address": "?, 16"}},
{"type": "Feature", "geometry": {"type": "Point", "coordinates": [-52.64558, -26.088843]}, "properties": {"address": "?, 01"}},
{"type": "Feature", "geometry": {"type": "Point", "coordinates": [-52.645559, -26.08873]}, "properties": {"address": "?, 02"}},
{"type": "Feature", "geometry": {"type": "Point", "coordinates": [-52.645546, -26.088631]}, "properties": {"address": "?, 03"}},
{"type": "Feature", "geometry": {"type": "Point", "coordinates": [-52.645532, -26.088527]}, "properties": {"address": "?, 04"}},
{"type": "Feature", "geometry": {"type": "Point", "coordinates": [-52.645516, -26.08841]}, "properties": {"address": "?, 05"}},
{"type": "Feature", "geometry": {"type": "Point", "coordinates": [-52.691832, -26.182413]}, "properties": {"address": "?, 01"}},
{"type": "Feature", "geometry": {"type": "Point", "coordinates": [-52.691725, -26.183444]}, "properties": {"address": "?, 03"}},
{"type": "Feature", "geometry": {"type": "Point", "coordinates": [-52.691685, -26.183918]}, "properties": {"address": "?, 01"}},
{"type": "Feature", "geometry": {"type": "Point", "coordinates": [-52.691662, -26.184181]}, "properties": {"address": "?, 02"}},
{"type": "Feature", "geometry": {"type": "Point", "coordinates": [-52.691634, -26.184432]}, "properties": {"address": "?, 03"}},
{"type": "Feature", "geometry": {"type": "Point", "coordinates": [-52.691519, -26.185202]}, "properties": {"address": "?, 05"}},
{"type": "Feature", "geometry": {"type": "Point", "coordinates": [-52.6916, -26.184801]}, "properties": {"address": "?, 04"}},
{"type": "Feature", "geometry": {"type": "Point", "coordinates": [-52.691507, -26.185435]}, "properties": {"address": "?, 06"}},
{"type": "Feature", "geometry": {"type": "Point", "coordinates": [-52.691754, -26.183096]}, "properties": {"address": "?, 02"}},
{"type": "Feature", "geometry": {"type": "Point", "coordinates": [-52.665395, -26.191253]}, "properties": {"address": "?, 06"}},
{"type": "Feature", "geometry": {"type": "Point", "coordinates": [-52.662282, -26.191096]}, "properties": {"address": "?, 14"}},
{"type": "Feature", "geometry": {"type": "Point", "coordinates": [-52.662158, -26.191089]}, "properties": {"address": "?, 13"}},
{"type": "Feature", "geometry": {"type": "Point", "coordinates": [-52.662033, -26.191083]}, "properties": {"address": "?, 12"}},
{"type": "Feature", "geometry": {"type": "Point", "coordinates": [-52.661908, -26.191077]}, "properties": {"address": "?, 11"}},
{"type": "Feature", "geometry": {"type": "Point", "coordinates": [-52.661783, -26.191071]}, "properties": {"address": "?, 10"}},
{"type": "Feature", "geometry": {"type": "Point", "coordinates": [-52.661658, -26.191064]}, "properties": {"address": "?, 09"}},
{"type": "Feature", "geometry": {"type": "Point", "coordinates": [-52.661533, -26.191058]}, "properties": {"address": "?, 08"}},
{"type": "Feature", "geometry": {"type": "Point", "coordinates": [-52.661408, -26.191052]}, "properties": {"address": "?, 07"}},
{"type": "Feature", "geometry": {"type": "Point", "coordinates": [-52.661283, -26.191045]}, "properties": {"address": "?, 06"}},
{"type": "Feature", "geometry": {"type": "Point", "coordinates": [-52.661159, -26.191039]}, "properties": {"address": "?, 05"}},
{"type": "Feature", "geometry": {"type": "Point", "coordinates": [-52.661034, -26.191033]}, "properties": {"address": "?, 04"}},
{"type": "Feature", "geometry": {"type": "Point", "coordinates": [-52.660909, -26.191026]}, "properties": {"address": "?, 03"}},
{"type": "Feature", "geometry": {"type": "Point", "coordinates": [-52.660784, -26.19102]}, "properties": {"address": "?, 02"}},
{"type": "Feature", "geometry": {"type": "Point", "coordinates": [-52.662315, -26.190554]}, "properties": {"address": "?, 17"}},
{"type": "Feature", "geometry": {"type": "Point", "coordinates": [-52.66219, -26.190548]}, "properties": {"address": "?, 18"}},
{"type": "Feature", "geometry": {"type": "Point", "coordinates": [-52.662065, -26.190542]}, "properties": {"address": "?, 19"}},
{"type": "Feature", "geometry": {"type": "Point", "coordinates": [-52.66194, -26.190535]}, "properties": {"address": "?, 20"}},
{"type": "Feature", "geometry": {"type": "Point", "coordinates": [-52.661815, -26.190529]}, "properties": {"address": "?, 21"}},
{"type": "Feature", "geometry": {"type": "Point", "coordinates": [-52.66169, -26.190523]}, "properties": {"address": "?, 22"}},
{"type": "Feature", "geometry": {"type": "Point", "coordinates": [-52.66144, -26.19051]}, "properties": {"address": "?, 24"}},
{"type": "Feature", "geometry": {"type": "Point", "coordinates": [-52.661316, -26.190504]}, "properties": {"address": "?, 25"}},
{"type": "Feature", "geometry": {"type": "Point", "coordinates": [-52.661191, -26.190497]}, "properties": {"address": "?, 26"}},
{"type": "Feature", "geometry": {"type": "Point", "coordinates": [-52.661066, -26.190491]}, "properties": {"address": "?, 27"}},
{"type": "Feature", "geometry": {"type": "Point", "coordinates": [-52.660941, -26.190485]}, "properties": {"address": "?, 28"}},
{"type": "Feature", "geometry": {"type": "Point", "coordinates": [-52.660816, -26.190478]}, "properties": {"address": "?, 29"}},
{"type": "Feature", "geometry": {"type": "Point", "coordinates": [-52.66068, -26.190474]}, "properties": {"address": "?, 30"}},
{"type": "Feature", "geometry": {"type": "Point", "coordinates": [-52.660642, -26.191015]}, "properties": {"address": "?, 01"}},
{"type": "Feature", "geometry": {"type": "Point", "coordinates": [-52.662437, -26.191096]}, "properties": {"address": "?, 15"}},
{"type": "Feature", "geometry": {"type": "Point", "coordinates": [-52.662471, -26.190572]}, "properties": {"address": "?, 16"}},
{"type": "Feature", "geometry": {"type": "Point", "coordinates": [-52.662327, -26.190322]}, "properties": {"address": "?, 14"}},
{"type": "Feature", "geometry": {"type": "Point", "coordinates": [-52.662486, -26.190324]}, "properties": {"address": "?, 15"}},
{"type": "Feature", "geometry": {"type": "Point", "coordinates": [-52.662514, -26.18989]}, "properties": {"address": "?, 16"}},
{"type": "Feature", "geometry": {"type": "Point", "coordinates": [-52.662354, -26.189866]}, "properties": {"address": "?, 17"}},
{"type": "Feature", "geometry": {"type": "Point", "coordinates": [-52.660721, -26.189786]}, "properties": {"address": "?, 30"}},
{"type": "Feature", "geometry": {"type": "Point", "coordinates": [-52.660693, -26.190239]}, "properties": {"address": "?, 01"}},
{"type": "Feature", "geometry": {"type": "Point", "coordinates": [-52.662202, -26.190315]}, "properties": {"address": "?, 13"}},
{"type": "Feature", "geometry": {"type": "Point", "coordinates": [-52.662077, -26.190309]}, "properties": {"address": "?, 12"}},
{"type": "Feature", "geometry": {"type": "Point", "coordinates": [-52.661953, -26.190303]}, "properties": {"address": "?, 11"}},
{"type": "Feature", "geometry": {"type": "Point", "coordinates": [-52.661828, -26.190296]}, "properties": {"address": "?, 10"}},
{"type": "Feature", "geometry": {"type": "Point", "coordinates": [-52.661703, -26.19029]}, "properties": {"address": "?, 09"}},
{"type": "Feature", "geometry": {"type": "Point", "coordinates": [-52.661578, -26.190284]}, "properties": {"address": "?, 08"}},
{"type": "Feature", "geometry": {"type": "Point", "coordinates": [-52.661453, -26.190277]}, "properties": {"address": "?, 07"}},
{"type": "Feature", "geometry": {"type": "Point", "coordinates": [-52.661328, -26.190271]}, "properties": {"address": "?, 06"}},
{"type": "Feature", "geometry": {"type": "Point", "coordinates": [-52.661203, -26.190265]}, "properties": {"address": "?, 05"}},
{"type": "Feature", "geometry": {"type": "Point", "coordinates": [-52.661079, -26.190258]}, "properties": {"address": "?, 04"}},
{"type": "Feature", "geometry": {"type": "Point", "coordinates": [-52.660954, -26.190252]}, "properties": {"address": "?, 03"}},
{"type": "Feature", "geometry": {"type": "Point", "coordinates": [-52.660829, -26.190246]}, "properties": {"address": "?, 02"}},
{"type": "Feature", "geometry": {"type": "Point", "coordinates": [-52.662229, -26.18986]}, "properties": {"address": "?, 18"}},
{"type": "Feature", "geometry": {"type": "Point", "coordinates": [-52.662104, -26.189854]}, "properties": {"address": "?, 19"}},
{"type": "Feature", "geometry": {"type": "Point", "coordinates": [-52.661979, -26.189847]}, "properties": {"address": "?, 20"}},
{"type": "Feature", "geometry": {"type": "Point", "coordinates": [-52.661855, -26.189841]}, "properties": {"address": "?, 21"}},
{"type": "Feature", "geometry": {"type": "Point", "coordinates": [-52.66173, -26.189835]}, "properties": {"address": "?, 22"}},
{"type": "Feature", "geometry": {"type": "Point", "coordinates": [-52.661605, -26.189829]}, "properties": {"address": "?, 23"}},
{"type": "Feature", "geometry": {"type": "Point", "coordinates": [-52.66148, -26.189822]}, "properties": {"address": "?, 24"}},
{"type": "Feature", "geometry": {"type": "Point", "coordinates": [-52.661355, -26.189816]}, "properties": {"address": "?, 25"}},
{"type": "Feature", "geometry": {"type": "Point", "coordinates": [-52.66123, -26.18981]}, "properties": {"address": "?, 26"}},
{"type": "Feature", "geometry": {"type": "Point", "coordinates": [-52.661105, -26.189803]}, "properties": {"address": "?, 27"}},
{"type": "Feature", "geometry": {"type": "Point", "coordinates": [-52.660981, -26.189797]}, "properties": {"address": "?, 28"}},
{"type": "Feature", "geometry": {"type": "Point", "coordinates": [-52.660856, -26.189791]}, "properties": {"address": "?, 29"}},
{"type": "Feature", "geometry": {"type": "Point", "coordinates": [-52.662528, -26.189636]}, "properties": {"address": "?, 13"}},
{"type": "Feature", "geometry": {"type": "Point", "coordinates": [-52.662345, -26.189639]}, "properties": {"address": "?, 12"}},
{"type": "Feature", "geometry": {"type": "Point", "coordinates": [-52.660773, -26.189556]}, "properties": {"address": "?, 01"}},
{"type": "Feature", "geometry": {"type": "Point", "coordinates": [-52.662205, -26.189632]}, "properties": {"address": "?, 11"}},
{"type": "Feature", "geometry": {"type": "Point", "coordinates": [-52.662066, -26.189625]}, "properties": {"address": "?, 10"}},
{"type": "Feature", "geometry": {"type": "Point", "coordinates": [-52.661926, -26.189618]}, "properties": {"address": "?, 09"}},
{"type": "Feature", "geometry": {"type": "Point", "coordinates": [-52.661786, -26.18961]}, "properties": {"address": "?, 08"}},
{"type": "Feature", "geometry": {"type": "Point", "coordinates": [-52.661646, -26.189603]}, "properties": {"address": "?, 07"}},
{"type": "Feature", "geometry": {"type": "Point", "coordinates": [-52.661506, -26.189596]}, "properties": {"address": "?, 06"}},
{"type": "Feature", "geometry": {"type": "Point", "coordinates": [-52.661366, -26.189589]}, "properties": {"address": "?, 05"}},
{"type": "Feature", "geometry": {"type": "Point", "coordinates": [-52.661226, -26.189582]}, "properties": {"address": "?, 04"}},
{"type": "Feature", "geometry": {"type": "Point", "coordinates": [-52.661087, -26.189575]}, "properties": {"address": "?, 03"}},
{"type": "Feature", "geometry": {"type": "Point", "coordinates": [-52.660947, -26.189568]}, "properties": {"address": "?, 02"}},
{"type": "Feature", "geometry": {"type": "Point", "coordinates": [-52.662859, -26.189651]}, "properties": {"address": "?, 01"}},
{"type": "Feature", "geometry": {"type": "Point", "coordinates": [-52.663021, -26.189669]}, "properties": {"address": "?, 02"}},
{"type": "Feature", "geometry": {"type": "Point", "coordinates": [-52.664389, -26.189738]}, "properties": {"address": "?, 11"}},
{"type": "Feature", "geometry": {"type": "Point", "coordinates": [-52.664549, -26.189739]}, "properties": {"address": "?, 12"}},
{"type": "Feature", "geometry": {"type": "Point", "coordinates": [-52.663167, -26.189676]}, "properties": {"address": "?, 03"}},
{"type": "Feature", "geometry": {"type": "Point", "coordinates": [-52.663314, -26.189684]}, "properties": {"address": "?, 04"}},
{"type": "Feature", "geometry": {"type": "Point", "coordinates": [-52.66346, -26.189691]}, "properties": {"address": "?, 05"}},
{"type": "Feature", "geometry": {"type": "Point", "coordinates": [-52.663607, -26.189699]}, "properties": {"address": "?, 06"}},
{"type": "Feature", "geometry": {"type": "Point", "coordinates": [-52.663753, -26.189706]}, "properties": {"address": "?, 07"}},
{"type": "Feature", "geometry": {"type": "Point", "coordinates": [-52.6639, -26.189713]}, "properties": {"address": "?, 08"}},
{"type": "Feature", "geometry": {"type": "Point", "coordinates": [-52.664046, -26.189721]}, "properties": {"address": "?, 09"}},
{"type": "Feature", "geometry": {"type": "Point", "coordinates": [-52.664193, -26.189728]}, "properties": {"address": "?, 10"}},
{"type": "Feature", "geometry": {"type": "Point", "coordinates": [-52.662139, -26.191406]}, "properties": {"address": "?, 18"}},
{"type": "Feature", "geometry": {"type": "Point", "coordinates": [-52.662014, -26.191399]}, "properties": {"address": "?, 19"}},
{"type": "Feature", "geometry": {"type": "Point", "coordinates": [-52.661889, -26.191393]}, "properties": {"address": "?, 20"}},
{"type": "Feature", "geometry": {"type": "Point", "coordinates": [-52.661764, -26.191387]}, "properties": {"address": "?, 21"}},
{"type": "Feature", "geometry": {"type": "Point", "coordinates": [-52.661639, -26.19138]}, "properties": {"address": "?, 22"}},
{"type": "Feature", "geometry": {"type": "Point", "coordinates": [-52.661515, -26.191374]}, "properties": {"address": "?, 23"}},
{"type": "Feature", "geometry": {"type": "Point", "coordinates": [-52.66139, -26.191368]}, "properties": {"address": "?, 24"}},
{"type": "Feature", "geometry": {"type": "Point", "coordinates": [-52.661265, -26.191361]}, "properties": {"address": "?, 25"}},
{"type": "Feature", "geometry": {"type": "Point", "coordinates": [-52.66114, -26.191355]}, "properties": {"address": "?, 26"}},
{"type": "Feature", "geometry": {"type": "Point", "coordinates": [-52.661015, -26.191349]}, "properties": {"address": "?, 27"}},
{"type": "Feature", "geometry": {"type": "Point", "coordinates": [-52.66089, -26.191342]}, "properties": {"address": "?, 28"}},
{"type": "Feature", "geometry": {"type": "Point", "coordinates": [-52.660765, -26.191336]}, "properties": {"address": "?, 29"}},
{"type": "Feature", "geometry": {"type": "Point", "coordinates": [-52.660629, -26.191331]}, "properties": {"address": "?, 30"}},
{"type": "Feature", "geometry": {"type": "Point", "coordinates": [-52.664827, -26.189744]}, "properties": {"address": "?, 07"}},
{"type": "Feature", "geometry": {"type": "Point", "coordinates": [-52.664982, -26.189752]}, "properties": {"address": "?, 08"}},
{"type": "Feature", "geometry": {"type": "Point", "coordinates": [-52.665127, -26.18975]}, "properties": {"address": "?, 09"}},
{"type": "Feature", "geometry": {"type": "Point", "coordinates": [-52.662842, -26.190344]}, "properties": {"address": "?, 01"}},
{"type": "Feature", "geometry": {"type": "Point", "coordinates": [-52.662981, -26.190349]}, "properties": {"address": "?, 02"}},
{"type": "Feature", "geometry": {"type": "Point", "coordinates": [-52.663103, -26.190355]}, "properties": {"address": "?, 03"}},
{"type": "Feature", "geometry": {"type": "Point", "coordinates": [-52.663225, -26.190361]}, "properties": {"address": "?, 04"}},
{"type": "Feature", "geometry": {"type": "Point", "coordinates": [-52.663347, -26.190368]}, "properties": {"address": "?, 05"}},
{"type": "Feature", "geometry": {"type": "Point", "coordinates": [-52.663469, -26.190374]}, "properties": {"address": "?, 06"}},
{"type": "Feature", "geometry": {"type": "Point", "coordinates": [-52.663591, -26.19038]}, "properties": {"address": "?, 07"}},
{"type": "Feature", "geometry": {"type": "Point", "coordinates": [-52.663713, -26.190386]}, "properties": {"address": "?, 08"}},
{"type": "Feature", "geometry": {"type": "Point", "coordinates": [-52.663835, -26.190392]}, "properties": {"address": "?, 09"}},
{"type": "Feature", "geometry": {"type": "Point", "coordinates": [-52.663957, -26.190398]}, "properties": {"address": "?, 10"}},
{"type": "Feature", "geometry": {"type": "Point", "coordinates": [-52.664079, -26.190405]}, "properties": {"address": "?, 11"}},
{"type": "Feature", "geometry": {"type": "Point", "coordinates": [-52.664201, -26.190411]}, "properties": {"address": "?, 12"}},
{"type": "Feature", "geometry": {"type": "Point", "coordinates": [-52.664323, -26.190417]}, "properties": {"address": "?, 13"}},
{"type": "Feature", "geometry": {"type": "Point", "coordinates": [-52.664512, -26.19021]}, "properties": {"address": "?, 14"}},
{"type": "Feature", "geometry": {"type": "Point", "coordinates": [-52.662868, -26.189899]}, "properties": {"address": "?, 27"}},
{"type": "Feature", "geometry": {"type": "Point", "coordinates": [-52.663, -26.189905]}, "properties": {"address": "?, 26"}},
{"type": "Feature", "geometry": {"type": "Point", "coordinates": [-52.663122, -26.189911]}, "properties": {"address": "?, 25"}},
{"type": "Feature", "geometry": {"type": "Point", "coordinates": [-52.663244, -26.189917]}, "properties": {"address": "?, 24"}},
{"type": "Feature", "geometry": {"type": "Point", "coordinates": [-52.663366, -26.189923]}, "properties": {"address": "?, 23"}},
{"type": "Feature", "geometry": {"type": "Point", "coordinates": [-52.663488, -26.189929]}, "properties": {"address": "?, 22"}},
{"type": "Feature", "geometry": {"type": "Point", "coordinates": [-52.66361, -26.189936]}, "properties": {"address": "?, 21"}},
{"type": "Feature", "geometry": {"type": "Point", "coordinates": [-52.663732, -26.189942]}, "properties": {"address": "?, 20"}},
{"type": "Feature", "geometry": {"type": "Point", "coordinates": [-52.664098, -26.18996]}, "properties": {"address": "?, 17"}},
{"type": "Feature", "geometry": {"type": "Point", "coordinates": [-52.664221, -26.189966]}, "properties": {"address": "?, 16"}},
{"type": "Feature", "geometry": {"type": "Point", "coordinates": [-52.664343, -26.189972]}, "properties": {"address": "?, 15"}},
{"type": "Feature", "geometry": {"type": "Point", "coordinates": [-52.664788, -26.190435]}, "properties": {"address": "?, 01"}},
{"type": "Feature", "geometry": {"type": "Point", "coordinates": [-52.664922, -26.190441]}, "properties": {"address": "?, 02"}},
{"type": "Feature", "geometry": {"type": "Point", "coordinates": [-52.665041, -26.190444]}, "properties": {"address": "?, 03"}},
{"type": "Feature", "geometry": {"type": "Point", "coordinates": [-52.664944, -26.189997]}, "properties": {"address": "?, 05"}},
{"type": "Feature", "geometry": {"type": "Point", "coordinates": [-52.664817, -26.189992]}, "properties": {"address": "?, 06"}},
{"type": "Feature", "geometry": {"type": "Point", "coordinates": [-52.665064, -26.190006]}, "properties": {"address": "?, 04"}},
{"type": "Feature", "geometry": {"type": "Point", "coordinates": [-52.664397, -26.191193]}, "properties": {"address": "?, 13"}},
{"type": "Feature", "geometry": {"type": "Point", "coordinates": [-52.664272, -26.191186]}, "properties": {"address": "?, 12"}},
{"type": "Feature", "geometry": {"type": "Point", "coordinates": [-52.664125, -26.191185]}, "properties": {"address": "?, 11"}},
{"type": "Feature", "geometry": {"type": "Point", "coordinates": [-52.663968, -26.191176]}, "properties": {"address": "?, 10"}},
{"type": "Feature", "geometry": {"type": "Point", "coordinates": [-52.663806, -26.191165]}, "properties": {"address": "?, 09"}},
{"type": "Feature", "geometry": {"type": "Point", "coordinates": [-52.663681, -26.191158]}, "properties": {"address": "?, 08"}},
{"type": "Feature", "geometry": {"type": "Point", "coordinates": [-52.663556, -26.191152]}, "properties": {"address": "?, 07"}},
{"type": "Feature", "geometry": {"type": "Point", "coordinates": [-52.663431, -26.191146]}, "properties": {"address": "?, 06"}},
{"type": "Feature", "geometry": {"type": "Point", "coordinates": [-52.663306, -26.191139]}, "properties": {"address": "?, 05"}},
{"type": "Feature", "geometry": {"type": "Point", "coordinates": [-52.663181, -26.191133]}, "properties": {"address": "?, 04"}},
{"type": "Feature", "geometry": {"type": "Point", "coordinates": [-52.663056, -26.191127]}, "properties": {"address": "?, 03"}},
{"type": "Feature", "geometry": {"type": "Point", "coordinates": [-52.662931, -26.19112]}, "properties": {"address": "?, 02"}},
{"type": "Feature", "geometry": {"type": "Point", "coordinates": [-52.664299, -26.190655]}, "properties": {"address": "?, 15"}},
{"type": "Feature", "geometry": {"type": "Point", "coordinates": [-52.664174, -26.190648]}, "properties": {"address": "?, 16"}},
{"type": "Feature", "geometry": {"type": "Point", "coordinates": [-52.664008, -26.190641]}, "properties": {"address": "?, 17"}},
{"type": "Feature", "geometry": {"type": "Point", "coordinates": [-52.663859, -26.190629]}, "properties": {"address": "?, 18"}},
{"type": "Feature", "geometry": {"type": "Point", "coordinates": [-52.663208, -26.190603]}, "properties": {"address": "?, 23"}},
{"type": "Feature", "geometry": {"type": "Point", "coordinates": [-52.663083, -26.190596]}, "properties": {"address": "?, 24"}},
{"type": "Feature", "geometry": {"type": "Point", "coordinates": [-52.662958, -26.19059]}, "properties": {"address": "?, 25"}},
{"type": "Feature", "geometry": {"type": "Point", "coordinates": [-52.662834, -26.190584]}, "properties": {"address": "?, 26"}},
{"type": "Feature", "geometry": {"type": "Point", "coordinates": [-52.662789, -26.191116]}, "properties": {"address": "?, 01"}},
{"type": "Feature", "geometry": {"type": "Point", "coordinates": [-52.664456, -26.190672]}, "properties": {"address": "?, 14"}},
{"type": "Feature", "geometry": {"type": "Point", "coordinates": [-52.663335, -26.190605]}, "properties": {"address": "?, 22"}},
{"type": "Feature", "geometry": {"type": "Point", "coordinates": [-52.663454, -26.190612]}, "properties": {"address": "?, 21"}},
{"type": "Feature", "geometry": {"type": "Point", "coordinates": [-52.663583, -26.190618]}, "properties": {"address": "?, 20"}},
{"type": "Feature", "geometry": {"type": "Point", "coordinates": [-52.663709, -26.190625]}, "properties": {"address": "?, 19"}},
{"type": "Feature", "geometry": {"type": "Point", "coordinates": [-52.664719, -26.191219]}, "properties": {"address": "?, 01"}},
{"type": "Feature", "geometry": {"type": "Point", "coordinates": [-52.664879, -26.191232]}, "properties": {"address": "?, 02"}},
{"type": "Feature", "geometry": {"type": "Point", "coordinates": [-52.665007, -26.191239]}, "properties": {"address": "?, 03"}},
{"type": "Feature", "geometry": {"type": "Point", "coordinates": [-52.665134, -26.191245]}, "properties": {"address": "?, 04"}},
{"type": "Feature", "geometry": {"type": "Point", "coordinates": [-52.665262, -26.191252]}, "properties": {"address": "?, 05"}},
{"type": "Feature", "geometry": {"type": "Point", "coordinates": [-52.665531, -26.191261]}, "properties": {"address": "?, 07"}},
{"type": "Feature", "geometry": {"type": "Point", "coordinates": [-52.665665, -26.191267]}, "properties": {"address": "?, 08"}},
{"type": "Feature", "geometry": {"type": "Point", "coordinates": [-52.664757, -26.190694]}, "properties": {"address": "?, 18"}},
{"type": "Feature", "geometry": {"type": "Point", "coordinates": [-52.665801, -26.191275]}, "properties": {"address": "?, 09"}},
{"type": "Feature", "geometry": {"type": "Point", "coordinates": [-52.665044, -26.190707]}, "properties": {"address": "?, 16"}},
{"type": "Feature", "geometry": {"type": "Point", "coordinates": [-52.664916, -26.190701]}, "properties": {"address": "?, 17"}},
{"type": "Feature", "geometry": {"type": "Point", "coordinates": [-52.665172, -26.190714]}, "properties": {"address": "?, 15"}},
{"type": "Feature", "geometry": {"type": "Point", "coordinates": [-52.665433, -26.190722]}, "properties": {"address": "?, 13"}},
{"type": "Feature", "geometry": {"type": "Point", "coordinates": [-52.6653, -26.19072]}, "properties": {"address": "?, 14"}},
{"type": "Feature", "geometry": {"type": "Point", "coordinates": [-52.665568, -26.19073]}, "properties": {"address": "?, 12"}},
{"type": "Feature", "geometry": {"type": "Point", "coordinates": [-52.666279, -26.191303]}, "properties": {"address": "?, 02"}},
{"type": "Feature", "geometry": {"type": "Point", "coordinates": [-52.665702, -26.190736]}, "properties": {"address": "?, 11"}},
{"type": "Feature", "geometry": {"type": "Point", "coordinates": [-52.665839, -26.190744]}, "properties": {"address": "?, 10"}},
{"type": "Feature", "geometry": {"type": "Point", "coordinates": [-52.666119, -26.19129]}, "properties": {"address": "?, 01"}},
{"type": "Feature", "geometry": {"type": "Point", "coordinates": [-52.666407, -26.19131]}, "properties": {"address": "?, 03"}},
{"type": "Feature", "geometry": {"type": "Point", "coordinates": [-52.666534, -26.191316]}, "properties": {"address": "?, 04"}},
{"type": "Feature", "geometry": {"type": "Point", "coordinates": [-52.666662, -26.191322]}, "properties": {"address": "?, 05"}},
{"type": "Feature", "geometry": {"type": "Point", "coordinates": [-52.666795, -26.191324]}, "properties": {"address": "?, 06"}},
{"type": "Feature", "geometry": {"type": "Point", "coordinates": [-52.666931, -26.191332]}, "properties": {"address": "?, 07"}},
{"type": "Feature", "geometry": {"type": "Point", "coordinates": [-52.667065, -26.191338]}, "properties": {"address": "?, 08"}},
{"type": "Feature", "geometry": {"type": "Point", "coordinates": [-52.667201, -26.191346]}, "properties": {"address": "?, 09"}},
{"type": "Feature", "geometry": {"type": "Point", "coordinates": [-52.666429, -26.190772]}, "properties": {"address": "?, 18"}},
{"type": "Feature", "geometry": {"type": "Point", "coordinates": [-52.666589, -26.190779]}, "properties": {"address": "?, 17"}},
{"type": "Feature", "geometry": {"type": "Point", "coordinates": [-52.666716, -26.190786]}, "properties": {"address": "?, 16"}},
{"type": "Feature", "geometry": {"type": "Point", "coordinates": [-52.666844, -26.190792]}, "properties": {"address": "?, 15"}},
{"type": "Feature", "geometry": {"type": "Point", "coordinates": [-52.666972, -26.190799]}, "properties": {"address": "?, 14"}},
{"type": "Feature", "geometry": {"type": "Point", "coordinates": [-52.667104, -26.190805]}, "properties": {"address": "?, 13"}},
{"type": "Feature", "geometry": {"type": "Point", "coordinates": [-52.667238, -26.190814]}, "properties": {"address": "?, 12"}},
{"type": "Feature", "geometry": {"type": "Point", "coordinates": [-52.667376, -26.190821]}, "properties": {"address": "?, 11"}},
{"type": "Feature", "geometry": {"type": "Point", "coordinates": [-52.667357, -26.191346]}, "properties": {"address": "?, 10"}},
{"type": "Feature", "geometry": {"type": "Point", "coordinates": [-52.666313, -26.190767]}, "properties": {"address": "?, 19"}},
{"type": "Feature", "geometry": {"type": "Point", "coordinates": [-52.666165, -26.190758]}, "properties": {"address": "?, 20"}},
{"type": "Feature", "geometry": {"type": "Point", "coordinates": [-52.666182, -26.190505]}, "properties": {"address": "?, 10"}},
{"type": "Feature", "geometry": {"type": "Point", "coordinates": [-52.666719, -26.190538]}, "properties": {"address": "?, 14"}},
{"type": "Feature", "geometry": {"type": "Point", "coordinates": [-52.66658, -26.190531]}, "properties": {"address": "?, 13"}},
{"type": "Feature", "geometry": {"type": "Point", "coordinates": [-52.666452, -26.190523]}, "properties": {"address": "?, 12"}},
{"type": "Feature", "geometry": {"type": "Point", "coordinates": [-52.666322, -26.190513]}, "properties": {"address": "?, 11"}},
{"type": "Feature", "geometry": {"type": "Point", "coordinates": [-52.666855, -26.190543]}, "properties": {"address": "?, 15"}},
{"type": "Feature", "geometry": {"type": "Point", "coordinates": [-52.666998, -26.190549]}, "properties": {"address": "?, 16"}},
{"type": "Feature", "geometry": {"type": "Point", "coordinates": [-52.667131, -26.190553]}, "properties": {"address": "?, 17"}},
{"type": "Feature", "geometry": {"type": "Point", "coordinates": [-52.667256, -26.190561]}, "properties": {"address": "?, 18"}},
{"type": "Feature", "geometry": {"type": "Point", "coordinates": [-52.667397, -26.190559]}, "properties": {"address": "?, 19"}},
{"type": "Feature", "geometry": {"type": "Point", "coordinates": [-52.667425, -26.190128]}, "properties": {"address": "?, 20"}},
{"type": "Feature", "geometry": {"type": "Point", "coordinates": [-52.667287, -26.190121]}, "properties": {"address": "?, 21"}},
{"type": "Feature", "geometry": {"type": "Point", "coordinates": [-52.66716, -26.190109]}, "properties": {"address": "?, 22"}},
{"type": "Feature", "geometry": {"type": "Point", "coordinates": [-52.667027, -26.190104]}, "properties": {"address": "?, 23"}},
{"type": "Feature", "geometry": {"type": "Point", "coordinates": [-52.667767, -26.191344]}, "properties": {"address": "?, 01"}},
{"type": "Feature", "geometry": {"type": "Point", "coordinates": [-52.66778, -26.191211]}, "properties": {"address": "?, 02"}},
{"type": "Feature", "geometry": {"type": "Point", "coordinates": [-52.667782, -26.191096]}, "properties": {"address": "?, 03"}},
{"type": "Feature", "geometry": {"type": "Point", "coordinates": [-52.667783, -26.190979]}, "properties": {"address": "?, 04"}},
{"type": "Feature", "geometry": {"type": "Point", "coordinates": [-52.667793, -26.190859]}, "properties": {"address": "?, 05"}},
{"type": "Feature", "geometry": {"type": "Point", "coordinates": [-52.668301, -26.190166]}, "properties": {"address": "?, 06"}},
{"type": "Feature", "geometry": {"type": "Point", "coordinates": [-52.668121, -26.190162]}, "properties": {"address": "?, 05"}},
{"type": "Feature", "geometry": {"type": "Point", "coordinates": [-52.667918, -26.19015]}, "properties": {"address": "?, 04"}},
{"type": "Feature", "geometry": {"type": "Point", "coordinates": [-52.667909, -26.190308]}, "properties": {"address": "?, 03"}},
{"type": "Feature", "geometry": {"type": "Point", "coordinates": [-52.667976, -26.190449]}, "properties": {"address": "?, 02"}},
{"type": "Feature", "geometry": {"type": "Point", "coordinates": [-52.667972, -26.190578]}, "properties": {"address": "?, 01"}},
{"type": "Feature", "geometry": {"type": "Point", "coordinates": [-52.667427, -26.18989]}, "properties": {"address": "?, 25"}},
{"type": "Feature", "geometry": {"type": "Point", "coordinates": [-52.667193, -26.189879]}, "properties": {"address": "?, 24"}},
{"type": "Feature", "geometry": {"type": "Point", "coordinates": [-52.667867, -26.189915]}, "properties": {"address": "?, 01"}},
{"type": "Feature", "geometry": {"type": "Point", "coordinates": [-52.668018, -26.189924]}, "properties": {"address": "?, 02"}},
{"type": "Feature", "geometry": {"type": "Point", "coordinates": [-52.668187, -26.189935]}, "properties": {"address": "?, 03"}},
{"type": "Feature", "geometry": {"type": "Point", "coordinates": [-52.668406, -26.189944]}, "properties": {"address": "?, 04"}},
{"type": "Feature", "geometry": {"type": "Point", "coordinates": [-52.668114, -26.190944]}, "properties": {"address": "?, 06"}},
{"type": "Feature", "geometry": {"type": "Point", "coordinates": [-52.668443, -26.190245]}, "properties": {"address": "?, 07"}},
{"type": "Feature", "geometry": {"type": "Point", "coordinates": [-52.66862, -26.190258]}, "properties": {"address": "?, 08"}},
{"type": "Feature", "geometry": {"type": "Point", "coordinates": [-52.66862, -26.190535]}, "properties": {"address": "?, 09"}},
{"type": "Feature", "geometry": {"type": "Point", "coordinates": [-52.668504, -26.190527]}, "properties": {"address": "?, 10"}},
{"type": "Feature", "geometry": {"type": "Point", "coordinates": [-52.668381, -26.190527]}, "properties": {"address": "?, 11"}},
{"type": "Feature", "geometry": {"type": "Point", "coordinates": [-52.668084, -26.191276]}, "properties": {"address": "?, 15"}},
{"type": "Feature", "geometry": {"type": "Point", "coordinates": [-52.668234, -26.19095]}, "properties": {"address": "?, 07"}},
{"type": "Feature", "geometry": {"type": "Point", "coordinates": [-52.668204, -26.191283]}, "properties": {"address": "?, 14"}},
{"type": "Feature", "geometry": {"type": "Point", "coordinates": [-52.668354, -26.190957]}, "properties": {"address": "?, 08"}},
{"type": "Feature", "geometry": {"type": "Point", "coordinates": [-52.668324, -26.191288]}, "properties": {"address": "?, 13"}},
{"type": "Feature", "geometry": {"type": "Point", "coordinates": [-52.668474, -26.190963]}, "properties": {"address": "?, 09"}},
{"type": "Feature", "geometry": {"type": "Point", "coordinates": [-52.668444, -26.191295]}, "properties": {"address": "?, 12"}},
{"type": "Feature", "geometry": {"type": "Point", "coordinates": [-52.668596, -26.190969]}, "properties": {"address": "?, 10"}},
{"type": "Feature", "geometry": {"type": "Point", "coordinates": [-52.668564, -26.191301]}, "properties": {"address": "?, 11"}},
{"type": "Feature", "geometry": {"type": "Point", "coordinates": [-52.668245, -26.190514]}, "properties": {"address": "?, 12"}},
{"type": "Feature", "geometry": {"type": "Point", "coordinates": [-52.66926, -26.189825]}, "properties": {"address": "?, 06"}},
{"type": "Feature", "geometry": {"type": "Point", "coordinates": [-52.668699, -26.189872]}, "properties": {"address": "?, 05"}},
{"type": "Feature", "geometry": {"type": "Point", "coordinates": [-52.670502, -26.189786]}, "properties": {"address": "?, 07"}},
{"type": "Feature", "geometry": {"type": "Point", "coordinates": [-52.647778, -26.088994]}, "properties": {"address": "?, 14"}},
{"type": "Feature", "geometry": {"type": "Point", "coordinates": [-52.647762, -26.088897]}, "properties": {"address": "?, 15"}},
{"type": "Feature", "geometry": {"type": "Point", "coordinates": [-52.647791, -26.089104]}, "properties": {"address": "?, 13"}},
{"type": "Feature", "geometry": {"type": "Point", "coordinates": [-52.64781, -26.089207]}, "properties": {"address": "?, 12"}},
{"type": "Feature", "geometry": {"type": "Point", "coordinates": [-52.647834, -26.089426]}, "properties": {"address": "?, 10"}},
{"type": "Feature", "geometry": {"type": "Point", "coordinates": [-52.647819, -26.089318]}, "properties": {"address": "?, 11"}},
{"type": "Feature", "geometry": {"type": "Point", "coordinates": [-52.647928, -26.090181]}, "properties": {"address": "?, 03"}},
{"type": "Feature", "geometry": {"type": "Point", "coordinates": [-52.64797, -26.090393]}, "properties": {"address": "?, 01"}},
{"type": "Feature", "geometry": {"type": "Point", "coordinates": [-52.647845, -26.089539]}, "properties": {"address": "?, 09"}},
{"type": "Feature", "geometry": {"type": "Point", "coordinates": [-52.647865, -26.089644]}, "properties": {"address": "?, 08"}},
{"type": "Feature", "geometry": {"type": "Point", "coordinates": [-52.64787, -26.089754]}, "properties": {"address": "?, 07"}},
{"type": "Feature", "geometry": {"type": "Point", "coordinates": [-52.647885, -26.08986]}, "properties": {"address": "?, 06"}},
{"type": "Feature", "geometry": {"type": "Point", "coordinates": [-52.647899, -26.089966]}, "properties": {"address": "?, 05"}},
{"type": "Feature", "geometry": {"type": "Point", "coordinates": [-52.647907, -26.090075]}, "properties": {"address": "?, 04"}},
{"type": "Feature", "geometry": {"type": "Point", "coordinates": [-52.647942, -26.09029]}, "properties": {"address": "?, 02"}},
{"type": "Feature", "geometry": {"type": "Point", "coordinates": [-52.648242, -26.08884]}, "properties": {"address": "?, 16"}},
{"type": "Feature", "geometry": {"type": "Point", "coordinates": [-52.648246, -26.088947]}, "properties": {"address": "?, 17"}},
{"type": "Feature", "geometry": {"type": "Point", "coordinates": [-52.648268, -26.089049]}, "properties": {"address": "?, 18"}},
{"type": "Feature", "geometry": {"type": "Point", "coordinates": [-52.648286, -26.089152]}, "properties": {"address": "?, 19"}},
{"type": "Feature", "geometry": {"type": "Point", "coordinates": [-52.648296, -26.089263]}, "properties": {"address": "?, 20"}},
{"type": "Feature", "geometry": {"type": "Point", "coordinates": [-52.648304, -26.089376]}, "properties": {"address": "?, 21"}},
{"type": "Feature", "geometry": {"type": "Point", "coordinates": [-52.648334, -26.089475]}, "properties": {"address": "?, 22"}},
{"type": "Feature", "geometry": {"type": "Point", "coordinates": [-52.648352, -26.089608]}, "properties": {"address": "?, 23"}},
{"type": "Feature", "geometry": {"type": "Point", "coordinates": [-52.648368, -26.089695]}, "properties": {"address": "?, 24"}},
{"type": "Feature", "geometry": {"type": "Point", "coordinates": [-52.648387, -26.089796]}, "properties": {"address": "?, 25"}},
{"type": "Feature", "geometry": {"type": "Point", "coordinates": [-52.648391, -26.089913]}, "properties": {"address": "?, 26"}},
{"type": "Feature", "geometry": {"type": "Point", "coordinates": [-52.648414, -26.090008]}, "properties": {"address": "?, 27"}},
{"type": "Feature", "geometry": {"type": "Point", "coordinates": [-52.648429, -26.090119]}, "properties": {"address": "?, 28"}},
{"type": "Feature", "geometry": {"type": "Point", "coordinates": [-52.648437, -26.090228]}, "properties": {"address": "?, 29"}},
{"type": "Feature", "geometry": {"type": "Point", "coordinates": [-52.648457, -26.090333]}, "properties": {"address": "?, 30"}},
{"type": "Feature", "geometry": {"type": "Point", "coordinates": [-52.639228, -26.116273]}, "properties": {"address": "?, 01"}},
{"type": "Feature", "geometry": {"type": "Point", "coordinates": [-52.639092, -26.116191]}, "properties": {"address": "?, 02"}},
{"type": "Feature", "geometry": {"type": "Point", "coordinates": [-52.638914, -26.116137]}, "properties": {"address": "?, 03"}},
{"type": "Feature", "geometry": {"type": "Point", "coordinates": [-52.639452, -26.115908]}, "properties": {"address": "?, 01"}},
{"type": "Feature", "geometry": {"type": "Point", "coordinates": [-52.63957, -26.116089]}, "properties": {"address": "?, 02"}},
{"type": "Feature", "geometry": {"type": "Point", "coordinates": [-52.639628, -26.116193]}, "properties": {"address": "?, 03"}},
{"type": "Feature", "geometry": {"type": "Point", "coordinates": [-52.639269, -26.115832]}, "properties": {"address": "?, 04"}},
{"type": "Feature", "geometry": {"type": "Point", "coordinates": [-52.638424, -26.115226]}, "properties": {"address": "?, 05"}},
{"type": "Feature", "geometry": {"type": "Point", "coordinates": [-52.638184, -26.115182]}, "properties": {"address": "?, 06"}},
{"type": "Feature", "geometry": {"type": "Point", "coordinates": [-52.639453, -26.115693]}, "properties": {"address": "?, 01"}},
{"type": "Feature", "geometry": {"type": "Point", "coordinates": [-52.639341, -26.115297]}, "properties": {"address": "?, 02"}},
{"type": "Feature", "geometry": {"type": "Point", "coordinates": [-52.63928, -26.115097]}, "properties": {"address": "?, 03"}},
{"type": "Feature", "geometry": {"type": "Point", "coordinates": [-52.639113, -26.114838]}, "properties": {"address": "?, 04"}},
{"type": "Feature", "geometry": {"type": "Point", "coordinates": [-52.638929, -26.114754]}, "properties": {"address": "?, 05"}},
{"type": "Feature", "geometry": {"type": "Point", "coordinates": [-52.638743, -26.114686]}, "properties": {"address": "?, 06"}},
{"type": "Feature", "geometry": {"type": "Point", "coordinates": [-52.638577, -26.114602]}, "properties": {"address": "?, 07"}},
{"type": "Feature", "geometry": {"type": "Point", "coordinates": [-52.638401, -26.114524]}, "properties": {"address": "?, 08"}},
{"type": "Feature", "geometry": {"type": "Point", "coordinates": [-52.638221, -26.114437]}, "properties": {"address": "?, 09"}},
{"type": "Feature", "geometry": {"type": "Point", "coordinates": [-52.638035, -26.114358]}, "properties": {"address": "?, 10"}},
{"type": "Feature", "geometry": {"type": "Point", "coordinates": [-52.637869, -26.114262]}, "properties": {"address": "?, 11"}},
{"type": "Feature", "geometry": {"type": "Point", "coordinates": [-52.638078, -26.114707]}, "properties": {"address": "?, 12"}},
{"type": "Feature", "geometry": {"type": "Point", "coordinates": [-52.638256, -26.114794]}, "properties": {"address": "?, 13"}},
{"type": "Feature", "geometry": {"type": "Point", "coordinates": [-52.638434, -26.114861]}, "properties": {"address": "?, 14"}},
{"type": "Feature", "geometry": {"type": "Point", "coordinates": [-52.638622, -26.11494]}, "properties": {"address": "?, 15"}},
{"type": "Feature", "geometry": {"type": "Point", "coordinates": [-52.638792, -26.115003]}, "properties": {"address": "?, 16"}},
{"type": "Feature", "geometry": {"type": "Point", "coordinates": [-52.638946, -26.115066]}, "properties": {"address": "?, 17"}},
{"type": "Feature", "geometry": {"type": "Point", "coordinates": [-52.639058, -26.115109]}, "properties": {"address": "?, 18"}},
{"type": "Feature", "geometry": {"type": "Point", "coordinates": [-52.639052, -26.115368]}, "properties": {"address": "?, 19"}},
{"type": "Feature", "geometry": {"type": "Point", "coordinates": [-52.646317, -26.094615]}, "properties": {"address": "?, 1339"}},
{"type": "Feature", "geometry": {"type": "Point", "coordinates": [-52.646063, -26.093709]}, "properties": {"address": "?, 1340"}},
{"type": "Feature", "geometry": {"type": "Point", "coordinates": [-52.646845, -26.094523]}, "properties": {"address": "?, 1344"}},
{"type": "Feature", "geometry": {"type": "Point", "coordinates": [-52.646928, -26.093616]}, "properties": {"address": "?, 1343"}},
{"type": "Feature", "geometry": {"type": "Point", "coordinates": [-52.646549, -26.091558]}, "properties": {"address": "?, 1342"}},
{"type": "Feature", "geometry": {"type": "Point", "coordinates": [-52.645791, -26.091474]}, "properties": {"address": "?, 1341"}},
{"type": "Feature", "geometry": {"type": "Point", "coordinates": [-52.646407, -26.089757]}, "properties": {"address": "?, 1349"}},
{"type": "Feature", "geometry": {"type": "Point", "coordinates": [-52.64787, -26.093416]}, "properties": {"address": "?, 1345"}},
{"type": "Feature", "geometry": {"type": "Point", "coordinates": [-52.647485, -26.091408]}, "properties": {"address": "?, 1347"}},
{"type": "Feature", "geometry": {"type": "Point", "coordinates": [-52.647269, -26.089851]}, "properties": {"address": "?, 1350"}},
{"type": "Feature", "geometry": {"type": "Point", "coordinates": [-52.64819, -26.089557]}, "properties": {"address": "?, 1351"}},
{"type": "Feature", "geometry": {"type": "Point", "coordinates": [-52.64846, -26.091471]}, "properties": {"address": "?, 1352"}},
{"type": "Feature", "geometry": {"type": "Point", "coordinates": [-52.649098, -26.091249]}, "properties": {"address": "?, 1353"}},
{"type": "Feature", "geometry": {"type": "Point", "coordinates": [-52.649708, -26.091179]}, "properties": {"address": "?, 1354"}},
{"type": "Feature", "geometry": {"type": "Point", "coordinates": [-52.650361, -26.092905]}, "properties": {"address": "?, 1356"}},
{"type": "Feature", "geometry": {"type": "Point", "coordinates": [-52.649322, -26.092873]}, "properties": {"address": "?, 1355"}},
{"type": "Feature", "geometry": {"type": "Point", "coordinates": [-52.648598, -26.092959]}, "properties": {"address": "?, 1346"}},
{"type": "Feature", "geometry": {"type": "Point", "coordinates": [-52.645579, -26.089961]}, "properties": {"address": "?, 1348"}},
{"type": "Feature", "geometry": {"type": "Point", "coordinates": [-52.648877, -26.089453]}, "properties": {"address": "?, 1357"}},
{"type": "Feature", "geometry": {"type": "Point", "coordinates": [-52.649633, -26.089883]}, "properties": {"address": "?, 1358"}},
{"type": "Feature", "geometry": {"type": "Point", "coordinates": [-52.648668, -26.088065]}, "properties": {"address": "?, 2014"}},
{"type": "Feature", "geometry": {"type": "Point", "coordinates": [-52.648049, -26.088285]}, "properties": {"address": "?, 2015"}},
{"type": "Feature", "geometry": {"type": "Point", "coordinates": [-52.647224, -26.088567]}, "properties": {"address": "?, 2016"}},
{"type": "Feature", "geometry": {"type": "Point", "coordinates": [-52.646261, -26.088686]}, "properties": {"address": "?, 2017"}},
{"type": "Feature", "geometry": {"type": "Point", "coordinates": [-52.691673, -26.184607]}, "properties": {"address": "?, 1948"}},
{"type": "Feature", "geometry": {"type": "Point", "coordinates": [-52.691834, -26.182853]}, "properties": {"address": "?, 1949"}},
{"type": "Feature", "geometry": {"type": "Point", "coordinates": [-52.661657, -26.190076]}, "properties": {"address": "?, 1791"}},
{"type": "Feature", "geometry": {"type": "Point", "coordinates": [-52.661711, -26.189441]}, "properties": {"address": "?, 1792"}},
{"type": "Feature", "geometry": {"type": "Point", "coordinates": [-52.661624, -26.190809]}, "properties": {"address": "?, 1782"}},
{"type": "Feature", "geometry": {"type": "Point", "coordinates": [-52.663777, -26.189552]}, "properties": {"address": "?, 1788"}},
{"type": "Feature", "geometry": {"type": "Point", "coordinates": [-52.663828, -26.190199]}, "properties": {"address": "?, 1790"}},
{"type": "Feature", "geometry": {"type": "Point", "coordinates": [-52.663807, -26.19093]}, "properties": {"address": "?, 1783"}},
{"type": "Feature", "geometry": {"type": "Point", "coordinates": [-52.665419, -26.191002]}, "properties": {"address": "?, 1784"}},
{"type": "Feature", "geometry": {"type": "Point", "coordinates": [-52.666828, -26.191074]}, "properties": {"address": "?, 1785"}},
{"type": "Feature", "geometry": {"type": "Point", "coordinates": [-52.668195, -26.190379]}, "properties": {"address": "?, 1787"}},
{"type": "Feature", "geometry": {"type": "Point", "coordinates": [-52.665001, -26.190237]}, "properties": {"address": "?, 1789"}},
{"type": "Feature", "geometry": {"type": "Point", "coordinates": [-52.667277, -26.190361]}, "properties": {"address": "?, 1789"}},
{"type": "Feature", "geometry": {"type": "Point", "coordinates": [-52.66824, -26.191151]}, "properties": {"address": "?, 1786"}},
{"type": "Feature", "geometry": {"type": "Point", "coordinates": [-52.668862, -26.189828]}, "properties": {"address": "?, 1950"}},
{"type": "Feature", "geometry": {"type": "Point", "coordinates": [-52.645367, -26.08869]}, "properties": {"address": "?, 2018"}},
{"type": "Feature", "geometry": {"type": "Point", "coordinates": [-52.638768, -26.115711]}, "properties": {"address": "?, 1937"}},
{"type": "Feature", "geometry": {"type": "Point", "coordinates": [-52.638652, -26.114791]}, "properties": {"address": "?, 1936"}},
{"type": "Feature", "geometry": {"type": "Point", "coordinates": [-52.639009, -26.116304]}, "properties": {"address": "?, 2005"}}]}
