{"type": "FeatureCollection", "features": [
{"type": "Feature", "geometry": {"type": "Polygon", "coordinates": [[[-52.406349, -29.400636], [-52.406277, -29.400498], [-52.406255, -29.400456], [-52.406199, -29.400335], [-52.406106, -29.400062], [-52.406027, -29.399831], [-52.405945, -29.399601], [-52.405718, -29.39966], [-52.405713, -29.399648], [-52.405107, -29.399813], [-52.404121, -29.400082], [-52.404154, -29.400293], [-52.404189, -29.400448], [-52.40423, -29.400623], [-52.404295, -29.400831], [-52.404364, -29.400975], [-52.404422, -29.401096], [-52.404457, -29.401164], [-52.404533, -29.401308], [-52.404622, -29.401434], [-52.40471, -29.401573], [-52.40486, -29.401739], [-52.404944, -29.401831], [-52.405059, -29.401948], [-52.405138, -29.402016], [-52.405249, -29.402118], [-52.405387, -29.402222], [-52.405419, -29.402247], [-52.405438, -29.402303], [-52.405495, -29.402452], [-52.405517, -29.402509], [-52.405579, -29.402688], [-52.40564, -29.402844], [-52.405682, -29.402949], [-52.40575, -29.403099], [-52.405811, -29.403224], [-52.405875, -29.403337], [-52.40589, -29.403363], [-52.405944, -29.403446], [-52.405983, -29.403507], [-52.406047, -29.403605], [-52.406062, -29.403627], [-52.406054, -29.403701], [-52.406033, -29.403872], [-52.406014, -29.404024], [-52.406001, -29.404137], [-52.405995, -29.404264], [-52.405995, -29.404294], [-52.406447, -29.404172], [-52.406859, -29.404047], [-52.407422, -29.403856], [-52.407701, -29.403741], [-52.407905, -29.403613], [-52.407992, -29.403466], [-52.408055, -29.403358], [-52.408059, -29.40322], [-52.407986, -29.403069], [-52.407578, -29.402494], [-52.407386, -29.40188], [-52.407344, -29.401798], [-52.407324, -29.401673], [-52.407313, -29.401648], [-52.407267, -29.401538], [-52.40718, -29.401318], [-52.407125, -29.40125], [-52.407015, -29.401147], [-52.406808, -29.401008], [-52.406695, -29.400911], [-52.406638, -29.400862], [-52.40651, -29.400755], [-52.406466, -29.400715], [-52.406405, -29.400739], [-52.406349, -29.400636]]]}, "properties": {}},
{"type": "Feature", "geometry": {"type": "Polygon", "coordinates": [[[-52.410196, -29.403705], [-52.410209, -29.403526], [-52.410219, -29.40333], [-52.410217, -29.403151], [-52.410207, -29.403069], [-52.410187, -29.402899], [-52.410123, -29.402686], [-52.410057, -29.402504], [-52.409942, -29.402286], [-52.409911, -29.402238], [-52.409848, -29.402143], [-52.409737, -29.401972], [-52.40963, -29.401815], [-52.409581, -29.401746], [-52.409578, -29.401741], [-52.409548, -29.401694], [-52.409546, -29.401689], [-52.409537, -29.401667], [-52.4095, -29.401572], [-52.409443, -29.40141], [-52.409372, -29.401223], [-52.409316, -29.401057], [-52.409262, -29.400892], [-52.4092, -29.400743], [-52.40913, -29.400595], [-52.40903, -29.400424], [-52.408937, -29.400293], [-52.40891, -29.400258], [-52.408879, -29.400215], [-52.408779, -29.400091], [-52.408778, -29.400089], [-52.408607, -29.399898], [-52.408403, -29.399731], [-52.40829, -29.399649], [-52.40825, -29.399621], [-52.408204, -29.399584], [-52.408195, -29.399527], [-52.408174, -29.399393], [-52.408114, -29.398993], [-52.406179, -29.399521], [-52.406233, -29.399839], [-52.406286, -29.400064], [-52.406312, -29.400172], [-52.406367, -29.400301], [-52.406485, -29.400487], [-52.406599, -29.400624], [-52.40682, -29.400826], [-52.406969, -29.400939], [-52.407149, -29.401068], [-52.40725, -29.401167], [-52.407304, -29.401245], [-52.407378, -29.401407], [-52.407425, -29.401514], [-52.407478, -29.401646], [-52.407493, -29.401719], [-52.407613, -29.402094], [-52.407774, -29.402478], [-52.407918, -29.402704], [-52.407973, -29.4028], [-52.408041, -29.402773], [-52.408145, -29.402987], [-52.4082, -29.403179], [-52.408227, -29.403241], [-52.408218, -29.403395], [-52.408204, -29.403639], [-52.408207, -29.4037], [-52.408215, -29.40383], [-52.408216, -29.403867], [-52.408203, -29.403961], [-52.40819, -29.404056], [-52.408174, -29.404143], [-52.408174, -29.404145], [-52.40816, -29.40424], [-52.408146, -29.404342], [-52.40813, -29.404471], [-52.408417, -29.404482], [-52.408636, -29.404484], [-52.408642, -29.404484], [-52.408793, -29.404489], [-52.408873, -29.404492], [-52.408909, -29.404495], [-52.409038, -29.404505], [-52.409321, -29.404503], [-52.409767, -29.404482], [-52.410148, -29.404473], [-52.41046, -29.404458], [-52.410341, -29.404305], [-52.410286, -29.404239], [-52.410235, -29.404173], [-52.410169, -29.404089], [-52.410154, -29.404068], [-52.41018, -29.40384], [-52.410187, -29.403786], [-52.410196, -29.403705]]]}, "properties": {}},
{"type": "Feature", "geometry": {"type": "Polygon", "coordinates": [[[-52.409971, -29.407201], [-52.409884, -29.407079], [-52.409806, -29.406954], [-52.409734, -29.406845], [-52.409684, -29.406868], [-52.409641, -29.406815], [-52.409512, -29.406639], [-52.409251, -29.406236], [-52.409186, -29.406168], [-52.409055, -29.405988], [-52.40904, -29.405991], [-52.409041, -29.406145], [-52.409076, -29.406407], [-52.409178, -29.406822], [-52.40925, -29.406992], [-52.409305, -29.40716], [-52.409385, -29.407317], [-52.409411, -29.407424], [-52.409446, -29.407557], [-52.409479, -29.407686], [-52.409518, -29.407856], [-52.409538, -29.407944], [-52.409569, -29.408112], [-52.409642, -29.40837], [-52.40968, -29.408504], [-52.40972, -29.408656], [-52.409738, -29.408717], [-52.409777, -29.408856], [-52.409811, -29.408969], [-52.409866, -29.409135], [-52.409873, -29.409158], [-52.409955, -29.409357], [-52.409977, -29.409392], [-52.41, -29.409415], [-52.41003, -29.40936], [-52.410073, -29.40926], [-52.410125, -29.409152], [-52.410173, -29.408916], [-52.410203, -29.408767], [-52.410188, -29.40853], [-52.410169, -29.408241], [-52.410157, -29.408066], [-52.410156, -29.408053], [-52.410114, -29.407883], [-52.410085, -29.407787], [-52.410056, -29.407706], [-52.410055, -29.407622], [-52.410043, -29.407435], [-52.410007, -29.40732], [-52.409971, -29.407201]]]}, "properties": {}},
{"type": "Feature", "geometry": {"type": "Polygon", "coordinates": [[[-52.427325, -29.414652], [-52.427303, -29.41434], [-52.427303, -29.414339], [-52.427208, -29.414104], [-52.427145, -29.414004], [-52.427036, -29.413878], [-52.427005, -29.413891], [-52.426991, -29.413865], [-52.426915, -29.413778], [-52.426804, -29.413648], [-52.426732, -29.413562], [-52.426697, -29.413519], [-52.426646, -29.41346], [-52.426542, -29.413338], [-52.42651, -29.413296], [-52.425834, -29.412614], [-52.425567, -29.411972], [-52.425528, -29.411846], [-52.425381, -29.411745], [-52.425272, -29.411721], [-52.42508, -29.411735], [-52.424646, -29.411807], [-52.424419, -29.411806], [-52.423981, -29.411741], [-52.423904, -29.411741], [-52.423564, -29.411807], [-52.423203, -29.411924], [-52.422984, -29.41196], [-52.422304, -29.41198], [-52.422156, -29.411994], [-52.42196, -29.412003], [-52.421463, -29.412063], [-52.421306, -29.412123], [-52.421224, -29.412178], [-52.420394, -29.412566], [-52.42013, -29.412702], [-52.41988, -29.412824], [-52.419655, -29.41294], [-52.419293, -29.4132], [-52.418942, -29.413335], [-52.418632, -29.413347], [-52.418303, -29.413303], [-52.417972, -29.413228], [-52.41769, -29.413188], [-52.417598, -29.413443], [-52.41745, -29.4137], [-52.417307, -29.413918], [-52.417164, -29.414113], [-52.417043, -29.414262], [-52.416871, -29.414356], [-52.416797, -29.414382], [-52.416677, -29.41448], [-52.416674, -29.414438], [-52.416661, -29.41444], [-52.4162, -29.414595], [-52.416267, -29.414615], [-52.416395, -29.414649], [-52.416428, -29.414658], [-52.416435, -29.41466], [-52.416733, -29.414756], [-52.416772, -29.414769], [-52.416848, -29.414794], [-52.416926, -29.41482], [-52.417053, -29.41486], [-52.417145, -29.414885], [-52.417269, -29.414916], [-52.417426, -29.414952], [-52.417541, -29.414972], [-52.417638, -29.414989], [-52.417733, -29.415003], [-52.417825, -29.415016], [-52.417955, -29.415032], [-52.418069, -29.415041], [-52.418133, -29.415056], [-52.418297, -29.415089], [-52.418562, -29.415124], [-52.418834, -29.415129], [-52.418964, -29.415121], [-52.419159, -29.415112], [-52.419335, -29.415077], [-52.419425, -29.415062], [-52.419586, -29.415022], [-52.419743, -29.414979], [-52.420009, -29.414885], [-52.420195, -29.414794], [-52.420344, -29.414717], [-52.4205, -29.41462], [-52.420623, -29.414538], [-52.420738, -29.414457], [-52.420772, -29.414431], [-52.420822, -29.414392], [-52.420882, -29.414347], [-52.420899, -29.414334], [-52.421034, -29.414275], [-52.421283, -29.41417], [-52.421459, -29.414091], [-52.421628, -29.414012], [-52.421771, -29.413942], [-52.42187, -29.413896], [-52.421996, -29.413831], [-52.422136, -29.413756], [-52.422195, -29.413753], [-52.422267, -29.413747], [-52.422285, -29.413746], [-52.422317, -29.413746], [-52.422373, -29.413745], [-52.422419, -29.413745], [-52.4225, -29.413748], [-52.422687, -29.413753], [-52.422878, -29.413746], [-52.42303, -29.413733], [-52.423116, -29.413723], [-52.423217, -29.413712], [-52.423352, -29.41369], [-52.423457, -29.413671], [-52.423513, -29.41366], [-52.423619, -29.413642], [-52.423625, -29.413641], [-52.42376, -29.413607], [-52.423863, -29.41358], [-52.423984, -29.413544], [-52.423997, -29.413546], [-52.424123, -29.413553], [-52.424171, -29.413558], [-52.424245, -29.41366], [-52.424311, -29.413743], [-52.424438, -29.413894], [-52.424599, -29.414039], [-52.424657, -29.414086], [-52.424698, -29.414121], [-52.424749, -29.414165], [-52.424789, -29.4142], [-52.424805, -29.41422], [-52.424819, -29.414237], [-52.424859, -29.414285], [-52.424897, -29.414338], [-52.425074, -29.414549], [-52.425359, -29.414867], [-52.425398, -29.414911], [-52.425403, -29.414958], [-52.425408, -29.415014], [-52.425408, -29.415017], [-52.425384, -29.415276], [-52.425368, -29.415447], [-52.425363, -29.415595], [-52.425366, -29.415825], [-52.425416, -29.416109], [-52.42549, -29.416376], [-52.425584, -29.416574], [-52.425638, -29.416678], [-52.425681, -29.416754], [-52.425744, -29.416864], [-52.425758, -29.416885], [-52.425862, -29.416591], [-52.425947, -29.416467], [-52.426013, -29.416379], [-52.426159, -29.416316], [-52.42629, -29.416242], [-52.426384, -29.416208], [-52.426511, -29.416165], [-52.426677, -29.41616], [-52.426828, -29.416176], [-52.426943, -29.416196], [-52.427113, -29.416213], [-52.427193, -29.416185], [-52.427277, -29.416134], [-52.427328, -29.4161], [-52.427347, -29.41608], [-52.427344, -29.415942], [-52.427343, -29.415941], [-52.427343, -29.41588], [-52.427345, -29.415614], [-52.42736, -29.415434], [-52.427362, -29.415413], [-52.427374, -29.415281], [-52.427349, -29.414931], [-52.427328, -29.414691], [-52.427325, -29.414653], [-52.427325, -29.414652]]]}, "properties": {}},
{"type": "Feature", "geometry": {"type": "Polygon", "coordinates": [[[-52.426784, -29.413373], [-52.427032, -29.413664], [-52.427288, -29.413949], [-52.427376, -29.414067], [-52.427471, -29.414245], [-52.427524, -29.414458], [-52.427531, -29.414991], [-52.428193, -29.414927], [-52.428462, -29.414886], [-52.428786, -29.414868], [-52.428899, -29.414763], [-52.428933, -29.414559], [-52.428895, -29.414361], [-52.428822, -29.414223], [-52.428753, -29.414057], [-52.428757, -29.413924], [-52.428786, -29.413764], [-52.428824, -29.413636], [-52.428811, -29.413384], [-52.428714, -29.412946], [-52.428661, -29.412894], [-52.428777, -29.412888], [-52.428792, -29.413046], [-52.428829, -29.413192], [-52.428863, -29.413294], [-52.428887, -29.413428], [-52.428894, -29.413559], [-52.428863, -29.413763], [-52.428818, -29.413932], [-52.428825, -29.414073], [-52.428873, -29.414165], [-52.428931, -29.414275], [-52.428979, -29.414354], [-52.429019, -29.414453], [-52.428988, -29.414762], [-52.428941, -29.414864], [-52.428851, -29.414916], [-52.428623, -29.414957], [-52.428316, -29.414958], [-52.42799, -29.414985], [-52.427821, -29.415005], [-52.427632, -29.41503], [-52.427569, -29.415085], [-52.427489, -29.41549], [-52.427685, -29.415581], [-52.427762, -29.415617], [-52.427695, -29.415758], [-52.427742, -29.416004], [-52.427744, -29.416014], [-52.428198, -29.415916], [-52.428979, -29.415747], [-52.429486, -29.415638], [-52.429529, -29.415175], [-52.42953, -29.41506], [-52.429531, -29.414909], [-52.429519, -29.414748], [-52.429509, -29.414641], [-52.429501, -29.414561], [-52.429493, -29.414474], [-52.42949, -29.414442], [-52.429479, -29.414331], [-52.429458, -29.414188], [-52.429436, -29.414074], [-52.4294, -29.413912], [-52.42932, -29.413666], [-52.429237, -29.413492], [-52.429137, -29.413293], [-52.428986, -29.413091], [-52.428981, -29.413084], [-52.428915, -29.413003], [-52.428818, -29.412887], [-52.42863, -29.41267], [-52.428623, -29.412662], [-52.428587, -29.412622], [-52.428357, -29.412365], [-52.428298, -29.412294], [-52.428242, -29.412218], [-52.428175, -29.412141], [-52.42816, -29.412122], [-52.428103, -29.412052], [-52.427981, -29.41191], [-52.427825, -29.411754], [-52.427718, -29.41166], [-52.427702, -29.411646], [-52.427697, -29.411635], [-52.427668, -29.411561], [-52.427636, -29.411479], [-52.427567, -29.411299], [-52.427488, -29.411084], [-52.427327, -29.410795], [-52.427186, -29.410618], [-52.427008, -29.410413], [-52.426928, -29.410352], [-52.426905, -29.410352], [-52.426789, -29.410338], [-52.426728, -29.410344], [-52.426638, -29.410353], [-52.426578, -29.410378], [-52.426502, -29.410418], [-52.426386, -29.41049], [-52.426318, -29.410535], [-52.426088, -29.410682], [-52.425964, -29.41075], [-52.425913, -29.410793], [-52.425819, -29.410874], [-52.42576, -29.410926], [-52.425718, -29.41097], [-52.425627, -29.411065], [-52.425573, -29.411112], [-52.42551, -29.411182], [-52.425485, -29.411223], [-52.425451, -29.411282], [-52.425436, -29.411337], [-52.425433, -29.411374], [-52.425436, -29.411392], [-52.425455, -29.411389], [-52.425462, -29.411407], [-52.425476, -29.411413], [-52.425577, -29.411521], [-52.425573, -29.411581], [-52.425678, -29.411813], [-52.425755, -29.411998], [-52.425811, -29.412133], [-52.425885, -29.412298], [-52.425954, -29.412462], [-52.426024, -29.41257], [-52.426124, -29.412672], [-52.426184, -29.412722], [-52.426484, -29.413016], [-52.426784, -29.413373]]]}, "properties": {}},
{"type": "Feature", "geometry": {"type": "Polygon", "coordinates": [[[-52.426588, -29.410302], [-52.426664, -29.410273], [-52.426752, -29.41025], [-52.426786, -29.410244], [-52.426594, -29.410098], [-52.426092, -29.409896], [-52.425751, -29.409831], [-52.425679, -29.409823], [-52.425475, -29.409798], [-52.425209, -29.409801], [-52.425026, -29.409814], [-52.424706, -29.409853], [-52.424475, -29.409925], [-52.424432, -29.409937], [-52.42443, -29.409936], [-52.424321, -29.409917], [-52.424152, -29.409897], [-52.424006, -29.409885], [-52.423877, -29.409875], [-52.423553, -29.409898], [-52.42337, -29.409928], [-52.423339, -29.409933], [-52.423172, -29.409958], [-52.423045, -29.409992], [-52.422925, -29.410021], [-52.422754, -29.410083], [-52.422661, -29.410116], [-52.422601, -29.410139], [-52.422499, -29.410136], [-52.422358, -29.410136], [-52.422267, -29.410137], [-52.422181, -29.410138], [-52.422074, -29.410141], [-52.42194, -29.410148], [-52.421871, -29.410154], [-52.421817, -29.410156], [-52.421582, -29.410172], [-52.421486, -29.410184], [-52.421413, -29.410192], [-52.421255, -29.410212], [-52.421069, -29.410247], [-52.420847, -29.410297], [-52.420677, -29.410354], [-52.420565, -29.41039], [-52.420383, -29.410461], [-52.420206, -29.410547], [-52.4201, -29.410605], [-52.419999, -29.410661], [-52.419937, -29.4107], [-52.419911, -29.410715], [-52.419888, -29.410729], [-52.419865, -29.410742], [-52.41986, -29.410744], [-52.419812, -29.410766], [-52.419651, -29.410844], [-52.419545, -29.410894], [-52.41945, -29.410937], [-52.419225, -29.411032], [-52.419066, -29.411101], [-52.418923, -29.411157], [-52.418885, -29.411175], [-52.418849, -29.411292], [-52.418769, -29.411806], [-52.418742, -29.412141], [-52.418736, -29.41251], [-52.418652, -29.412746], [-52.418459, -29.413221], [-52.418787, -29.413262], [-52.419163, -29.413103], [-52.419327, -29.413003], [-52.419448, -29.412936], [-52.419584, -29.41286], [-52.419742, -29.412765], [-52.419879, -29.412682], [-52.420067, -29.412587], [-52.420525, -29.412355], [-52.421428, -29.411931], [-52.421975, -29.411879], [-52.422467, -29.411855], [-52.42276, -29.411851], [-52.423134, -29.411803], [-52.423553, -29.411667], [-52.42381, -29.411614], [-52.4239, -29.411609], [-52.424086, -29.411617], [-52.424181, -29.411636], [-52.424369, -29.411659], [-52.424541, -29.411659], [-52.424641, -29.411648], [-52.424709, -29.411628], [-52.424896, -29.411607], [-52.424971, -29.411586], [-52.425022, -29.411565], [-52.425103, -29.411533], [-52.425174, -29.411487], [-52.425217, -29.411463], [-52.425271, -29.411428], [-52.425325, -29.41128], [-52.425475, -29.411079], [-52.42548, -29.411072], [-52.425648, -29.410896], [-52.425822, -29.410747], [-52.425838, -29.410737], [-52.426176, -29.410536], [-52.42648, -29.410354], [-52.426509, -29.41034], [-52.426588, -29.410302]]]}, "properties": {}}]}
