{"type":"FeatureCollection","features":[{"type":"Feature","geometry":{"type":"Polygon","coordinates":[[[-46.97669,-24.12014],[-46.97,-24.10676],[-46.97,-24.0945],[-46.9776,-24.0888],[-46.97773,-24.08868],[-46.97784,-24.08855],[-46.97792,-24.08839],[-46.98392,-24.07439],[-46.98398,-24.07421],[-46.984,-24.07402],[-46.98399,-24.07383],[-46.98394,-24.07365],[-46.98257,-24.07005],[-46.98249,-24.06989],[-46.98238,-24.06974],[-46.98225,-24.06962],[-46.98209,-24.06952],[-46.98192,-24.06945],[-46.9811,-24.0692],[-46.98083,-24.06808],[-46.98075,-24.06786],[-46.98062,-24.06767],[-46.98046,-24.06751],[-46.97875,-24.06622],[-46.97832,-24.06393],[-46.97826,-24.06375],[-46.97818,-24.06358],[-46.97806,-24.06342],[-46.97791,-24.0633],[-46.97774,-24.0632],[-46.97756,-24.06314],[-46.97737,-24.06312],[-46.97709,-24.06311],[-46.97679,-24.06254],[-46.97669,-24.06238],[-46.97657,-24.06225],[-46.97642,-24.06214],[-46.97626,-24.06206],[-46.97608,-24.06202],[-46.9759,-24.062],[-46.97543,-24.06201],[-46.97362,-24.06077],[-46.97344,-24.06067],[-46.97324,-24.06061],[-46.97303,-24.06059],[-46.97282,-24.06062],[-46.97263,-24.06069],[-46.97245,-24.0608],[-46.9718,-24.06129],[-46.97102,-24.06131],[-46.97102,-24.0613],[-46.97095,-24.06113],[-46.97084,-24.06097],[-46.97071,-24.06084],[-46.97055,-24.06073],[-46.97037,-24.06066],[-46.96959,-24.06041],[-46.96788,-24.05881],[-46.96773,-24.0587],[-46.96755,-24.05861],[-46.96737,-24.05856],[-46.96675,-24.05845],[-46.96685,-24.05829],[-46.96692,-24.0581],[-46.9678,-24.05467],[-46.96783,-24.05446],[-46.96782,-24.05425],[-46.96776,-24.05405],[-46.96766,-24.05386],[-46.96753,-24.0537],[-46.96737,-24.05357],[-46.96667,-24.05314],[-46.9666,-24.05301],[-46.96739,-24.052],[-46.96753,-24.05174],[-46.96798,-24.05056],[-46.96803,-24.05039],[-46.96805,-24.05022],[-46.96803,-24.05004],[-46.96799,-24.04987],[-46.96752,-24.04857],[-46.96883,-24.04621],[-46.9689,-24.04603],[-46.96895,-24.04584],[-46.96895,-24.04565],[-46.96892,-24.04546],[-46.96885,-24.04528],[-46.96875,-24.04512],[-46.96862,-24.04498],[-46.96846,-24.04486],[-46.96829,-24.04478],[-46.96583,-24.04391],[-46.96567,-24.04387],[-46.96551,-24.04386],[-46.96149,-24.04384],[-46.96133,-24.04385],[-46.96116,-24.04389],[-46.96101,-24.04396],[-46.96021,-24.0444],[-46.95878,-24.04328],[-46.9586,-24.04317],[-46.95841,-24.0431],[-46.9582,-24.04307],[-46.958,-24.04309],[-46.9578,-24.04314],[-46.95761,-24.04324],[-46.95694,-24.04368],[-46.95642,-24.0434],[-46.95621,-24.04332],[-46.95599,-24.04329],[-46.95578,-24.0433],[-46.95557,-24.04337],[-46.95371,-24.04414],[-46.95012,-24.04184],[-46.94995,-24.04175],[-46.94978,-24.0417],[-46.9489,-24.04153],[-46.94781,-24.03996],[-46.94768,-24.03981],[-46.94752,-24.03968],[-46.94734,-24.03959],[-46.94714,-24.03954],[-46.94499,-24.03921],[-46.94479,-24.03919],[-46.94459,-24.03922],[-46.9444,-24.03929],[-46.94337,-24.03979],[-46.94286,-24.03976],[-46.94272,-24.03952],[-46.94261,-24.03936],[-46.94246,-24.03922],[-46.94229,-24.03912],[-46.94211,-24.03905],[-46.94054,-24.03864],[-46.94054,-24.03622],[-46.94052,-24.03602],[-46.94046,-24.03582],[-46.94036,-24.03565],[-46.94023,-24.0355],[-46.94007,-24.03537],[-46.93909,-24.03475],[-46.939,-24.03295],[-46.93897,-24.03276],[-46.93891,-24.03258],[-46.93882,-24.03242],[-46.93869,-24.03228],[-46.93855,-24.03216],[-46.93838,-24.03208],[-46.9382,-24.03202],[-46.93801,-24.032],[-46.93532,-24.03196],[-46.93513,-24.03198],[-46.93493,-24.03204],[-46.93476,-24.03213],[-46.9346,-24.03226],[-46.93261,-24.03425],[-46.93248,-24.03442],[-46.93238,-24.0346],[-46.93187,-24.03593],[-46.93181,-24.03612],[-46.9318,-24.03631],[-46.93182,-24.03651],[-46.93188,-24.03669],[-46.93198,-24.03686],[-46.9321,-24.03701],[-46.93302,-24.0379],[-46.93295,-24.03816],[-46.93085,-24.03934],[-46.93069,-24.03946],[-46.93055,-24.0396],[-46.93044,-24.03977],[-46.93037,-24.03996],[-46.93034,-24.04015],[-46.93035,-24.04035],[-46.93049,-24.0413],[-46.93029,-24.04157],[-46.92893,-24.04158],[-46.92871,-24.04161],[-46.9285,-24.04169],[-46.92831,-24.0418],[-46.9276,-24.04237],[-46.92747,-24.0425],[-46.92737,-24.04264],[-46.92729,-24.0428],[-46.92725,-24.04298],[-46.92718,-24.04333],[-46.92716,-24.04334],[-46.92705,-24.04336],[-46.92495,-24.04387],[-46.92474,-24.04394],[-46.92455,-24.04406],[-46.92445,-24.04416],[-46.92421,-24.04401],[-46.92403,-24.04188],[-46.92399,-24.04167],[-46.92391,-24.04148],[-46.9238,-24.04131],[-46.92365,-24.04116],[-46.92191,-24.03983],[-46.92173,-24.03972],[-46.92154,-24.03965],[-46.92134,-24.03963],[-46.92113,-24.03964],[-46.92094,-24.03969],[-46.92075,-24.03979],[-46.92059,-24.03991],[-46.92046,-24.04007],[-46.92037,-24.04025],[-46.92003,-24.04109],[-46.91791,-24.04196],[-46.9168,-24.04236],[-46.91572,-24.0421],[-46.91553,-24.04208],[-46.91534,-24.04208],[-46.91516,-24.04213],[-46.91499,-24.04221],[-46.91483,-24.04231],[-46.9147,-24.04245],[-46.9146,-24.04261],[-46.91453,-24.04278],[-46.91357,-24.04591],[-46.91284,-24.04682],[-46.91196,-24.04661],[-46.91178,-24.04659],[-46.91159,-24.04659],[-46.91141,-24.04664],[-46.91125,-24.04671],[-46.9111,-24.04681],[-46.91097,-24.04694],[-46.91086,-24.04709],[-46.91008,-24.04846],[-46.9099,-24.04838],[-46.9099,-24.04836],[-46.90988,-24.04819],[-46.90983,-24.04801],[-46.90975,-24.04785],[-46.90965,-24.04771],[-46.90952,-24.04758],[-46.90885,-24.04705],[-46.90868,-24.04694],[-46.90849,-24.04687],[-46.90829,-24.04684],[-46.90809,-24.04685],[-46.9068,-24.04704],[-46.90239,-24.04326],[-46.90226,-24.04317],[-46.89838,-24.04078],[-46.89737,-24.03936],[-46.89724,-24.0392],[-46.89707,-24.03908],[-46.89688,-24.03899],[-46.89668,-24.03895],[-46.89497,-24.03873],[-46.89477,-24.03873],[-46.89458,-24.03876],[-46.8944,-24.03883],[-46.89423,-24.03893],[-46.89372,-24.03932],[-46.89371,-24.03931],[-46.89356,-24.03916],[-46.89339,-24.03905],[-46.8906,-24.03762],[-46.89194,-24.03774],[-46.89213,-24.03774],[-46.89232,-24.0377],[-46.8925,-24.03763],[-46.89266,-24.03752],[-46.89339,-24.03693],[-46.89353,-24.03679],[-46.89364,-24.03663],[-46.89372,-24.03644],[-46.89376,-24.03625],[-46.89375,-24.03605],[-46.89352,-24.03389],[-46.89347,-24.03369],[-46.89339,-24.0335],[-46.89326,-24.03333],[-46.89274,-24.03275],[-46.89185,-24.03171],[-46.89167,-24.03154],[-46.886,-24.02749],[-46.886,-24.024],[-46.88598,-24.02381],[-46.88593,-24.02363],[-46.88585,-24.02347],[-46.88573,-24.02332],[-46.88559,-24.02319],[-46.88543,-24.0231],[-46.88526,-24.02303],[-46.88507,-24.023],[-46.87144,-24.02203],[-46.86869,-24.01927],[-46.87345,-24.01689],[-46.87361,-24.01679],[-46.87375,-24.01666],[-46.87386,-24.01651],[-46.87394,-24.01633],[-46.87399,-24.01615],[-46.874,-24.01596],[-46.87397,-24.01577],[-46.87391,-24.01558],[-46.87381,-24.01542],[-46.86904,-24.00873],[-46.86996,-24.00046],[-46.87109,-23.99932],[-46.8744,-24.0018],[-46.87457,-24.0019],[-46.87475,-24.00197],[-46.87495,-24.002],[-46.87514,-24.00199],[-46.87533,-24.00194],[-46.87551,-24.00186],[-46.87567,-24.00174],[-46.8758,-24.0016],[-46.8818,-23.9936],[-46.88191,-23.99342],[-46.88198,-23.99321],[-46.882,-23.993],[-46.882,-23.983],[-46.88198,-23.9828],[-46.88192,-23.98261],[-46.88182,-23.98243],[-46.88169,-23.98228],[-46.88153,-23.98215],[-46.87353,-23.97715],[-46.87333,-23.97706],[-46.87312,-23.97701],[-46.8729,-23.97701],[-46.87268,-23.97705],[-46.86761,-23.97874],[-46.86609,-23.97449],[-46.86601,-23.97432],[-46.86591,-23.97417],[-46.86578,-23.97405],[-46.86563,-23.97395],[-46.86546,-23.97388],[-46.86529,-23.97383],[-46.85876,-23.97288],[-46.85787,-23.9715],[-46.85776,-23.97135],[-46.85762,-23.97123],[-46.85746,-23.97113],[-46.85728,-23.97107],[-46.8571,-23.97104],[-46.85691,-23.97105],[-46.85511,-23.97126],[-46.85468,-23.9705],[-46.85457,-23.97034],[-46.85444,-23.97021],[-46.85428,-23.97011],[-46.85245,-23.96912],[-46.85072,-23.96731],[-46.85061,-23.96721],[-46.84384,-23.96197],[-46.84366,-23.96186],[-46.84347,-23.96179],[-46.84236,-23.96152],[-46.84215,-23.96149],[-46.84194,-23.96151],[-46.84173,-23.96157],[-46.84153,-23.96165],[-46.84151,-23.96095],[-46.84149,-23.96076],[-46.84142,-23.96057],[-46.84133,-23.96041],[-46.8412,-23.96026],[-46.84105,-23.96014],[-46.84088,-23.96005],[-46.8403,-23.95982],[-46.84033,-23.95865],[-46.84032,-23.95846],[-46.84027,-23.95828],[-46.84019,-23.95811],[-46.84007,-23.95796],[-46.83993,-23.95783],[-46.83977,-23.95773],[-46.83444,-23.9551],[-46.83425,-23.95503],[-46.83405,-23.955],[-46.83384,-23.95501],[-46.82972,-23.95566],[-46.82836,-23.95539],[-46.82817,-23.95537],[-46.82797,-23.95539],[-46.82779,-23.95544],[-46.82627,-23.95605],[-46.82379,-23.95533],[-46.82762,-23.95199],[-46.8288,-23.95204],[-46.82902,-23.95202],[-46.82922,-23.95197],[-46.8294,-23.95187],[-46.82957,-23.95173],[-46.83032,-23.95096],[-46.83044,-23.95081],[-46.83053,-23.95063],[-46.83058,-23.95044],[-46.8306,-23.95025],[-46.83058,-23.95005],[-46.83052,-23.94986],[-46.83042,-23.94969],[-46.83029,-23.94954],[-46.82963,-23.9489],[-46.82957,-23.94872],[-46.82997,-23.94726],[-46.83,-23.94706],[-46.82999,-23.94686],[-46.82994,-23.94667],[-46.82986,-23.94649],[-46.82974,-23.94633],[-46.82959,-23.9462],[-46.82942,-23.94609],[-46.82848,-23.94565],[-46.8283,-23.94559],[-46.82812,-23.94556],[-46.82793,-23.94556],[-46.82775,-23.9456],[-46.82758,-23.94568],[-46.82736,-23.94579],[-46.82729,-23.94573],[-46.82692,-23.94545],[-46.82678,-23.94478],[-46.82672,-23.94461],[-46.82664,-23.94445],[-46.82652,-23.94431],[-46.82639,-23.94419],[-46.82623,-23.9441],[-46.82606,-23.94403],[-46.82522,-23.94381],[-46.82507,-23.94378],[-46.82491,-23.94377],[-46.82346,-23.94385],[-46.82296,-23.94367],[-46.82324,-23.94307],[-46.82331,-23.94288],[-46.82333,-23.94269],[-46.82333,-23.9425],[-46.82328,-23.94231],[-46.8232,-23.94214],[-46.82308,-23.94198],[-46.82294,-23.94185],[-46.82256,-23.94155],[-46.82241,-23.94146],[-46.82224,-23.94139],[-46.82207,-23.94136],[-46.82088,-23.94121],[-46.82071,-23.9412],[-46.82053,-23.94123],[-46.81977,-23.94141],[-46.81962,-23.94145],[-46.81948,-23.94152],[-46.81842,-23.94216],[-46.81791,-23.94211],[-46.81785,-23.94208],[-46.81775,-23.94164],[-46.81769,-23.94146],[-46.8176,-23.94129],[-46.81722,-23.94075],[-46.81712,-23.94062],[-46.81699,-23.94051],[-46.81663,-23.94025],[-46.81636,-23.93986],[-46.81627,-23.93958],[-46.8162,-23.93941],[-46.8161,-23.93926],[-46.81597,-23.93913],[-46.81538,-23.93862],[-46.81525,-23.93852],[-46.81509,-23.93845],[-46.81493,-23.9384],[-46.81446,-23.9383],[-46.81421,-23.93828],[-46.81381,-23.9383],[-46.8136,-23.93833],[-46.81341,-23.93841],[-46.8131,-23.93857],[-46.81266,-23.93859],[-46.81251,-23.9386],[-46.81237,-23.93864],[-46.81142,-23.93898],[-46.81128,-23.93904],[-46.80986,-23.93982],[-46.80909,-23.93936],[-46.80891,-23.93928],[-46.80871,-23.93923],[-46.80717,-23.93903],[-46.8071,-23.93889],[-46.80699,-23.93874],[-46.80685,-23.93861],[-46.80669,-23.93851],[-46.80652,-23.93845],[-46.80609,-23.93833],[-46.80454,-23.93767],[-46.80431,-23.9376],[-46.80311,-23.93741],[-46.80283,-23.9374],[-46.80152,-23.93756],[-46.80135,-23.93759],[-46.80119,-23.93766],[-46.80104,-23.93775],[-46.80091,-23.93787],[-46.80045,-23.93836],[-46.7997,-23.93808],[-46.7995,-23.93803],[-46.79931,-23.93802],[-46.79911,-23.93805],[-46.79823,-23.93827],[-46.79802,-23.93834],[-46.79783,-23.93847],[-46.79707,-23.93909],[-46.79609,-23.93903],[-46.79591,-23.93903],[-46.79573,-23.93907],[-46.79556,-23.93914],[-46.7954,-23.93924],[-46.79527,-23.93936],[-46.7951,-23.93956],[-46.79497,-23.93974],[-46.79489,-23.93993],[-46.79429,-23.94194],[-46.79401,-23.94218],[-46.79355,-23.94241],[-46.79259,-23.94232],[-46.79251,-23.94227],[-46.79032,-23.94095],[-46.78959,-23.94045],[-46.78939,-23.94035],[-46.78917,-23.94029],[-46.78784,-23.94009],[-46.78766,-23.94008],[-46.78748,-23.9401],[-46.78731,-23.94016],[-46.78624,-23.94061],[-46.78607,-23.9407],[-46.78521,-23.94127],[-46.78504,-23.94141],[-46.78491,-23.94158],[-46.7847,-23.94193],[-46.78461,-23.9421],[-46.7843,-23.94294],[-46.78388,-23.94329],[-46.78332,-23.94332],[-46.78312,-23.94335],[-46.78294,-23.94341],[-46.78277,-23.94351],[-46.78263,-23.94364],[-46.78251,-23.94379],[-46.78242,-23.94397],[-46.78237,-23.94416],[-46.78236,-23.94435],[-46.78239,-23.94455],[-46.78262,-23.94555],[-46.78268,-23.94571],[-46.78283,-23.94607],[-46.78281,-23.94609],[-46.78242,-23.94645],[-46.7803,-23.94829],[-46.77951,-23.94826],[-46.77928,-23.94828],[-46.77906,-23.94835],[-46.77756,-23.94904],[-46.77652,-23.94873],[-46.77633,-23.9487],[-46.77614,-23.9487],[-46.77596,-23.94873],[-46.77448,-23.94916],[-46.77427,-23.94925],[-46.77408,-23.94938],[-46.77359,-23.94984],[-46.77346,-23.94998],[-46.77336,-23.95014],[-46.7733,-23.95032],[-46.77327,-23.95051],[-46.77327,-23.9507],[-46.77331,-23.95089],[-46.77384,-23.95245],[-46.77362,-23.95257],[-46.77345,-23.95267],[-46.77331,-23.95281],[-46.77319,-23.95297],[-46.77312,-23.95316],[-46.77308,-23.95335],[-46.77307,-23.95355],[-46.77311,-23.95374],[-46.77328,-23.95431],[-46.77334,-23.95447],[-46.77343,-23.95461],[-46.7744,-23.95596],[-46.77406,-23.95652],[-46.77371,-23.95652],[-46.77351,-23.95653],[-46.77332,-23.95659],[-46.77314,-23.95669],[-46.77299,-23.95681],[-46.77203,-23.95779],[-46.7719,-23.95795],[-46.77181,-23.95813],[-46.77175,-23.95833],[-46.77174,-23.95853],[-46.77177,-23.95873],[-46.77187,-23.95918],[-46.77176,-23.95941],[-46.77084,-23.96023],[-46.76995,-23.95978],[-46.76978,-23.95971],[-46.76959,-23.95968],[-46.7694,-23.95968],[-46.76922,-23.95971],[-46.76904,-23.95978],[-46.76888,-23.95989],[-46.76874,-23.96002],[-46.76863,-23.96017],[-46.76834,-23.96068],[-46.76757,-23.96013],[-46.76737,-23.96002],[-46.76715,-23.95996],[-46.76693,-23.95995],[-46.76661,-23.95997],[-46.7664,-23.96],[-46.76621,-23.96008],[-46.76604,-23.96019],[-46.76589,-23.96033],[-46.76578,-23.96051],[-46.76565,-23.96075],[-46.76553,-23.9607],[-46.76533,-23.96066],[-46.76512,-23.96066],[-46.76492,-23.9607],[-46.76473,-23.96079],[-46.76456,-23.96091],[-46.76338,-23.96197],[-46.76289,-23.96232],[-46.76272,-23.96231],[-46.76252,-23.9623],[-46.76233,-23.96234],[-46.76215,-23.96241],[-46.76198,-23.96252],[-46.76184,-23.96266],[-46.76173,-23.96282],[-46.76166,-23.963],[-46.76162,-23.96319],[-46.76162,-23.96339],[-46.76172,-23.9646],[-46.76177,-23.96482],[-46.76186,-23.96503],[-46.762,-23.96521],[-46.76272,-23.96596],[-46.7627,-23.96604],[-46.76269,-23.96608],[-46.76242,-23.96731],[-46.76227,-23.96749],[-46.76155,-23.96741],[-46.76138,-23.9674],[-46.7612,-23.96742],[-46.76103,-23.96748],[-46.76088,-23.96757],[-46.76032,-23.96794],[-46.76014,-23.96809],[-46.76,-23.96829],[-46.7595,-23.96919],[-46.75931,-23.96943],[-46.75921,-23.96958],[-46.75913,-23.96974],[-46.75909,-23.96992],[-46.75896,-23.97078],[-46.75895,-23.97098],[-46.75898,-23.97118],[-46.75905,-23.97137],[-46.75909,-23.97144],[-46.75902,-23.97139],[-46.75884,-23.97129],[-46.75864,-23.97124],[-46.75844,-23.97122],[-46.75824,-23.97125],[-46.75805,-23.97132],[-46.75787,-23.97142],[-46.75753,-23.97167],[-46.75716,-23.97128],[-46.757,-23.97114],[-46.75682,-23.97104],[-46.75662,-23.97098],[-46.75642,-23.97097],[-46.75621,-23.97099],[-46.75602,-23.97106],[-46.75584,-23.97116],[-46.75538,-23.9715],[-46.75455,-23.9716],[-46.75434,-23.97165],[-46.75415,-23.97174],[-46.75399,-23.97187],[-46.75385,-23.97203],[-46.75375,-23.97221],[-46.75369,-23.97241],[-46.7536,-23.97288],[-46.75359,-23.97307],[-46.7536,-23.97325],[-46.75366,-23.97343],[-46.75374,-23.97359],[-46.75414,-23.97423],[-46.75476,-23.97552],[-46.75489,-23.97572],[-46.75506,-23.97588],[-46.75713,-23.97745],[-46.75813,-23.97831],[-46.75787,-23.9797],[-46.75786,-23.97988],[-46.75787,-23.98006],[-46.75792,-23.98024],[-46.758,-23.9804],[-46.75868,-23.98155],[-46.75877,-23.98168],[-46.75889,-23.9818],[-46.76016,-23.98291],[-46.76069,-23.98427],[-46.76071,-23.98431],[-46.76148,-23.98604],[-46.76164,-23.98628],[-46.76393,-23.98898],[-46.76582,-23.99152],[-46.76777,-23.9947],[-46.76857,-23.99601],[-46.76826,-23.99646],[-46.76822,-23.99652],[-46.76777,-23.99731],[-46.7677,-23.99747],[-46.76766,-23.99764],[-46.76764,-23.99781],[-46.76766,-23.99798],[-46.76779,-23.99869],[-46.76783,-23.99886],[-46.76791,-23.99902],[-46.76801,-23.99916],[-46.76814,-23.99929],[-46.76829,-23.99939],[-46.77103,-24.0009],[-46.77117,-24.00097],[-46.77131,-24.00101],[-46.77324,-24.0014],[-46.77329,-24.00199],[-46.7733,-24.00208],[-46.77349,-24.0031],[-46.77304,-24.00428],[-46.77228,-24.00472],[-46.77213,-24.00483],[-46.772,-24.00496],[-46.7719,-24.00512],[-46.77127,-24.0063],[-46.7708,-24.00659],[-46.76967,-24.00687],[-46.76955,-24.00687],[-46.76949,-24.0068],[-46.76896,-24.00571],[-46.76889,-24.00557],[-46.768,-24.00426],[-46.76785,-24.0037],[-46.76778,-24.00351],[-46.76767,-24.00334],[-46.76753,-24.0032],[-46.76736,-24.00308],[-46.76718,-24.00301],[-46.76698,-24.00297],[-46.76561,-24.00283],[-46.76542,-24.00283],[-46.76524,-24.00286],[-46.76507,-24.00292],[-46.76431,-24.00329],[-46.76428,-24.00329],[-46.76341,-24.00299],[-46.7632,-24.00295],[-46.76298,-24.00295],[-46.7628,-24.00299],[-46.76276,-24.00276],[-46.76271,-24.00257],[-46.76263,-24.0024],[-46.76251,-24.00224],[-46.76236,-24.00211],[-46.76219,-24.00201],[-46.76026,-24.00113],[-46.76005,-24.00106],[-46.75983,-24.00104],[-46.75961,-24.00107],[-46.75941,-24.00114],[-46.7593,-24.00119],[-46.7592,-24.00113],[-46.75904,-24.00103],[-46.75886,-24.00097],[-46.75868,-24.00094],[-46.7568,-24.00083],[-46.75589,-24.00072],[-46.75573,-24.00016],[-46.75571,-23.9998],[-46.75568,-23.9996],[-46.75562,-23.99941],[-46.75551,-23.99924],[-46.75537,-23.99909],[-46.75521,-23.99897],[-46.75503,-23.99889],[-46.75488,-23.99885],[-46.75471,-23.99839],[-46.75462,-23.99821],[-46.75449,-23.99806],[-46.75434,-23.99793],[-46.75417,-23.99783],[-46.75398,-23.99777],[-46.75389,-23.99775],[-46.75388,-23.99763],[-46.75384,-23.99745],[-46.75377,-23.99728],[-46.75366,-23.99713],[-46.75353,-23.997],[-46.75337,-23.99689],[-46.75331,-23.99686],[-46.75335,-23.99677],[-46.75339,-23.99655],[-46.75339,-23.99633],[-46.7533,-23.99564],[-46.75326,-23.99545],[-46.75318,-23.99527],[-46.75307,-23.99511],[-46.75292,-23.99498],[-46.75276,-23.99487],[-46.75257,-23.9948],[-46.75199,-23.99464],[-46.7518,-23.99461],[-46.75161,-23.99462],[-46.75142,-23.99466],[-46.75124,-23.99474],[-46.75109,-23.99485],[-46.75106,-23.99488],[-46.75098,-23.9948],[-46.75084,-23.99471],[-46.75068,-23.99463],[-46.75002,-23.99439],[-46.74978,-23.99369],[-46.74971,-23.99351],[-46.7496,-23.99336],[-46.74946,-23.99322],[-46.74931,-23.99312],[-46.74913,-23.99305],[-46.74895,-23.99301],[-46.74483,-23.99255],[-46.7445,-23.99246],[-46.7445,-23.99242],[-46.74447,-23.99224],[-46.74442,-23.99207],[-46.74406,-23.99127],[-46.74395,-23.99108],[-46.74381,-23.99093],[-46.74364,-23.9908],[-46.74345,-23.99072],[-46.74324,-23.99067],[-46.74303,-23.99068],[-46.73993,-23.99102],[-46.73923,-23.991],[-46.73899,-23.99103],[-46.73876,-23.9911],[-46.73703,-23.99195],[-46.73683,-23.99207],[-46.73668,-23.99223],[-46.7363,-23.99271],[-46.73472,-23.99335],[-46.73459,-23.99342],[-46.73261,-23.99459],[-46.73207,-23.9948],[-46.72903,-23.99438],[-46.72419,-23.99291],[-46.72273,-23.99191],[-46.72257,-23.99182],[-46.7224,-23.99176],[-46.72222,-23.99173],[-46.72203,-23.99174],[-46.72113,-23.99185],[-46.72096,-23.99189],[-46.72079,-23.99196],[-46.72064,-23.99206],[-46.71955,-23.99292],[-46.71939,-23.99309],[-46.71926,-23.99328],[-46.71902,-23.9938],[-46.7181,-23.99454],[-46.71767,-23.99485],[-46.71063,-23.99412],[-46.69997,-23.98921],[-46.69983,-23.98916],[-46.69596,-23.98801],[-46.69476,-23.98463],[-46.6947,-23.98449],[-46.69461,-23.98436],[-46.69367,-23.98312],[-46.69353,-23.98298],[-46.69337,-23.98286],[-46.69319,-23.98278],[-46.69299,-23.98274],[-46.6928,-23.98273],[-46.6926,-23.98277],[-46.69241,-23.98284],[-46.69225,-23.98295],[-46.69153,-23.98353],[-46.69085,-23.98369],[-46.68842,-23.98358],[-46.68763,-23.98317],[-46.68741,-23.98309],[-46.68719,-23.98306],[-46.68696,-23.98308],[-46.68574,-23.98334],[-46.68554,-23.9834],[-46.68536,-23.98351],[-46.6852,-23.98365],[-46.68508,-23.98382],[-46.68499,-23.98401],[-46.68483,-23.9845],[-46.68453,-23.98488],[-46.68406,-23.98507],[-46.6839,-23.98516],[-46.68361,-23.98535],[-46.68345,-23.98548],[-46.68332,-23.98563],[-46.68323,-23.98582],[-46.68317,-23.98601],[-46.68316,-23.98622],[-46.68319,-23.98642],[-46.68323,-23.9866],[-46.68328,-23.98675],[-46.68335,-23.9869],[-46.68338,-23.98693],[-46.68215,-23.98709],[-46.68198,-23.98712],[-46.68183,-23.98718],[-46.68168,-23.98727],[-46.68096,-23.9878],[-46.68046,-23.98803],[-46.68039,-23.98805],[-46.67901,-23.98768],[-46.67824,-23.98739],[-46.67821,-23.98738],[-46.67715,-23.98703],[-46.67697,-23.98699],[-46.67678,-23.98698],[-46.67659,-23.98701],[-46.67641,-23.98707],[-46.6762,-23.98718],[-46.67605,-23.98726],[-46.67593,-23.98736],[-46.67582,-23.98749],[-46.67556,-23.98784],[-46.67516,-23.988],[-46.67492,-23.98809],[-46.67463,-23.98776],[-46.67449,-23.98763],[-46.67434,-23.98753],[-46.67417,-23.98746],[-46.67297,-23.9871],[-46.6728,-23.98706],[-46.67262,-23.98705],[-46.67245,-23.98708],[-46.67228,-23.98714],[-46.67187,-23.98732],[-46.66984,-23.98756],[-46.66918,-23.98745],[-46.66855,-23.9872],[-46.66844,-23.98716],[-46.66811,-23.98708],[-46.66794,-23.98705],[-46.66776,-23.98705],[-46.66613,-23.9872],[-46.66489,-23.98703],[-46.6646,-23.98703],[-46.66326,-23.98723],[-46.66297,-23.98718],[-46.66226,-23.98684],[-46.66209,-23.98679],[-46.66193,-23.98676],[-46.66175,-23.98676],[-46.66135,-23.98679],[-46.66114,-23.98683],[-46.66094,-23.98691],[-46.66077,-23.98703],[-46.66056,-23.98721],[-46.66041,-23.98739],[-46.6603,-23.98759],[-46.65858,-23.99182],[-46.65831,-23.99221],[-46.65792,-23.99219],[-46.65787,-23.99219],[-46.65726,-23.99221],[-46.65707,-23.99223],[-46.65688,-23.99229],[-46.65568,-23.99283],[-46.6555,-23.99293],[-46.65512,-23.99321],[-46.65498,-23.99333],[-46.65487,-23.99348],[-46.65444,-23.99414],[-46.65315,-23.99604],[-46.6528,-23.99653],[-46.65191,-23.99709],[-46.65175,-23.99721],[-46.65162,-23.99737],[-46.65146,-23.9976],[-46.65139,-23.99772],[-46.65106,-23.99838],[-46.65105,-23.99839],[-46.65073,-23.99907],[-46.65069,-23.99915],[-46.65035,-24.00006],[-46.65032,-24.00015],[-46.65028,-24.00028],[-46.6502,-24.00035],[-46.64972,-24.00066],[-46.64959,-24.00071],[-46.64937,-24.00081],[-46.64921,-24.00089],[-46.64906,-24.00101],[-46.64894,-24.00114],[-46.64776,-24.00277],[-46.64767,-24.00293],[-46.64661,-24.00517],[-46.6449,-24.00778],[-46.64482,-24.00793],[-46.64477,-24.0081],[-46.64474,-24.00827],[-46.64469,-24.00914],[-46.64453,-24.0098],[-46.64418,-24.01056],[-46.64412,-24.01074],[-46.64409,-24.01092],[-46.6441,-24.01111],[-46.64414,-24.0113],[-46.64422,-24.01147],[-46.64433,-24.01163],[-46.64447,-24.01176],[-46.64463,-24.01186],[-46.6448,-24.01193],[-46.64499,-24.01197],[-46.64599,-24.01207],[-46.64692,-24.01226],[-46.64891,-24.01311],[-46.64991,-24.01383],[-46.64996,-24.01397],[-46.65004,-24.01412],[-46.65015,-24.01425],[-46.65036,-24.01447],[-46.6505,-24.01459],[-46.65066,-24.01468],[-46.65101,-24.01485],[-46.65126,-24.01492],[-46.65195,-24.01505],[-46.65223,-24.01518],[-46.65403,-24.01615],[-46.65412,-24.0162],[-46.65478,-24.01648],[-46.65569,-24.01694],[-46.65575,-24.01696],[-46.65924,-24.01844],[-46.65935,-24.01848],[-46.66004,-24.01868],[-46.66013,-24.0187],[-46.66096,-24.01887],[-46.66104,-24.01888],[-46.6617,-24.01896],[-46.66391,-24.01992],[-46.66467,-24.02028],[-46.66564,-24.02081],[-46.66651,-24.02141],[-46.66687,-24.02177],[-46.66705,-24.02191],[-46.66726,-24.02201],[-46.66967,-24.02279],[-46.67336,-24.0241],[-46.67589,-24.02515],[-46.67786,-24.02607],[-46.67799,-24.02612],[-46.68026,-24.0268],[-46.68105,-24.02717],[-46.68164,-24.02775],[-46.68171,-24.02781],[-46.68226,-24.02826],[-46.68231,-24.0283],[-46.68312,-24.02886],[-46.68327,-24.02895],[-46.68389,-24.02924],[-46.68405,-24.0293],[-46.68512,-24.02959],[-46.68611,-24.02995],[-46.68632,-24.03],[-46.6871,-24.03011],[-46.68751,-24.03021],[-46.68769,-24.03031],[-46.68856,-24.03094],[-46.68937,-24.03153],[-46.68939,-24.03155],[-46.69194,-24.03334],[-46.6921,-24.03343],[-46.69443,-24.0345],[-46.69577,-24.03613],[-46.69582,-24.0362],[-46.69728,-24.0377],[-46.69729,-24.0377],[-46.69773,-24.03815],[-46.69816,-24.03875],[-46.69838,-24.041],[-46.69841,-24.04115],[-46.69875,-24.04243],[-46.69896,-24.04361],[-46.699,-24.04377],[-46.69907,-24.04393],[-46.69916,-24.04407],[-46.69956,-24.04456],[-46.6997,-24.04469],[-46.70034,-24.04523],[-46.70055,-24.04537],[-46.70136,-24.04575],[-46.70153,-24.04581],[-46.70172,-24.04585],[-46.70191,-24.04584],[-46.70209,-24.0458],[-46.70226,-24.04573],[-46.70268,-24.0455],[-46.70285,-24.04539],[-46.70299,-24.04524],[-46.70345,-24.04466],[-46.7036,-24.04449],[-46.70456,-24.04482],[-46.70683,-24.04625],[-46.70696,-24.04632],[-46.70711,-24.04637],[-46.70923,-24.04694],[-46.70947,-24.04697],[-46.71059,-24.04699],[-46.71078,-24.04698],[-46.71096,-24.04693],[-46.71245,-24.04636],[-46.71421,-24.04731],[-46.7143,-24.04735],[-46.71602,-24.04806],[-46.71617,-24.0481],[-46.71632,-24.04813],[-46.71987,-24.0484],[-46.72286,-24.05063],[-46.72306,-24.05075],[-46.7266,-24.0523],[-46.72696,-24.05267],[-46.72723,-24.05348],[-46.72733,-24.05369],[-46.72746,-24.05386],[-46.72813,-24.05455],[-46.7282,-24.05462],[-46.72966,-24.05583],[-46.72979,-24.05592],[-46.73222,-24.05739],[-46.7343,-24.05875],[-46.73524,-24.05982],[-46.73542,-24.05998],[-46.73563,-24.0601],[-46.73704,-24.06063],[-46.73734,-24.06135],[-46.73745,-24.06155],[-46.7376,-24.06171],[-46.73778,-24.06184],[-46.73866,-24.06233],[-46.73911,-24.06282],[-46.73965,-24.06459],[-46.73971,-24.06475],[-46.73981,-24.0649],[-46.73993,-24.06504],[-46.74007,-24.06514],[-46.74255,-24.06669],[-46.7428,-24.06735],[-46.74238,-24.06801],[-46.74229,-24.06817],[-46.74224,-24.06835],[-46.74222,-24.06853],[-46.74224,-24.06872],[-46.74228,-24.06889],[-46.74402,-24.07357],[-46.74406,-24.07367],[-46.74454,-24.07463],[-46.74463,-24.07477],[-46.74521,-24.07556],[-46.74556,-24.07662],[-46.74515,-24.07709],[-46.74483,-24.07718],[-46.74464,-24.07726],[-46.74448,-24.07736],[-46.74433,-24.0775],[-46.74422,-24.07767],[-46.74394,-24.07818],[-46.74317,-24.07867],[-46.74258,-24.07901],[-46.74244,-24.07912],[-46.74232,-24.07924],[-46.74222,-24.07939],[-46.74166,-24.0804],[-46.74165,-24.08041],[-46.74139,-24.08089],[-46.74102,-24.08117],[-46.74051,-24.08132],[-46.74044,-24.08135],[-46.73979,-24.08159],[-46.73959,-24.08169],[-46.73628,-24.08385],[-46.73612,-24.08397],[-46.73503,-24.08505],[-46.7349,-24.0852],[-46.73484,-24.08532],[-46.73474,-24.08531],[-46.73455,-24.08532],[-46.73419,-24.08539],[-46.73403,-24.08543],[-46.73387,-24.0855],[-46.73322,-24.08587],[-46.7325,-24.08603],[-46.73233,-24.08609],[-46.73217,-24.08618],[-46.73202,-24.08629],[-46.7319,-24.08643],[-46.73181,-24.08659],[-46.7315,-24.08727],[-46.73136,-24.08735],[-46.73121,-24.08746],[-46.73107,-24.0876],[-46.73097,-24.08777],[-46.7308,-24.08811],[-46.73075,-24.08821],[-46.73053,-24.08882],[-46.73027,-24.08931],[-46.73019,-24.08955],[-46.73013,-24.08979],[-46.73,-24.09002],[-46.72991,-24.09023],[-46.72984,-24.09046],[-46.72964,-24.09098],[-46.72963,-24.091],[-46.72944,-24.09115],[-46.7293,-24.09129],[-46.72919,-24.09145],[-46.72911,-24.09163],[-46.72907,-24.09182],[-46.72906,-24.09201],[-46.72907,-24.09207],[-46.72905,-24.09223],[-46.72905,-24.0924],[-46.72908,-24.09258],[-46.72912,-24.09275],[-46.72922,-24.093],[-46.72933,-24.09318],[-46.72945,-24.09335],[-46.7296,-24.09348],[-46.72977,-24.09359],[-46.72996,-24.09366],[-46.73017,-24.09368],[-46.7303,-24.09369],[-46.73052,-24.09367],[-46.73068,-24.09362],[-46.73071,-24.09363],[-46.73089,-24.0937],[-46.73111,-24.09376],[-46.73117,-24.09377],[-46.73117,-24.0938],[-46.7312,-24.09398],[-46.73127,-24.09416],[-46.73133,-24.09426],[-46.73144,-24.09443],[-46.73158,-24.09458],[-46.73174,-24.09469],[-46.73187,-24.09476],[-46.73205,-24.09483],[-46.73224,-24.09487],[-46.73241,-24.09487],[-46.73255,-24.095],[-46.73272,-24.0951],[-46.73292,-24.09517],[-46.73305,-24.0952],[-46.73293,-24.09525],[-46.73278,-24.09536],[-46.73264,-24.09549],[-46.73254,-24.09565],[-46.73234,-24.09601],[-46.73227,-24.09618],[-46.73195,-24.09718],[-46.7317,-24.09768],[-46.73163,-24.09785],[-46.7316,-24.09804],[-46.7316,-24.09823],[-46.73164,-24.09842],[-46.73174,-24.09874],[-46.73182,-24.09893],[-46.73194,-24.0991],[-46.73202,-24.0992],[-46.73192,-24.09926],[-46.73175,-24.09916],[-46.73152,-24.09906],[-46.73129,-24.09899],[-46.73112,-24.09895],[-46.73093,-24.09895],[-46.73075,-24.09898],[-46.73061,-24.09901],[-46.73043,-24.09908],[-46.73027,-24.09918],[-46.73012,-24.0993],[-46.73001,-24.09945],[-46.72994,-24.09956],[-46.72985,-24.09976],[-46.7298,-24.09997],[-46.72979,-24.10019],[-46.72981,-24.10037],[-46.72984,-24.10053],[-46.72986,-24.10057],[-46.72978,-24.10063],[-46.72958,-24.10083],[-46.72951,-24.10092],[-46.72947,-24.10098],[-46.72936,-24.10115],[-46.72929,-24.10134],[-46.72926,-24.10155],[-46.72926,-24.10173],[-46.72927,-24.10195],[-46.72934,-24.10235],[-46.72941,-24.10256],[-46.72952,-24.10276],[-46.72967,-24.10292],[-46.72983,-24.10307],[-46.72989,-24.10312],[-46.73007,-24.10325],[-46.73022,-24.10334],[-46.73034,-24.10339],[-46.73034,-24.10348],[-46.73041,-24.1037],[-46.73045,-24.10379],[-46.73054,-24.10395],[-46.73065,-24.10409],[-46.73079,-24.10421],[-46.73095,-24.1043],[-46.73112,-24.10436],[-46.73134,-24.10442],[-46.73153,-24.10445],[-46.7321,-24.10448],[-46.73247,-24.10457],[-46.73283,-24.10473],[-46.73285,-24.10474],[-46.73288,-24.10483],[-46.73298,-24.10498],[-46.73311,-24.10512],[-46.73326,-24.10523],[-46.73342,-24.10531],[-46.7336,-24.10536],[-46.73372,-24.10537],[-46.73373,-24.10542],[-46.73375,-24.10554],[-46.7338,-24.10572],[-46.73389,-24.10589],[-46.734,-24.10604],[-46.73414,-24.10616],[-46.73422,-24.10622],[-46.73439,-24.10632],[-46.73458,-24.10639],[-46.73477,-24.10641],[-46.73479,-24.10641],[-46.73488,-24.10655],[-46.73476,-24.10664],[-46.73463,-24.1068],[-46.73454,-24.10698],[-46.73448,-24.10718],[-46.73446,-24.10738],[-46.73449,-24.10759],[-46.73455,-24.10775],[-46.73304,-24.10743],[-46.73283,-24.10741],[-46.73262,-24.10743],[-46.73242,-24.1075],[-46.73224,-24.10761],[-46.73176,-24.10796],[-46.7316,-24.10811],[-46.73148,-24.10829],[-46.73059,-24.10994],[-46.73052,-24.11012],[-46.73048,-24.11032],[-46.73048,-24.11052],[-46.73052,-24.11071],[-46.7306,-24.11089],[-46.73119,-24.11198],[-46.73108,-24.11253],[-46.73047,-24.11296],[-46.72953,-24.11331],[-46.72937,-24.11338],[-46.72923,-24.11348],[-46.72847,-24.11411],[-46.72833,-24.11425],[-46.72822,-24.11442],[-46.72815,-24.1146],[-46.72812,-24.11472],[-46.72709,-24.11582],[-46.72646,-24.11632],[-46.72632,-24.11646],[-46.7262,-24.11663],[-46.72613,-24.11682],[-46.72609,-24.11701],[-46.72609,-24.11722],[-46.72634,-24.11949],[-46.72638,-24.12026],[-46.72608,-24.12154],[-46.72605,-24.12173],[-46.72606,-24.12192],[-46.72611,-24.1221],[-46.72618,-24.12227],[-46.72629,-24.12242],[-46.72642,-24.12255],[-46.72736,-24.12331],[-46.72762,-24.12382],[-46.72745,-24.12428],[-46.7274,-24.12445],[-46.72738,-24.12462],[-46.72737,-24.12578],[-46.72732,-24.12598],[-46.72709,-24.1262],[-46.72697,-24.12634],[-46.72688,-24.1265],[-46.72681,-24.12668],[-46.72663,-24.1274],[-46.72663,-24.12742],[-46.72604,-24.12997],[-46.72545,-24.13123],[-46.72541,-24.13122],[-46.72522,-24.13117],[-46.72503,-24.13116],[-46.72484,-24.13119],[-46.72466,-24.13125],[-46.72449,-24.13134],[-46.71261,-24.13975],[-46.71259,-24.13977],[-46.70829,-24.14296],[-46.70814,-24.14309],[-46.70802,-24.14324],[-46.70794,-24.14342],[-46.70789,-24.14361],[-46.70788,-24.14381],[-46.70791,-24.144],[-46.70798,-24.14419],[-46.70808,-24.14435],[-46.70821,-24.1445],[-46.70837,-24.14462],[-46.73278,-24.15931],[-46.73283,-24.15934],[-46.76894,-24.17838],[-46.76895,-24.17838],[-46.78802,-24.18823],[-46.78889,-24.18996],[-46.78905,-24.19019],[-46.79175,-24.19314],[-46.79162,-24.19318],[-46.79146,-24.19327],[-46.79132,-24.19339],[-46.7912,-24.19354],[-46.79112,-24.19368],[-46.79101,-24.19383],[-46.79092,-24.19403],[-46.79089,-24.19421],[-46.79083,-24.1943],[-46.79076,-24.19447],[-46.79072,-24.19466],[-46.79071,-24.19484],[-46.79074,-24.19503],[-46.7908,-24.19521],[-46.79089,-24.19537],[-46.79101,-24.19551],[-46.79116,-24.19563],[-46.79133,-24.19572],[-46.79144,-24.19576],[-46.79167,-24.19583],[-46.79172,-24.19583],[-46.79185,-24.19593],[-46.79203,-24.19601],[-46.79222,-24.19605],[-46.79242,-24.19606],[-46.7925,-24.19605],[-46.79269,-24.19602],[-46.79286,-24.19596],[-46.79286,-24.19596],[-46.79291,-24.19595],[-46.79309,-24.19588],[-46.79314,-24.19584],[-46.79326,-24.19582],[-46.79345,-24.19575],[-46.79362,-24.19564],[-46.79376,-24.19551],[-46.79388,-24.19534],[-46.79396,-24.19516],[-46.794,-24.19503],[-46.794,-24.195],[-46.79416,-24.19511],[-46.79435,-24.1952],[-46.79956,-24.19729],[-46.80349,-24.20117],[-46.80365,-24.20131],[-46.80384,-24.2014],[-46.81058,-24.20389],[-46.81076,-24.20394],[-46.81095,-24.20395],[-46.81114,-24.20393],[-46.81132,-24.20387],[-46.81148,-24.20378],[-46.81163,-24.20366],[-46.81175,-24.20352],[-46.81184,-24.20335],[-46.81228,-24.20236],[-46.81353,-24.20195],[-46.82217,-24.2065],[-46.83499,-24.21354],[-46.87876,-24.24219],[-46.88012,-24.24308],[-46.88114,-24.24375],[-46.89245,-24.25115],[-46.89254,-24.25121],[-46.8926,-24.25125],[-46.89279,-24.25138],[-46.89644,-24.25383],[-46.89662,-24.25393],[-46.89682,-24.25398],[-46.89703,-24.254],[-46.89723,-24.25397],[-46.89743,-24.2539],[-46.8976,-24.2538],[-46.9266,-24.2318],[-46.92675,-24.23166],[-46.92687,-24.23149],[-46.92695,-24.2313],[-46.927,-24.2311],[-46.92699,-24.23089],[-46.92607,-24.22258],[-46.93545,-24.21789],[-46.93563,-24.21778],[-46.93578,-24.21763],[-46.93589,-24.21745],[-46.93597,-24.21726],[-46.936,-24.21705],[-46.93599,-24.21684],[-46.93504,-24.21118],[-46.93978,-24.20265],[-46.95164,-24.19277],[-46.95179,-24.19262],[-46.9519,-24.19244],[-46.95197,-24.19224],[-46.952,-24.19203],[-46.95198,-24.19182],[-46.94998,-24.18082],[-46.94993,-24.18064],[-46.94984,-24.18046],[-46.94973,-24.18031],[-46.94958,-24.18019],[-46.94308,-24.17554],[-46.94499,-24.16214],[-46.945,-24.16193],[-46.94496,-24.16172],[-46.94488,-24.16152],[-46.94476,-24.16135],[-46.9446,-24.1612],[-46.9411,-24.15858],[-46.94211,-24.15357],[-46.94288,-24.14971],[-46.94939,-24.14692],[-46.94957,-24.14682],[-46.94973,-24.14669],[-46.94985,-24.14653],[-46.94994,-24.14634],[-46.94999,-24.14615],[-46.95,-24.14594],[-46.94997,-24.14574],[-46.94989,-24.14555],[-46.94822,-24.1422],[-46.94949,-24.14092],[-46.94998,-24.14082],[-46.95063,-24.14069],[-46.96886,-24.13705],[-46.97255,-24.13889],[-46.97272,-24.13896],[-46.97291,-24.139],[-46.97309,-24.139],[-46.97327,-24.13896],[-46.97344,-24.1389],[-46.9736,-24.1388],[-46.9776,-24.1358],[-46.97773,-24.13569],[-46.97783,-24.13555],[-46.97983,-24.13255],[-46.97987,-24.13249],[-46.98487,-24.12349],[-46.98495,-24.1233],[-46.985,-24.1231],[-46.98499,-24.1229],[-46.98495,-24.1227],[-46.98487,-24.12251],[-46.98476,-24.12234],[-46.98461,-24.12221],[-46.98443,-24.1221],[-46.98424,-24.12203],[-46.97669,-24.12014]],[[-46.88913,-24.03641],[-46.88917,-24.0364],[-46.88919,-24.03646],[-46.88913,-24.03641]]]},"properties":{"ghs":"6gw","size":1833.25,"ghs_len":3,"ghs_area":614.93,"ghs_bytes":573413,"ghs_items":4646,"size_unit":"km","ghsval_unit":"bytes","ghs_itemsdensity":7.56,"size_unitdensity":2.98}}]}
