{"type":"FeatureCollection","features":[{"type":"Feature","geometry":{"type":"MultiPolygon","coordinates":[[[[-61.88876,-10.98736],[-61.94139,-10.98777],[-61.94195,-10.98974],[-61.94202,-10.98991],[-61.94211,-10.99006],[-61.94411,-10.99279],[-61.94426,-10.99295],[-61.94588,-10.99435],[-61.94608,-10.99449],[-61.95058,-10.99676],[-61.95166,-11.00008],[-61.9517,-11.00018],[-61.95669,-11.01143],[-61.95699,-11.01593],[-61.95342,-11.02376],[-61.95049,-11.02608],[-61.95034,-11.02623],[-61.95022,-11.0264],[-61.95015,-11.0266],[-61.94885,-11.03139],[-61.94882,-11.03154],[-61.94881,-11.0317],[-61.949,-11.0364],[-61.94738,-11.0456],[-61.94563,-11.04886],[-61.94524,-11.04959],[-61.94516,-11.04977],[-61.94512,-11.04996],[-61.94467,-11.05455],[-61.94356,-11.05773],[-61.94352,-11.0579],[-61.94351,-11.05808],[-61.94353,-11.05826],[-61.94358,-11.05843],[-61.94604,-11.06446],[-61.94748,-11.07477],[-61.94792,-11.08022],[-61.9473,-11.08263],[-61.94727,-11.08286],[-61.94723,-11.08439],[-61.94724,-11.08458],[-61.94729,-11.08477],[-61.94738,-11.08494],[-61.94749,-11.08509],[-61.94763,-11.08522],[-61.94779,-11.08532],[-61.94797,-11.08538],[-61.94815,-11.08542],[-61.94834,-11.08541],[-61.94853,-11.08537],[-61.94984,-11.08497],[-61.95019,-11.08669],[-61.95025,-11.08687],[-61.95034,-11.08703],[-61.95045,-11.08718],[-61.95059,-11.0873],[-61.95076,-11.08739],[-61.95206,-11.08799],[-61.95222,-11.08805],[-61.9524,-11.08808],[-61.95449,-11.08825],[-61.9558,-11.08992],[-61.95592,-11.09005],[-61.95606,-11.09016],[-61.95622,-11.09024],[-61.95639,-11.09029],[-61.95811,-11.09064],[-61.95832,-11.09066],[-61.95853,-11.09063],[-61.95873,-11.09056],[-61.96246,-11.08883],[-61.96622,-11.0902],[-61.9664,-11.09025],[-61.96658,-11.09026],[-61.96943,-11.09022],[-61.97169,-11.09138],[-61.97187,-11.09146],[-61.97429,-11.09216],[-61.97446,-11.09219],[-61.97463,-11.09219],[-61.97554,-11.09213],[-61.97578,-11.0962],[-61.97491,-11.10113],[-61.97489,-11.1013],[-61.97491,-11.10147],[-61.97495,-11.10164],[-61.97502,-11.1018],[-61.97597,-11.10346],[-61.97608,-11.10361],[-61.97621,-11.10374],[-61.98137,-11.10789],[-61.9815,-11.10798],[-61.98164,-11.10804],[-61.98549,-11.10952],[-61.98824,-11.11314],[-61.98839,-11.1133],[-61.98858,-11.11343],[-61.99194,-11.11511],[-61.99348,-11.11633],[-61.99595,-11.12007],[-61.99609,-11.12023],[-61.99626,-11.12037],[-61.99954,-11.12239],[-61.99972,-11.12248],[-61.99991,-11.12253],[-62.00012,-11.12254],[-62.00284,-11.1224],[-62.00331,-11.12506],[-62.00337,-11.12526],[-62.00346,-11.12544],[-62.00359,-11.1256],[-62.00374,-11.12572],[-62.00451,-11.12623],[-62.00465,-11.12631],[-62.0048,-11.12636],[-62.0141,-11.12886],[-62.01647,-11.13339],[-62.01656,-11.13353],[-62.02044,-11.13868],[-62.02223,-11.14276],[-62.02234,-11.14294],[-62.02248,-11.1431],[-62.02266,-11.14323],[-62.02499,-11.14454],[-62.0236,-11.14652],[-62.02351,-11.14668],[-62.02345,-11.14686],[-62.02342,-11.14705],[-62.02343,-11.14723],[-62.02347,-11.14742],[-62.02506,-11.15208],[-62.0224,-11.15918],[-62.02235,-11.15937],[-62.02234,-11.15956],[-62.02236,-11.15974],[-62.02241,-11.15992],[-62.02416,-11.16405],[-62.02277,-11.16626],[-62.02268,-11.16644],[-62.02263,-11.16663],[-62.02211,-11.16978],[-62.01949,-11.17351],[-62.0194,-11.17368],[-62.01933,-11.17388],[-62.01931,-11.17408],[-62.01933,-11.17428],[-62.02005,-11.17783],[-62.02015,-11.1781],[-62.02232,-11.18214],[-62.02239,-11.18225],[-62.02507,-11.18598],[-62.02506,-11.18644],[-62.02507,-11.18661],[-62.02511,-11.18677],[-62.02518,-11.18693],[-62.02851,-11.19318],[-62.02821,-11.19548],[-62.02627,-11.20067],[-62.02622,-11.20092],[-62.02586,-11.2043],[-62.02586,-11.20449],[-62.02589,-11.20468],[-62.02596,-11.20485],[-62.02781,-11.20854],[-62.0279,-11.20868],[-62.02801,-11.20881],[-62.02814,-11.20892],[-62.03303,-11.21227],[-62.03322,-11.21238],[-62.03783,-11.21425],[-62.03801,-11.21431],[-62.03819,-11.21433],[-62.03837,-11.21431],[-62.03854,-11.21427],[-62.04068,-11.21351],[-62.04085,-11.21344],[-62.041,-11.21333],[-62.04113,-11.2132],[-62.0425,-11.21151],[-62.0426,-11.21136],[-62.04267,-11.2112],[-62.04272,-11.21102],[-62.04272,-11.21084],[-62.04222,-11.19885],[-62.04587,-11.19506],[-62.04599,-11.1949],[-62.04608,-11.19472],[-62.04613,-11.19453],[-62.04816,-11.18222],[-62.04818,-11.18205],[-62.04816,-11.18189],[-62.04812,-11.18173],[-62.04764,-11.18036],[-62.04758,-11.18021],[-62.04749,-11.18008],[-62.04575,-11.1778],[-62.04571,-11.17606],[-62.0516,-11.16641],[-62.05168,-11.16624],[-62.05173,-11.16606],[-62.05175,-11.16587],[-62.05173,-11.16568],[-62.05167,-11.1655],[-62.05056,-11.16285],[-62.05046,-11.16266],[-62.05031,-11.16249],[-62.04807,-11.16046],[-62.04706,-11.15837],[-62.04669,-11.15534],[-62.04664,-11.15514],[-62.04655,-11.15494],[-62.04456,-11.15167],[-62.04531,-11.14964],[-62.04826,-11.14675],[-62.04839,-11.14659],[-62.04849,-11.1464],[-62.04855,-11.1462],[-62.04856,-11.14599],[-62.04853,-11.14579],[-62.04723,-11.14065],[-62.04719,-11.14054],[-62.04439,-11.1332],[-62.04429,-11.13301],[-62.04415,-11.13284],[-62.04398,-11.1327],[-62.04293,-11.13207],[-62.04304,-11.13166],[-62.04438,-11.1306],[-62.04921,-11.12931],[-62.0494,-11.12923],[-62.04957,-11.12912],[-62.04972,-11.12898],[-62.04984,-11.1288],[-62.05188,-11.12491],[-62.05406,-11.12316],[-62.05686,-11.1217],[-62.05703,-11.12159],[-62.05718,-11.12144],[-62.05729,-11.12127],[-62.05824,-11.1194],[-62.0583,-11.11923],[-62.05834,-11.11905],[-62.05834,-11.11886],[-62.05812,-11.11641],[-62.05806,-11.11615],[-62.05626,-11.1113],[-62.05624,-11.1086],[-62.05706,-11.10678],[-62.0589,-11.10577],[-62.06177,-11.10525],[-62.06195,-11.1052],[-62.06212,-11.10511],[-62.06227,-11.10499],[-62.0624,-11.10485],[-62.0625,-11.10469],[-62.06325,-11.10308],[-62.06331,-11.10292],[-62.06334,-11.10275],[-62.06334,-11.10257],[-62.06331,-11.1024],[-62.06233,-11.09874],[-62.0622,-11.09725],[-62.06438,-11.09722],[-62.06455,-11.0972],[-62.06471,-11.09716],[-62.066,-11.0967],[-62.06717,-11.09628],[-62.06736,-11.09619],[-62.06752,-11.09607],[-62.06765,-11.09592],[-62.06775,-11.09574],[-62.06782,-11.09555],[-62.06784,-11.09535],[-62.06789,-11.09085],[-62.06915,-11.08951],[-62.07347,-11.08774],[-62.07366,-11.08764],[-62.07382,-11.0875],[-62.07395,-11.08733],[-62.07404,-11.08714],[-62.07452,-11.08573],[-62.07796,-11.08205],[-62.07808,-11.08189],[-62.07958,-11.07949],[-62.07965,-11.07935],[-62.0797,-11.0792],[-62.08038,-11.07648],[-62.08041,-11.07628],[-62.0804,-11.07607],[-62.08034,-11.07587],[-62.08013,-11.07532],[-62.07743,-11.06841],[-62.08129,-11.06598],[-62.08143,-11.06587],[-62.08155,-11.06573],[-62.08818,-11.05691],[-62.08825,-11.05682],[-62.09192,-11.05053],[-62.09695,-11.0457],[-62.09709,-11.04553],[-62.09719,-11.04534],[-62.09725,-11.04513],[-62.09772,-11.04201],[-62.09772,-11.04175],[-62.09714,-11.03674],[-62.09806,-11.0341],[-62.09811,-11.03394],[-62.09874,-11.03019],[-62.09876,-11.03001],[-62.09874,-11.02982],[-62.09868,-11.02964],[-62.09745,-11.02669],[-62.09737,-11.02654],[-62.09727,-11.0264],[-62.09714,-11.02628],[-62.09699,-11.02619],[-62.09175,-11.02344],[-62.09149,-11.02335],[-62.09132,-11.02331],[-62.09132,-11.02329],[-62.09125,-11.02114],[-62.09124,-11.021],[-62.09113,-11.02038],[-62.09107,-11.02017],[-62.09092,-11.01981],[-62.09088,-11.01973],[-62.09054,-11.01909],[-62.09039,-11.01878],[-62.09043,-11.01862],[-62.09067,-11.01837],[-62.09222,-11.0174],[-62.09235,-11.01731],[-62.09245,-11.0172],[-62.09321,-11.01632],[-62.09331,-11.01617],[-62.0938,-11.01532],[-62.0939,-11.01506],[-62.09436,-11.01321],[-62.09437,-11.01314],[-62.09454,-11.01213],[-62.09456,-11.01196],[-62.09456,-11.01114],[-62.09454,-11.01094],[-62.09448,-11.01076],[-62.09439,-11.01058],[-62.09404,-11.01008],[-62.09391,-11.00991],[-62.09374,-11.00978],[-62.09355,-11.00969],[-62.09334,-11.00965],[-62.09285,-11.00958],[-62.09278,-11.00958],[-62.09212,-11.00953],[-62.09196,-11.00954],[-62.09181,-11.00956],[-62.09087,-11.0098],[-62.09128,-11.00902],[-62.09182,-11.00872],[-62.09288,-11.0083],[-62.09303,-11.00823],[-62.09403,-11.00762],[-62.09417,-11.00752],[-62.09428,-11.0074],[-62.09475,-11.00684],[-62.09503,-11.00656],[-62.09508,-11.00654],[-62.09523,-11.00652],[-62.09742,-11.00652],[-62.09748,-11.00652],[-62.09863,-11.00645],[-62.0989,-11.0064],[-62.09959,-11.00617],[-62.09983,-11.00605],[-62.10051,-11.00559],[-62.10063,-11.00549],[-62.10211,-11.00413],[-62.1022,-11.00403],[-62.10366,-11.00226],[-62.10374,-11.00215],[-62.1045,-11.00092],[-62.10458,-11.00075],[-62.1046,-11.00069],[-62.10461,-11.00073],[-62.1047,-11.00106],[-62.10477,-11.00177],[-62.10481,-11.00194],[-62.105,-11.00261],[-62.10508,-11.0028],[-62.10585,-11.00428],[-62.10602,-11.00451],[-62.10649,-11.00499],[-62.10667,-11.00514],[-62.10689,-11.00524],[-62.10764,-11.0055],[-62.10783,-11.00554],[-62.10803,-11.00555],[-62.10863,-11.00551],[-62.10879,-11.00548],[-62.10895,-11.00543],[-62.10959,-11.00515],[-62.10971,-11.0051],[-62.11046,-11.00465],[-62.11061,-11.00455],[-62.11074,-11.00441],[-62.11104,-11.00403],[-62.11113,-11.0039],[-62.11138,-11.00343],[-62.11141,-11.00339],[-62.11215,-11.00189],[-62.11236,-11.00163],[-62.11371,-11.00082],[-62.11402,-11.00071],[-62.1142,-11.00072],[-62.11453,-11.00085],[-62.11488,-11.00108],[-62.116,-11.00228],[-62.11612,-11.00239],[-62.11672,-11.00286],[-62.11693,-11.00298],[-62.11779,-11.00336],[-62.11781,-11.00337],[-62.11807,-11.00347],[-62.11819,-11.00358],[-62.11832,-11.00377],[-62.11917,-11.0057],[-62.11923,-11.00591],[-62.11923,-11.00624],[-62.11907,-11.00687],[-62.11904,-11.00712],[-62.11904,-11.00765],[-62.11904,-11.00773],[-62.11912,-11.00866],[-62.11902,-11.01008],[-62.11902,-11.01025],[-62.11905,-11.01041],[-62.11918,-11.01089],[-62.11923,-11.01105],[-62.11931,-11.01119],[-62.11952,-11.01151],[-62.11962,-11.01178],[-62.12019,-11.01381],[-62.12021,-11.01388],[-62.1204,-11.01442],[-62.12048,-11.01459],[-62.12058,-11.01473],[-62.1217,-11.01606],[-62.12181,-11.01618],[-62.12194,-11.01627],[-62.12209,-11.01635],[-62.12278,-11.01662],[-62.12295,-11.01667],[-62.12312,-11.01669],[-62.12389,-11.01671],[-62.12407,-11.0167],[-62.12423,-11.01666],[-62.125,-11.01641],[-62.12516,-11.01634],[-62.12531,-11.01625],[-62.12543,-11.01613],[-62.1262,-11.01529],[-62.1263,-11.01562],[-62.12649,-11.01659],[-62.12653,-11.01707],[-62.12659,-11.01801],[-62.12662,-11.01817],[-62.12666,-11.01832],[-62.12685,-11.0188],[-62.127,-11.01905],[-62.12749,-11.01968],[-62.1276,-11.0198],[-62.12773,-11.0199],[-62.12787,-11.01998],[-62.12935,-11.02063],[-62.12937,-11.02064],[-62.1298,-11.02082],[-62.12989,-11.02092],[-62.13067,-11.02205],[-62.13101,-11.02317],[-62.13108,-11.02334],[-62.13136,-11.02387],[-62.1315,-11.02407],[-62.13215,-11.02479],[-62.13227,-11.0249],[-62.13241,-11.02499],[-62.13318,-11.02542],[-62.13344,-11.02551],[-62.13453,-11.02577],[-62.13457,-11.02577],[-62.13588,-11.02603],[-62.13598,-11.02604],[-62.13699,-11.02612],[-62.13727,-11.02611],[-62.13756,-11.02605],[-62.13824,-11.02596],[-62.13864,-11.02596],[-62.13893,-11.02603],[-62.14122,-11.02794],[-62.14124,-11.02795],[-62.14199,-11.02855],[-62.14246,-11.02901],[-62.14303,-11.03001],[-62.14304,-11.03003],[-62.14352,-11.03082],[-62.14359,-11.03093],[-62.14371,-11.03109],[-62.14386,-11.03123],[-62.14404,-11.03133],[-62.14423,-11.03139],[-62.14444,-11.03141],[-62.14464,-11.0314],[-62.14483,-11.03134],[-62.15539,-11.02692],[-62.15556,-11.02683],[-62.15572,-11.02669],[-62.15585,-11.02653],[-62.15594,-11.02635],[-62.15882,-11.01865],[-62.16455,-11.01483],[-62.1647,-11.01471],[-62.16483,-11.01456],[-62.16492,-11.01439],[-62.16498,-11.01421],[-62.165,-11.01401],[-62.16498,-11.01382],[-62.16298,-11.00282],[-62.16294,-11.00267],[-62.15094,-10.96867],[-62.15093,-10.96864],[-62.13793,-10.93464],[-62.13793,-10.93462],[-62.12493,-10.90262],[-62.12489,-10.90255],[-62.12291,-10.89859],[-62.12285,-10.89844],[-61.96289,-10.89844],[-61.91895,-10.89844],[-61.875,-10.89844],[-61.875,-10.98726],[-61.88876,-10.98736]]],[[[-62.03434,-10.68064],[-62.01993,-10.64562],[-61.96093,-10.49763],[-61.96083,-10.49744],[-61.96069,-10.49727],[-61.96051,-10.49714],[-61.96032,-10.49705],[-61.93642,-10.48909],[-61.927,-10.48343],[-61.927,-10.476],[-61.92698,-10.4758],[-61.92692,-10.47562],[-61.92683,-10.47544],[-61.92671,-10.47529],[-61.91687,-10.46546],[-61.91307,-10.45405],[-61.91691,-10.44541],[-61.91697,-10.44524],[-61.917,-10.44507],[-61.917,-10.4449],[-61.915,-10.4249],[-61.91495,-10.4247],[-61.91487,-10.42452],[-61.91476,-10.42435],[-61.90897,-10.4176],[-61.908,-10.40492],[-61.90796,-10.40473],[-61.90789,-10.40454],[-61.90778,-10.40437],[-61.90763,-10.40423],[-61.90747,-10.40412],[-61.90728,-10.40404],[-61.90708,-10.404],[-61.90688,-10.40401],[-61.90668,-10.40405],[-61.90558,-10.40442],[-61.90895,-10.39432],[-61.90899,-10.39413],[-61.909,-10.39393],[-61.90897,-10.39374],[-61.9089,-10.39356],[-61.9088,-10.39339],[-61.90866,-10.39325],[-61.89991,-10.38548],[-61.89906,-10.38121],[-61.90683,-10.36955],[-61.90693,-10.36936],[-61.90699,-10.36915],[-61.907,-10.36893],[-61.90502,-10.33926],[-61.90985,-10.33153],[-61.90993,-10.33136],[-61.90998,-10.33118],[-61.91,-10.33099],[-61.90998,-10.3308],[-61.90992,-10.33061],[-61.90983,-10.33045],[-61.90971,-10.3303],[-61.90957,-10.33018],[-61.89357,-10.31918],[-61.8934,-10.31909],[-61.89323,-10.31903],[-61.89304,-10.319],[-61.89286,-10.31901],[-61.88619,-10.31996],[-61.875,-10.31383],[-61.875,-10.72266],[-62.05165,-10.72266],[-62.03434,-10.68064]]],[[[-61.87647,-10.1979],[-61.89027,-10.19396],[-61.8905,-10.19387],[-61.89069,-10.19372],[-61.91369,-10.17172],[-61.91386,-10.17151],[-61.91545,-10.16887],[-61.91686,-10.16651],[-61.91694,-10.16634],[-61.91699,-10.16615],[-61.917,-10.16595],[-61.91697,-10.16576],[-61.91691,-10.16558],[-61.91004,-10.15086],[-61.91299,-10.13316],[-61.913,-10.13301],[-61.91299,-10.13285],[-61.91066,-10.11701],[-61.91094,-10.11628],[-61.91121,-10.11575],[-61.91172,-10.11533],[-61.91173,-10.11532],[-61.9125,-10.11467],[-61.91256,-10.11462],[-61.91408,-10.1131],[-61.91426,-10.11287],[-61.91455,-10.11232],[-61.9149,-10.11191],[-61.91495,-10.11185],[-61.91551,-10.11106],[-61.91562,-10.11087],[-61.91572,-10.11062],[-61.91577,-10.11048],[-61.91605,-10.1093],[-61.91606,-10.10926],[-61.91654,-10.10692],[-61.91654,-10.10688],[-61.91669,-10.10592],[-61.91688,-10.10527],[-61.91761,-10.10348],[-61.91799,-10.10275],[-61.91805,-10.10261],[-61.91809,-10.10245],[-61.91817,-10.10197],[-61.91845,-10.10139],[-61.91896,-10.10092],[-61.91997,-10.10035],[-61.92011,-10.10025],[-61.92023,-10.10013],[-61.92155,-10.09863],[-61.92165,-10.09849],[-61.92172,-10.09834],[-61.922,-10.09765],[-61.92265,-10.09635],[-61.92397,-10.09542],[-61.92661,-10.09435],[-61.9267,-10.0943],[-61.92731,-10.09398],[-61.92744,-10.0939],[-61.92756,-10.09379],[-61.92777,-10.09358],[-61.92791,-10.0934],[-61.92832,-10.09272],[-61.92839,-10.09259],[-61.92844,-10.09244],[-61.9286,-10.09179],[-61.92903,-10.09061],[-61.92955,-10.08967],[-61.93015,-10.08886],[-61.93107,-10.08823],[-61.93372,-10.08684],[-61.9338,-10.0868],[-61.93566,-10.0856],[-61.93571,-10.08557],[-61.9378,-10.08405],[-61.93787,-10.08399],[-61.93949,-10.0826],[-61.94187,-10.08095],[-61.9429,-10.08072],[-61.94442,-10.08056],[-61.94446,-10.08055],[-61.94695,-10.0802],[-61.9486,-10.08008],[-61.94868,-10.08007],[-61.9497,-10.07991],[-61.94983,-10.07988],[-61.95028,-10.07975],[-61.95042,-10.07969],[-61.95056,-10.07961],[-61.95071,-10.07951],[-61.95119,-10.07929],[-61.95192,-10.07905],[-61.95207,-10.07905],[-61.95263,-10.07919],[-61.95335,-10.0797],[-61.95377,-10.08005],[-61.95392,-10.08016],[-61.95457,-10.08052],[-61.95472,-10.08059],[-61.95488,-10.08063],[-61.95524,-10.0807],[-61.95542,-10.08071],[-61.95748,-10.08071],[-61.95943,-10.081],[-61.95951,-10.08101],[-61.96129,-10.08113],[-61.96139,-10.08113],[-61.96285,-10.08108],[-61.96303,-10.08106],[-61.96335,-10.08099],[-61.96358,-10.08091],[-61.96525,-10.08008],[-61.96534,-10.08003],[-61.96728,-10.0788],[-61.96748,-10.07864],[-61.96779,-10.07831],[-61.96786,-10.07821],[-61.96844,-10.07742],[-61.96847,-10.07737],[-61.96905,-10.07648],[-61.96952,-10.07606],[-61.96962,-10.07596],[-61.96979,-10.07575],[-61.96994,-10.07551],[-61.97007,-10.07523],[-61.97013,-10.07505],[-61.97036,-10.07407],[-61.97065,-10.07324],[-61.97096,-10.07288],[-61.97165,-10.07222],[-61.97179,-10.07205],[-61.97224,-10.07137],[-61.97233,-10.07122],[-61.97238,-10.07106],[-61.97246,-10.07073],[-61.97249,-10.0706],[-61.97257,-10.06985],[-61.97258,-10.06969],[-61.97246,-10.06735],[-61.97241,-10.06707],[-61.97133,-10.064],[-61.97084,-10.06248],[-61.97064,-10.0617],[-61.97054,-10.06094],[-61.97068,-10.05926],[-61.97069,-10.05919],[-61.9707,-10.05819],[-61.9707,-10.05814],[-61.97066,-10.05713],[-61.97062,-10.05689],[-61.97054,-10.0567],[-61.97061,-10.05255],[-61.97076,-10.05022],[-61.97082,-10.04984],[-61.97084,-10.04981],[-61.97139,-10.04916],[-61.97209,-10.04862],[-61.97219,-10.04853],[-61.97383,-10.04684],[-61.97385,-10.04682],[-61.97679,-10.04363],[-61.97725,-10.04319],[-61.97736,-10.04308],[-61.97793,-10.04233],[-61.97803,-10.04218],[-61.9781,-10.04202],[-61.97841,-10.04103],[-61.97845,-10.04082],[-61.97872,-10.03803],[-61.97883,-10.03767],[-61.97886,-10.03755],[-61.97892,-10.0372],[-61.97932,-10.03641],[-61.97934,-10.03634],[-61.98001,-10.03473],[-61.98015,-10.03451],[-61.98155,-10.03323],[-61.98262,-10.03249],[-61.98268,-10.03245],[-61.9845,-10.03101],[-61.98459,-10.03093],[-61.98746,-10.02801],[-61.98949,-10.02653],[-61.99091,-10.02556],[-61.99104,-10.02544],[-61.99116,-10.02531],[-61.99156,-10.02474],[-61.99281,-10.02363],[-61.993,-10.0234],[-61.99404,-10.0217],[-61.99415,-10.02146],[-61.99423,-10.02118],[-61.99426,-10.02108],[-61.99443,-10.02018],[-61.99444,-10.02011],[-61.99478,-10.01696],[-61.99479,-10.01686],[-61.99481,-10.01514],[-61.99481,-10.01504],[-61.99479,-10.01484],[-61.99473,-10.01457],[-61.99461,-10.01428],[-61.99457,-10.01406],[-61.99458,-10.01343],[-61.99458,-10.01332],[-61.9945,-10.01253],[-61.99443,-10.01227],[-61.99347,-10.0098],[-61.9934,-10.00964],[-61.99319,-10.0093],[-61.99306,-10.00913],[-61.99291,-10.009],[-61.99206,-10.0084],[-61.99187,-10.0083],[-61.99058,-10.00777],[-61.99042,-10.00772],[-61.99025,-10.0077],[-61.98825,-10.0076],[-61.98635,-10.0074],[-61.98409,-10.00704],[-61.98243,-10.00647],[-61.98158,-10.00602],[-61.98034,-10.00488],[-61.98028,-10.00483],[-61.97892,-10.00376],[-61.97878,-10.00367],[-61.97863,-10.0036],[-61.97757,-10.00323],[-61.97672,-10.00282],[-61.97649,-10.00261],[-61.97603,-10.00186],[-61.97586,-10.00121],[-61.97562,-9.99973],[-61.97556,-9.99952],[-61.97546,-9.99933],[-61.97533,-9.99917],[-61.97275,-9.99666],[-61.9726,-9.99654],[-61.96949,-9.99449],[-61.96692,-9.99224],[-61.9666,-9.99173],[-61.96587,-9.99001],[-61.96583,-9.98992],[-61.96487,-9.98815],[-61.9645,-9.98731],[-61.96425,-9.98606],[-61.96423,-9.986],[-61.96084,-9.97321],[-61.95976,-9.96887],[-61.95974,-9.96881],[-61.95709,-9.9604],[-61.95647,-9.95797],[-61.95595,-9.95358],[-61.95596,-9.95216],[-61.95606,-9.95083],[-61.95624,-9.94974],[-61.95626,-9.94955],[-61.95623,-9.94935],[-61.95617,-9.94917],[-61.95607,-9.949],[-61.95595,-9.94885],[-61.95579,-9.94873],[-61.95562,-9.94864],[-61.95543,-9.94859],[-61.95524,-9.94858],[-61.95504,-9.9486],[-61.95486,-9.94866],[-61.95469,-9.94875],[-61.95454,-9.94888],[-61.94994,-9.95362],[-61.94266,-9.94725],[-61.94252,-9.94714],[-61.94236,-9.94707],[-61.9422,-9.94702],[-61.9372,-9.94602],[-61.93701,-9.946],[-61.93683,-9.94601],[-61.93665,-9.94606],[-61.93649,-9.94614],[-61.93634,-9.94625],[-61.93621,-9.94638],[-61.93611,-9.94654],[-61.92418,-9.96942],[-61.91027,-9.98432],[-61.91011,-9.98455],[-61.90876,-9.98725],[-61.89974,-9.97733],[-61.89959,-9.97719],[-61.89942,-9.97709],[-61.89922,-9.97703],[-61.89902,-9.977],[-61.89882,-9.97702],[-61.89863,-9.97707],[-61.875,-9.98652],[-61.875,-10.19911],[-61.87647,-10.1979]]],[[[-61.87794,-9.90735],[-61.87799,-9.90716],[-61.878,-9.90697],[-61.87797,-9.90677],[-61.87791,-9.90659],[-61.87782,-9.90642],[-61.875,-9.90245],[-61.875,-9.91524],[-61.87794,-9.90735]]]]},"properties":{"ghs":"6w5","size":4.76,"ghs_len":3,"ghs_area":1170.35,"ghs_bytes":1841867,"ghs_items":10995,"size_unit":"km2","ghsval_unit":"bytes","ghs_itemsdensity":9.39,"size_unitdensity":0}},{"type":"Feature","geometry":{"type":"Polygon","coordinates":[[[-62.11093,-10.86863],[-62.11092,-10.86862],[-62.09593,-10.83262],[-62.08193,-10.79763],[-62.08192,-10.79761],[-62.07292,-10.77662],[-62.06693,-10.76163],[-62.05493,-10.73064],[-62.05492,-10.73062],[-62.05165,-10.72266],[-61.875,-10.72266],[-61.875,-10.85449],[-61.91895,-10.85449],[-61.96289,-10.85449],[-61.96289,-10.89844],[-62.12285,-10.89844],[-62.11093,-10.86863]]]},"properties":{"ghs":"6w5f","size":6.2,"ghs_len":4,"ghs_area":404.25,"ghs_bytes":2291181,"ghs_items":13435,"size_unit":"km2","ghsval_unit":"bytes","ghs_itemsdensity":33.23,"size_unitdensity":0.02}},{"type":"Feature","geometry":{"type":"Polygon","coordinates":[[[-61.96289,-10.85449],[-61.91895,-10.85449],[-61.91895,-10.89844],[-61.96289,-10.89844],[-61.96289,-10.85449]]]},"properties":{"ghs":"6w5fn","size":9.14,"ghs_len":5,"ghs_area":23.36,"ghs_bytes":2900309,"ghs_items":16504,"size_unit":"km2","ghsval_unit":"bytes","ghs_itemsdensity":706.65,"size_unitdensity":0.39}},{"type":"Feature","geometry":{"type":"Polygon","coordinates":[[[-61.91895,-10.85449],[-61.875,-10.85449],[-61.875,-10.89844],[-61.91895,-10.89844],[-61.91895,-10.85449]]]},"properties":{"ghs":"6w5fp","size":5.64,"ghs_len":5,"ghs_area":23.36,"ghs_bytes":2012628,"ghs_items":11971,"size_unit":"km2","ghsval_unit":"bytes","ghs_itemsdensity":512.56,"size_unitdensity":0.24}}]}
