{"type":"FeatureCollection","features":[{"type":"Feature","geometry":{"type":"Polygon","coordinates":[[[-52.79909,-26.17031],[-52.79999,-26.16312],[-52.8,-26.16293],[-52.79997,-26.16275],[-52.7999,-26.16257],[-52.7998,-26.1624],[-52.79968,-26.16226],[-52.79952,-26.16215],[-52.79935,-26.16206],[-52.79917,-26.16201],[-52.79898,-26.162],[-52.79879,-26.16202],[-52.79861,-26.16208],[-52.79844,-26.16217],[-52.79829,-26.16229],[-52.7948,-26.16578],[-52.78953,-26.16315],[-52.7816,-26.1572],[-52.78143,-26.1571],[-52.78124,-26.15703],[-52.77557,-26.15561],[-52.76924,-26.15403],[-52.76906,-26.154],[-52.76888,-26.15401],[-52.76628,-26.15431],[-52.75367,-26.1558],[-52.75215,-26.15598],[-52.72003,-26.14235],[-52.7202,-26.13893],[-52.72098,-26.12343],[-52.72565,-26.11876],[-52.73639,-26.11095],[-52.74314,-26.10999],[-52.74333,-26.10994],[-52.7435,-26.10987],[-52.74366,-26.10975],[-52.74379,-26.10961],[-52.74389,-26.10945],[-52.74396,-26.10927],[-52.744,-26.10909],[-52.74399,-26.1089],[-52.74199,-26.0899],[-52.74195,-26.0897],[-52.74187,-26.08952],[-52.74176,-26.08935],[-52.74162,-26.08921],[-52.74145,-26.08911],[-52.73783,-26.0873],[-52.73306,-26.07203],[-52.73569,-26.065],[-52.739,-26.065],[-52.7392,-26.06498],[-52.7394,-26.06492],[-52.73957,-26.06482],[-52.73973,-26.06469],[-52.73985,-26.06453],[-52.73994,-26.06434],[-52.73999,-26.06415],[-52.74,-26.06394],[-52.73997,-26.06374],[-52.73989,-26.06355],[-52.73862,-26.061],[-52.745,-26.061],[-52.7452,-26.06098],[-52.74538,-26.06092],[-52.74556,-26.06083],[-52.74571,-26.06071],[-52.74583,-26.06056],[-52.74592,-26.06038],[-52.74598,-26.0602],[-52.746,-26.06],[-52.746,-26.05433],[-52.7518,-26.0466],[-52.75192,-26.04639],[-52.75199,-26.04616],[-52.75299,-26.04016],[-52.753,-26.03997],[-52.75297,-26.03977],[-52.75291,-26.03958],[-52.75281,-26.03941],[-52.75268,-26.03927],[-52.75252,-26.03915],[-52.75234,-26.03906],[-52.75215,-26.03901],[-52.75195,-26.039],[-52.75176,-26.03903],[-52.75126,-26.03915],[-52.75171,-26.03871],[-52.75184,-26.03854],[-52.75193,-26.03836],[-52.75199,-26.03815],[-52.752,-26.03794],[-52.75196,-26.03774],[-52.74596,-26.01574],[-52.74589,-26.01555],[-52.74578,-26.01538],[-52.74564,-26.01523],[-52.74547,-26.01512],[-52.73523,-26.00959],[-52.73505,-26.00952],[-52.73486,-26.00948],[-52.73467,-26.00948],[-52.73448,-26.00951],[-52.7343,-26.00959],[-52.73413,-26.00969],[-52.73399,-26.00983],[-52.73388,-26.00999],[-52.73381,-26.01016],[-52.73285,-26.01311],[-52.73151,-26.01494],[-52.72766,-26.01777],[-52.7257,-26.01899],[-52.72386,-26.01989],[-52.72255,-26.02014],[-52.72124,-26.02009],[-52.71783,-26.01873],[-52.71574,-26.01755],[-52.71537,-26.0171],[-52.7148,-26.01571],[-52.71439,-26.01259],[-52.71461,-26.0089],[-52.71461,-26.00874],[-52.71448,-26.00735],[-52.71444,-26.00716],[-52.71437,-26.00699],[-52.71385,-26.00598],[-52.71376,-26.00584],[-52.71365,-26.00572],[-52.71286,-26.00495],[-52.7127,-26.00483],[-52.71252,-26.00474],[-52.71161,-26.0044],[-52.71147,-26.00435],[-52.71131,-26.00433],[-52.70973,-26.00425],[-52.70957,-26.00425],[-52.7069,-26.00454],[-52.70559,-26.00454],[-52.70547,-26.0045],[-52.70542,-26.00341],[-52.7056,-26.00245],[-52.70594,-26.0014],[-52.70661,-26.00027],[-52.70744,-25.99926],[-52.70759,-25.99901],[-52.70825,-25.99747],[-52.7083,-25.99732],[-52.70832,-25.99717],[-52.70836,-25.99676],[-52.70836,-25.99657],[-52.70832,-25.99622],[-52.70828,-25.99603],[-52.70821,-25.99585],[-52.7081,-25.99569],[-52.70796,-25.99555],[-52.70756,-25.99523],[-52.7074,-25.99512],[-52.70722,-25.99504],[-52.70703,-25.995],[-52.70645,-25.99494],[-52.7064,-25.99494],[-52.70523,-25.99488],[-52.70506,-25.99489],[-52.7049,-25.99492],[-52.7003,-25.99628],[-52.70016,-25.99633],[-52.70003,-25.99641],[-52.69717,-25.99833],[-52.69708,-25.9984],[-52.6961,-25.99924],[-52.69595,-25.99941],[-52.69338,-26.00291],[-52.69329,-26.00306],[-52.69253,-26.00457],[-52.69245,-26.00479],[-52.69212,-26.0062],[-52.69145,-26.00806],[-52.69106,-26.00853],[-52.69011,-26.00901],[-52.68883,-26.00922],[-52.68723,-26.00891],[-52.68561,-26.00774],[-52.6821,-26.00267],[-52.68191,-26.00247],[-52.6781,-25.99937],[-52.6765,-25.99763],[-52.67643,-25.99756],[-52.67581,-25.997],[-52.67568,-25.9969],[-52.67553,-25.99682],[-52.67538,-25.99677],[-52.67447,-25.99655],[-52.67426,-25.99652],[-52.67406,-25.99653],[-52.67386,-25.99659],[-52.67279,-25.99702],[-52.67264,-25.9971],[-52.6725,-25.9972],[-52.67238,-25.99732],[-52.67155,-25.99835],[-52.67143,-25.99853],[-52.67061,-26.00016],[-52.67057,-26.00025],[-52.66967,-26.00261],[-52.66961,-26.00284],[-52.66939,-26.00453],[-52.6644,-26.00981],[-52.66431,-26.00992],[-52.6623,-26.01279],[-52.66221,-26.01295],[-52.66215,-26.01311],[-52.66188,-26.01411],[-52.66185,-26.01432],[-52.66187,-26.01453],[-52.66203,-26.0155],[-52.66208,-26.01569],[-52.66218,-26.01588],[-52.66231,-26.01604],[-52.66312,-26.01685],[-52.66328,-26.01698],[-52.66347,-26.01708],[-52.66501,-26.01766],[-52.66526,-26.01772],[-52.66621,-26.01783],[-52.66641,-26.01783],[-52.66928,-26.01756],[-52.67174,-26.01764],[-52.67264,-26.01804],[-52.67285,-26.01822],[-52.67285,-26.01864],[-52.67259,-26.01932],[-52.67185,-26.01988],[-52.67,-26.02089],[-52.66978,-26.02106],[-52.66877,-26.02207],[-52.66867,-26.02219],[-52.66786,-26.02332],[-52.66775,-26.0235],[-52.66769,-26.0237],[-52.66767,-26.0239],[-52.66767,-26.02524],[-52.66769,-26.02544],[-52.66797,-26.0268],[-52.66803,-26.027],[-52.66899,-26.02922],[-52.66909,-26.03015],[-52.66886,-26.03076],[-52.66825,-26.03151],[-52.66702,-26.03231],[-52.66615,-26.03287],[-52.66566,-26.03319],[-52.66484,-26.03372],[-52.66451,-26.03393],[-52.6599,-26.03551],[-52.65803,-26.03593],[-52.65433,-26.03602],[-52.65278,-26.03553],[-52.6513,-26.03488],[-52.64992,-26.03398],[-52.64982,-26.03392],[-52.645,-26.03156],[-52.64481,-26.03149],[-52.63895,-26.03],[-52.63456,-26.02737],[-52.63439,-26.02729],[-52.63421,-26.02724],[-52.63321,-26.02708],[-52.63304,-26.02706],[-52.63287,-26.02708],[-52.6327,-26.02712],[-52.62889,-26.0285],[-52.6287,-26.02859],[-52.62853,-26.02873],[-52.62839,-26.02889],[-52.62797,-26.02955],[-52.62789,-26.0297],[-52.62784,-26.02986],[-52.62781,-26.03002],[-52.62769,-26.03176],[-52.62772,-26.03205],[-52.62805,-26.03353],[-52.62814,-26.03378],[-52.62923,-26.03585],[-52.62933,-26.036],[-52.62945,-26.03614],[-52.63,-26.03662],[-52.63106,-26.03754],[-52.63112,-26.03758],[-52.6337,-26.03953],[-52.63389,-26.03964],[-52.63411,-26.03974],[-52.63754,-26.04129],[-52.63889,-26.04248],[-52.64151,-26.04492],[-52.64162,-26.04501],[-52.64175,-26.04508],[-52.64422,-26.04628],[-52.64773,-26.04924],[-52.64885,-26.05043],[-52.6492,-26.05174],[-52.64894,-26.05251],[-52.64811,-26.05354],[-52.64678,-26.05419],[-52.64208,-26.05434],[-52.63798,-26.05373],[-52.63772,-26.05373],[-52.63624,-26.05389],[-52.63605,-26.05393],[-52.63456,-26.0544],[-52.6344,-26.05447],[-52.63425,-26.05456],[-52.63266,-26.05579],[-52.63252,-26.05592],[-52.63241,-26.05608],[-52.63136,-26.0579],[-52.63134,-26.05795],[-52.63007,-26.06045],[-52.62667,-26.06263],[-52.62504,-26.06302],[-52.62224,-26.06286],[-52.6202,-26.0622],[-52.61746,-26.05809],[-52.61717,-26.05677],[-52.61712,-26.05659],[-52.61703,-26.05643],[-52.61617,-26.05511],[-52.61604,-26.05495],[-52.61587,-26.05482],[-52.61569,-26.05472],[-52.61548,-26.05467],[-52.6144,-26.05451],[-52.61412,-26.05451],[-52.6124,-26.05475],[-52.61225,-26.05479],[-52.61211,-26.05484],[-52.6105,-26.05562],[-52.61034,-26.05572],[-52.6102,-26.05584],[-52.60955,-26.05655],[-52.60943,-26.05671],[-52.60934,-26.05689],[-52.60873,-26.05862],[-52.60675,-26.06038],[-52.60485,-26.06075],[-52.59996,-26.05968],[-52.59971,-26.05966],[-52.59831,-26.05971],[-52.59811,-26.05974],[-52.59791,-26.05981],[-52.59774,-26.05992],[-52.59651,-26.06087],[-52.59632,-26.06105],[-52.59325,-26.06501],[-52.59078,-26.06704],[-52.58685,-26.06886],[-52.5867,-26.06895],[-52.58656,-26.06906],[-52.58645,-26.0692],[-52.58636,-26.06935],[-52.58564,-26.07092],[-52.58558,-26.07109],[-52.58555,-26.07126],[-52.58556,-26.07144],[-52.58577,-26.07354],[-52.5858,-26.0737],[-52.58586,-26.07385],[-52.58687,-26.07608],[-52.58696,-26.07624],[-52.58708,-26.07638],[-52.58722,-26.07649],[-52.58818,-26.07714],[-52.58831,-26.07722],[-52.58846,-26.07727],[-52.5894,-26.07755],[-52.58956,-26.07758],[-52.59074,-26.07771],[-52.59101,-26.0777],[-52.59558,-26.07696],[-52.59748,-26.07681],[-52.59756,-26.0768],[-52.59934,-26.07652],[-52.6003,-26.07652],[-52.60122,-26.07678],[-52.60726,-26.07971],[-52.60743,-26.07977],[-52.60878,-26.08015],[-52.60906,-26.08018],[-52.61379,-26.0801],[-52.614,-26.08007],[-52.6142,-26.08],[-52.61529,-26.07948],[-52.61546,-26.07938],[-52.61561,-26.07924],[-52.61604,-26.07876],[-52.61774,-26.07853],[-52.61865,-26.0785],[-52.61949,-26.07862],[-52.62133,-26.07941],[-52.62291,-26.08078],[-52.62474,-26.08352],[-52.62484,-26.08364],[-52.62594,-26.08483],[-52.62716,-26.08686],[-52.6273,-26.08705],[-52.62749,-26.0872],[-52.63012,-26.08883],[-52.63152,-26.08996],[-52.6318,-26.09041],[-52.63183,-26.09069],[-52.63174,-26.09074],[-52.63134,-26.09082],[-52.63007,-26.09077],[-52.62752,-26.09019],[-52.62384,-26.08875],[-52.6237,-26.08871],[-52.62054,-26.08799],[-52.61747,-26.08729],[-52.61728,-26.08727],[-52.61709,-26.08728],[-52.61242,-26.08803],[-52.61176,-26.08813],[-52.6108,-26.08795],[-52.60355,-26.08657],[-52.60133,-26.08585],[-52.60118,-26.08582],[-52.59799,-26.08532],[-52.59781,-26.0853],[-52.59764,-26.08532],[-52.59747,-26.08538],[-52.59579,-26.08604],[-52.5957,-26.08609],[-52.59506,-26.08642],[-52.5949,-26.08653],[-52.59476,-26.08666],[-52.59465,-26.08682],[-52.59458,-26.087],[-52.59453,-26.08719],[-52.59446,-26.0878],[-52.59446,-26.08801],[-52.5945,-26.08822],[-52.5949,-26.08949],[-52.59498,-26.08967],[-52.59565,-26.0909],[-52.59581,-26.09111],[-52.59909,-26.09452],[-52.5996,-26.09795],[-52.59967,-26.0982],[-52.60177,-26.10318],[-52.60191,-26.10341],[-52.60506,-26.10741],[-52.60586,-26.10896],[-52.6058,-26.10969],[-52.60512,-26.11053],[-52.60381,-26.111],[-52.60026,-26.11111],[-52.59789,-26.11031],[-52.59763,-26.11026],[-52.59618,-26.11017],[-52.59592,-26.11019],[-52.59403,-26.11057],[-52.59383,-26.11063],[-52.59366,-26.11072],[-52.5935,-26.11085],[-52.58822,-26.11635],[-52.58695,-26.1169],[-52.5863,-26.11699],[-52.582,-26.11345],[-52.58045,-26.11158],[-52.58029,-26.11142],[-52.5801,-26.11131],[-52.57944,-26.111],[-52.57927,-26.11094],[-52.5786,-26.11076],[-52.57843,-26.11073],[-52.57827,-26.11073],[-52.5781,-26.11076],[-52.5772,-26.11099],[-52.57709,-26.11103],[-52.57619,-26.11137],[-52.57594,-26.11151],[-52.57579,-26.11162],[-52.57485,-26.11233],[-52.57478,-26.11239],[-52.57337,-26.11368],[-52.57322,-26.11384],[-52.57312,-26.11403],[-52.57306,-26.11423],[-52.57199,-26.11967],[-52.56935,-26.12609],[-52.56129,-26.13065],[-52.56119,-26.13071],[-52.56033,-26.13134],[-52.56016,-26.13149],[-52.55951,-26.13224],[-52.55939,-26.13241],[-52.55738,-26.13599],[-52.55731,-26.13616],[-52.55726,-26.13635],[-52.55726,-26.13654],[-52.55734,-26.13777],[-52.55737,-26.13798],[-52.55746,-26.13818],[-52.55797,-26.13912],[-52.55811,-26.13932],[-52.55935,-26.14066],[-52.55949,-26.14078],[-52.55965,-26.14088],[-52.56256,-26.14228],[-52.56278,-26.14236],[-52.56513,-26.14286],[-52.56633,-26.14338],[-52.56726,-26.14406],[-52.57249,-26.15013],[-52.57266,-26.15029],[-52.57285,-26.1504],[-52.57459,-26.15116],[-52.57493,-26.15143],[-52.57478,-26.15246],[-52.57445,-26.15279],[-52.57396,-26.15296],[-52.57307,-26.15272],[-52.56841,-26.15044],[-52.56829,-26.15039],[-52.56226,-26.14835],[-52.5621,-26.14831],[-52.56193,-26.14829],[-52.55925,-26.14831],[-52.55902,-26.14834],[-52.5588,-26.14842],[-52.5576,-26.14903],[-52.55738,-26.14918],[-52.55512,-26.15123],[-52.5513,-26.15199],[-52.55113,-26.15204],[-52.54718,-26.15359],[-52.54363,-26.15327],[-52.54338,-26.15328],[-52.54189,-26.15351],[-52.54168,-26.15357],[-52.54061,-26.15399],[-52.54043,-26.15408],[-52.54027,-26.15421],[-52.54015,-26.15436],[-52.54005,-26.15454],[-52.53999,-26.15473],[-52.53998,-26.15493],[-52.54,-26.15701],[-52.54002,-26.15719],[-52.54007,-26.15737],[-52.54016,-26.15753],[-52.54027,-26.15768],[-52.54215,-26.15971],[-52.54228,-26.15983],[-52.54244,-26.15992],[-52.54381,-26.16061],[-52.54406,-26.1607],[-52.54559,-26.16101],[-52.54561,-26.16101],[-52.55025,-26.16189],[-52.55064,-26.16212],[-52.55067,-26.16247],[-52.55013,-26.16351],[-52.54985,-26.16396],[-52.5459,-26.16529],[-52.54324,-26.16559],[-52.54304,-26.16564],[-52.54139,-26.16618],[-52.54129,-26.16622],[-52.53996,-26.16681],[-52.53737,-26.16754],[-52.53719,-26.16761],[-52.53703,-26.16771],[-52.5369,-26.16783],[-52.53679,-26.16798],[-52.5367,-26.16815],[-52.53665,-26.16833],[-52.53664,-26.16852],[-52.53666,-26.1687],[-52.53673,-26.16907],[-52.53621,-26.17007],[-52.53577,-26.17031],[-52.5356,-26.17042],[-52.53546,-26.17056],[-52.53535,-26.17073],[-52.53528,-26.17092],[-52.53524,-26.17111],[-52.53525,-26.17131],[-52.53529,-26.17151],[-52.5355,-26.17213],[-52.53558,-26.17231],[-52.5357,-26.17247],[-52.53584,-26.17261],[-52.53601,-26.17271],[-52.5362,-26.17278],[-52.5364,-26.17281],[-52.53833,-26.17291],[-52.53836,-26.17291],[-52.53856,-26.17291],[-52.54009,-26.17293],[-52.54029,-26.17291],[-52.5426,-26.17247],[-52.54333,-26.17246],[-52.54265,-26.17455],[-52.5421,-26.17594],[-52.54204,-26.17615],[-52.54203,-26.17637],[-52.54207,-26.17658],[-52.54215,-26.17679],[-52.54264,-26.17768],[-52.54254,-26.17884],[-52.54255,-26.17903],[-52.54258,-26.17921],[-52.54265,-26.17939],[-52.54276,-26.17954],[-52.54289,-26.17968],[-52.54304,-26.17979],[-52.54321,-26.17987],[-52.54339,-26.17991],[-52.54358,-26.17992],[-52.54376,-26.1799],[-52.5445,-26.17973],[-52.54513,-26.18009],[-52.54576,-26.18202],[-52.54614,-26.18315],[-52.54634,-26.18454],[-52.54638,-26.18473],[-52.54646,-26.1849],[-52.54648,-26.18493],[-52.5446,-26.18781],[-52.54394,-26.18824],[-52.54378,-26.18836],[-52.54365,-26.18852],[-52.54356,-26.1887],[-52.54309,-26.18984],[-52.54303,-26.19003],[-52.54302,-26.19023],[-52.54304,-26.19042],[-52.5431,-26.19061],[-52.5432,-26.19079],[-52.54332,-26.19094],[-52.54348,-26.19106],[-52.54656,-26.19301],[-52.54676,-26.19323],[-52.54611,-26.19338],[-52.54241,-26.19353],[-52.54223,-26.19355],[-52.54207,-26.1936],[-52.54036,-26.1943],[-52.5402,-26.19438],[-52.54006,-26.19449],[-52.53994,-26.19462],[-52.53906,-26.19579],[-52.5381,-26.19612],[-52.5379,-26.19621],[-52.53773,-26.19635],[-52.53759,-26.19653],[-52.53704,-26.19738],[-52.53638,-26.19783],[-52.53623,-26.19796],[-52.5361,-26.19811],[-52.53601,-26.19828],[-52.53596,-26.19847],[-52.53594,-26.19866],[-52.53594,-26.20027],[-52.53596,-26.20045],[-52.53601,-26.20063],[-52.5361,-26.2008],[-52.53621,-26.20095],[-52.53635,-26.20107],[-52.53828,-26.20249],[-52.53844,-26.20259],[-52.53862,-26.20266],[-52.54072,-26.20319],[-52.54092,-26.20322],[-52.54113,-26.20321],[-52.54388,-26.20277],[-52.54702,-26.20294],[-52.55094,-26.20484],[-52.55338,-26.2062],[-52.55372,-26.20658],[-52.55386,-26.20671],[-52.55402,-26.20681],[-52.5542,-26.20688],[-52.55439,-26.20691],[-52.55458,-26.20691],[-52.55476,-26.20687],[-52.55494,-26.2068],[-52.5551,-26.20669],[-52.55523,-26.20656],[-52.55565,-26.20606],[-52.55575,-26.20591],[-52.55583,-26.20574],[-52.55587,-26.20556],[-52.55588,-26.20537],[-52.55585,-26.20519],[-52.55575,-26.20478],[-52.55581,-26.20477],[-52.55635,-26.20523],[-52.55655,-26.20536],[-52.55677,-26.20544],[-52.55944,-26.20606],[-52.55944,-26.20621],[-52.55762,-26.20758],[-52.55694,-26.20765],[-52.55672,-26.2077],[-52.55652,-26.2078],[-52.55635,-26.20793],[-52.55503,-26.20923],[-52.55019,-26.20855],[-52.55011,-26.20854],[-52.5489,-26.20847],[-52.54874,-26.20848],[-52.548,-26.20856],[-52.54705,-26.2082],[-52.54687,-26.20815],[-52.54667,-26.20814],[-52.54648,-26.20814],[-52.54609,-26.20666],[-52.54603,-26.20647],[-52.54592,-26.2063],[-52.54579,-26.20616],[-52.54563,-26.20604],[-52.54545,-26.20596],[-52.54472,-26.20571],[-52.54453,-26.20566],[-52.54433,-26.20565],[-52.54414,-26.20569],[-52.54301,-26.20599],[-52.54286,-26.20604],[-52.54182,-26.2065],[-52.54068,-26.20669],[-52.54061,-26.2067],[-52.53927,-26.20703],[-52.5391,-26.20708],[-52.53894,-26.20717],[-52.5388,-26.20728],[-52.53828,-26.20778],[-52.53814,-26.20795],[-52.53804,-26.20815],[-52.53798,-26.20836],[-52.53785,-26.20926],[-52.53784,-26.20942],[-52.53786,-26.20958],[-52.53801,-26.21044],[-52.53807,-26.21063],[-52.53816,-26.21081],[-52.53828,-26.21096],[-52.53883,-26.21153],[-52.53931,-26.21221],[-52.53942,-26.21234],[-52.53955,-26.21245],[-52.53969,-26.21254],[-52.54052,-26.21293],[-52.54095,-26.21324],[-52.54105,-26.21394],[-52.5392,-26.21479],[-52.53849,-26.21487],[-52.53823,-26.21494],[-52.53728,-26.21533],[-52.53715,-26.2154],[-52.53702,-26.21549],[-52.53682,-26.21566],[-52.53669,-26.21579],[-52.53659,-26.21593],[-52.53652,-26.21609],[-52.53647,-26.21626],[-52.53632,-26.21717],[-52.53631,-26.21732],[-52.53631,-26.21747],[-52.53642,-26.21828],[-52.53643,-26.21845],[-52.53604,-26.21894],[-52.53593,-26.21912],[-52.53586,-26.21931],[-52.53583,-26.21951],[-52.53579,-26.22033],[-52.5358,-26.22051],[-52.53585,-26.2207],[-52.53592,-26.22087],[-52.53633,-26.22159],[-52.53642,-26.22172],[-52.53652,-26.22183],[-52.53795,-26.22317],[-52.53798,-26.22332],[-52.53794,-26.22404],[-52.53795,-26.22425],[-52.538,-26.22446],[-52.53836,-26.22538],[-52.53838,-26.22557],[-52.53747,-26.22505],[-52.53728,-26.22497],[-52.53708,-26.22492],[-52.53687,-26.22492],[-52.53667,-26.22496],[-52.53648,-26.22505],[-52.53607,-26.22528],[-52.53593,-26.22537],[-52.53581,-26.22549],[-52.53571,-26.22563],[-52.53549,-26.22599],[-52.53508,-26.22614],[-52.53491,-26.22623],[-52.53475,-26.22635],[-52.53462,-26.22649],[-52.53453,-26.22666],[-52.53446,-26.22684],[-52.53444,-26.22704],[-52.53445,-26.22723],[-52.53449,-26.22742],[-52.5345,-26.22743],[-52.53446,-26.22745],[-52.53432,-26.22755],[-52.53431,-26.22755],[-52.5343,-26.22755],[-52.5331,-26.22725],[-52.5329,-26.22722],[-52.53269,-26.22723],[-52.5325,-26.22729],[-52.53187,-26.22753],[-52.53169,-26.22762],[-52.53153,-26.22775],[-52.53081,-26.22845],[-52.53076,-26.22851],[-52.53022,-26.22913],[-52.53016,-26.2292],[-52.52936,-26.23032],[-52.52931,-26.2304],[-52.52902,-26.23091],[-52.52894,-26.23107],[-52.5289,-26.23125],[-52.52889,-26.23143],[-52.52891,-26.23161],[-52.52896,-26.23178],[-52.52905,-26.23195],[-52.52939,-26.23248],[-52.5295,-26.23261],[-52.5307,-26.23391],[-52.53082,-26.23402],[-52.53095,-26.23411],[-52.53114,-26.23422],[-52.53121,-26.2346],[-52.53123,-26.23515],[-52.53126,-26.23534],[-52.53132,-26.23553],[-52.53142,-26.23569],[-52.53173,-26.23612],[-52.53188,-26.23628],[-52.53222,-26.23659],[-52.53237,-26.2367],[-52.53253,-26.23678],[-52.53271,-26.23682],[-52.53289,-26.23684],[-52.53399,-26.23684],[-52.53481,-26.23716],[-52.53577,-26.2376],[-52.53584,-26.23778],[-52.53585,-26.23779],[-52.53599,-26.23809],[-52.53608,-26.23826],[-52.5362,-26.2384],[-52.53635,-26.23852],[-52.53651,-26.2386],[-52.53669,-26.23866],[-52.53688,-26.23868],[-52.53706,-26.23867],[-52.53724,-26.23862],[-52.53741,-26.23854],[-52.53799,-26.23819],[-52.53813,-26.23809],[-52.53825,-26.23797],[-52.53855,-26.2376],[-52.53865,-26.23766],[-52.53882,-26.23773],[-52.53921,-26.23787],[-52.53909,-26.23795],[-52.53852,-26.23825],[-52.53835,-26.23835],[-52.53821,-26.23849],[-52.5381,-26.23866],[-52.53802,-26.23884],[-52.53789,-26.23925],[-52.53785,-26.23946],[-52.53786,-26.23968],[-52.53791,-26.2399],[-52.5381,-26.24039],[-52.53793,-26.2405],[-52.53715,-26.24074],[-52.53698,-26.24082],[-52.53682,-26.24092],[-52.53668,-26.24106],[-52.53638,-26.24142],[-52.53628,-26.24157],[-52.5362,-26.24175],[-52.53616,-26.24194],[-52.53615,-26.24213],[-52.53619,-26.24232],[-52.53625,-26.2425],[-52.53652,-26.24303],[-52.53662,-26.24321],[-52.53677,-26.24335],[-52.53693,-26.24347],[-52.53793,-26.24402],[-52.53808,-26.24408],[-52.53933,-26.24452],[-52.53967,-26.24498],[-52.53981,-26.24513],[-52.53998,-26.24525],[-52.54017,-26.24534],[-52.54037,-26.24538],[-52.54213,-26.24555],[-52.54232,-26.24555],[-52.54251,-26.24551],[-52.54268,-26.24544],[-52.54284,-26.24534],[-52.54298,-26.24521],[-52.54328,-26.24487],[-52.54387,-26.24513],[-52.54571,-26.24637],[-52.54586,-26.24645],[-52.54603,-26.24651],[-52.54676,-26.24669],[-52.5469,-26.24682],[-52.54707,-26.24723],[-52.54716,-26.24739],[-52.54727,-26.24753],[-52.54741,-26.24765],[-52.54756,-26.24774],[-52.54773,-26.2478],[-52.54862,-26.24804],[-52.54985,-26.24868],[-52.54999,-26.24874],[-52.55013,-26.24878],[-52.55037,-26.24882],[-52.54963,-26.24887],[-52.54944,-26.2489],[-52.54832,-26.24921],[-52.54817,-26.24926],[-52.54803,-26.24933],[-52.54522,-26.25115],[-52.54505,-26.25129],[-52.54491,-26.25146],[-52.54482,-26.25166],[-52.54477,-26.25187],[-52.54456,-26.25369],[-52.54441,-26.25359],[-52.54423,-26.25351],[-52.54403,-26.25347],[-52.54382,-26.25347],[-52.54363,-26.25351],[-52.54344,-26.25359],[-52.54105,-26.25492],[-52.54063,-26.2551],[-52.54046,-26.2552],[-52.54031,-26.25532],[-52.54019,-26.25547],[-52.5401,-26.25564],[-52.54005,-26.25583],[-52.54003,-26.25602],[-52.54005,-26.25621],[-52.54011,-26.2564],[-52.54032,-26.25693],[-52.54041,-26.25709],[-52.54052,-26.25723],[-52.54056,-26.25727],[-52.54034,-26.25739],[-52.54019,-26.25749],[-52.54006,-26.25761],[-52.53996,-26.25776],[-52.53988,-26.25792],[-52.53983,-26.25809],[-52.53975,-26.25854],[-52.53973,-26.25871],[-52.53975,-26.25888],[-52.53979,-26.25905],[-52.53986,-26.25921],[-52.54008,-26.25959],[-52.54022,-26.25978],[-52.54039,-26.25992],[-52.54059,-26.26003],[-52.54126,-26.26029],[-52.54222,-26.26066],[-52.5429,-26.26101],[-52.54307,-26.26107],[-52.54325,-26.26111],[-52.54666,-26.26147],[-52.54685,-26.26148],[-52.54704,-26.26144],[-52.5482,-26.26112],[-52.54844,-26.26102],[-52.54876,-26.26083],[-52.54879,-26.26103],[-52.54867,-26.26162],[-52.54865,-26.26186],[-52.54869,-26.2621],[-52.54887,-26.26268],[-52.54894,-26.26287],[-52.54906,-26.26304],[-52.5492,-26.26318],[-52.54937,-26.26329],[-52.54956,-26.26339],[-52.54977,-26.26347],[-52.54996,-26.26351],[-52.55014,-26.26354],[-52.55028,-26.26355],[-52.55046,-26.26355],[-52.55058,-26.26354],[-52.5507,-26.26366],[-52.55133,-26.26503],[-52.55155,-26.26631],[-52.55152,-26.26931],[-52.55152,-26.26939],[-52.55155,-26.26998],[-52.55158,-26.27016],[-52.55164,-26.27033],[-52.55173,-26.27049],[-52.55185,-26.27063],[-52.55199,-26.27074],[-52.55214,-26.27083],[-52.55272,-26.27109],[-52.55292,-26.27116],[-52.55313,-26.27118],[-52.55333,-26.27116],[-52.55353,-26.2711],[-52.55398,-26.2709],[-52.5546,-26.27066],[-52.55552,-26.27058],[-52.55571,-26.27055],[-52.55589,-26.27048],[-52.55605,-26.27037],[-52.55619,-26.27024],[-52.5578,-26.26839],[-52.55885,-26.26798],[-52.56053,-26.26791],[-52.56129,-26.26827],[-52.56258,-26.26918],[-52.56274,-26.26927],[-52.5629,-26.26933],[-52.56308,-26.26936],[-52.56407,-26.26944],[-52.56422,-26.26944],[-52.56436,-26.26942],[-52.56557,-26.26915],[-52.56651,-26.26908],[-52.56657,-26.26907],[-52.56776,-26.2689],[-52.56893,-26.26901],[-52.56934,-26.26946],[-52.56952,-26.26961],[-52.56941,-26.26978],[-52.56934,-26.26997],[-52.56931,-26.27017],[-52.5693,-26.27036],[-52.56902,-26.27055],[-52.56888,-26.27066],[-52.56877,-26.27079],[-52.56868,-26.27094],[-52.56823,-26.27186],[-52.56815,-26.27206],[-52.56812,-26.27228],[-52.56814,-26.2725],[-52.56836,-26.27358],[-52.56784,-26.27506],[-52.5671,-26.2758],[-52.56653,-26.27594],[-52.56535,-26.27581],[-52.56512,-26.27581],[-52.56393,-26.27596],[-52.56369,-26.27602],[-52.56347,-26.27613],[-52.56272,-26.27666],[-52.56257,-26.27678],[-52.56245,-26.27694],[-52.56237,-26.27711],[-52.56209,-26.27779],[-52.56204,-26.27796],[-52.56202,-26.27813],[-52.56203,-26.27831],[-52.56207,-26.27848],[-52.56235,-26.27929],[-52.56244,-26.27949],[-52.56258,-26.27967],[-52.56373,-26.28086],[-52.56386,-26.28097],[-52.56401,-26.28106],[-52.56417,-26.28112],[-52.56529,-26.28144],[-52.56545,-26.28147],[-52.56562,-26.28148],[-52.56579,-26.28145],[-52.56841,-26.28083],[-52.5686,-26.28077],[-52.56955,-26.28034],[-52.57046,-26.28042],[-52.57169,-26.28081],[-52.57172,-26.28081],[-52.57253,-26.28104],[-52.57314,-26.28129],[-52.57328,-26.28159],[-52.57338,-26.28175],[-52.5735,-26.28189],[-52.57365,-26.28201],[-52.57382,-26.28209],[-52.57401,-26.28214],[-52.57514,-26.28235],[-52.57521,-26.28243],[-52.57484,-26.28289],[-52.57473,-26.28305],[-52.57466,-26.28324],[-52.57463,-26.28343],[-52.57463,-26.28363],[-52.57467,-26.28382],[-52.57475,-26.284],[-52.57486,-26.28416],[-52.57525,-26.28461],[-52.57542,-26.28477],[-52.57562,-26.28488],[-52.57584,-26.28495],[-52.57678,-26.28512],[-52.57702,-26.28513],[-52.57726,-26.28509],[-52.57774,-26.28493],[-52.57791,-26.28486],[-52.57805,-26.28477],[-52.57818,-26.28465],[-52.57829,-26.28451],[-52.57868,-26.28387],[-52.57943,-26.28324],[-52.58071,-26.28223],[-52.58087,-26.28207],[-52.58099,-26.28188],[-52.58107,-26.28167],[-52.58122,-26.281],[-52.58233,-26.28162],[-52.58283,-26.28212],[-52.58297,-26.28223],[-52.58313,-26.28232],[-52.5833,-26.28238],[-52.58349,-26.28241],[-52.58367,-26.2824],[-52.58385,-26.28236],[-52.58425,-26.28223],[-52.58442,-26.28216],[-52.58458,-26.28205],[-52.58471,-26.28191],[-52.58482,-26.28176],[-52.58489,-26.28158],[-52.58493,-26.2814],[-52.58493,-26.28121],[-52.58478,-26.27918],[-52.58495,-26.27792],[-52.58506,-26.27738],[-52.58531,-26.27672],[-52.58583,-26.27623],[-52.58584,-26.27623],[-52.58625,-26.27698],[-52.58673,-26.27821],[-52.58688,-26.27866],[-52.58697,-26.27885],[-52.58709,-26.27901],[-52.58725,-26.27915],[-52.58743,-26.27925],[-52.58901,-26.27994],[-52.58919,-26.28],[-52.58938,-26.28002],[-52.58956,-26.28001],[-52.58975,-26.27997],[-52.58992,-26.27989],[-52.58998,-26.27985],[-52.5895,-26.28039],[-52.58939,-26.28054],[-52.58931,-26.28071],[-52.58926,-26.2809],[-52.58913,-26.28169],[-52.58891,-26.28243],[-52.58852,-26.28305],[-52.58809,-26.28342],[-52.5846,-26.28404],[-52.58456,-26.28404],[-52.58327,-26.28432],[-52.58311,-26.28437],[-52.58295,-26.28445],[-52.58149,-26.28537],[-52.58133,-26.28549],[-52.581,-26.2858],[-52.58087,-26.28595],[-52.58077,-26.28612],[-52.58071,-26.28631],[-52.58069,-26.28651],[-52.58071,-26.28671],[-52.58076,-26.2869],[-52.58085,-26.28707],[-52.58098,-26.28723],[-52.58154,-26.2878],[-52.58175,-26.289],[-52.58179,-26.28918],[-52.58187,-26.28934],[-52.58198,-26.28949],[-52.58211,-26.28962],[-52.58227,-26.28972],[-52.58275,-26.28997],[-52.58296,-26.29005],[-52.58319,-26.29008],[-52.58483,-26.29013],[-52.58501,-26.29011],[-52.58518,-26.29007],[-52.58535,-26.29],[-52.58549,-26.28989],[-52.58622,-26.28929],[-52.58648,-26.2894],[-52.58698,-26.2903],[-52.58709,-26.29045],[-52.58722,-26.29058],[-52.58795,-26.29118],[-52.58811,-26.29128],[-52.58828,-26.29136],[-52.58847,-26.2914],[-52.58866,-26.2914],[-52.59082,-26.29122],[-52.59197,-26.29115],[-52.59153,-26.29169],[-52.59065,-26.29239],[-52.59062,-26.29242],[-52.58986,-26.29309],[-52.58975,-26.2932],[-52.58912,-26.29396],[-52.58901,-26.29413],[-52.58893,-26.29431],[-52.58852,-26.29561],[-52.58774,-26.29632],[-52.58654,-26.29695],[-52.58639,-26.29706],[-52.58625,-26.29719],[-52.58533,-26.29826],[-52.58521,-26.29844],[-52.58513,-26.29864],[-52.5851,-26.29885],[-52.58511,-26.29907],[-52.58516,-26.29927],[-52.58552,-26.30018],[-52.5856,-26.30035],[-52.58571,-26.3005],[-52.58585,-26.30063],[-52.58601,-26.30072],[-52.58833,-26.30184],[-52.58839,-26.30186],[-52.58995,-26.30248],[-52.5902,-26.30255],[-52.59072,-26.30261],[-52.59085,-26.30262],[-52.59153,-26.30262],[-52.59168,-26.30261],[-52.59183,-26.30257],[-52.59437,-26.3018],[-52.59452,-26.30183],[-52.59464,-26.30194],[-52.59483,-26.30204],[-52.59503,-26.3021],[-52.59524,-26.30212],[-52.59546,-26.30209],[-52.59678,-26.30177],[-52.597,-26.30168],[-52.59844,-26.30094],[-52.59853,-26.30089],[-52.59955,-26.30022],[-52.59969,-26.30011],[-52.59982,-26.29997],[-52.60035,-26.29923],[-52.60115,-26.29855],[-52.60194,-26.29801],[-52.60297,-26.2976],[-52.60476,-26.29696],[-52.60537,-26.29686],[-52.60528,-26.29704],[-52.60521,-26.29721],[-52.60518,-26.29739],[-52.60509,-26.29834],[-52.60509,-26.29852],[-52.60513,-26.29909],[-52.60517,-26.29928],[-52.60524,-26.29946],[-52.60534,-26.29962],[-52.60537,-26.29966],[-52.60526,-26.2998],[-52.60516,-26.29996],[-52.60509,-26.30013],[-52.60505,-26.30032],[-52.60505,-26.30051],[-52.60509,-26.3007],[-52.60516,-26.30087],[-52.60534,-26.30122],[-52.60545,-26.30138],[-52.60558,-26.30152],[-52.60573,-26.30163],[-52.60591,-26.30171],[-52.60609,-26.30175],[-52.60628,-26.30176],[-52.60647,-26.30173],[-52.60665,-26.30167],[-52.60681,-26.30157],[-52.6077,-26.30094],[-52.60797,-26.30134],[-52.60809,-26.30148],[-52.60823,-26.3016],[-52.60862,-26.30188],[-52.60878,-26.30197],[-52.60895,-26.30203],[-52.60913,-26.30206],[-52.60931,-26.30206],[-52.60949,-26.30202],[-52.60966,-26.30195],[-52.61043,-26.30155],[-52.61088,-26.30167],[-52.61106,-26.3017],[-52.61125,-26.30169],[-52.61144,-26.30165],[-52.61172,-26.30156],[-52.61242,-26.30155],[-52.61257,-26.30154],[-52.61272,-26.3015],[-52.61401,-26.30109],[-52.615,-26.3008],[-52.6159,-26.30069],[-52.61595,-26.30068],[-52.6168,-26.30054],[-52.61701,-26.30048],[-52.6172,-26.30037],[-52.61736,-26.30023],[-52.61767,-26.2999],[-52.61769,-26.29988],[-52.61775,-26.29981],[-52.61791,-26.29989],[-52.61795,-26.29991],[-52.61871,-26.30026],[-52.61891,-26.30033],[-52.61911,-26.30036],[-52.61931,-26.30034],[-52.6195,-26.30029],[-52.61968,-26.3002],[-52.61984,-26.30007],[-52.61997,-26.29991],[-52.62006,-26.29974],[-52.62012,-26.29954],[-52.62013,-26.29934],[-52.62011,-26.29914],[-52.61986,-26.29799],[-52.61979,-26.29758],[-52.62021,-26.29757],[-52.62097,-26.29791],[-52.62146,-26.29852],[-52.62158,-26.29864],[-52.62171,-26.29875],[-52.62186,-26.29882],[-52.62275,-26.2992],[-52.62277,-26.29922],[-52.62257,-26.29973],[-52.62251,-26.29995],[-52.6225,-26.30016],[-52.62254,-26.30038],[-52.62276,-26.30112],[-52.62284,-26.30131],[-52.62295,-26.30148],[-52.6231,-26.30162],[-52.62328,-26.30173],[-52.62347,-26.3018],[-52.62367,-26.30183],[-52.62388,-26.30182],[-52.62408,-26.30176],[-52.62462,-26.30156],[-52.6248,-26.30147],[-52.62496,-26.30134],[-52.62509,-26.30118],[-52.62519,-26.301],[-52.62525,-26.30084],[-52.62557,-26.30087],[-52.62638,-26.30112],[-52.62656,-26.30116],[-52.62674,-26.30116],[-52.62691,-26.30114],[-52.62708,-26.30108],[-52.62781,-26.30076],[-52.62791,-26.30082],[-52.62811,-26.30089],[-52.62831,-26.30091],[-52.62852,-26.30089],[-52.62872,-26.30083],[-52.6288,-26.30079],[-52.62881,-26.3008],[-52.62899,-26.30087],[-52.62917,-26.3009],[-52.62979,-26.30094],[-52.62998,-26.30094],[-52.63017,-26.3009],[-52.63021,-26.30088],[-52.6304,-26.30092],[-52.6306,-26.30092],[-52.6308,-26.30088],[-52.63098,-26.3008],[-52.63114,-26.30069],[-52.63128,-26.30055],[-52.6313,-26.30052],[-52.6313,-26.30052],[-52.63148,-26.30058],[-52.63166,-26.30062],[-52.63185,-26.30062],[-52.63203,-26.30059],[-52.63221,-26.30052],[-52.63253,-26.30036],[-52.6327,-26.30024],[-52.63285,-26.30009],[-52.6329,-26.30003],[-52.63344,-26.3002],[-52.63355,-26.30027],[-52.63366,-26.30045],[-52.63379,-26.30061],[-52.63395,-26.30074],[-52.63414,-26.30084],[-52.63432,-26.30091],[-52.6344,-26.30093],[-52.63445,-26.30104],[-52.63455,-26.30121],[-52.63468,-26.30136],[-52.63483,-26.30148],[-52.63501,-26.30157],[-52.6352,-26.30162],[-52.63553,-26.30167],[-52.63578,-26.30168],[-52.63631,-26.30163],[-52.6365,-26.30159],[-52.6365,-26.30159],[-52.63655,-26.30161],[-52.63674,-26.30165],[-52.63687,-26.30165],[-52.63687,-26.30173],[-52.63692,-26.30193],[-52.63699,-26.30209],[-52.63694,-26.30222],[-52.63691,-26.30241],[-52.63691,-26.3026],[-52.63696,-26.303],[-52.637,-26.30319],[-52.63708,-26.30337],[-52.63711,-26.30341],[-52.63705,-26.30357],[-52.63692,-26.30409],[-52.63689,-26.30431],[-52.6369,-26.30439],[-52.63683,-26.30443],[-52.63662,-26.30455],[-52.63638,-26.30473],[-52.63623,-26.30487],[-52.63612,-26.30504],[-52.63603,-26.30522],[-52.63599,-26.30542],[-52.63599,-26.30562],[-52.63603,-26.30602],[-52.63606,-26.30621],[-52.63617,-26.30659],[-52.63622,-26.30674],[-52.63625,-26.30678],[-52.63624,-26.30689],[-52.63626,-26.30707],[-52.63634,-26.3074],[-52.63639,-26.30758],[-52.63649,-26.30775],[-52.63661,-26.30789],[-52.63676,-26.30801],[-52.63693,-26.3081],[-52.63711,-26.30816],[-52.63745,-26.30823],[-52.63751,-26.3083],[-52.63767,-26.30845],[-52.63786,-26.30856],[-52.63822,-26.30871],[-52.6384,-26.30877],[-52.6386,-26.3088],[-52.63912,-26.3088],[-52.63922,-26.3088],[-52.63976,-26.30875],[-52.63995,-26.30871],[-52.64014,-26.30864],[-52.64047,-26.30846],[-52.64064,-26.30835],[-52.64078,-26.30821],[-52.64089,-26.30804],[-52.64095,-26.30789],[-52.641,-26.30787],[-52.64137,-26.30769],[-52.64152,-26.3076],[-52.64152,-26.3076],[-52.64171,-26.30762],[-52.6419,-26.3076],[-52.64208,-26.30755],[-52.64225,-26.30746],[-52.6424,-26.30734],[-52.64258,-26.30717],[-52.6426,-26.30716],[-52.6426,-26.30716],[-52.64279,-26.30727],[-52.643,-26.30734],[-52.64331,-26.3074],[-52.64348,-26.30742],[-52.64365,-26.3074],[-52.64401,-26.30735],[-52.64422,-26.30736],[-52.64441,-26.30736],[-52.6447,-26.30732],[-52.64491,-26.30727],[-52.6453,-26.30714],[-52.64547,-26.30705],[-52.646,-26.30674],[-52.64642,-26.30655],[-52.64657,-26.30646],[-52.64671,-26.30634],[-52.64682,-26.3062],[-52.64691,-26.30605],[-52.64745,-26.30484],[-52.64747,-26.30479],[-52.64774,-26.3041],[-52.64821,-26.30336],[-52.64878,-26.30254],[-52.64881,-26.30249],[-52.64901,-26.30217],[-52.64933,-26.30205],[-52.6495,-26.30203],[-52.64957,-26.30204],[-52.6496,-26.30205],[-52.64961,-26.3021],[-52.64965,-26.30221],[-52.64995,-26.30302],[-52.65003,-26.30319],[-52.65014,-26.30334],[-52.65028,-26.30347],[-52.65044,-26.30357],[-52.65094,-26.30381],[-52.65115,-26.30389],[-52.65137,-26.30391],[-52.65209,-26.30392],[-52.65233,-26.3039],[-52.65274,-26.3038],[-52.65291,-26.30374],[-52.65306,-26.30366],[-52.6532,-26.30355],[-52.65331,-26.30341],[-52.65345,-26.30323],[-52.65354,-26.30307],[-52.65361,-26.3029],[-52.65364,-26.30273],[-52.65364,-26.30255],[-52.6536,-26.30237],[-52.65359,-26.30233],[-52.65375,-26.30225],[-52.6539,-26.30213],[-52.65403,-26.30198],[-52.65412,-26.30181],[-52.65418,-26.30163],[-52.6542,-26.30149],[-52.65446,-26.30165],[-52.65466,-26.30175],[-52.65522,-26.30194],[-52.6554,-26.30199],[-52.6561,-26.30209],[-52.65629,-26.3021],[-52.6567,-26.30208],[-52.65717,-26.30222],[-52.65739,-26.30226],[-52.65761,-26.30225],[-52.65783,-26.30219],[-52.65811,-26.30209],[-52.65827,-26.302],[-52.65842,-26.3019],[-52.65854,-26.30176],[-52.65864,-26.30161],[-52.6587,-26.30144],[-52.65883,-26.30102],[-52.65891,-26.30081],[-52.65905,-26.3008],[-52.65912,-26.30079],[-52.65938,-26.30075],[-52.65957,-26.3007],[-52.65975,-26.30062],[-52.65981,-26.30066],[-52.65999,-26.30072],[-52.66017,-26.30076],[-52.66036,-26.30076],[-52.66054,-26.30072],[-52.66072,-26.30065],[-52.66087,-26.30055],[-52.66101,-26.30042],[-52.66274,-26.29842],[-52.66467,-26.2962],[-52.66522,-26.29556],[-52.66947,-26.29067],[-52.6752,-26.28406],[-52.67593,-26.28321],[-52.68067,-26.27776],[-52.68915,-26.27211],[-52.69234,-26.26997],[-52.70294,-26.26901],[-52.72978,-26.27498],[-52.72999,-26.275],[-52.73019,-26.27498],[-52.73039,-26.27492],[-52.73057,-26.27482],[-52.75057,-26.26082],[-52.7506,-26.2608],[-52.7546,-26.2578],[-52.75475,-26.25766],[-52.75487,-26.25749],[-52.75495,-26.2573],[-52.75499,-26.2571],[-52.75499,-26.25689],[-52.75495,-26.25669],[-52.75487,-26.2565],[-52.75133,-26.25031],[-52.75355,-26.24883],[-52.75887,-26.24529],[-52.76129,-26.24771],[-52.76145,-26.24784],[-52.76164,-26.24793],[-52.76184,-26.24799],[-52.76205,-26.248],[-52.76225,-26.24797],[-52.76245,-26.24789],[-52.76845,-26.24489],[-52.76861,-26.24479],[-52.76876,-26.24466],[-52.76887,-26.2445],[-52.76895,-26.24432],[-52.76899,-26.24413],[-52.769,-26.24393],[-52.76896,-26.24374],[-52.76889,-26.24355],[-52.76787,-26.2415],[-52.76976,-26.24197],[-52.76996,-26.242],[-52.77016,-26.24199],[-52.77035,-26.24194],[-52.77053,-26.24185],[-52.77069,-26.24172],[-52.77082,-26.24157],[-52.77092,-26.24139],[-52.77098,-26.2412],[-52.771,-26.241],[-52.771,-26.23682],[-52.7752,-26.23598],[-52.77539,-26.23592],[-52.77556,-26.23583],[-52.77572,-26.2357],[-52.77584,-26.23554],[-52.77593,-26.23536],[-52.77599,-26.23516],[-52.77652,-26.23193],[-52.77913,-26.2365],[-52.77924,-26.23665],[-52.77938,-26.23679],[-52.77954,-26.23689],[-52.77972,-26.23696],[-52.77991,-26.237],[-52.7801,-26.237],[-52.78029,-26.23696],[-52.78046,-26.23689],[-52.78062,-26.23678],[-52.78562,-26.23278],[-52.78577,-26.23264],[-52.78588,-26.23247],[-52.78596,-26.23228],[-52.786,-26.23208],[-52.78599,-26.23187],[-52.78594,-26.23167],[-52.78586,-26.23149],[-52.78402,-26.22842],[-52.7868,-26.22898],[-52.787,-26.229],[-52.78719,-26.22898],[-52.78738,-26.22892],[-52.78756,-26.22883],[-52.78771,-26.22871],[-52.78783,-26.22855],[-52.79154,-26.223],[-52.796,-26.223],[-52.7962,-26.22298],[-52.79638,-26.22292],[-52.79656,-26.22283],[-52.79671,-26.22271],[-52.79683,-26.22256],[-52.79692,-26.22238],[-52.79698,-26.2222],[-52.797,-26.222],[-52.797,-26.21822],[-52.8008,-26.21898],[-52.80101,-26.219],[-52.80121,-26.21898],[-52.8014,-26.21891],[-52.80158,-26.21881],[-52.80173,-26.21868],[-52.80186,-26.21852],[-52.80194,-26.21833],[-52.80199,-26.21813],[-52.802,-26.21793],[-52.80196,-26.21773],[-52.80189,-26.21754],[-52.80177,-26.21737],[-52.79277,-26.20637],[-52.79264,-26.20623],[-52.79249,-26.20613],[-52.79232,-26.20605],[-52.79214,-26.20601],[-52.79196,-26.206],[-52.79177,-26.20603],[-52.7916,-26.20608],[-52.79144,-26.20617],[-52.79129,-26.20629],[-52.7858,-26.21178],[-52.781,-26.20938],[-52.781,-26.20782],[-52.7852,-26.20698],[-52.78538,-26.20692],[-52.78556,-26.20683],[-52.78571,-26.20671],[-52.78583,-26.20656],[-52.78592,-26.20638],[-52.78598,-26.20619],[-52.786,-26.206],[-52.78598,-26.2058],[-52.78592,-26.20562],[-52.78583,-26.20544],[-52.78571,-26.20529],[-52.78261,-26.2022],[-52.78651,-26.19986],[-52.78668,-26.19973],[-52.78681,-26.19958],[-52.78692,-26.1994],[-52.78698,-26.1992],[-52.787,-26.199],[-52.787,-26.19459],[-52.79748,-26.18888],[-52.79764,-26.18877],[-52.79778,-26.18863],[-52.79789,-26.18846],[-52.79796,-26.18828],[-52.798,-26.18808],[-52.79799,-26.18788],[-52.79795,-26.18769],[-52.79787,-26.18751],[-52.79776,-26.18735],[-52.79761,-26.18721],[-52.79745,-26.18711],[-52.79184,-26.1843],[-52.79027,-26.1788],[-52.794,-26.17818],[-52.794,-26.182],[-52.79402,-26.18219],[-52.79407,-26.18238],[-52.79417,-26.18255],[-52.79429,-26.1827],[-52.79444,-26.18283],[-52.79461,-26.18292],[-52.80161,-26.18592],[-52.80178,-26.18598],[-52.80196,-26.186],[-52.80214,-26.18599],[-52.80232,-26.18595],[-52.80248,-26.18588],[-52.80263,-26.18577],[-52.81363,-26.17677],[-52.81377,-26.17664],[-52.81388,-26.17648],[-52.81395,-26.1763],[-52.81399,-26.17611],[-52.814,-26.17592],[-52.81396,-26.17572],[-52.81389,-26.17554],[-52.81379,-26.17538],[-52.81365,-26.17524],[-52.81349,-26.17513],[-52.81332,-26.17505],[-52.79909,-26.17031]],[[-52.59178,-26.2788],[-52.59213,-26.27885],[-52.59214,-26.27886],[-52.59211,-26.27886],[-52.59191,-26.27887],[-52.59171,-26.27892],[-52.59132,-26.27907],[-52.59178,-26.2788]]]},"properties":{"ghs":"6g6","size":38.43,"ghs_len":3,"ghs_area":555.63,"ghs_bytes":87690,"ghs_items":42,"size_unit":"km2","ghsval_unit":"bytes","ghs_itemsdensity":0.08,"size_unitdensity":0.07}}]}
