{"type": "FeatureCollection", "features": [
{"type": "Feature", "geometry": {"type": "Polygon", "coordinates": [[[-52.684514, -26.217958], [-52.685333, -26.218624], [-52.68583, -26.219036], [-52.685867, -26.219105], [-52.687734, -26.220569], [-52.68836, -26.221092], [-52.688889, -26.221575], [-52.689409, -26.221049], [-52.68968, -26.220726], [-52.691519, -26.217446], [-52.700326, -26.222942], [-52.701087, -26.221978], [-52.701586, -26.222102], [-52.702116, -26.222233], [-52.702767, -26.22238], [-52.703226, -26.222483], [-52.703449, -26.222536], [-52.703726, -26.222622], [-52.703944, -26.222703], [-52.704143, -26.222795], [-52.704376, -26.222946], [-52.704565, -26.223093], [-52.704593, -26.222931], [-52.704597, -26.222701], [-52.704564, -26.222444], [-52.704363, -26.222008], [-52.704121, -26.22153], [-52.70385, -26.220799], [-52.703823, -26.220614], [-52.693376, -26.213862], [-52.693367, -26.215782], [-52.693081, -26.215602], [-52.692812, -26.215431], [-52.692569, -26.215277], [-52.692316, -26.215114], [-52.691787, -26.214777], [-52.69145, -26.214571], [-52.691163, -26.214394], [-52.690953, -26.214265], [-52.690804, -26.214167], [-52.690477, -26.213942], [-52.690398, -26.213895], [-52.690301, -26.213843], [-52.689576, -26.213375], [-52.688096, -26.212442], [-52.688021, -26.212394], [-52.68761, -26.213016], [-52.687386, -26.213306], [-52.686141, -26.213272], [-52.686129, -26.214427], [-52.680839, -26.214585], [-52.680846, -26.214768], [-52.680858, -26.215038], [-52.680869, -26.215272], [-52.680877, -26.215489], [-52.680889, -26.215776], [-52.680899, -26.215978], [-52.680902, -26.216051], [-52.680907, -26.216134], [-52.68091, -26.21622], [-52.680921, -26.216349], [-52.680933, -26.216458], [-52.680939, -26.216503], [-52.680952, -26.216637], [-52.681075, -26.217195], [-52.681131, -26.217398], [-52.681246, -26.21777], [-52.681348, -26.218013], [-52.681497, -26.218273], [-52.681761, -26.21813], [-52.682602, -26.217571], [-52.683329, -26.217077], [-52.683393, -26.217032], [-52.684514, -26.217958]]]}, "properties": {"nsvia": "BAIRRO AEROPORTO"}},
{"type": "Feature", "geometry": {"type": "Polygon", "coordinates": [[[-52.708894, -26.236343], [-52.708725, -26.237246], [-52.710897, -26.237208], [-52.712581, -26.235927], [-52.714109, -26.235957], [-52.714222, -26.234304], [-52.71406, -26.234295], [-52.712578, -26.234266], [-52.711766, -26.234271], [-52.711446, -26.234398], [-52.711127, -26.234605], [-52.709897, -26.235222], [-52.709587, -26.235605], [-52.709283, -26.235902], [-52.708894, -26.236343]]]}, "properties": {"nsvia": "BAIRRO ALTO DA GLORIA"}},
{"type": "Feature", "geometry": {"type": "Polygon", "coordinates": [[[-52.67756, -26.267817], [-52.674193, -26.265941], [-52.674016, -26.266199], [-52.673782, -26.266381], [-52.673741, -26.266478], [-52.673708, -26.266614], [-52.673626, -26.266672], [-52.673487, -26.266711], [-52.673442, -26.266804], [-52.673457, -26.26694], [-52.673462, -26.26707], [-52.673358, -26.267288], [-52.673222, -26.267626], [-52.673171, -26.267752], [-52.673129, -26.267934], [-52.673152, -26.268147], [-52.673159, -26.268486], [-52.673112, -26.268635], [-52.673073, -26.268691], [-52.673026, -26.268791], [-52.673016, -26.268924], [-52.672978, -26.269003], [-52.672945, -26.269187], [-52.672898, -26.269251], [-52.672829, -26.269287], [-52.672778, -26.269342], [-52.672731, -26.269426], [-52.672698, -26.269557], [-52.672693, -26.270694], [-52.675008, -26.270736], [-52.67993, -26.270825], [-52.679858, -26.274094], [-52.679964, -26.275272], [-52.680076, -26.275331], [-52.680076, -26.275751], [-52.682242, -26.275645], [-52.682722, -26.275684], [-52.683093, -26.275613], [-52.686078, -26.272565], [-52.686172, -26.272393], [-52.686364, -26.272002], [-52.686426, -26.27187], [-52.686511, -26.269476], [-52.686502, -26.269482], [-52.685732, -26.270154], [-52.685542, -26.270702], [-52.685364, -26.270812], [-52.685173, -26.270866], [-52.685079, -26.27081], [-52.684649, -26.271143], [-52.684863, -26.270522], [-52.684895, -26.270092], [-52.684945, -26.269815], [-52.685489, -26.263312], [-52.685499, -26.262839], [-52.685497, -26.262703], [-52.685477, -26.26246], [-52.685469, -26.262413], [-52.685266, -26.261969], [-52.684697, -26.261963], [-52.683436, -26.261926], [-52.681161, -26.261861], [-52.679842, -26.26182], [-52.67841, -26.261781], [-52.67804, -26.26177], [-52.677891, -26.261766], [-52.67778, -26.261763], [-52.677495, -26.261755], [-52.677113, -26.261744], [-52.676955, -26.261739], [-52.676469, -26.261725], [-52.676405, -26.261721], [-52.676363, -26.261652], [-52.676267, -26.261649], [-52.676177, -26.261641], [-52.675946, -26.261627], [-52.675664, -26.26161], [-52.675509, -26.261601], [-52.675303, -26.261589], [-52.675144, -26.26158], [-52.67491, -26.261573], [-52.674322, -26.261563], [-52.674758, -26.261948], [-52.674743, -26.262177], [-52.674879, -26.262461], [-52.674827, -26.262549], [-52.675237, -26.262998], [-52.675377, -26.263175], [-52.675804, -26.263841], [-52.676345, -26.264372], [-52.67646, -26.264409], [-52.676784, -26.264583], [-52.676828, -26.264649], [-52.677168, -26.265153], [-52.677283, -26.265483], [-52.677452, -26.265755], [-52.677501, -26.266642], [-52.677607, -26.266861], [-52.67756, -26.267817]]]}, "properties": {"nsvia": "BAIRRO ALVORADA"}},
{"type": "Feature", "geometry": {"type": "Polygon", "coordinates": [[[-52.67852, -26.235397], [-52.681264, -26.236702], [-52.681766, -26.235872], [-52.682232, -26.235087], [-52.682639, -26.234412], [-52.68302, -26.233771], [-52.683116, -26.233597], [-52.68336, -26.233192], [-52.68346, -26.233016], [-52.683557, -26.232833], [-52.683719, -26.232536], [-52.683773, -26.232462], [-52.683687, -26.232414], [-52.683084, -26.232117], [-52.682538, -26.231846], [-52.681851, -26.231516], [-52.681053, -26.231145], [-52.680889, -26.231423], [-52.68065, -26.23183], [-52.68062, -26.23188], [-52.680176, -26.232635], [-52.679885, -26.233118], [-52.679566, -26.233638], [-52.679169, -26.234323], [-52.678894, -26.234768], [-52.67852, -26.235397]]]}, "properties": {"nsvia": "BAIRRO AMADORI"}},
{"type": "Feature", "geometry": {"type": "Polygon", "coordinates": [[[-52.685437, -26.226029], [-52.685595, -26.226387], [-52.685809, -26.226868], [-52.685878, -26.227023], [-52.686002, -26.227304], [-52.686136, -26.227596], [-52.686408, -26.227474], [-52.687089, -26.227145], [-52.687671, -26.22686], [-52.687764, -26.226824], [-52.688302, -26.226557], [-52.688984, -26.226234], [-52.688843, -26.225921], [-52.688697, -26.225604], [-52.688559, -26.225338], [-52.688353, -26.224995], [-52.688281, -26.22487], [-52.688213, -26.224763], [-52.688048, -26.224503], [-52.687675, -26.22399], [-52.687437, -26.223708], [-52.687068, -26.223307], [-52.686757, -26.222998], [-52.68646, -26.222747], [-52.686084, -26.222443], [-52.685769, -26.222193], [-52.685408, -26.221918], [-52.685174, -26.221739], [-52.685004, -26.221606], [-52.684661, -26.221944], [-52.684103, -26.222382], [-52.684249, -26.222738], [-52.684232, -26.22277], [-52.683955, -26.223064], [-52.683416, -26.223612], [-52.683391, -26.223648], [-52.682994, -26.224067], [-52.68295, -26.224116], [-52.683518, -26.224557], [-52.684053, -26.224963], [-52.684355, -26.225201], [-52.685068, -26.225749], [-52.685437, -26.226029]]]}, "properties": {"nsvia": "BAIRRO ANCHIETA"}},
{"type": "Feature", "geometry": {"type": "Polygon", "coordinates": [[[-52.671086, -26.239687], [-52.671618, -26.239659], [-52.672297, -26.239623], [-52.672484, -26.239613], [-52.672829, -26.2396], [-52.673531, -26.239565], [-52.674297, -26.239523], [-52.674589, -26.23951], [-52.674514, -26.238347], [-52.674438, -26.236817], [-52.674705, -26.236343], [-52.675048, -26.23578], [-52.674402, -26.235467], [-52.674086, -26.235316], [-52.67341, -26.234987], [-52.67287, -26.234723], [-52.672415, -26.234503], [-52.67083, -26.23374], [-52.670729, -26.233731], [-52.670472, -26.23371], [-52.669803, -26.233624], [-52.669579, -26.235474], [-52.670836, -26.235584], [-52.671086, -26.239687]]]}, "properties": {"nsvia": "BAIRRO BAIXADA"}},
{"type": "Feature", "geometry": {"type": "Polygon", "coordinates": [[[-52.658843, -26.223784], [-52.659462, -26.22384], [-52.665591, -26.22438], [-52.666724, -26.224257], [-52.667571, -26.224173], [-52.667787, -26.224148], [-52.6677, -26.223559], [-52.66763, -26.223079], [-52.667565, -26.2226], [-52.667516, -26.222257], [-52.666455, -26.222374], [-52.666301, -26.221261], [-52.665211, -26.221391], [-52.664613, -26.221469], [-52.662466, -26.221715], [-52.660191, -26.221962], [-52.659747, -26.222019], [-52.659677, -26.223149], [-52.658884, -26.22309], [-52.658843, -26.223784]]]}, "properties": {"nsvia": "BAIRRO BANCARIOS"}},
{"type": "Feature", "geometry": {"type": "Polygon", "coordinates": [[[-52.692997, -26.238526], [-52.693124, -26.238627], [-52.693414, -26.238834], [-52.693621, -26.238975], [-52.693948, -26.239205], [-52.6943, -26.239446], [-52.694518, -26.239601], [-52.694745, -26.239759], [-52.694945, -26.239903], [-52.695072, -26.240005], [-52.695227, -26.240144], [-52.695461, -26.240367], [-52.695575, -26.240487], [-52.695786, -26.240718], [-52.696042, -26.241047], [-52.696229, -26.241321], [-52.696458, -26.241697], [-52.696625, -26.241983], [-52.696782, -26.242231], [-52.696942, -26.242461], [-52.697034, -26.242588], [-52.697192, -26.242784], [-52.697255, -26.242854], [-52.697352, -26.24296], [-52.697459, -26.243074], [-52.697565, -26.243185], [-52.69768, -26.243294], [-52.697887, -26.243469], [-52.698034, -26.243593], [-52.698169, -26.24371], [-52.698283, -26.243796], [-52.698446, -26.243903], [-52.698579, -26.243984], [-52.698806, -26.239748], [-52.699071, -26.235655], [-52.695582, -26.235648], [-52.694783, -26.23627], [-52.694548, -26.236452], [-52.694276, -26.236654], [-52.694098, -26.236783], [-52.693608, -26.237186], [-52.693302, -26.237426], [-52.6928, -26.237815], [-52.692496, -26.238043], [-52.692661, -26.238217], [-52.692702, -26.238259], [-52.692997, -26.238526]]]}, "properties": {"nsvia": "BAIRRO BELA VISTA"}},
{"type": "Feature", "geometry": {"type": "Polygon", "coordinates": [[[-52.658614, -26.244844], [-52.661379, -26.244895], [-52.661386, -26.245693], [-52.663433, -26.245677], [-52.663473, -26.246642], [-52.663265, -26.247371], [-52.663229, -26.247616], [-52.663236, -26.247911], [-52.665413, -26.247443], [-52.665429, -26.247822], [-52.665383, -26.247893], [-52.665192, -26.247964], [-52.665158, -26.248146], [-52.665058, -26.248296], [-52.664947, -26.248578], [-52.664896, -26.248707], [-52.664953, -26.248749], [-52.665097, -26.248685], [-52.665191, -26.248697], [-52.665292, -26.24881], [-52.665333, -26.24894], [-52.665318, -26.249026], [-52.665169, -26.249104], [-52.664913, -26.249442], [-52.664367, -26.249901], [-52.664121, -26.250055], [-52.663977, -26.250133], [-52.664019, -26.250242], [-52.664292, -26.250455], [-52.664277, -26.250566], [-52.664241, -26.250622], [-52.66401, -26.250725], [-52.663933, -26.250881], [-52.663779, -26.25122], [-52.663613, -26.251568], [-52.663403, -26.251837], [-52.663383, -26.252046], [-52.663189, -26.252619], [-52.663068, -26.253093], [-52.663223, -26.253742], [-52.663468, -26.253268], [-52.663453, -26.253248], [-52.663672, -26.252884], [-52.663896, -26.252519], [-52.664089, -26.252193], [-52.664176, -26.252051], [-52.664227, -26.252008], [-52.664273, -26.25197], [-52.664305, -26.251882], [-52.664397, -26.251645], [-52.664464, -26.2515], [-52.664539, -26.251372], [-52.664622, -26.251273], [-52.664736, -26.251188], [-52.664836, -26.251132], [-52.664969, -26.251044], [-52.665193, -26.250952], [-52.665651, -26.250795], [-52.665891, -26.250701], [-52.666077, -26.250617], [-52.666216, -26.250558], [-52.666391, -26.250474], [-52.666497, -26.250494], [-52.666462, -26.250541], [-52.666531, -26.25058], [-52.666819, -26.250691], [-52.667266, -26.250861], [-52.667754, -26.251049], [-52.668189, -26.251217], [-52.668461, -26.251323], [-52.668861, -26.251472], [-52.669031, -26.251536], [-52.669377, -26.251666], [-52.669815, -26.251837], [-52.67003, -26.251919], [-52.670048, -26.25199], [-52.670598, -26.251979], [-52.670795, -26.25197], [-52.671923, -26.25192], [-52.671935, -26.251793], [-52.672015, -26.251062], [-52.672326, -26.251088], [-52.672468, -26.251102], [-52.672708, -26.25112], [-52.672951, -26.25114], [-52.673078, -26.251153], [-52.673346, -26.251171], [-52.673409, -26.251176], [-52.673403, -26.251122], [-52.673399, -26.251038], [-52.673385, -26.250397], [-52.673705, -26.249672], [-52.673113, -26.249519], [-52.672618, -26.249373], [-52.672531, -26.249348], [-52.67211, -26.249205], [-52.671454, -26.249016], [-52.670985, -26.248881], [-52.670314, -26.248672], [-52.67016, -26.248624], [-52.66957, -26.24844], [-52.669095, -26.248292], [-52.668617, -26.248169], [-52.667607, -26.247919], [-52.667658, -26.247708], [-52.667787, -26.247174], [-52.667893, -26.246722], [-52.667985, -26.246336], [-52.668111, -26.245823], [-52.668239, -26.245273], [-52.668335, -26.244845], [-52.668393, -26.244641], [-52.668512, -26.244084], [-52.668672, -26.243434], [-52.668793, -26.242928], [-52.668953, -26.242261], [-52.66911, -26.241638], [-52.669181, -26.241337], [-52.667891, -26.241076], [-52.667849, -26.241243], [-52.66297, -26.240607], [-52.662936, -26.242346], [-52.658724, -26.242365], [-52.658614, -26.244844]]]}, "properties": {"nsvia": "BAIRRO BONATO"}},
{"type": "Feature", "geometry": {"type": "Polygon", "coordinates": [[[-52.670773, -26.211687], [-52.673194, -26.212596], [-52.673587, -26.212642], [-52.67398, -26.212687], [-52.674329, -26.212945], [-52.674678, -26.213202], [-52.674388, -26.213624], [-52.674281, -26.213828], [-52.674175, -26.214031], [-52.674099, -26.214332], [-52.674165, -26.214953], [-52.674267, -26.215656], [-52.674261, -26.216018], [-52.674229, -26.21612], [-52.674188, -26.216239], [-52.674147, -26.216374], [-52.674114, -26.216461], [-52.673747, -26.217307], [-52.675706, -26.217149], [-52.677315, -26.21702], [-52.677667, -26.216992], [-52.679141, -26.217919], [-52.680331, -26.216982], [-52.680939, -26.216503], [-52.680933, -26.216458], [-52.680921, -26.216349], [-52.68091, -26.21622], [-52.680907, -26.216134], [-52.680902, -26.216051], [-52.680899, -26.215978], [-52.680889, -26.215776], [-52.680877, -26.215489], [-52.680869, -26.215272], [-52.680858, -26.215038], [-52.680846, -26.214768], [-52.680839, -26.214585], [-52.680807, -26.213973], [-52.680793, -26.21363], [-52.68078, -26.21336], [-52.680744, -26.212869], [-52.680657, -26.210627], [-52.680623, -26.209704], [-52.680558, -26.20819], [-52.680522, -26.207459], [-52.680487, -26.206728], [-52.680427, -26.206371], [-52.680366, -26.206014], [-52.680146, -26.205236], [-52.679989, -26.204872], [-52.679833, -26.204507], [-52.679611, -26.204131], [-52.67939, -26.203754], [-52.679212, -26.20351], [-52.679034, -26.203265], [-52.678634, -26.202801], [-52.678606, -26.203907], [-52.678529, -26.204201], [-52.678532, -26.204641], [-52.678501, -26.204864], [-52.67852, -26.205075], [-52.678541, -26.20515], [-52.678462, -26.205242], [-52.678387, -26.205268], [-52.678057, -26.205336], [-52.677985, -26.205322], [-52.677868, -26.205223], [-52.67779, -26.205217], [-52.677651, -26.205252], [-52.677471, -26.205257], [-52.677343, -26.205232], [-52.677188, -26.205258], [-52.677102, -26.205333], [-52.676913, -26.20544], [-52.676551, -26.205514], [-52.676477, -26.205518], [-52.676408, -26.205559], [-52.676286, -26.205566], [-52.676231, -26.205581], [-52.676201, -26.205601], [-52.676035, -26.205569], [-52.675978, -26.205537], [-52.67595, -26.205538], [-52.675916, -26.205588], [-52.675862, -26.205612], [-52.675765, -26.205613], [-52.67562, -26.205658], [-52.67551, -26.205721], [-52.675399, -26.205805], [-52.675322, -26.205846], [-52.675278, -26.205885], [-52.675217, -26.205933], [-52.675163, -26.205952], [-52.674994, -26.206106], [-52.674932, -26.206176], [-52.674817, -26.206214], [-52.674631, -26.206354], [-52.67458, -26.206434], [-52.674664, -26.20651], [-52.674748, -26.20657], [-52.674779, -26.206647], [-52.674706, -26.206728], [-52.674076, -26.207065], [-52.674027, -26.207073], [-52.673972, -26.207049], [-52.673912, -26.206992], [-52.673874, -26.206978], [-52.673811, -26.207039], [-52.673751, -26.207083], [-52.673693, -26.20704], [-52.673674, -26.206986], [-52.673643, -26.206952], [-52.673495, -26.206961], [-52.67338, -26.207003], [-52.672244, -26.206532], [-52.670523, -26.205583], [-52.670419, -26.206658], [-52.670513, -26.207473], [-52.670658, -26.20881], [-52.670754, -26.209392], [-52.670773, -26.211687]]]}, "properties": {"nsvia": "BAIRRO BORTOT"}},
{"type": "Feature", "geometry": {"type": "Polygon", "coordinates": [[[-52.666266, -26.218839], [-52.666044, -26.219367], [-52.666068, -26.219551], [-52.666171, -26.220317], [-52.666266, -26.220969], [-52.666301, -26.221261], [-52.666455, -26.222374], [-52.667516, -26.222257], [-52.668644, -26.222128], [-52.669612, -26.222017], [-52.670145, -26.222198], [-52.67081, -26.222437], [-52.671414, -26.222663], [-52.671466, -26.222542], [-52.671673, -26.22206], [-52.671843, -26.221668], [-52.672063, -26.221168], [-52.672225, -26.2208], [-52.672632, -26.219911], [-52.673037, -26.218986], [-52.673534, -26.217811], [-52.673747, -26.217307], [-52.671482, -26.216864], [-52.668522, -26.216305], [-52.667461, -26.216103], [-52.667192, -26.216716], [-52.66696, -26.217249], [-52.666794, -26.217633], [-52.666578, -26.218139], [-52.666507, -26.218299], [-52.666266, -26.218839]]]}, "properties": {"nsvia": "BAIRRO BRASILIA"}},
{"type": "Feature", "geometry": {"type": "Polygon", "coordinates": [[[-52.648808, -26.223915], [-52.653702, -26.22437], [-52.654587, -26.224416], [-52.659417, -26.224587], [-52.659465, -26.223814], [-52.658846, -26.223758], [-52.658887, -26.223065], [-52.65968, -26.223123], [-52.65975, -26.221993], [-52.659707, -26.220592], [-52.659725, -26.219636], [-52.659722, -26.218629], [-52.657925, -26.218392], [-52.646071, -26.217976], [-52.646395, -26.218258], [-52.646774, -26.218709], [-52.647135, -26.219118], [-52.647742, -26.219734], [-52.648769, -26.221126], [-52.648808, -26.223915]]]}, "properties": {"nsvia": "BAIRRO CADORIN"}},
{"type": "Feature", "geometry": {"type": "Polygon", "coordinates": [[[-52.670985, -26.248881], [-52.671454, -26.249016], [-52.672108, -26.249204], [-52.672109, -26.249205], [-52.672531, -26.249348], [-52.672618, -26.249373], [-52.673113, -26.249519], [-52.673705, -26.249672], [-52.673385, -26.250397], [-52.673399, -26.251038], [-52.673403, -26.251122], [-52.673414, -26.251191], [-52.673592, -26.251757], [-52.673607, -26.251821], [-52.673809, -26.252469], [-52.674009, -26.25315], [-52.673787, -26.253156], [-52.673714, -26.253233], [-52.673561, -26.253394], [-52.673439, -26.253521], [-52.673361, -26.253603], [-52.67324, -26.253723], [-52.672974, -26.253974], [-52.672901, -26.25403], [-52.6732, -26.254026], [-52.673824, -26.254028], [-52.674858, -26.254016], [-52.675852, -26.254009], [-52.676602, -26.254004], [-52.676597, -26.254068], [-52.676639, -26.254198], [-52.676719, -26.254293], [-52.676855, -26.254351], [-52.676979, -26.254341], [-52.677016, -26.254326], [-52.677119, -26.254254], [-52.677201, -26.254128], [-52.677195, -26.254018], [-52.677953, -26.25384], [-52.678823, -26.253637], [-52.678275, -26.251822], [-52.678241, -26.2517], [-52.677899, -26.250554], [-52.677682, -26.24983], [-52.677469, -26.249123], [-52.677296, -26.248543], [-52.677219, -26.248197], [-52.677214, -26.248038], [-52.677273, -26.247699], [-52.677463, -26.247002], [-52.677481, -26.246855], [-52.677485, -26.246762], [-52.677367, -26.246307], [-52.677198, -26.245592], [-52.677098, -26.2452], [-52.677158, -26.245129], [-52.677253, -26.244173], [-52.677332, -26.24347], [-52.677347, -26.243152], [-52.677312, -26.242687], [-52.677285, -26.242149], [-52.677273, -26.242032], [-52.676995, -26.242046], [-52.676463, -26.242073], [-52.676202, -26.242081], [-52.67581, -26.242097], [-52.675289, -26.242124], [-52.674995, -26.242136], [-52.674749, -26.242147], [-52.674778, -26.242716], [-52.674813, -26.243296], [-52.674006, -26.243963], [-52.673241, -26.244585], [-52.67265, -26.24507], [-52.672559, -26.24514], [-52.668945, -26.248251], [-52.669095, -26.248292], [-52.66957, -26.24844], [-52.67016, -26.248624], [-52.670314, -26.248672], [-52.670985, -26.248881]]]}, "properties": {"nsvia": "BAIRRO CRISTO REI"}},
{"type": "Feature", "geometry": {"type": "Polygon", "coordinates": [[[-52.689196, -26.244848], [-52.689239, -26.244891], [-52.6893, -26.244959], [-52.689332, -26.244996], [-52.689372, -26.245055], [-52.689432, -26.245102], [-52.68947, -26.245132], [-52.689513, -26.245159], [-52.68957, -26.245191], [-52.689667, -26.245274], [-52.689704, -26.245347], [-52.689744, -26.245412], [-52.689784, -26.245471], [-52.689812, -26.245514], [-52.689841, -26.24557], [-52.689856, -26.245623], [-52.689848, -26.245682], [-52.689832, -26.245722], [-52.689829, -26.245792], [-52.689844, -26.245844], [-52.689863, -26.245886], [-52.689886, -26.245927], [-52.689916, -26.245973], [-52.68996, -26.246052], [-52.69001, -26.246109], [-52.690095, -26.246156], [-52.690164, -26.246176], [-52.690243, -26.246193], [-52.690343, -26.24624], [-52.690446, -26.246303], [-52.690514, -26.246337], [-52.69061, -26.246381], [-52.690662, -26.246378], [-52.690733, -26.24638], [-52.690804, -26.24644], [-52.690846, -26.246461], [-52.690897, -26.24649], [-52.690958, -26.246535], [-52.691021, -26.246596], [-52.691058, -26.246637], [-52.691096, -26.246673], [-52.691156, -26.246745], [-52.691197, -26.246777], [-52.69124, -26.246813], [-52.691283, -26.246844], [-52.691339, -26.246879], [-52.69145, -26.246961], [-52.6915, -26.246994], [-52.691585, -26.247056], [-52.691671, -26.247104], [-52.691755, -26.247127], [-52.691837, -26.247143], [-52.691905, -26.247169], [-52.691977, -26.247243], [-52.692037, -26.247305], [-52.6921, -26.247358], [-52.692138, -26.247386], [-52.692195, -26.247426], [-52.692293, -26.24751], [-52.692366, -26.247565], [-52.692444, -26.247629], [-52.692514, -26.247689], [-52.69256, -26.247716], [-52.692609, -26.247739], [-52.692665, -26.247781], [-52.692697, -26.247817], [-52.692752, -26.247853], [-52.692804, -26.247874], [-52.692867, -26.24789], [-52.692932, -26.247906], [-52.692988, -26.247927], [-52.693039, -26.247954], [-52.693086, -26.247974], [-52.693144, -26.247999], [-52.693232, -26.248071], [-52.693251, -26.248175], [-52.693255, -26.248228], [-52.693271, -26.248276], [-52.693293, -26.248332], [-52.693318, -26.2484], [-52.693303, -26.248503], [-52.693266, -26.248596], [-52.693269, -26.248668], [-52.693281, -26.24875], [-52.693277, -26.248854], [-52.693279, -26.248912], [-52.693274, -26.248963], [-52.693243, -26.249026], [-52.693205, -26.249112], [-52.693293, -26.249146], [-52.693349, -26.249162], [-52.693384, -26.249188], [-52.693397, -26.249224], [-52.693418, -26.249269], [-52.693426, -26.249313], [-52.69341, -26.249363], [-52.693338, -26.249429], [-52.693314, -26.249495], [-52.69335, -26.249527], [-52.693365, -26.249577], [-52.693407, -26.24961], [-52.693455, -26.249624], [-52.693511, -26.249642], [-52.693567, -26.249673], [-52.693624, -26.249696], [-52.69368, -26.249734], [-52.693717, -26.249722], [-52.693763, -26.249648], [-52.693783, -26.249615], [-52.69385, -26.249555], [-52.693867, -26.249497], [-52.693877, -26.249452], [-52.693905, -26.249397], [-52.693974, -26.24938], [-52.694034, -26.249387], [-52.694089, -26.249396], [-52.694158, -26.249435], [-52.694198, -26.249537], [-52.694218, -26.249587], [-52.694157, -26.249631], [-52.694125, -26.249696], [-52.69421, -26.249734], [-52.694317, -26.249732], [-52.69438, -26.249737], [-52.694448, -26.249735], [-52.694535, -26.249732], [-52.694603, -26.249736], [-52.694687, -26.249753], [-52.694763, -26.249751], [-52.694815, -26.249812], [-52.694856, -26.249874], [-52.694886, -26.249934], [-52.694919, -26.249989], [-52.69499, -26.250004], [-52.695059, -26.250019], [-52.695135, -26.250035], [-52.69521, -26.250057], [-52.695309, -26.250091], [-52.695345, -26.250152], [-52.695408, -26.250201], [-52.695445, -26.250238], [-52.695489, -26.250276], [-52.695521, -26.250312], [-52.695553, -26.250388], [-52.6956, -26.250438], [-52.695651, -26.250481], [-52.695697, -26.250553], [-52.695775, -26.250624], [-52.695855, -26.250637], [-52.695922, -26.25066], [-52.695972, -26.250736], [-52.696011, -26.250805], [-52.696043, -26.250849], [-52.696055, -26.250926], [-52.696046, -26.251004], [-52.696051, -26.251066], [-52.696039, -26.251165], [-52.696045, -26.251375], [-52.696346, -26.251766], [-52.696641, -26.25202], [-52.696979, -26.252297], [-52.697081, -26.252362], [-52.697385, -26.252501], [-52.697732, -26.25261], [-52.698015, -26.252657], [-52.69894, -26.252868], [-52.699552, -26.253035], [-52.699981, -26.253137], [-52.700198, -26.253179], [-52.700415, -26.25322], [-52.700589, -26.253265], [-52.701188, -26.253516], [-52.70152, -26.253609], [-52.701729, -26.253644], [-52.701962, -26.253641], [-52.702164, -26.253604], [-52.703061, -26.253355], [-52.703311, -26.253279], [-52.703584, -26.253154], [-52.704426, -26.252934], [-52.704779, -26.252837], [-52.705025, -26.252807], [-52.705371, -26.252782], [-52.705909, -26.252775], [-52.70689, -26.2527], [-52.707197, -26.252685], [-52.707388, -26.252694], [-52.707609, -26.252731], [-52.7081, -26.252829], [-52.706315, -26.249261], [-52.706039, -26.248812], [-52.70577, -26.248436], [-52.705229, -26.247862], [-52.704762, -26.247445], [-52.70435, -26.247161], [-52.70322, -26.246512], [-52.702714, -26.246245], [-52.702606, -26.246192], [-52.700924, -26.245266], [-52.700814, -26.245218], [-52.700645, -26.245127], [-52.700348, -26.244969], [-52.700143, -26.244853], [-52.699866, -26.244703], [-52.699636, -26.244579], [-52.699478, -26.244495], [-52.69917, -26.244329], [-52.699066, -26.244273], [-52.698881, -26.244168], [-52.698579, -26.243984], [-52.698446, -26.243903], [-52.698283, -26.243796], [-52.698169, -26.24371], [-52.698034, -26.243593], [-52.697887, -26.243469], [-52.69768, -26.243294], [-52.697565, -26.243185], [-52.697459, -26.243074], [-52.697352, -26.24296], [-52.697255, -26.242854], [-52.697192, -26.242784], [-52.697034, -26.242588], [-52.696942, -26.242461], [-52.696782, -26.242231], [-52.696625, -26.241983], [-52.696458, -26.241697], [-52.696229, -26.241321], [-52.696042, -26.241047], [-52.695786, -26.240718], [-52.695575, -26.240487], [-52.695461, -26.240367], [-52.695227, -26.240144], [-52.695072, -26.240005], [-52.694945, -26.239903], [-52.694745, -26.239759], [-52.694518, -26.239601], [-52.6943, -26.239446], [-52.693948, -26.239205], [-52.693621, -26.238975], [-52.693417, -26.239199], [-52.693306, -26.239316], [-52.693205, -26.239418], [-52.69306, -26.239569], [-52.692942, -26.239694], [-52.692831, -26.239887], [-52.692743, -26.240057], [-52.692203, -26.239798], [-52.691939, -26.239667], [-52.691492, -26.239454], [-52.690787, -26.239111], [-52.690486, -26.238964], [-52.690349, -26.239084], [-52.690295, -26.239177], [-52.690257, -26.239252], [-52.690219, -26.239343], [-52.690183, -26.239452], [-52.690164, -26.239552], [-52.690146, -26.239675], [-52.690135, -26.239816], [-52.690124, -26.239964], [-52.690114, -26.240141], [-52.690108, -26.24019], [-52.690067, -26.240377], [-52.69004, -26.240548], [-52.690036, -26.240649], [-52.690037, -26.240721], [-52.690054, -26.240852], [-52.69007, -26.241051], [-52.690085, -26.241199], [-52.69009, -26.241315], [-52.690102, -26.24138], [-52.69013, -26.241474], [-52.690159, -26.241588], [-52.690176, -26.241652], [-52.690196, -26.241695], [-52.690231, -26.241758], [-52.69028, -26.241841], [-52.69035, -26.241944], [-52.690391, -26.242019], [-52.690435, -26.242088], [-52.690472, -26.242167], [-52.690528, -26.242301], [-52.690575, -26.242428], [-52.690617, -26.242538], [-52.690647, -26.242614], [-52.690678, -26.242707], [-52.6907, -26.24283], [-52.690705, -26.242945], [-52.6907, -26.243041], [-52.690682, -26.243193], [-52.690654, -26.243324], [-52.690612, -26.243464], [-52.690569, -26.243584], [-52.6905, -26.243708], [-52.690422, -26.243851], [-52.69037, -26.243951], [-52.690279, -26.243904], [-52.690213, -26.243883], [-52.690115, -26.243813], [-52.690032, -26.243744], [-52.689936, -26.24366], [-52.689838, -26.243581], [-52.689778, -26.24353], [-52.689549, -26.243457], [-52.68941, -26.243434], [-52.68922, -26.243319], [-52.688995, -26.243134], [-52.688906, -26.243115], [-52.688696, -26.242951], [-52.688535, -26.242872], [-52.687618, -26.242945], [-52.686578, -26.242935], [-52.684149, -26.242647], [-52.684178, -26.242727], [-52.684198, -26.242777], [-52.684217, -26.242819], [-52.684238, -26.242858], [-52.68427, -26.242899], [-52.684316, -26.242956], [-52.68434, -26.24304], [-52.684346, -26.243092], [-52.684357, -26.243133], [-52.684377, -26.243176], [-52.684403, -26.243222], [-52.684431, -26.243276], [-52.684459, -26.243325], [-52.684489, -26.243365], [-52.684525, -26.243409], [-52.68456, -26.243449], [-52.684596, -26.243494], [-52.684626, -26.243539], [-52.684668, -26.243582], [-52.684707, -26.243616], [-52.684731, -26.243635], [-52.684796, -26.243655], [-52.684844, -26.243679], [-52.684886, -26.24372], [-52.684895, -26.243787], [-52.684812, -26.243824], [-52.684777, -26.243854], [-52.684745, -26.243888], [-52.68472, -26.243926], [-52.68472, -26.243964], [-52.684739, -26.243999], [-52.684775, -26.244021], [-52.684823, -26.244033], [-52.684875, -26.244032], [-52.684927, -26.244032], [-52.684973, -26.24402], [-52.685017, -26.244], [-52.685062, -26.243981], [-52.68511, -26.243955], [-52.685157, -26.243927], [-52.685196, -26.243894], [-52.685276, -26.243835], [-52.685318, -26.243811], [-52.685343, -26.243777], [-52.685369, -26.243732], [-52.685407, -26.243689], [-52.685471, -26.243676], [-52.685524, -26.2437], [-52.685575, -26.243722], [-52.685631, -26.243738], [-52.685687, -26.243738], [-52.685743, -26.24374], [-52.685816, -26.243755], [-52.685895, -26.243798], [-52.685941, -26.24383], [-52.685979, -26.243867], [-52.686016, -26.243901], [-52.686053, -26.243965], [-52.686007, -26.244039], [-52.686004, -26.244082], [-52.68601, -26.244127], [-52.686019, -26.244158], [-52.686058, -26.244241], [-52.686116, -26.244295], [-52.68618, -26.244264], [-52.68622, -26.244233], [-52.686264, -26.244205], [-52.686314, -26.244183], [-52.686404, -26.244162], [-52.686508, -26.24412], [-52.686547, -26.24409], [-52.686554, -26.244041], [-52.686583, -26.243953], [-52.686628, -26.243909], [-52.686711, -26.243858], [-52.686753, -26.243824], [-52.686813, -26.243782], [-52.686896, -26.243737], [-52.686949, -26.243712], [-52.687016, -26.24369], [-52.687088, -26.243699], [-52.687177, -26.24373], [-52.687229, -26.243745], [-52.687288, -26.243768], [-52.687332, -26.243809], [-52.6874, -26.24388], [-52.687479, -26.243949], [-52.687532, -26.243971], [-52.687639, -26.244018], [-52.687748, -26.244095], [-52.687806, -26.244137], [-52.687846, -26.244172], [-52.687883, -26.244214], [-52.687926, -26.24429], [-52.687969, -26.244334], [-52.688009, -26.24436], [-52.688056, -26.244392], [-52.688098, -26.244419], [-52.688146, -26.24445], [-52.688223, -26.244496], [-52.688322, -26.244543], [-52.688414, -26.244563], [-52.688536, -26.244595], [-52.688581, -26.24459], [-52.68864, -26.244578], [-52.688717, -26.244563], [-52.688821, -26.244568], [-52.688875, -26.244579], [-52.688944, -26.244627], [-52.689003, -26.244687], [-52.689053, -26.244723], [-52.689121, -26.244785], [-52.689154, -26.244818], [-52.689196, -26.244848]]]}, "properties": {"nsvia": "BAIRRO DAL ROSS"}},
{"type": "Feature", "geometry": {"type": "Polygon", "coordinates": [[[-52.680487, -26.206728], [-52.680522, -26.207459], [-52.680558, -26.20819], [-52.680623, -26.209704], [-52.680657, -26.210627], [-52.680744, -26.212869], [-52.68078, -26.21336], [-52.680793, -26.21363], [-52.680807, -26.213973], [-52.680839, -26.214585], [-52.686129, -26.214427], [-52.686141, -26.213272], [-52.687386, -26.213306], [-52.68761, -26.213016], [-52.688021, -26.212394], [-52.688096, -26.212442], [-52.689576, -26.213375], [-52.690301, -26.213843], [-52.690445, -26.213921], [-52.690804, -26.214167], [-52.690953, -26.214265], [-52.691163, -26.214394], [-52.69145, -26.214571], [-52.691787, -26.214777], [-52.692316, -26.215114], [-52.692569, -26.215277], [-52.692812, -26.215431], [-52.693081, -26.215602], [-52.693367, -26.215782], [-52.693376, -26.213862], [-52.703823, -26.220614], [-52.703609, -26.219123], [-52.703142, -26.218116], [-52.702908, -26.21742], [-52.703808, -26.217456], [-52.704374, -26.217465], [-52.704294, -26.216741], [-52.704205, -26.216059], [-52.704187, -26.215794], [-52.704277, -26.215688], [-52.704284, -26.215554], [-52.704312, -26.215453], [-52.704258, -26.215264], [-52.704179, -26.215165], [-52.703917, -26.214963], [-52.703843, -26.214773], [-52.703849, -26.214662], [-52.703959, -26.214506], [-52.703938, -26.214392], [-52.703958, -26.214262], [-52.704046, -26.214133], [-52.704068, -26.213959], [-52.704094, -26.213601], [-52.704175, -26.212991], [-52.704339, -26.212478], [-52.704525, -26.212037], [-52.704678, -26.21126], [-52.704754, -26.21068], [-52.704817, -26.209827], [-52.704971, -26.20817], [-52.704889, -26.206642], [-52.70485, -26.204993], [-52.704847, -26.204232], [-52.704902, -26.203938], [-52.705047, -26.203762], [-52.705089, -26.203588], [-52.705064, -26.203428], [-52.704788, -26.203225], [-52.704659, -26.203033], [-52.704677, -26.202732], [-52.704857, -26.202429], [-52.705074, -26.202039], [-52.705274, -26.20157], [-52.705401, -26.201168], [-52.705335, -26.200701], [-52.705271, -26.200348], [-52.705302, -26.1999], [-52.705293, -26.199313], [-52.705205, -26.198867], [-52.705066, -26.19796], [-52.70509, -26.197573], [-52.705243, -26.19691], [-52.705156, -26.19653], [-52.705131, -26.195823], [-52.705194, -26.195021], [-52.70518, -26.194113], [-52.70509, -26.192992], [-52.705221, -26.192323], [-52.705273, -26.191849], [-52.705282, -26.191455], [-52.705566, -26.191151], [-52.705737, -26.190864], [-52.682293, -26.189477], [-52.682248, -26.190994], [-52.681165, -26.193496], [-52.680883, -26.195992], [-52.68081, -26.19605], [-52.680114, -26.19794], [-52.680323, -26.198057], [-52.680553, -26.198333], [-52.680615, -26.198457], [-52.680788, -26.19869], [-52.68092, -26.198754], [-52.680981, -26.1988], [-52.681126, -26.199538], [-52.68156, -26.200494], [-52.681584, -26.200603], [-52.681553, -26.200739], [-52.681519, -26.200805], [-52.681329, -26.200947], [-52.680069, -26.201729], [-52.679666, -26.202036], [-52.678864, -26.202512], [-52.678711, -26.202664], [-52.678634, -26.202801], [-52.679034, -26.203265], [-52.679212, -26.20351], [-52.67939, -26.203754], [-52.679611, -26.204131], [-52.679833, -26.204507], [-52.679989, -26.204872], [-52.680146, -26.205236], [-52.680366, -26.206014], [-52.680427, -26.206371], [-52.680487, -26.206728]]]}, "properties": {"nsvia": "BAIRRO FRAROM"}},
{"type": "Feature", "geometry": {"type": "Polygon", "coordinates": [[[-52.674989, -26.272361], [-52.674986, -26.272683], [-52.674987, -26.273029], [-52.674988, -26.273185], [-52.67498, -26.273872], [-52.674972, -26.274138], [-52.674993, -26.274164], [-52.675243, -26.274168], [-52.675653, -26.274197], [-52.676037, -26.274219], [-52.676417, -26.274235], [-52.676611, -26.274237], [-52.676797, -26.274246], [-52.677042, -26.274265], [-52.677152, -26.274318], [-52.677171, -26.274362], [-52.677187, -26.274514], [-52.677205, -26.274576], [-52.677204, -26.274635], [-52.677231, -26.274684], [-52.677428, -26.274739], [-52.67787, -26.274842], [-52.67825, -26.274925], [-52.678829, -26.275059], [-52.679202, -26.275142], [-52.679848, -26.275283], [-52.679964, -26.275272], [-52.679858, -26.274094], [-52.67993, -26.270825], [-52.675008, -26.270736], [-52.675008, -26.27087], [-52.675007, -26.270959], [-52.675005, -26.271079], [-52.675003, -26.271178], [-52.675002, -26.271387], [-52.675001, -26.271663], [-52.675001, -26.271866], [-52.674997, -26.272024], [-52.674989, -26.272361]]]}, "properties": {"nsvia": "BAIRRO GRALHA AZUL"}},
{"type": "Feature", "geometry": {"type": "Polygon", "coordinates": [[[-52.658852, -26.237789], [-52.658809, -26.239456], [-52.658724, -26.242365], [-52.662936, -26.242346], [-52.66297, -26.240607], [-52.667849, -26.241243], [-52.667891, -26.241076], [-52.669181, -26.241337], [-52.669499, -26.24004], [-52.669613, -26.239582], [-52.669966, -26.239751], [-52.670426, -26.239723], [-52.671086, -26.239687], [-52.670836, -26.235584], [-52.669579, -26.235474], [-52.669579, -26.23548], [-52.666733, -26.235178], [-52.666685, -26.234945], [-52.666613, -26.234863], [-52.666114, -26.234827], [-52.665195, -26.234523], [-52.665002, -26.234465], [-52.66415, -26.234596], [-52.662984, -26.234582], [-52.662742, -26.234563], [-52.662691, -26.234654], [-52.662532, -26.234805], [-52.662246, -26.235004], [-52.662152, -26.235081], [-52.661863, -26.235221], [-52.661348, -26.2354], [-52.660734, -26.235605], [-52.660088, -26.235877], [-52.660092, -26.236053], [-52.659417, -26.236061], [-52.65939, -26.236811], [-52.658854, -26.237159], [-52.658852, -26.237789]]]}, "properties": {"nsvia": "BAIRRO INDUSTRIAL"}},
{"type": "Feature", "geometry": {"type": "Polygon", "coordinates": [[[-52.685411, -26.252858], [-52.685399, -26.252928], [-52.685378, -26.252991], [-52.685356, -26.253032], [-52.685341, -26.253077], [-52.685329, -26.253144], [-52.685306, -26.253213], [-52.685294, -26.253261], [-52.685285, -26.253308], [-52.685278, -26.253353], [-52.685272, -26.253399], [-52.685274, -26.253448], [-52.685284, -26.25351], [-52.685282, -26.253583], [-52.685282, -26.253629], [-52.685281, -26.253678], [-52.685279, -26.253724], [-52.685279, -26.253782], [-52.685268, -26.25387], [-52.685283, -26.253954], [-52.685297, -26.254033], [-52.685285, -26.254092], [-52.685301, -26.254155], [-52.685313, -26.254216], [-52.685317, -26.254291], [-52.685333, -26.254383], [-52.685332, -26.254444], [-52.685323, -26.254566], [-52.685313, -26.254609], [-52.685288, -26.254645], [-52.685278, -26.254703], [-52.685781, -26.254788], [-52.687152, -26.255366], [-52.688315, -26.255832], [-52.689411, -26.255791], [-52.690555, -26.255617], [-52.690529, -26.256263], [-52.692496, -26.255732], [-52.69308, -26.255557], [-52.693323, -26.255491], [-52.693486, -26.255443], [-52.693554, -26.255422], [-52.694064, -26.25525], [-52.694436, -26.255144], [-52.694593, -26.255097], [-52.695476, -26.254834], [-52.696006, -26.254666], [-52.696101, -26.254636], [-52.69649, -26.25451], [-52.696876, -26.254384], [-52.697154, -26.254297], [-52.697252, -26.254277], [-52.697917, -26.254068], [-52.697789, -26.255937], [-52.708724, -26.256522], [-52.708826, -26.255669], [-52.708813, -26.255133], [-52.708763, -26.254709], [-52.708648, -26.25416], [-52.708467, -26.253619], [-52.7081, -26.252829], [-52.707609, -26.252731], [-52.707388, -26.252694], [-52.707197, -26.252685], [-52.70689, -26.2527], [-52.705909, -26.252775], [-52.705371, -26.252782], [-52.705025, -26.252807], [-52.704779, -26.252837], [-52.704426, -26.252934], [-52.703584, -26.253154], [-52.703311, -26.253279], [-52.703061, -26.253355], [-52.702164, -26.253604], [-52.701962, -26.253641], [-52.701729, -26.253644], [-52.70152, -26.253609], [-52.701188, -26.253516], [-52.700589, -26.253265], [-52.700415, -26.25322], [-52.700198, -26.253179], [-52.699981, -26.253137], [-52.699552, -26.253035], [-52.69894, -26.252868], [-52.698015, -26.252657], [-52.697732, -26.25261], [-52.697385, -26.252501], [-52.697081, -26.252362], [-52.696979, -26.252297], [-52.696641, -26.25202], [-52.696346, -26.251766], [-52.696045, -26.251375], [-52.696039, -26.251165], [-52.696051, -26.251066], [-52.696046, -26.251004], [-52.696055, -26.250926], [-52.696043, -26.250849], [-52.696011, -26.250805], [-52.695972, -26.250736], [-52.695922, -26.25066], [-52.695855, -26.250637], [-52.695775, -26.250624], [-52.695697, -26.250553], [-52.695651, -26.250481], [-52.6956, -26.250438], [-52.695553, -26.250388], [-52.695521, -26.250312], [-52.695489, -26.250276], [-52.695445, -26.250238], [-52.695408, -26.250201], [-52.695345, -26.250152], [-52.695309, -26.250091], [-52.69521, -26.250057], [-52.695135, -26.250035], [-52.695059, -26.250019], [-52.69499, -26.250004], [-52.694919, -26.249989], [-52.694886, -26.249934], [-52.694856, -26.249874], [-52.694815, -26.249812], [-52.694763, -26.249751], [-52.694687, -26.249753], [-52.694603, -26.249736], [-52.694535, -26.249732], [-52.694448, -26.249735], [-52.69438, -26.249737], [-52.694317, -26.249732], [-52.69421, -26.249734], [-52.694125, -26.249696], [-52.694157, -26.249631], [-52.694204, -26.249597], [-52.694213, -26.249576], [-52.694198, -26.249537], [-52.694175, -26.249478], [-52.69415, -26.249431], [-52.694089, -26.249396], [-52.694034, -26.249387], [-52.693974, -26.24938], [-52.693905, -26.249397], [-52.693877, -26.249452], [-52.693867, -26.249497], [-52.69385, -26.249555], [-52.693783, -26.249615], [-52.693763, -26.249648], [-52.693734, -26.249695], [-52.693722, -26.249721], [-52.69368, -26.249734], [-52.693624, -26.249696], [-52.693567, -26.249673], [-52.693511, -26.249642], [-52.693455, -26.249624], [-52.693407, -26.24961], [-52.693365, -26.249577], [-52.69335, -26.249527], [-52.693314, -26.249495], [-52.693338, -26.249429], [-52.69341, -26.249363], [-52.693426, -26.249313], [-52.693418, -26.249269], [-52.693397, -26.249224], [-52.693384, -26.249188], [-52.693349, -26.249162], [-52.693293, -26.249146], [-52.693205, -26.249112], [-52.693243, -26.249026], [-52.693274, -26.248963], [-52.693279, -26.248912], [-52.693277, -26.248854], [-52.693279, -26.248795], [-52.693279, -26.248735], [-52.693269, -26.248668], [-52.693266, -26.248596], [-52.693303, -26.248503], [-52.693312, -26.248445], [-52.69331, -26.248379], [-52.693293, -26.248332], [-52.693271, -26.248276], [-52.693255, -26.248228], [-52.693251, -26.248175], [-52.693239, -26.248108], [-52.693215, -26.248057], [-52.693144, -26.247999], [-52.693086, -26.247974], [-52.693039, -26.247954], [-52.692988, -26.247927], [-52.692932, -26.247906], [-52.692867, -26.24789], [-52.692804, -26.247874], [-52.692752, -26.247853], [-52.692697, -26.247817], [-52.692665, -26.247781], [-52.692609, -26.247739], [-52.69256, -26.247716], [-52.692514, -26.247689], [-52.692444, -26.247629], [-52.692402, -26.247594], [-52.692363, -26.247563], [-52.692293, -26.24751], [-52.692225, -26.247452], [-52.692183, -26.247418], [-52.692138, -26.247386], [-52.6921, -26.247358], [-52.692037, -26.247305], [-52.691977, -26.247243], [-52.691939, -26.247203], [-52.691893, -26.247164], [-52.691837, -26.247143], [-52.691755, -26.247127], [-52.691671, -26.247104], [-52.691585, -26.247056], [-52.6915, -26.246994], [-52.69145, -26.246961], [-52.691369, -26.246902], [-52.691326, -26.246871], [-52.691283, -26.246844], [-52.69124, -26.246813], [-52.691197, -26.246777], [-52.691156, -26.246745], [-52.691096, -26.246673], [-52.691058, -26.246637], [-52.691021, -26.246596], [-52.69098, -26.246557], [-52.69094, -26.246522], [-52.690897, -26.24649], [-52.690846, -26.246461], [-52.690804, -26.24644], [-52.690765, -26.246407], [-52.690726, -26.24638], [-52.690662, -26.246378], [-52.69061, -26.246381], [-52.690514, -26.246337], [-52.690446, -26.246303], [-52.690376, -26.24626], [-52.690325, -26.246231], [-52.690274, -26.246207], [-52.69022, -26.246188], [-52.690164, -26.246176], [-52.690095, -26.246156], [-52.69001, -26.246109], [-52.68996, -26.246052], [-52.689938, -26.246012], [-52.689913, -26.245969], [-52.689886, -26.245927], [-52.689863, -26.245886], [-52.689844, -26.245844], [-52.689829, -26.245792], [-52.689832, -26.245722], [-52.689848, -26.245682], [-52.689856, -26.245623], [-52.689841, -26.24557], [-52.689812, -26.245514], [-52.689784, -26.245471], [-52.689744, -26.245412], [-52.689704, -26.245347], [-52.689682, -26.245304], [-52.689649, -26.245258], [-52.689605, -26.245221], [-52.689565, -26.245188], [-52.689513, -26.245159], [-52.68947, -26.245132], [-52.689432, -26.245102], [-52.689372, -26.245055], [-52.689332, -26.244996], [-52.6893, -26.244959], [-52.689268, -26.244923], [-52.689232, -26.244884], [-52.689196, -26.244848], [-52.689154, -26.244818], [-52.689121, -26.244785], [-52.68908, -26.244748], [-52.689042, -26.244715], [-52.689003, -26.244687], [-52.688968, -26.244652], [-52.68893, -26.244617], [-52.688875, -26.244579], [-52.688821, -26.244568], [-52.688751, -26.244565], [-52.6887, -26.244567], [-52.68864, -26.244578], [-52.688581, -26.24459], [-52.688536, -26.244595], [-52.688441, -26.24457], [-52.68839, -26.244557], [-52.688322, -26.244543], [-52.688223, -26.244496], [-52.688146, -26.24445], [-52.688098, -26.244419], [-52.688056, -26.244392], [-52.688009, -26.24436], [-52.687969, -26.244334], [-52.687926, -26.24429], [-52.687883, -26.244214], [-52.687846, -26.244172], [-52.687806, -26.244137], [-52.687748, -26.244095], [-52.68767, -26.244039], [-52.687632, -26.244015], [-52.687532, -26.243971], [-52.687479, -26.243949], [-52.6874, -26.24388], [-52.687332, -26.243809], [-52.687288, -26.243768], [-52.687229, -26.243745], [-52.687177, -26.24373], [-52.687126, -26.243712], [-52.687073, -26.243697], [-52.687018, -26.243691], [-52.686999, -26.243696], [-52.686949, -26.243712], [-52.686896, -26.243737], [-52.686846, -26.243764], [-52.686798, -26.243793], [-52.686753, -26.243824], [-52.686711, -26.243858], [-52.686669, -26.243884], [-52.686625, -26.243911], [-52.686583, -26.243953], [-52.686567, -26.244001], [-52.686553, -26.244049], [-52.686547, -26.24409], [-52.686508, -26.24412], [-52.686404, -26.244162], [-52.686314, -26.244183], [-52.686264, -26.244205], [-52.68622, -26.244233], [-52.68618, -26.244264], [-52.686116, -26.244295], [-52.686058, -26.244241], [-52.686019, -26.244158], [-52.685892, -26.244307], [-52.685471, -26.245245], [-52.68527, -26.245678], [-52.685066, -26.246131], [-52.684897, -26.246488], [-52.684615, -26.24642], [-52.683989, -26.246262], [-52.683958, -26.246347], [-52.683947, -26.246379], [-52.683923, -26.24642], [-52.683897, -26.246466], [-52.683881, -26.246514], [-52.683867, -26.246572], [-52.683864, -26.24662], [-52.683865, -26.246671], [-52.683867, -26.246763], [-52.683864, -26.246815], [-52.683844, -26.246905], [-52.683833, -26.246952], [-52.683823, -26.247007], [-52.683824, -26.247054], [-52.683823, -26.247102], [-52.68384, -26.247149], [-52.683857, -26.247194], [-52.683872, -26.247243], [-52.683895, -26.247287], [-52.683921, -26.247331], [-52.683949, -26.247373], [-52.683976, -26.247417], [-52.684008, -26.247482], [-52.684045, -26.247564], [-52.684059, -26.247617], [-52.684075, -26.247662], [-52.68412, -26.247719], [-52.684164, -26.247753], [-52.684221, -26.247768], [-52.684291, -26.247767], [-52.684366, -26.247811], [-52.684416, -26.247831], [-52.684493, -26.247837], [-52.684577, -26.247871], [-52.684627, -26.247886], [-52.684675, -26.247902], [-52.684725, -26.247918], [-52.684803, -26.247937], [-52.684885, -26.247963], [-52.684927, -26.247984], [-52.68496, -26.24802], [-52.684937, -26.248087], [-52.684913, -26.248134], [-52.684892, -26.248178], [-52.684891, -26.248186], [-52.684908, -26.248236], [-52.684939, -26.248291], [-52.684967, -26.248367], [-52.684988, -26.248413], [-52.685005, -26.248462], [-52.685017, -26.248528], [-52.685008, -26.248612], [-52.684995, -26.248662], [-52.684989, -26.248714], [-52.684987, -26.248762], [-52.684989, -26.248815], [-52.684996, -26.248918], [-52.685001, -26.24897], [-52.684999, -26.249018], [-52.684981, -26.249055], [-52.684891, -26.249049], [-52.684835, -26.249047], [-52.684784, -26.249048], [-52.684729, -26.24905], [-52.684673, -26.249063], [-52.684669, -26.249067], [-52.68467, -26.249116], [-52.684685, -26.249162], [-52.684702, -26.24921], [-52.684734, -26.249253], [-52.68477, -26.249292], [-52.684821, -26.249342], [-52.684826, -26.24943], [-52.684819, -26.249534], [-52.684836, -26.249582], [-52.684856, -26.249631], [-52.684877, -26.249675], [-52.684893, -26.249743], [-52.684894, -26.249818], [-52.68488, -26.24984], [-52.684867, -26.24989], [-52.684883, -26.24995], [-52.68492, -26.249998], [-52.684873, -26.250076], [-52.684865, -26.250129], [-52.684863, -26.250179], [-52.684862, -26.250226], [-52.684863, -26.250274], [-52.684865, -26.250319], [-52.684867, -26.250367], [-52.684868, -26.250411], [-52.684875, -26.250477], [-52.684857, -26.250514], [-52.684829, -26.25058], [-52.684776, -26.250624], [-52.684741, -26.250655], [-52.684702, -26.250692], [-52.684669, -26.250729], [-52.684634, -26.250764], [-52.684561, -26.250818], [-52.684517, -26.250851], [-52.684484, -26.250883], [-52.684437, -26.250922], [-52.684404, -26.250966], [-52.684381, -26.251012], [-52.684379, -26.251056], [-52.684364, -26.251102], [-52.68436, -26.251148], [-52.684353, -26.251196], [-52.684349, -26.251245], [-52.684352, -26.251291], [-52.684346, -26.251336], [-52.68432, -26.251375], [-52.684292, -26.25142], [-52.68428, -26.251466], [-52.684284, -26.251515], [-52.684297, -26.251565], [-52.684319, -26.25161], [-52.684349, -26.25165], [-52.684418, -26.251723], [-52.684463, -26.251778], [-52.684492, -26.251843], [-52.684532, -26.251929], [-52.68455, -26.251989], [-52.684555, -26.252065], [-52.684569, -26.252111], [-52.684591, -26.252153], [-52.684615, -26.252195], [-52.684645, -26.252233], [-52.684679, -26.252268], [-52.684718, -26.252302], [-52.684758, -26.252332], [-52.684798, -26.252364], [-52.684843, -26.252377], [-52.684949, -26.252384], [-52.685007, -26.252386], [-52.685055, -26.252387], [-52.685132, -26.252395], [-52.685204, -26.252428], [-52.685271, -26.252484], [-52.6853, -26.252524], [-52.685337, -26.252561], [-52.685371, -26.252602], [-52.685405, -26.252688], [-52.685412, -26.252774], [-52.685411, -26.252858]]]}, "properties": {"nsvia": "BAIRRO JARDIM FLORESTA"}},
{"type": "Feature", "geometry": {"type": "Polygon", "coordinates": [[[-52.684921, -26.230517], [-52.684749, -26.230814], [-52.684252, -26.231639], [-52.683773, -26.232462], [-52.683838, -26.23249], [-52.684926, -26.232632], [-52.685937, -26.232761], [-52.686017, -26.232818], [-52.686791, -26.233377], [-52.68693, -26.233492], [-52.68728, -26.233805], [-52.687437, -26.234015], [-52.687861, -26.23363], [-52.687988, -26.23353], [-52.688236, -26.233295], [-52.688373, -26.233242], [-52.689774, -26.232722], [-52.689916, -26.232684], [-52.690067, -26.232684], [-52.689978, -26.231295], [-52.68996, -26.230936], [-52.689853, -26.229303], [-52.689833, -26.229077], [-52.689797, -26.228718], [-52.689758, -26.228434], [-52.689682, -26.228048], [-52.68961, -26.227784], [-52.689499, -26.227447], [-52.689389, -26.227142], [-52.689179, -26.226662], [-52.689049, -26.226377], [-52.688985, -26.226234], [-52.688302, -26.226557], [-52.687764, -26.226824], [-52.687671, -26.22686], [-52.687089, -26.227145], [-52.686408, -26.227474], [-52.686136, -26.227596], [-52.686002, -26.227304], [-52.685878, -26.227023], [-52.685858, -26.22707], [-52.685456, -26.227338], [-52.685345, -26.227354], [-52.684723, -26.227444], [-52.684166, -26.227533], [-52.683899, -26.227579], [-52.682949, -26.22821], [-52.682764, -26.228443], [-52.682558, -26.228696], [-52.682401, -26.228889], [-52.682299, -26.229043], [-52.682484, -26.229132], [-52.683345, -26.229544], [-52.683631, -26.229717], [-52.68437, -26.230182], [-52.684921, -26.230517]]]}, "properties": {"nsvia": "BAIRRO JARDIM PRIMAVERA"}},
{"type": "Feature", "geometry": {"type": "Polygon", "coordinates": [[[-52.654106, -26.236182], [-52.654137, -26.238042], [-52.654143, -26.238363], [-52.654112, -26.238815], [-52.654287, -26.238821], [-52.654529, -26.238893], [-52.654703, -26.238905], [-52.654933, -26.238861], [-52.655228, -26.238698], [-52.65549, -26.238641], [-52.65577, -26.238629], [-52.65603, -26.238537], [-52.656197, -26.238598], [-52.656435, -26.238722], [-52.656874, -26.238628], [-52.657755, -26.238836], [-52.657932, -26.238815], [-52.658148, -26.238765], [-52.658852, -26.237789], [-52.658854, -26.237159], [-52.65939, -26.236811], [-52.659417, -26.236061], [-52.660092, -26.236053], [-52.660088, -26.235877], [-52.660734, -26.235605], [-52.661348, -26.2354], [-52.661863, -26.235221], [-52.662152, -26.235081], [-52.662246, -26.235004], [-52.662532, -26.234805], [-52.662691, -26.234654], [-52.662742, -26.234563], [-52.662984, -26.234582], [-52.66415, -26.234596], [-52.665002, -26.234465], [-52.665195, -26.234523], [-52.666114, -26.234827], [-52.666613, -26.234863], [-52.666685, -26.234945], [-52.666733, -26.235178], [-52.669579, -26.23548], [-52.669803, -26.233623], [-52.669886, -26.232808], [-52.669929, -26.232746], [-52.670981, -26.231834], [-52.669906, -26.231369], [-52.669825, -26.231466], [-52.667739, -26.231705], [-52.667217, -26.227956], [-52.65787, -26.229026], [-52.658527, -26.230802], [-52.658524, -26.230918], [-52.656071, -26.230948], [-52.654064, -26.231793], [-52.654106, -26.236182]]]}, "properties": {"nsvia": "BAIRRO LA SALLE"}},
{"type": "Feature", "geometry": {"type": "Polygon", "coordinates": [[[-52.684149, -26.242647], [-52.686583, -26.242941], [-52.687618, -26.242945], [-52.688535, -26.242872], [-52.688696, -26.242951], [-52.688906, -26.243115], [-52.688995, -26.243134], [-52.68922, -26.243319], [-52.68941, -26.243434], [-52.689549, -26.243457], [-52.689778, -26.24353], [-52.689838, -26.243581], [-52.689936, -26.24366], [-52.690032, -26.243744], [-52.690115, -26.243813], [-52.690213, -26.243883], [-52.690279, -26.243904], [-52.69037, -26.243951], [-52.690422, -26.243851], [-52.6905, -26.243708], [-52.690569, -26.243584], [-52.690612, -26.243464], [-52.690654, -26.243324], [-52.690682, -26.243193], [-52.6907, -26.243041], [-52.690705, -26.242945], [-52.6907, -26.24283], [-52.690678, -26.242707], [-52.690647, -26.242614], [-52.690617, -26.242538], [-52.690575, -26.242428], [-52.690528, -26.242301], [-52.690472, -26.242167], [-52.690435, -26.242088], [-52.690391, -26.242019], [-52.69035, -26.241944], [-52.69028, -26.241841], [-52.690231, -26.241758], [-52.690196, -26.241695], [-52.690176, -26.241652], [-52.690159, -26.241588], [-52.69013, -26.241474], [-52.690102, -26.24138], [-52.69009, -26.241315], [-52.690085, -26.241199], [-52.69007, -26.241051], [-52.690054, -26.240852], [-52.690037, -26.240721], [-52.690036, -26.240649], [-52.69004, -26.240548], [-52.690067, -26.240377], [-52.690108, -26.24019], [-52.690114, -26.240141], [-52.690124, -26.239964], [-52.690135, -26.239816], [-52.690146, -26.239675], [-52.690164, -26.239552], [-52.690183, -26.239452], [-52.690219, -26.239343], [-52.690257, -26.239252], [-52.690295, -26.239177], [-52.690349, -26.239084], [-52.690486, -26.238964], [-52.690787, -26.239111], [-52.691492, -26.239454], [-52.691939, -26.239667], [-52.692203, -26.239798], [-52.692743, -26.240057], [-52.692831, -26.239887], [-52.692942, -26.239694], [-52.69306, -26.239569], [-52.693205, -26.239418], [-52.693306, -26.239316], [-52.693417, -26.239199], [-52.693621, -26.238975], [-52.693414, -26.238834], [-52.693124, -26.238627], [-52.692997, -26.238526], [-52.692702, -26.238259], [-52.692661, -26.238217], [-52.692496, -26.238043], [-52.692429, -26.237971], [-52.69229, -26.237816], [-52.692137, -26.237619], [-52.692004, -26.23744], [-52.691894, -26.237286], [-52.691712, -26.237032], [-52.691252, -26.236376], [-52.691106, -26.236174], [-52.690929, -26.235917], [-52.690812, -26.235746], [-52.690658, -26.235503], [-52.690607, -26.235424], [-52.690495, -26.235219], [-52.690447, -26.235114], [-52.690384, -26.234961], [-52.690325, -26.234802], [-52.690291, -26.234698], [-52.690238, -26.234491], [-52.690196, -26.234287], [-52.69018, -26.234179], [-52.690157, -26.234021], [-52.690144, -26.233864], [-52.690128, -26.233706], [-52.690118, -26.233553], [-52.690114, -26.233516], [-52.690067, -26.232684], [-52.689916, -26.232684], [-52.689774, -26.232722], [-52.688373, -26.233242], [-52.688236, -26.233295], [-52.687988, -26.23353], [-52.687861, -26.23363], [-52.687437, -26.234015], [-52.68728, -26.233805], [-52.68693, -26.233492], [-52.686791, -26.233377], [-52.686017, -26.232818], [-52.685937, -26.232761], [-52.684926, -26.232632], [-52.683838, -26.23249], [-52.683773, -26.232462], [-52.683719, -26.232536], [-52.683557, -26.232833], [-52.68346, -26.233016], [-52.68336, -26.233192], [-52.683116, -26.233597], [-52.68302, -26.233771], [-52.682639, -26.234412], [-52.682232, -26.235087], [-52.681766, -26.235872], [-52.681264, -26.236702], [-52.682808, -26.23744], [-52.683834, -26.237939], [-52.684149, -26.242647]]]}, "properties": {"nsvia": "BAIRRO MENIDO DEUS"}},
{"type": "Feature", "geometry": {"type": "Polygon", "coordinates": [[[-52.680754, -26.257468], [-52.680985, -26.257863], [-52.681358, -26.258291], [-52.682435, -26.259291], [-52.682929, -26.259746], [-52.683391, -26.259625], [-52.683818, -26.259512], [-52.683496, -26.259228], [-52.68349, -26.25914], [-52.683488, -26.259103], [-52.683272, -26.258757], [-52.683156, -26.258567], [-52.683044, -26.258377], [-52.683082, -26.258338], [-52.683144, -26.258236], [-52.683221, -26.25811], [-52.683295, -26.258], [-52.683379, -26.25788], [-52.683541, -26.257648], [-52.683617, -26.257541], [-52.683735, -26.257375], [-52.683872, -26.257178], [-52.683904, -26.25717], [-52.68395, -26.257153], [-52.684001, -26.257142], [-52.684053, -26.257138], [-52.684144, -26.257124], [-52.684203, -26.257104], [-52.684248, -26.25708], [-52.684294, -26.257058], [-52.684338, -26.257033], [-52.684383, -26.257011], [-52.684433, -26.256994], [-52.684484, -26.256983], [-52.684535, -26.256974], [-52.684586, -26.256966], [-52.684638, -26.256961], [-52.68469, -26.256961], [-52.68474, -26.256967], [-52.684753, -26.256975], [-52.684789, -26.256917], [-52.684821, -26.256881], [-52.684859, -26.256847], [-52.684869, -26.2568], [-52.684875, -26.256754], [-52.684879, -26.256708], [-52.684891, -26.256627], [-52.684826, -26.256579], [-52.684793, -26.256554], [-52.684769, -26.256521], [-52.684755, -26.256478], [-52.684745, -26.256433], [-52.684754, -26.256389], [-52.684816, -26.256334], [-52.684826, -26.256266], [-52.684833, -26.256203], [-52.68486, -26.256146], [-52.684854, -26.256085], [-52.684841, -26.256039], [-52.684819, -26.255978], [-52.684808, -26.255944], [-52.684807, -26.255919], [-52.684841, -26.255882], [-52.68486, -26.25583], [-52.684882, -26.255786], [-52.68491, -26.255747], [-52.684935, -26.255708], [-52.684964, -26.255669], [-52.685019, -26.255622], [-52.685064, -26.255564], [-52.685095, -26.255528], [-52.685117, -26.255487], [-52.685144, -26.255447], [-52.685157, -26.255416], [-52.68518, -26.255364], [-52.685182, -26.255317], [-52.685198, -26.255251], [-52.685208, -26.255223], [-52.685213, -26.255176], [-52.685237, -26.255105], [-52.685239, -26.255045], [-52.68523, -26.254983], [-52.685238, -26.254951], [-52.685243, -26.254886], [-52.68525, -26.254835], [-52.685251, -26.254809], [-52.685278, -26.254703], [-52.685288, -26.254645], [-52.685313, -26.254609], [-52.685323, -26.254566], [-52.68533, -26.254473], [-52.685333, -26.254427], [-52.685333, -26.254383], [-52.685325, -26.254339], [-52.685318, -26.254293], [-52.685315, -26.254246], [-52.68531, -26.254201], [-52.685301, -26.254155], [-52.685289, -26.254111], [-52.685285, -26.254092], [-52.685297, -26.254033], [-52.685283, -26.253954], [-52.685268, -26.25387], [-52.685275, -26.253816], [-52.685279, -26.25377], [-52.685279, -26.253724], [-52.685281, -26.253678], [-52.685282, -26.253629], [-52.685282, -26.253583], [-52.685283, -26.253538], [-52.685281, -26.253493], [-52.685274, -26.253448], [-52.685272, -26.253399], [-52.685278, -26.253353], [-52.685285, -26.253308], [-52.685294, -26.253261], [-52.685306, -26.253213], [-52.685322, -26.253167], [-52.685333, -26.253123], [-52.685341, -26.253077], [-52.685356, -26.253032], [-52.685378, -26.252991], [-52.685392, -26.252948], [-52.685403, -26.252903], [-52.685411, -26.252858], [-52.685411, -26.252761], [-52.685408, -26.252728], [-52.684649, -26.252961], [-52.684334, -26.253057], [-52.683485, -26.253247], [-52.683354, -26.253272], [-52.682998, -26.253335], [-52.682941, -26.252707], [-52.682294, -26.252248], [-52.68219, -26.252176], [-52.681113, -26.252176], [-52.681064, -26.252304], [-52.680813, -26.252994], [-52.680679, -26.25337], [-52.679595, -26.253301], [-52.678823, -26.253637], [-52.678863, -26.253784], [-52.679135, -26.254469], [-52.679156, -26.254509], [-52.679769, -26.255634], [-52.679785, -26.25566], [-52.680754, -26.257468]]]}, "properties": {"nsvia": "BAIRRO MORUMBI"}},
{"type": "Feature", "geometry": {"type": "Polygon", "coordinates": [[[-52.663453, -26.253248], [-52.663468, -26.253268], [-52.663223, -26.253742], [-52.66322, -26.253772], [-52.663221, -26.253821], [-52.663218, -26.253868], [-52.663216, -26.253915], [-52.663212, -26.253961], [-52.663208, -26.254006], [-52.663202, -26.254054], [-52.663194, -26.2541], [-52.663183, -26.254146], [-52.663175, -26.254193], [-52.663169, -26.254238], [-52.66316, -26.254284], [-52.663147, -26.254328], [-52.663136, -26.254373], [-52.663126, -26.254417], [-52.663114, -26.254462], [-52.663106, -26.254509], [-52.663098, -26.254554], [-52.663083, -26.254598], [-52.663061, -26.25464], [-52.663038, -26.254681], [-52.663011, -26.254721], [-52.66298, -26.254756], [-52.662949, -26.254793], [-52.662935, -26.254837], [-52.662926, -26.254876], [-52.662966, -26.254933], [-52.66311, -26.255177], [-52.663267, -26.255433], [-52.66336, -26.255542], [-52.663447, -26.255626], [-52.663476, -26.255697], [-52.663503, -26.255805], [-52.663567, -26.255858], [-52.663672, -26.255896], [-52.663913, -26.255983], [-52.664031, -26.25599], [-52.664142, -26.255988], [-52.664243, -26.25597], [-52.664317, -26.25592], [-52.664563, -26.255919], [-52.66475, -26.255973], [-52.665081, -26.25613], [-52.665392, -26.256255], [-52.665618, -26.256362], [-52.665785, -26.256449], [-52.665811, -26.256488], [-52.665887, -26.256523], [-52.666037, -26.256545], [-52.666159, -26.256596], [-52.666331, -26.256604], [-52.666497, -26.256672], [-52.666666, -26.256709], [-52.666811, -26.256769], [-52.666951, -26.256817], [-52.667177, -26.256839], [-52.667219, -26.2568], [-52.667349, -26.256816], [-52.667509, -26.25679], [-52.667636, -26.2568], [-52.667746, -26.256829], [-52.667882, -26.256868], [-52.667973, -26.256893], [-52.668006, -26.256822], [-52.668018, -26.256745], [-52.668018, -26.256615], [-52.668015, -26.256363], [-52.668024, -26.256258], [-52.668043, -26.256183], [-52.668105, -26.256024], [-52.668125, -26.255965], [-52.668117, -26.255841], [-52.668159, -26.255801], [-52.668214, -26.255748], [-52.668285, -26.255598], [-52.668379, -26.255462], [-52.668496, -26.255324], [-52.668751, -26.25511], [-52.669297, -26.25473], [-52.671067, -26.25449], [-52.671206, -26.254475], [-52.671454, -26.254441], [-52.671687, -26.25441], [-52.671995, -26.254375], [-52.672333, -26.254329], [-52.672559, -26.254295], [-52.672612, -26.254261], [-52.672693, -26.254157], [-52.672809, -26.254056], [-52.672901, -26.25403], [-52.672974, -26.253974], [-52.67324, -26.253723], [-52.673361, -26.253603], [-52.673439, -26.253521], [-52.673561, -26.253394], [-52.673714, -26.253233], [-52.673787, -26.253156], [-52.674009, -26.25315], [-52.673809, -26.252469], [-52.673607, -26.251821], [-52.673592, -26.251757], [-52.673409, -26.251176], [-52.673346, -26.251171], [-52.673078, -26.251153], [-52.672951, -26.25114], [-52.672708, -26.25112], [-52.672468, -26.251102], [-52.672326, -26.251088], [-52.672015, -26.251062], [-52.671935, -26.251793], [-52.671923, -26.25192], [-52.670795, -26.25197], [-52.670598, -26.251979], [-52.670048, -26.25199], [-52.67003, -26.251919], [-52.669815, -26.251837], [-52.669377, -26.251666], [-52.669031, -26.251536], [-52.668861, -26.251472], [-52.668461, -26.251323], [-52.668189, -26.251217], [-52.667754, -26.251049], [-52.667266, -26.250861], [-52.666819, -26.250691], [-52.666531, -26.25058], [-52.666462, -26.250541], [-52.666497, -26.250494], [-52.666391, -26.250474], [-52.666216, -26.250558], [-52.666077, -26.250617], [-52.665891, -26.250701], [-52.665651, -26.250795], [-52.665193, -26.250952], [-52.664969, -26.251044], [-52.664836, -26.251132], [-52.664736, -26.251188], [-52.664622, -26.251273], [-52.664539, -26.251372], [-52.664464, -26.2515], [-52.664397, -26.251645], [-52.664305, -26.251882], [-52.664273, -26.25197], [-52.664227, -26.252008], [-52.664176, -26.252051], [-52.664089, -26.252193], [-52.663896, -26.252519], [-52.663672, -26.252884], [-52.663453, -26.253248]]]}, "properties": {"nsvia": "BAIRRO NOVO HORIZONTE"}},
{"type": "Feature", "geometry": {"type": "Polygon", "coordinates": [[[-52.689797, -26.228718], [-52.689833, -26.229077], [-52.689853, -26.229303], [-52.68996, -26.230936], [-52.689978, -26.231295], [-52.690067, -26.232711], [-52.690114, -26.233516], [-52.690118, -26.233553], [-52.690128, -26.233706], [-52.690144, -26.233864], [-52.690157, -26.234021], [-52.69018, -26.234179], [-52.690196, -26.234287], [-52.690238, -26.234491], [-52.690291, -26.234698], [-52.690325, -26.234802], [-52.690384, -26.234961], [-52.690447, -26.235114], [-52.690495, -26.235219], [-52.690607, -26.235424], [-52.690658, -26.235503], [-52.690812, -26.235746], [-52.690929, -26.235917], [-52.691106, -26.236174], [-52.691252, -26.236376], [-52.691712, -26.237032], [-52.691894, -26.237286], [-52.692004, -26.23744], [-52.692137, -26.237619], [-52.69229, -26.237816], [-52.692429, -26.237971], [-52.692496, -26.238043], [-52.6928, -26.237815], [-52.693302, -26.237426], [-52.693608, -26.237186], [-52.694098, -26.236783], [-52.694276, -26.236654], [-52.694548, -26.236452], [-52.694783, -26.23627], [-52.695582, -26.235648], [-52.699071, -26.235655], [-52.699176, -26.233646], [-52.704144, -26.233722], [-52.704235, -26.233754], [-52.704238, -26.233712], [-52.704293, -26.231985], [-52.704329, -26.231309], [-52.704523, -26.230962], [-52.705496, -26.229758], [-52.705725, -26.229201], [-52.705523, -26.228232], [-52.704915, -26.227508], [-52.704099, -26.226644], [-52.703884, -26.226271], [-52.703863, -26.224181], [-52.704143, -26.223845], [-52.704143, -26.222795], [-52.703944, -26.222703], [-52.703726, -26.222622], [-52.703449, -26.222536], [-52.703226, -26.222483], [-52.702767, -26.22238], [-52.702116, -26.222233], [-52.701586, -26.222102], [-52.701087, -26.221978], [-52.700326, -26.222942], [-52.691519, -26.217446], [-52.68968, -26.220726], [-52.689409, -26.221049], [-52.688889, -26.221575], [-52.690748, -26.223111], [-52.688213, -26.224763], [-52.688281, -26.22487], [-52.688353, -26.224995], [-52.688559, -26.225338], [-52.688697, -26.225604], [-52.688843, -26.225921], [-52.688985, -26.226234], [-52.689049, -26.226377], [-52.689179, -26.226662], [-52.689389, -26.227142], [-52.689499, -26.227447], [-52.68961, -26.227784], [-52.689682, -26.228048], [-52.689758, -26.228434], [-52.689797, -26.228718]]]}, "properties": {"nsvia": "BAIRRO PAGNONCELLI"}},
{"type": "Feature", "geometry": {"type": "Polygon", "coordinates": [[[-52.647152, -26.238122], [-52.647889, -26.238435], [-52.654143, -26.238363], [-52.654137, -26.238042], [-52.654106, -26.236182], [-52.654064, -26.231793], [-52.653564, -26.232182], [-52.653553, -26.231335], [-52.653338, -26.23121], [-52.653026, -26.23078], [-52.652859, -26.230392], [-52.652736, -26.230028], [-52.652682, -26.229812], [-52.652642, -26.229404], [-52.65265, -26.22925], [-52.648887, -26.229051], [-52.64889, -26.230179], [-52.647152, -26.238122]]]}, "properties": {"nsvia": "BAIRRO PARQUE DO SOM"}},
{"type": "Feature", "geometry": {"type": "Polygon", "coordinates": [[[-52.648887, -26.229051], [-52.65265, -26.22925], [-52.652642, -26.229404], [-52.652682, -26.229812], [-52.652736, -26.230028], [-52.652859, -26.230392], [-52.653026, -26.23078], [-52.653338, -26.23121], [-52.653553, -26.231335], [-52.653564, -26.232182], [-52.654064, -26.231793], [-52.656071, -26.230948], [-52.658524, -26.230918], [-52.658527, -26.230802], [-52.65787, -26.229026], [-52.667217, -26.227956], [-52.666724, -26.224257], [-52.665591, -26.22438], [-52.659462, -26.22384], [-52.659415, -26.224613], [-52.654585, -26.224442], [-52.653699, -26.224395], [-52.648808, -26.223915], [-52.648887, -26.229051]]]}, "properties": {"nsvia": "BAIRRO PARZIANELLO"}},
{"type": "Feature", "geometry": {"type": "Polygon", "coordinates": [[[-52.677273, -26.247699], [-52.677214, -26.248038], [-52.677219, -26.248197], [-52.677296, -26.248543], [-52.677469, -26.249123], [-52.677682, -26.24983], [-52.677899, -26.250554], [-52.678241, -26.2517], [-52.678275, -26.251822], [-52.678823, -26.253637], [-52.679595, -26.253301], [-52.680679, -26.25337], [-52.680813, -26.252994], [-52.681064, -26.252304], [-52.681113, -26.252176], [-52.68219, -26.252176], [-52.682294, -26.252248], [-52.682941, -26.252707], [-52.682998, -26.253335], [-52.683354, -26.253272], [-52.683485, -26.253247], [-52.684334, -26.253057], [-52.684649, -26.252961], [-52.685408, -26.252728], [-52.685405, -26.252688], [-52.685371, -26.252602], [-52.685337, -26.252561], [-52.6853, -26.252524], [-52.685271, -26.252484], [-52.685204, -26.252428], [-52.685132, -26.252395], [-52.685055, -26.252387], [-52.685007, -26.252386], [-52.684949, -26.252384], [-52.684843, -26.252377], [-52.684798, -26.252364], [-52.684758, -26.252332], [-52.684718, -26.252302], [-52.684679, -26.252268], [-52.684645, -26.252233], [-52.684615, -26.252195], [-52.684591, -26.252153], [-52.684569, -26.252111], [-52.684555, -26.252065], [-52.68455, -26.251989], [-52.684532, -26.251929], [-52.684492, -26.251843], [-52.684463, -26.251778], [-52.684418, -26.251723], [-52.684349, -26.25165], [-52.684319, -26.25161], [-52.684297, -26.251565], [-52.684284, -26.251515], [-52.68428, -26.251466], [-52.684292, -26.25142], [-52.68432, -26.251375], [-52.684346, -26.251336], [-52.684352, -26.251291], [-52.684349, -26.251245], [-52.684353, -26.251196], [-52.68436, -26.251148], [-52.684364, -26.251102], [-52.684379, -26.251056], [-52.684381, -26.251012], [-52.684404, -26.250966], [-52.684437, -26.250922], [-52.684484, -26.250883], [-52.684517, -26.250851], [-52.684561, -26.250818], [-52.684634, -26.250764], [-52.684669, -26.250729], [-52.684702, -26.250692], [-52.684741, -26.250655], [-52.684776, -26.250624], [-52.684829, -26.25058], [-52.684857, -26.250514], [-52.684875, -26.250477], [-52.684868, -26.250411], [-52.684867, -26.250367], [-52.684865, -26.250319], [-52.684863, -26.250274], [-52.684862, -26.250226], [-52.684863, -26.250179], [-52.684865, -26.250129], [-52.684873, -26.250076], [-52.68492, -26.249998], [-52.684883, -26.24995], [-52.684867, -26.24989], [-52.68488, -26.24984], [-52.684894, -26.249818], [-52.684893, -26.249743], [-52.684877, -26.249675], [-52.684856, -26.249631], [-52.684836, -26.249582], [-52.684819, -26.249534], [-52.684826, -26.24943], [-52.684821, -26.249342], [-52.68477, -26.249292], [-52.684734, -26.249253], [-52.684702, -26.24921], [-52.684685, -26.249162], [-52.68467, -26.249116], [-52.684669, -26.249064], [-52.684729, -26.24905], [-52.684784, -26.249048], [-52.684835, -26.249047], [-52.684891, -26.249049], [-52.684981, -26.249055], [-52.684999, -26.249018], [-52.685001, -26.24897], [-52.684996, -26.248918], [-52.684989, -26.248815], [-52.684987, -26.248762], [-52.684989, -26.248714], [-52.684995, -26.248662], [-52.685008, -26.248612], [-52.685017, -26.248528], [-52.685005, -26.248462], [-52.684988, -26.248413], [-52.684967, -26.248367], [-52.684939, -26.248291], [-52.684908, -26.248236], [-52.68489, -26.248183], [-52.684913, -26.248134], [-52.684937, -26.248087], [-52.68496, -26.24802], [-52.684927, -26.247984], [-52.684885, -26.247963], [-52.684803, -26.247937], [-52.684725, -26.247918], [-52.684675, -26.247902], [-52.684627, -26.247886], [-52.684577, -26.247871], [-52.684493, -26.247837], [-52.684416, -26.247831], [-52.684366, -26.247811], [-52.684291, -26.247767], [-52.684221, -26.247768], [-52.684164, -26.247753], [-52.68412, -26.247719], [-52.684075, -26.247662], [-52.684059, -26.247617], [-52.684045, -26.247564], [-52.684008, -26.247482], [-52.683976, -26.247417], [-52.683949, -26.247373], [-52.683921, -26.247331], [-52.683895, -26.247287], [-52.683872, -26.247243], [-52.683857, -26.247194], [-52.68384, -26.247149], [-52.683823, -26.247102], [-52.683824, -26.247054], [-52.683823, -26.247007], [-52.683833, -26.246952], [-52.683844, -26.246905], [-52.683864, -26.246815], [-52.683867, -26.246763], [-52.683865, -26.246671], [-52.683864, -26.24662], [-52.683867, -26.246572], [-52.683881, -26.246514], [-52.683897, -26.246466], [-52.683923, -26.24642], [-52.683947, -26.246379], [-52.683958, -26.246347], [-52.683989, -26.246262], [-52.684615, -26.24642], [-52.684897, -26.246488], [-52.685066, -26.246131], [-52.68527, -26.245678], [-52.685471, -26.245245], [-52.685892, -26.244307], [-52.686019, -26.244158], [-52.686014, -26.244148], [-52.686004, -26.244082], [-52.686007, -26.244039], [-52.686053, -26.243965], [-52.686016, -26.243901], [-52.685979, -26.243867], [-52.685941, -26.24383], [-52.685895, -26.243798], [-52.685816, -26.243755], [-52.685743, -26.24374], [-52.685687, -26.243738], [-52.685631, -26.243738], [-52.685575, -26.243722], [-52.685524, -26.2437], [-52.685471, -26.243676], [-52.685407, -26.243689], [-52.685369, -26.243732], [-52.685343, -26.243777], [-52.685318, -26.243811], [-52.685276, -26.243835], [-52.685196, -26.243894], [-52.685157, -26.243927], [-52.68511, -26.243955], [-52.685062, -26.243981], [-52.685017, -26.244], [-52.684973, -26.24402], [-52.684927, -26.244032], [-52.684875, -26.244032], [-52.684823, -26.244033], [-52.684775, -26.244021], [-52.684739, -26.243999], [-52.68472, -26.243964], [-52.68472, -26.243926], [-52.684745, -26.243888], [-52.684777, -26.243854], [-52.684812, -26.243824], [-52.684895, -26.243787], [-52.684886, -26.24372], [-52.684844, -26.243679], [-52.684796, -26.243655], [-52.684728, -26.243634], [-52.684668, -26.243582], [-52.684626, -26.243539], [-52.684596, -26.243494], [-52.68456, -26.243449], [-52.684525, -26.243409], [-52.684489, -26.243365], [-52.684459, -26.243325], [-52.684431, -26.243276], [-52.684403, -26.243222], [-52.684377, -26.243176], [-52.684357, -26.243133], [-52.684346, -26.243092], [-52.68434, -26.24304], [-52.684316, -26.242956], [-52.68427, -26.242899], [-52.684238, -26.242858], [-52.684217, -26.242819], [-52.684198, -26.242777], [-52.684178, -26.242727], [-52.684149, -26.242647], [-52.683523, -26.242691], [-52.68291, -26.242719], [-52.682851, -26.242739], [-52.682785, -26.242816], [-52.682766, -26.242898], [-52.682048, -26.242927], [-52.681557, -26.242956], [-52.68074, -26.242991], [-52.680226, -26.243016], [-52.679793, -26.243036], [-52.678061, -26.24312], [-52.677347, -26.243152], [-52.677332, -26.24347], [-52.677253, -26.244173], [-52.677158, -26.245129], [-52.677098, -26.2452], [-52.677198, -26.245592], [-52.677367, -26.246307], [-52.677485, -26.246762], [-52.677481, -26.246855], [-52.677463, -26.247002], [-52.677273, -26.247699]]]}, "properties": {"nsvia": "BAIRRO PINHEIRINHO"}},
{"type": "Feature", "geometry": {"type": "Polygon", "coordinates": [[[-52.659704, -26.220617], [-52.659747, -26.222019], [-52.660191, -26.221962], [-52.662466, -26.221715], [-52.664613, -26.221469], [-52.665211, -26.221391], [-52.666301, -26.221261], [-52.666266, -26.220969], [-52.666171, -26.220317], [-52.666068, -26.219551], [-52.666044, -26.219367], [-52.666266, -26.218839], [-52.666507, -26.218299], [-52.664806, -26.218244], [-52.659813, -26.218615], [-52.659719, -26.218655], [-52.659723, -26.219662], [-52.659704, -26.220617]]]}, "properties": {"nsvia": "BAIRRO PINHEIROS"}},
{"type": "Feature", "geometry": {"type": "Polygon", "coordinates": [[[-52.698579, -26.243984], [-52.698881, -26.244168], [-52.699066, -26.244273], [-52.69917, -26.244329], [-52.699478, -26.244495], [-52.699636, -26.244579], [-52.699866, -26.244703], [-52.700143, -26.244853], [-52.700348, -26.244969], [-52.700645, -26.245127], [-52.700814, -26.245218], [-52.700924, -26.245266], [-52.702606, -26.246192], [-52.702714, -26.246245], [-52.70322, -26.246512], [-52.70435, -26.247161], [-52.704762, -26.247445], [-52.705229, -26.247862], [-52.70577, -26.248436], [-52.706039, -26.248812], [-52.706315, -26.249261], [-52.7081, -26.252829], [-52.708467, -26.253619], [-52.708648, -26.25416], [-52.708763, -26.254709], [-52.708813, -26.255133], [-52.708826, -26.255669], [-52.708724, -26.256522], [-52.708598, -26.257157], [-52.708573, -26.25765], [-52.708576, -26.257814], [-52.708582, -26.257974], [-52.708685, -26.258715], [-52.710859, -26.258798], [-52.710953, -26.25438], [-52.713189, -26.254419], [-52.713102, -26.250039], [-52.709585, -26.250081], [-52.709567, -26.24885], [-52.710245, -26.246766], [-52.710552, -26.246572], [-52.710856, -26.246168], [-52.711186, -26.245021], [-52.711132, -26.243581], [-52.711091, -26.241909], [-52.710201, -26.2404], [-52.708533, -26.239114], [-52.708693, -26.237414], [-52.708894, -26.236343], [-52.709283, -26.235902], [-52.709587, -26.235605], [-52.704144, -26.233722], [-52.699176, -26.233646], [-52.699087, -26.235408], [-52.698806, -26.239748], [-52.698579, -26.243984]]]}, "properties": {"nsvia": "BAIRRO PLANALTO"}},
{"type": "Feature", "geometry": {"type": "Polygon", "coordinates": [[[-52.678366, -26.225992], [-52.678986, -26.226288], [-52.680272, -26.226913], [-52.681116, -26.227321], [-52.682046, -26.227769], [-52.682884, -26.228172], [-52.682949, -26.22821], [-52.683899, -26.227579], [-52.684166, -26.227533], [-52.684723, -26.227444], [-52.685345, -26.227354], [-52.685456, -26.227338], [-52.685858, -26.22707], [-52.685878, -26.227023], [-52.685809, -26.226868], [-52.685595, -26.226387], [-52.685437, -26.226029], [-52.685068, -26.225749], [-52.684355, -26.225201], [-52.684053, -26.224963], [-52.683518, -26.224557], [-52.68295, -26.224116], [-52.68204, -26.22342], [-52.681041, -26.222641], [-52.680981, -26.222707], [-52.68088, -26.222797], [-52.680588, -26.223084], [-52.680122, -26.223567], [-52.679517, -26.224198], [-52.679283, -26.224451], [-52.679176, -26.224618], [-52.67862, -26.225559], [-52.678366, -26.225992]]]}, "properties": {"nsvia": "BAIRRO SAMBUGARO"}},
{"type": "Feature", "geometry": {"type": "Polygon", "coordinates": [[[-52.674514, -26.238347], [-52.674589, -26.23951], [-52.674297, -26.239523], [-52.673531, -26.239565], [-52.672829, -26.2396], [-52.672484, -26.239613], [-52.672297, -26.239623], [-52.672337, -26.240328], [-52.672366, -26.240582], [-52.672412, -26.240782], [-52.672504, -26.240968], [-52.673084, -26.241562], [-52.673694, -26.242161], [-52.674257, -26.242733], [-52.674728, -26.243201], [-52.674813, -26.243296], [-52.674778, -26.242716], [-52.674749, -26.242147], [-52.674995, -26.242136], [-52.675289, -26.242124], [-52.67581, -26.242097], [-52.676202, -26.242081], [-52.676463, -26.242073], [-52.676995, -26.242046], [-52.677273, -26.242032], [-52.677285, -26.242149], [-52.677312, -26.242687], [-52.677347, -26.243152], [-52.678061, -26.24312], [-52.679793, -26.243036], [-52.680226, -26.243016], [-52.68074, -26.242991], [-52.681557, -26.242956], [-52.682048, -26.242927], [-52.682766, -26.242898], [-52.682785, -26.242816], [-52.682867, -26.242721], [-52.683523, -26.242691], [-52.684149, -26.242647], [-52.683834, -26.237939], [-52.682808, -26.23744], [-52.681264, -26.236702], [-52.67852, -26.235397], [-52.678414, -26.235347], [-52.677087, -26.234715], [-52.675985, -26.234191], [-52.67535, -26.23526], [-52.675048, -26.23578], [-52.674705, -26.236343], [-52.674438, -26.236817], [-52.674514, -26.238347]]]}, "properties": {"nsvia": "BAIRRO SANTA TEREZINHA"}},
{"type": "Feature", "geometry": {"type": "Polygon", "coordinates": [[[-52.672768, -26.26016], [-52.672787, -26.260193], [-52.6728, -26.260225], [-52.672829, -26.260269], [-52.672852, -26.260297], [-52.672889, -26.260351], [-52.672934, -26.260397], [-52.672987, -26.260449], [-52.673073, -26.260477], [-52.673135, -26.260492], [-52.6732, -26.260514], [-52.673283, -26.260518], [-52.673355, -26.260522], [-52.67341, -26.260524], [-52.673485, -26.260525], [-52.673535, -26.260515], [-52.6736, -26.260516], [-52.673651, -26.260531], [-52.673692, -26.260561], [-52.673739, -26.260615], [-52.673785, -26.26068], [-52.67382, -26.260747], [-52.673827, -26.260786], [-52.67385, -26.260847], [-52.673894, -26.260897], [-52.673907, -26.260939], [-52.673948, -26.260976], [-52.674048, -26.261062], [-52.674068, -26.261117], [-52.674125, -26.261179], [-52.674186, -26.261255], [-52.674217, -26.261332], [-52.674222, -26.261387], [-52.674253, -26.261459], [-52.674322, -26.261563], [-52.67491, -26.261573], [-52.675144, -26.26158], [-52.675303, -26.261589], [-52.675509, -26.261601], [-52.675664, -26.26161], [-52.675946, -26.261627], [-52.676177, -26.261641], [-52.676267, -26.261649], [-52.676363, -26.261652], [-52.676405, -26.261721], [-52.676469, -26.261725], [-52.676955, -26.261739], [-52.677113, -26.261744], [-52.677495, -26.261755], [-52.67778, -26.261763], [-52.677891, -26.261766], [-52.67804, -26.26177], [-52.67841, -26.261781], [-52.679842, -26.26182], [-52.681161, -26.261861], [-52.683436, -26.261926], [-52.684697, -26.261963], [-52.685266, -26.261969], [-52.685233, -26.261922], [-52.684985, -26.261627], [-52.684751, -26.261418], [-52.684411, -26.261101], [-52.683932, -26.260671], [-52.682929, -26.259746], [-52.682926, -26.259747], [-52.682927, -26.259744], [-52.682435, -26.259291], [-52.681358, -26.258291], [-52.680985, -26.257863], [-52.680754, -26.257468], [-52.679785, -26.25566], [-52.679769, -26.255634], [-52.677407, -26.256646], [-52.677429, -26.257191], [-52.675848, -26.258008], [-52.676223, -26.258595], [-52.675527, -26.258887], [-52.675197, -26.258473], [-52.675127, -26.258392], [-52.674967, -26.258509], [-52.674469, -26.258821], [-52.674062, -26.259081], [-52.673859, -26.259223], [-52.673553, -26.259415], [-52.673355, -26.259539], [-52.673219, -26.259616], [-52.673116, -26.259679], [-52.672943, -26.259777], [-52.672776, -26.259863], [-52.672679, -26.259916], [-52.67255, -26.260002], [-52.672418, -26.260097], [-52.672345, -26.260157], [-52.672277, -26.260233], [-52.672374, -26.260257], [-52.67246, -26.260236], [-52.672514, -26.260195], [-52.67258, -26.26017], [-52.672637, -26.26015], [-52.672676, -26.260119], [-52.672716, -26.260119], [-52.672768, -26.26016]]]}, "properties": {"nsvia": "BAIRRO SANTO ANTONIO"}},
{"type": "Feature", "geometry": {"type": "Polygon", "coordinates": [[[-52.684945, -26.269815], [-52.684895, -26.270092], [-52.684863, -26.270522], [-52.684649, -26.271143], [-52.685079, -26.27081], [-52.685173, -26.270866], [-52.685364, -26.270812], [-52.685542, -26.270702], [-52.685732, -26.270154], [-52.686502, -26.269482], [-52.686921, -26.269218], [-52.687411, -26.269029], [-52.687604, -26.268832], [-52.687877, -26.268589], [-52.687956, -26.268478], [-52.688007, -26.268373], [-52.688158, -26.268084], [-52.688236, -26.267812], [-52.688288, -26.267588], [-52.688913, -26.26757], [-52.689399, -26.267636], [-52.690157, -26.267736], [-52.690414, -26.267981], [-52.690507, -26.268139], [-52.691335, -26.267916], [-52.692045, -26.267806], [-52.692874, -26.267735], [-52.694202, -26.26766], [-52.6953, -26.267592], [-52.696033, -26.267548], [-52.696254, -26.267923], [-52.696417, -26.26813], [-52.696704, -26.268456], [-52.696876, -26.268601], [-52.697289, -26.268584], [-52.697916, -26.268572], [-52.698209, -26.268175], [-52.698307, -26.26793], [-52.698313, -26.267565], [-52.698306, -26.267421], [-52.70096, -26.267257], [-52.702096, -26.267297], [-52.702642, -26.26741], [-52.703202, -26.267519], [-52.704272, -26.267935], [-52.706191, -26.268777], [-52.708552, -26.269817], [-52.710025, -26.270335], [-52.710904, -26.270627], [-52.711491, -26.270323], [-52.711756, -26.269626], [-52.711749, -26.269435], [-52.711751, -26.269266], [-52.711178, -26.267813], [-52.710925, -26.26733], [-52.710558, -26.266956], [-52.709235, -26.266342], [-52.70867, -26.266121], [-52.708202, -26.265838], [-52.707723, -26.265288], [-52.707534, -26.26484], [-52.707477, -26.264496], [-52.707498, -26.264066], [-52.707632, -26.263623], [-52.707785, -26.263165], [-52.707819, -26.263046], [-52.707501, -26.263029], [-52.697404, -26.262316], [-52.695995, -26.262287], [-52.685266, -26.261969], [-52.685469, -26.262413], [-52.685477, -26.26246], [-52.685497, -26.262703], [-52.685499, -26.262839], [-52.685489, -26.263312], [-52.684945, -26.269815]]]}, "properties": {"nsvia": "BAIRRO SAO CRITOVAO"}},
{"type": "Feature", "geometry": {"type": "Polygon", "coordinates": [[[-52.714098, -26.236116], [-52.718313, -26.236332], [-52.718617, -26.231765], [-52.714412, -26.23153], [-52.714098, -26.236116]]]}, "properties": {"nsvia": "BAIRRO SAO JOAO"}},
{"type": "Feature", "geometry": {"type": "Polygon", "coordinates": [[[-52.647255, -26.209478], [-52.646838, -26.21031], [-52.646584, -26.210785], [-52.645895, -26.212117], [-52.645757, -26.212351], [-52.66283, -26.212621], [-52.665444, -26.212861], [-52.666452, -26.212953], [-52.667785, -26.212322], [-52.66779, -26.212669], [-52.668544, -26.21266], [-52.668725, -26.212697], [-52.669141, -26.212703], [-52.66925, -26.21276], [-52.670783, -26.212812], [-52.670775, -26.211662], [-52.670756, -26.209367], [-52.67066, -26.208784], [-52.670516, -26.207448], [-52.670422, -26.206632], [-52.670513, -26.205577], [-52.670202, -26.205415], [-52.670196, -26.206243], [-52.648424, -26.206064], [-52.648468, -26.206287], [-52.648244, -26.207052], [-52.647799, -26.208051], [-52.647255, -26.209478]]]}, "properties": {"nsvia": "BAIRRO SAO LUIZ"}},
{"type": "Feature", "geometry": {"type": "Polygon", "coordinates": [[[-52.683932, -26.260671], [-52.684411, -26.261101], [-52.684751, -26.261418], [-52.684985, -26.261627], [-52.685233, -26.261922], [-52.685266, -26.261969], [-52.695995, -26.262287], [-52.697404, -26.262316], [-52.707501, -26.263029], [-52.707819, -26.263046], [-52.708284, -26.262174], [-52.70861, -26.261342], [-52.708776, -26.260589], [-52.708769, -26.260425], [-52.708783, -26.260262], [-52.708791, -26.260172], [-52.708783, -26.260062], [-52.708821, -26.259522], [-52.708685, -26.258715], [-52.708582, -26.257974], [-52.708576, -26.257814], [-52.708573, -26.25765], [-52.708598, -26.257157], [-52.708724, -26.256522], [-52.697789, -26.255937], [-52.697917, -26.254068], [-52.697252, -26.254277], [-52.697154, -26.254297], [-52.696876, -26.254384], [-52.69649, -26.25451], [-52.696101, -26.254636], [-52.696006, -26.254666], [-52.695476, -26.254834], [-52.694593, -26.255097], [-52.694436, -26.255144], [-52.694064, -26.25525], [-52.693554, -26.255422], [-52.693486, -26.255443], [-52.693323, -26.255491], [-52.69308, -26.255557], [-52.692496, -26.255732], [-52.690529, -26.256263], [-52.690555, -26.255617], [-52.689411, -26.255791], [-52.688315, -26.255832], [-52.687152, -26.255366], [-52.685781, -26.254788], [-52.685278, -26.254703], [-52.685251, -26.254809], [-52.68525, -26.254835], [-52.685243, -26.254886], [-52.685238, -26.254951], [-52.68523, -26.254983], [-52.685239, -26.255045], [-52.685237, -26.255105], [-52.685213, -26.255176], [-52.685208, -26.255223], [-52.685198, -26.255251], [-52.685182, -26.255317], [-52.68518, -26.255364], [-52.685157, -26.255416], [-52.685144, -26.255447], [-52.685117, -26.255487], [-52.685095, -26.255528], [-52.685064, -26.255564], [-52.685019, -26.255622], [-52.684964, -26.255669], [-52.684935, -26.255708], [-52.68491, -26.255747], [-52.684882, -26.255786], [-52.68486, -26.25583], [-52.684841, -26.255882], [-52.684807, -26.255919], [-52.684808, -26.255944], [-52.684819, -26.255978], [-52.684841, -26.256039], [-52.684854, -26.256085], [-52.68486, -26.256146], [-52.684833, -26.256203], [-52.684826, -26.256266], [-52.684816, -26.256334], [-52.684754, -26.256389], [-52.684745, -26.256433], [-52.684755, -26.256478], [-52.684769, -26.256521], [-52.684793, -26.256554], [-52.684826, -26.256579], [-52.684891, -26.256627], [-52.684879, -26.256708], [-52.684875, -26.256754], [-52.684869, -26.2568], [-52.684859, -26.256847], [-52.684821, -26.256881], [-52.684789, -26.256917], [-52.684753, -26.256975], [-52.68474, -26.256967], [-52.68469, -26.256961], [-52.684638, -26.256961], [-52.684586, -26.256966], [-52.684535, -26.256974], [-52.684484, -26.256983], [-52.684433, -26.256994], [-52.684383, -26.257011], [-52.684338, -26.257033], [-52.684294, -26.257058], [-52.684248, -26.25708], [-52.684203, -26.257104], [-52.684144, -26.257124], [-52.684053, -26.257138], [-52.684001, -26.257142], [-52.68395, -26.257153], [-52.683904, -26.25717], [-52.683872, -26.257178], [-52.683735, -26.257375], [-52.683617, -26.257541], [-52.683541, -26.257648], [-52.683379, -26.25788], [-52.683295, -26.258], [-52.683221, -26.25811], [-52.683144, -26.258236], [-52.683082, -26.258338], [-52.683044, -26.258377], [-52.683156, -26.258567], [-52.683272, -26.258757], [-52.683488, -26.259103], [-52.68349, -26.25914], [-52.683496, -26.259228], [-52.683818, -26.259512], [-52.683391, -26.259625], [-52.682929, -26.259746], [-52.683932, -26.260671]]]}, "properties": {"nsvia": "BAIRRO SAO ROQUE"}},
{"type": "Feature", "geometry": {"type": "Polygon", "coordinates": [[[-52.668672, -26.243434], [-52.668512, -26.244084], [-52.668393, -26.244641], [-52.668335, -26.244845], [-52.668239, -26.245273], [-52.668111, -26.245823], [-52.667985, -26.246336], [-52.667893, -26.246722], [-52.667787, -26.247174], [-52.667658, -26.247708], [-52.667607, -26.247919], [-52.668945, -26.248251], [-52.672559, -26.24514], [-52.67265, -26.24507], [-52.673241, -26.244585], [-52.674006, -26.243963], [-52.674813, -26.243296], [-52.674728, -26.243201], [-52.674257, -26.242733], [-52.673694, -26.242161], [-52.673084, -26.241562], [-52.672504, -26.240968], [-52.672412, -26.240782], [-52.672366, -26.240582], [-52.672337, -26.240328], [-52.672297, -26.239623], [-52.671618, -26.239659], [-52.671086, -26.239687], [-52.670426, -26.239723], [-52.669966, -26.239751], [-52.669613, -26.239582], [-52.669499, -26.24004], [-52.669181, -26.241337], [-52.66911, -26.241638], [-52.668953, -26.242261], [-52.668793, -26.242928], [-52.668672, -26.243434]]]}, "properties": {"nsvia": "BAIRRO SAO VICENTE"}},
{"type": "Feature", "geometry": {"type": "Polygon", "coordinates": [[[-52.671902, -26.255476], [-52.670055, -26.257636], [-52.669949, -26.257696], [-52.669963, -26.257746], [-52.669972, -26.2578], [-52.669985, -26.257849], [-52.67, -26.257894], [-52.670025, -26.257942], [-52.670055, -26.257982], [-52.670088, -26.25802], [-52.670128, -26.258057], [-52.670169, -26.258085], [-52.670219, -26.258124], [-52.67025, -26.258143], [-52.6703, -26.258177], [-52.670339, -26.258197], [-52.670396, -26.258217], [-52.670438, -26.25823], [-52.670467, -26.258215], [-52.670476, -26.258173], [-52.670476, -26.258074], [-52.670514, -26.258044], [-52.670565, -26.258045], [-52.670613, -26.25806], [-52.670657, -26.258082], [-52.670706, -26.258095], [-52.670755, -26.258105], [-52.670799, -26.258133], [-52.67083, -26.258169], [-52.670851, -26.258215], [-52.670853, -26.258261], [-52.670857, -26.258316], [-52.67087, -26.258366], [-52.670883, -26.258413], [-52.670853, -26.25845], [-52.670838, -26.258494], [-52.670859, -26.258535], [-52.670888, -26.258577], [-52.670918, -26.25862], [-52.670947, -26.258663], [-52.67098, -26.258698], [-52.671018, -26.258736], [-52.671043, -26.258783], [-52.671053, -26.258832], [-52.671069, -26.258883], [-52.671076, -26.258937], [-52.671122, -26.258974], [-52.671155, -26.259001], [-52.6712, -26.259032], [-52.671239, -26.259045], [-52.671277, -26.259076], [-52.671325, -26.259098], [-52.671365, -26.259132], [-52.671361, -26.259179], [-52.671357, -26.259224], [-52.67135, -26.25927], [-52.671367, -26.259318], [-52.671402, -26.259354], [-52.671443, -26.259382], [-52.671484, -26.259414], [-52.671505, -26.259456], [-52.67149, -26.259499], [-52.671486, -26.259544], [-52.671518, -26.25958], [-52.671564, -26.2596], [-52.671606, -26.259627], [-52.671643, -26.259659], [-52.671681, -26.259696], [-52.671728, -26.259713], [-52.671778, -26.259718], [-52.671832, -26.259716], [-52.671885, -26.259732], [-52.671921, -26.259765], [-52.671921, -26.25986], [-52.671929, -26.259896], [-52.671947, -26.259914], [-52.671984, -26.259932], [-52.672018, -26.259949], [-52.672011, -26.259994], [-52.67204, -26.260039], [-52.672073, -26.260068], [-52.67213, -26.260068], [-52.672166, -26.260123], [-52.672197, -26.260196], [-52.672277, -26.260233], [-52.672345, -26.260157], [-52.672418, -26.260097], [-52.67255, -26.260002], [-52.672679, -26.259916], [-52.672776, -26.259863], [-52.672943, -26.259777], [-52.673116, -26.259679], [-52.673219, -26.259616], [-52.673355, -26.259539], [-52.673553, -26.259415], [-52.673859, -26.259223], [-52.674062, -26.259081], [-52.674469, -26.258821], [-52.674967, -26.258509], [-52.675127, -26.258392], [-52.675197, -26.258473], [-52.675527, -26.258887], [-52.676223, -26.258595], [-52.675848, -26.258008], [-52.677429, -26.257191], [-52.677407, -26.256646], [-52.679769, -26.255634], [-52.679156, -26.254509], [-52.679135, -26.254469], [-52.678863, -26.253784], [-52.678823, -26.253637], [-52.677953, -26.25384], [-52.677195, -26.254018], [-52.677201, -26.254128], [-52.677119, -26.254254], [-52.677016, -26.254326], [-52.676979, -26.254341], [-52.676855, -26.254351], [-52.676719, -26.254293], [-52.676639, -26.254198], [-52.676597, -26.254068], [-52.676602, -26.254004], [-52.675852, -26.254009], [-52.674858, -26.254016], [-52.673824, -26.254028], [-52.6732, -26.254026], [-52.672901, -26.25403], [-52.672809, -26.254056], [-52.672693, -26.254157], [-52.672612, -26.254261], [-52.672559, -26.254295], [-52.672333, -26.254329], [-52.671995, -26.254375], [-52.671687, -26.25441], [-52.671902, -26.255476]]]}, "properties": {"nsvia": "BAIRRO SUDOESTE"}},
{"type": "Feature", "geometry": {"type": "Polygon", "coordinates": [[[-52.676735, -26.219154], [-52.676578, -26.219471], [-52.677234, -26.219961], [-52.678129, -26.220661], [-52.679097, -26.221407], [-52.679932, -26.222054], [-52.68088, -26.222797], [-52.680981, -26.222707], [-52.681041, -26.222641], [-52.68204, -26.22342], [-52.68295, -26.224116], [-52.682994, -26.224067], [-52.683391, -26.223648], [-52.683416, -26.223612], [-52.683955, -26.223064], [-52.684232, -26.22277], [-52.684249, -26.222738], [-52.684103, -26.222382], [-52.684661, -26.221944], [-52.685004, -26.221606], [-52.684305, -26.221069], [-52.683614, -26.220555], [-52.682933, -26.220021], [-52.682701, -26.219827], [-52.682509, -26.219638], [-52.682323, -26.219454], [-52.682095, -26.219196], [-52.681903, -26.218933], [-52.681714, -26.218643], [-52.681556, -26.218383], [-52.681348, -26.218013], [-52.681246, -26.21777], [-52.681131, -26.217398], [-52.681075, -26.217195], [-52.680952, -26.216637], [-52.680939, -26.216503], [-52.680331, -26.216982], [-52.679871, -26.217352], [-52.679141, -26.217919], [-52.677667, -26.216992], [-52.677403, -26.217613], [-52.67719, -26.21811], [-52.676735, -26.219154]]]}, "properties": {"nsvia": "BAIRRO TREVO DA GUARANI"}},
{"type": "Feature", "geometry": {"type": "Polygon", "coordinates": [[[-52.668006, -26.256822], [-52.667973, -26.256893], [-52.668085, -26.256957], [-52.668176, -26.257008], [-52.668229, -26.257064], [-52.668314, -26.257156], [-52.668407, -26.257206], [-52.668468, -26.257288], [-52.668491, -26.2573], [-52.66858, -26.257352], [-52.668649, -26.257391], [-52.668722, -26.257432], [-52.668795, -26.257462], [-52.668843, -26.257483], [-52.669037, -26.257561], [-52.669164, -26.25762], [-52.669268, -26.257613], [-52.669404, -26.257597], [-52.669485, -26.257616], [-52.669519, -26.257654], [-52.669562, -26.257714], [-52.669661, -26.257745], [-52.669766, -26.257741], [-52.669806, -26.257683], [-52.669863, -26.25764], [-52.669885, -26.257654], [-52.669949, -26.257696], [-52.670055, -26.257636], [-52.671902, -26.255476], [-52.671687, -26.25441], [-52.671454, -26.254441], [-52.671206, -26.254475], [-52.671067, -26.25449], [-52.669297, -26.25473], [-52.668751, -26.25511], [-52.668496, -26.255324], [-52.668379, -26.255462], [-52.668285, -26.255598], [-52.668214, -26.255748], [-52.668159, -26.255801], [-52.668117, -26.255841], [-52.668125, -26.255965], [-52.668105, -26.256024], [-52.668043, -26.256183], [-52.668024, -26.256258], [-52.668015, -26.256363], [-52.668018, -26.256615], [-52.668018, -26.256745], [-52.668006, -26.256822]]]}, "properties": {"nsvia": "BAIRRO VENEZA"}},
{"type": "Feature", "geometry": {"type": "Polygon", "coordinates": [[[-52.684305, -26.221069], [-52.685004, -26.221606], [-52.685174, -26.221739], [-52.685408, -26.221918], [-52.685769, -26.222193], [-52.686084, -26.222443], [-52.68646, -26.222747], [-52.686757, -26.222998], [-52.687068, -26.223307], [-52.687437, -26.223708], [-52.687675, -26.22399], [-52.688048, -26.224503], [-52.688213, -26.224763], [-52.690748, -26.223111], [-52.688903, -26.221589], [-52.68836, -26.221092], [-52.687734, -26.220569], [-52.685867, -26.219105], [-52.68583, -26.219036], [-52.685333, -26.218624], [-52.684514, -26.217958], [-52.683393, -26.217032], [-52.683329, -26.217077], [-52.682602, -26.217571], [-52.681761, -26.21813], [-52.681495, -26.218274], [-52.681556, -26.218383], [-52.681714, -26.218643], [-52.681903, -26.218933], [-52.682095, -26.219196], [-52.682323, -26.219454], [-52.682509, -26.219638], [-52.682701, -26.219827], [-52.682933, -26.220021], [-52.683614, -26.220555], [-52.684305, -26.221069]]]}, "properties": {"nsvia": "BAIRRO VILA ESPERANÇA"}},
{"type": "Feature", "geometry": {"type": "Polygon", "coordinates": [[[-52.645926, -26.215901], [-52.645903, -26.215911], [-52.645682, -26.216252], [-52.645676, -26.216804], [-52.645791, -26.217385], [-52.645897, -26.217824], [-52.646071, -26.217976], [-52.657925, -26.218392], [-52.659722, -26.218629], [-52.659816, -26.21859], [-52.664809, -26.218218], [-52.666509, -26.218273], [-52.666797, -26.217607], [-52.666877, -26.21742], [-52.666963, -26.217224], [-52.667469, -26.216052], [-52.672172, -26.216968], [-52.672685, -26.217068], [-52.673749, -26.217281], [-52.674117, -26.216435], [-52.67415, -26.216348], [-52.67419, -26.216214], [-52.674232, -26.216094], [-52.674264, -26.215993], [-52.67427, -26.21563], [-52.674168, -26.214927], [-52.674102, -26.214306], [-52.674178, -26.214005], [-52.67439, -26.213599], [-52.67468, -26.213176], [-52.674332, -26.212919], [-52.673982, -26.212662], [-52.67359, -26.212616], [-52.673197, -26.212571], [-52.670776, -26.211662], [-52.670783, -26.212812], [-52.66925, -26.21276], [-52.669141, -26.212703], [-52.668725, -26.212697], [-52.668544, -26.21266], [-52.66779, -26.212669], [-52.667785, -26.212322], [-52.666452, -26.212953], [-52.665444, -26.212861], [-52.66283, -26.212621], [-52.645757, -26.212351], [-52.645701, -26.212447], [-52.645396, -26.212897], [-52.645281, -26.213223], [-52.645269, -26.213233], [-52.64518, -26.213402], [-52.645095, -26.213714], [-52.645146, -26.213862], [-52.645217, -26.214096], [-52.645457, -26.214371], [-52.645664, -26.214838], [-52.645952, -26.215224], [-52.646093, -26.215509], [-52.645926, -26.215901]]]}, "properties": {"nsvia": "BAIRRO VILA IZABEL"}}]}
