{"type":"FeatureCollection","features":[{"type":"Feature","geometry":{"type":"Polygon","coordinates":[[[-46.38461,-23.61992],[-46.3847,-23.61975],[-46.38475,-23.61956],[-46.38487,-23.6188],[-46.38502,-23.61843],[-46.38507,-23.61824],[-46.38508,-23.61805],[-46.38506,-23.61786],[-46.385,-23.61767],[-46.38491,-23.6175],[-46.38478,-23.61735],[-46.38463,-23.61723],[-46.38446,-23.61714],[-46.38427,-23.61709],[-46.38408,-23.61707],[-46.38379,-23.61707],[-46.38362,-23.617],[-46.38343,-23.61689],[-46.38341,-23.6168],[-46.38341,-23.61672],[-46.38341,-23.61654],[-46.38339,-23.61647],[-46.38344,-23.61634],[-46.38348,-23.61616],[-46.38349,-23.61607],[-46.3835,-23.61586],[-46.38348,-23.6158],[-46.38353,-23.61574],[-46.3836,-23.61557],[-46.38364,-23.61539],[-46.38364,-23.61533],[-46.38366,-23.61528],[-46.38371,-23.61511],[-46.38372,-23.61494],[-46.3837,-23.61478],[-46.38371,-23.61474],[-46.38371,-23.61467],[-46.3837,-23.61452],[-46.38366,-23.61437],[-46.38363,-23.61427],[-46.38355,-23.61408],[-46.38343,-23.61391],[-46.38328,-23.61377],[-46.38311,-23.61366],[-46.38303,-23.61363],[-46.38294,-23.61359],[-46.38293,-23.61359],[-46.38275,-23.61352],[-46.38268,-23.6135],[-46.3826,-23.61348],[-46.38249,-23.61344],[-46.38243,-23.61343],[-46.38236,-23.61335],[-46.38218,-23.61319],[-46.38211,-23.61315],[-46.38207,-23.6131],[-46.38192,-23.61298],[-46.38189,-23.61297],[-46.38188,-23.61296],[-46.38172,-23.61288],[-46.38154,-23.61282],[-46.38135,-23.6128],[-46.38132,-23.6128],[-46.38121,-23.61281],[-46.38106,-23.6128],[-46.38096,-23.6128],[-46.38083,-23.6128],[-46.38077,-23.6128],[-46.38069,-23.61281],[-46.38044,-23.6128],[-46.38019,-23.61275],[-46.37988,-23.61259],[-46.37986,-23.61258],[-46.37962,-23.61246],[-46.37943,-23.61212],[-46.37931,-23.61196],[-46.37921,-23.61185],[-46.37922,-23.61176],[-46.3792,-23.61158],[-46.37915,-23.61141],[-46.37907,-23.61124],[-46.37879,-23.61078],[-46.37861,-23.61056],[-46.37842,-23.61039],[-46.37819,-23.61024],[-46.37805,-23.61016],[-46.37764,-23.60995],[-46.37763,-23.60995],[-46.37695,-23.60962],[-46.37678,-23.60955],[-46.3766,-23.60952],[-46.37643,-23.6095],[-46.37595,-23.60935],[-46.37571,-23.6093],[-46.37506,-23.60927],[-46.37399,-23.60849],[-46.37377,-23.60798],[-46.37364,-23.60776],[-46.37275,-23.6066],[-46.37265,-23.6065],[-46.37247,-23.60575],[-46.37241,-23.60556],[-46.37231,-23.60539],[-46.37218,-23.60525],[-46.37202,-23.60513],[-46.3719,-23.60506],[-46.37135,-23.60428],[-46.37131,-23.60408],[-46.37125,-23.60386],[-46.37122,-23.6038],[-46.37124,-23.60333],[-46.37122,-23.60311],[-46.37115,-23.60289],[-46.37113,-23.60286],[-46.37114,-23.60282],[-46.37116,-23.60269],[-46.37117,-23.60247],[-46.37113,-23.60225],[-46.37104,-23.60204],[-46.37098,-23.60195],[-46.37088,-23.60181],[-46.37076,-23.60169],[-46.37072,-23.60166],[-46.37049,-23.60068],[-46.37043,-23.6005],[-46.37033,-23.60033],[-46.37021,-23.60019],[-46.37006,-23.60007],[-46.36998,-23.60003],[-46.36991,-23.5999],[-46.36977,-23.59974],[-46.36961,-23.59962],[-46.36923,-23.59939],[-46.36913,-23.59935],[-46.36898,-23.59873],[-46.36892,-23.59823],[-46.36898,-23.59791],[-46.36899,-23.59767],[-46.36894,-23.59743],[-46.36882,-23.59706],[-46.36884,-23.5968],[-46.36883,-23.59658],[-46.36877,-23.59636],[-46.36849,-23.59566],[-46.36842,-23.5955],[-46.36832,-23.59537],[-46.36819,-23.59525],[-46.36804,-23.59512],[-46.36814,-23.59469],[-46.36816,-23.59453],[-46.36816,-23.59437],[-46.36813,-23.59399],[-46.36809,-23.5938],[-46.36805,-23.59369],[-46.36809,-23.59358],[-46.36812,-23.59338],[-46.3681,-23.59319],[-46.36805,-23.593],[-46.36796,-23.59282],[-46.36784,-23.59266],[-46.36769,-23.59254],[-46.36755,-23.59244],[-46.36749,-23.59231],[-46.36691,-23.59135],[-46.36673,-23.59095],[-46.3668,-23.59076],[-46.36683,-23.59055],[-46.36681,-23.59033],[-46.36674,-23.59013],[-46.36638,-23.5893],[-46.36632,-23.58918],[-46.36571,-23.58819],[-46.36559,-23.58804],[-46.36544,-23.58791],[-46.36527,-23.58781],[-46.36511,-23.58773],[-46.36507,-23.58766],[-46.36481,-23.58728],[-46.36467,-23.58692],[-46.36456,-23.58673],[-46.36442,-23.58657],[-46.36425,-23.58644],[-46.36416,-23.5864],[-46.36417,-23.58638],[-46.36421,-23.58619],[-46.36421,-23.58601],[-46.36419,-23.58589],[-46.36422,-23.5858],[-46.36425,-23.5856],[-46.36423,-23.5854],[-46.36419,-23.58524],[-46.36422,-23.58512],[-46.36423,-23.58491],[-46.36423,-23.58472],[-46.36419,-23.58453],[-46.36411,-23.58435],[-46.364,-23.58413],[-46.36388,-23.58396],[-46.36373,-23.58382],[-46.36355,-23.58371],[-46.36343,-23.58367],[-46.3634,-23.58357],[-46.36332,-23.58339],[-46.36322,-23.58322],[-46.36309,-23.58307],[-46.36293,-23.58296],[-46.36284,-23.58291],[-46.36283,-23.58289],[-46.36273,-23.58274],[-46.3626,-23.58257],[-46.36244,-23.58241],[-46.36225,-23.58229],[-46.36197,-23.58216],[-46.36195,-23.58215],[-46.36175,-23.5819],[-46.36162,-23.58177],[-46.36146,-23.58166],[-46.36128,-23.58159],[-46.36109,-23.58155],[-46.3609,-23.58155],[-46.36084,-23.58155],[-46.36077,-23.58149],[-46.3606,-23.58138],[-46.36003,-23.58111],[-46.35987,-23.58106],[-46.35971,-23.58102],[-46.35955,-23.58102],[-46.35907,-23.58104],[-46.35901,-23.58098],[-46.35884,-23.58087],[-46.35865,-23.58078],[-46.35846,-23.58074],[-46.35836,-23.58073],[-46.35818,-23.58073],[-46.35801,-23.58076],[-46.35784,-23.58082],[-46.35782,-23.58083],[-46.35765,-23.58088],[-46.35755,-23.58092],[-46.35745,-23.58093],[-46.3573,-23.58083],[-46.35712,-23.58076],[-46.35693,-23.58072],[-46.35679,-23.58072],[-46.35679,-23.58059],[-46.35679,-23.58058],[-46.3568,-23.58056],[-46.35685,-23.58035],[-46.35686,-23.58014],[-46.35685,-23.5801],[-46.35688,-23.57996],[-46.35688,-23.57976],[-46.35684,-23.57955],[-46.35676,-23.57936],[-46.3567,-23.57926],[-46.35657,-23.57909],[-46.35641,-23.57895],[-46.35623,-23.57884],[-46.35618,-23.57882],[-46.35614,-23.57875],[-46.35607,-23.57866],[-46.35608,-23.57849],[-46.35607,-23.57831],[-46.35602,-23.57814],[-46.35594,-23.57797],[-46.35589,-23.57789],[-46.35587,-23.57787],[-46.35588,-23.57782],[-46.35589,-23.57767],[-46.3559,-23.57749],[-46.3559,-23.57749],[-46.35594,-23.5773],[-46.35597,-23.57703],[-46.356,-23.57691],[-46.35603,-23.57671],[-46.35601,-23.5765],[-46.35595,-23.5763],[-46.35585,-23.57611],[-46.3558,-23.57603],[-46.35574,-23.57595],[-46.35566,-23.57581],[-46.35548,-23.57561],[-46.35543,-23.57556],[-46.35522,-23.57541],[-46.35516,-23.57538],[-46.35494,-23.5753],[-46.35484,-23.57529],[-46.35477,-23.57526],[-46.35454,-23.57523],[-46.35442,-23.57522],[-46.35436,-23.57522],[-46.35435,-23.57522],[-46.35403,-23.57482],[-46.35411,-23.5744],[-46.35413,-23.57419],[-46.35412,-23.57398],[-46.3541,-23.57379],[-46.35405,-23.57362],[-46.35396,-23.57345],[-46.35385,-23.57331],[-46.35371,-23.57319],[-46.35354,-23.57306],[-46.35339,-23.57297],[-46.35323,-23.57291],[-46.35306,-23.57288],[-46.35289,-23.57288],[-46.35202,-23.57293],[-46.35183,-23.57296],[-46.35177,-23.57298],[-46.35121,-23.57283],[-46.35105,-23.57279],[-46.35088,-23.57279],[-46.35076,-23.57281],[-46.35053,-23.57242],[-46.35042,-23.57227],[-46.35033,-23.57219],[-46.35033,-23.57212],[-46.35029,-23.57192],[-46.35021,-23.57174],[-46.35009,-23.57158],[-46.34986,-23.57132],[-46.34971,-23.57118],[-46.34953,-23.57107],[-46.34933,-23.57101],[-46.34929,-23.571],[-46.34919,-23.57087],[-46.3492,-23.57062],[-46.34919,-23.57044],[-46.34915,-23.57027],[-46.34908,-23.57011],[-46.34874,-23.56949],[-46.34864,-23.56934],[-46.3485,-23.5692],[-46.34834,-23.56909],[-46.34798,-23.5689],[-46.34798,-23.56888],[-46.34792,-23.56867],[-46.3479,-23.5686],[-46.34788,-23.56852],[-46.34782,-23.5683],[-46.34776,-23.56817],[-46.34768,-23.56801],[-46.34757,-23.56787],[-46.34743,-23.56775],[-46.34731,-23.56768],[-46.34731,-23.56767],[-46.34714,-23.56735],[-46.34699,-23.56714],[-46.34696,-23.5671],[-46.34694,-23.56692],[-46.3469,-23.56671],[-46.34681,-23.56652],[-46.34669,-23.56635],[-46.34632,-23.56593],[-46.34625,-23.56583],[-46.34625,-23.56578],[-46.34621,-23.56558],[-46.34612,-23.5654],[-46.346,-23.56523],[-46.34584,-23.56509],[-46.34575,-23.56503],[-46.34556,-23.56493],[-46.34536,-23.56486],[-46.34514,-23.56485],[-46.34513,-23.56485],[-46.3451,-23.56483],[-46.345,-23.5648],[-46.34515,-23.56449],[-46.34522,-23.56432],[-46.34525,-23.56414],[-46.34525,-23.56395],[-46.34522,-23.56377],[-46.34503,-23.5631],[-46.34496,-23.56291],[-46.34486,-23.56274],[-46.34472,-23.5626],[-46.34455,-23.56249],[-46.34437,-23.56241],[-46.34435,-23.5624],[-46.34435,-23.56233],[-46.34432,-23.56209],[-46.34424,-23.56187],[-46.34396,-23.56132],[-46.34386,-23.56117],[-46.34374,-23.56104],[-46.34375,-23.561],[-46.34377,-23.56079],[-46.34374,-23.56059],[-46.34368,-23.5604],[-46.34358,-23.56023],[-46.34351,-23.56014],[-46.34351,-23.56014],[-46.34362,-23.55998],[-46.34369,-23.55979],[-46.34373,-23.5596],[-46.34373,-23.5594],[-46.34369,-23.55921],[-46.34365,-23.5591],[-46.34358,-23.55893],[-46.34348,-23.55878],[-46.34341,-23.55871],[-46.34339,-23.55844],[-46.34361,-23.55811],[-46.3437,-23.55795],[-46.34375,-23.55777],[-46.34377,-23.55759],[-46.34376,-23.55741],[-46.34356,-23.55608],[-46.34351,-23.55589],[-46.34348,-23.55583],[-46.34347,-23.55579],[-46.3435,-23.55571],[-46.34352,-23.55552],[-46.3435,-23.55532],[-46.34345,-23.55513],[-46.34335,-23.55495],[-46.34331,-23.55488],[-46.34324,-23.5548],[-46.34321,-23.55462],[-46.34326,-23.55448],[-46.34328,-23.55428],[-46.34327,-23.55407],[-46.34321,-23.55388],[-46.34315,-23.55371],[-46.34305,-23.55353],[-46.34292,-23.55337],[-46.34275,-23.55324],[-46.3427,-23.55321],[-46.34269,-23.55308],[-46.34266,-23.55292],[-46.34253,-23.55241],[-46.34241,-23.55177],[-46.34241,-23.55176],[-46.34225,-23.5509],[-46.34217,-23.5502],[-46.34216,-23.55015],[-46.34204,-23.54939],[-46.34215,-23.54894],[-46.34215,-23.54894],[-46.34225,-23.54851],[-46.34228,-23.54831],[-46.34228,-23.54824],[-46.34231,-23.54812],[-46.34234,-23.54793],[-46.34234,-23.54772],[-46.34231,-23.54751],[-46.34225,-23.54738],[-46.34227,-23.5473],[-46.3423,-23.54711],[-46.34228,-23.54691],[-46.34223,-23.54672],[-46.34215,-23.54654],[-46.34204,-23.54638],[-46.34194,-23.54624],[-46.34181,-23.54612],[-46.34169,-23.54603],[-46.34163,-23.54599],[-46.34161,-23.54593],[-46.34155,-23.54574],[-46.34145,-23.54557],[-46.34132,-23.54543],[-46.34088,-23.54502],[-46.34069,-23.54488],[-46.34048,-23.54479],[-46.34027,-23.54473],[-46.34015,-23.54466],[-46.33992,-23.54457],[-46.33968,-23.54453],[-46.33956,-23.54453],[-46.33949,-23.54446],[-46.33934,-23.54435],[-46.33917,-23.54428],[-46.339,-23.54424],[-46.3389,-23.54422],[-46.3389,-23.54421],[-46.33875,-23.544],[-46.33873,-23.54393],[-46.33865,-23.54376],[-46.33846,-23.54343],[-46.33837,-23.54331],[-46.33827,-23.5432],[-46.33821,-23.54314],[-46.33807,-23.5429],[-46.33797,-23.54277],[-46.33786,-23.54265],[-46.33717,-23.54206],[-46.33699,-23.5419],[-46.3369,-23.54183],[-46.33633,-23.54134],[-46.33603,-23.54103],[-46.33598,-23.54098],[-46.33573,-23.54076],[-46.33566,-23.54055],[-46.33562,-23.54045],[-46.33553,-23.5403],[-46.33542,-23.54017],[-46.33528,-23.54006],[-46.33477,-23.5397],[-46.33459,-23.53961],[-46.3344,-23.53955],[-46.33423,-23.53953],[-46.33417,-23.53942],[-46.33403,-23.53925],[-46.33345,-23.53871],[-46.33326,-23.53857],[-46.33305,-23.53848],[-46.33226,-23.53824],[-46.33224,-23.53816],[-46.33227,-23.53812],[-46.33234,-23.53796],[-46.33238,-23.53778],[-46.33247,-23.53709],[-46.33264,-23.53631],[-46.33266,-23.53611],[-46.33266,-23.53477],[-46.33264,-23.53458],[-46.33259,-23.53439],[-46.33255,-23.53428],[-46.33253,-23.53417],[-46.33247,-23.53396],[-46.33212,-23.53307],[-46.33224,-23.53258],[-46.33226,-23.53244],[-46.33229,-23.53205],[-46.33229,-23.53182],[-46.33223,-23.5316],[-46.33218,-23.53147],[-46.33209,-23.53128],[-46.33195,-23.53111],[-46.33179,-23.53098],[-46.33171,-23.53093],[-46.33132,-23.5305],[-46.33025,-23.52922],[-46.33019,-23.52871],[-46.33058,-23.52819],[-46.33068,-23.52804],[-46.33077,-23.52786],[-46.33083,-23.52769],[-46.33086,-23.52752],[-46.33087,-23.52734],[-46.33082,-23.52676],[-46.33078,-23.52654],[-46.33027,-23.5249],[-46.33027,-23.52488],[-46.32994,-23.52391],[-46.32991,-23.52384],[-46.32991,-23.52382],[-46.32989,-23.52377],[-46.33007,-23.52221],[-46.33008,-23.52213],[-46.33011,-23.5215],[-46.33011,-23.52148],[-46.33011,-23.52113],[-46.3301,-23.52092],[-46.33027,-23.52075],[-46.33029,-23.52072],[-46.33037,-23.52064],[-46.3304,-23.52061],[-46.33047,-23.5205],[-46.33049,-23.52047],[-46.33057,-23.52031],[-46.33063,-23.52013],[-46.33063,-23.5201],[-46.33064,-23.51986],[-46.33064,-23.51983],[-46.33061,-23.51963],[-46.33054,-23.51945],[-46.33044,-23.51928],[-46.3303,-23.51914],[-46.33015,-23.519],[-46.3302,-23.51875],[-46.33022,-23.51862],[-46.33025,-23.51819],[-46.33025,-23.51801],[-46.33021,-23.51783],[-46.33015,-23.51767],[-46.33007,-23.51751],[-46.32997,-23.51735],[-46.32745,-23.514],[-46.32704,-23.51296],[-46.32699,-23.51285],[-46.32665,-23.51221],[-46.32659,-23.51212],[-46.32661,-23.51212],[-46.32689,-23.51191],[-46.32704,-23.51177],[-46.32705,-23.51177],[-46.32719,-23.51181],[-46.32741,-23.51182],[-46.32772,-23.51181],[-46.32795,-23.51177],[-46.32817,-23.51167],[-46.32837,-23.51155],[-46.32852,-23.51145],[-46.32864,-23.51133],[-46.32874,-23.51119],[-46.32883,-23.51103],[-46.32891,-23.51085],[-46.32895,-23.51068],[-46.32905,-23.51041],[-46.32908,-23.51033],[-46.3293,-23.50961],[-46.32932,-23.50953],[-46.32944,-23.50896],[-46.32965,-23.5089],[-46.32974,-23.50886],[-46.32994,-23.50874],[-46.33011,-23.50859],[-46.33016,-23.50853],[-46.33026,-23.50838],[-46.33033,-23.50823],[-46.33038,-23.50806],[-46.3304,-23.50794],[-46.33042,-23.50773],[-46.33041,-23.50764],[-46.33051,-23.50756],[-46.33067,-23.50742],[-46.33083,-23.50724],[-46.33091,-23.50714],[-46.33099,-23.50698],[-46.33105,-23.50681],[-46.33109,-23.50666],[-46.33112,-23.50638],[-46.33112,-23.50624],[-46.33108,-23.506],[-46.331,-23.50572],[-46.33092,-23.50552],[-46.33083,-23.50537],[-46.3309,-23.50516],[-46.33094,-23.50498],[-46.33096,-23.50478],[-46.33096,-23.50454],[-46.33093,-23.50431],[-46.33087,-23.50409],[-46.33083,-23.50397],[-46.33071,-23.50375],[-46.33067,-23.50369],[-46.33071,-23.50366],[-46.33087,-23.50354],[-46.33102,-23.50339],[-46.33113,-23.50327],[-46.33121,-23.50313],[-46.33126,-23.50303],[-46.33131,-23.50293],[-46.33137,-23.50281],[-46.33144,-23.50258],[-46.33149,-23.50237],[-46.33152,-23.50216],[-46.33171,-23.50221],[-46.33188,-23.50222],[-46.33204,-23.50223],[-46.3322,-23.50221],[-46.33235,-23.50218],[-46.33249,-23.50213],[-46.33263,-23.50207],[-46.33275,-23.502],[-46.33285,-23.50194],[-46.33288,-23.50192],[-46.33294,-23.50199],[-46.33306,-23.50211],[-46.33321,-23.50223],[-46.33337,-23.50233],[-46.33355,-23.50239],[-46.33373,-23.50243],[-46.33394,-23.50245],[-46.33415,-23.50243],[-46.33431,-23.5024],[-46.33448,-23.50235],[-46.33463,-23.50228],[-46.33477,-23.50218],[-46.33491,-23.50206],[-46.33497,-23.50199],[-46.33512,-23.50203],[-46.33531,-23.50203],[-46.33561,-23.50201],[-46.33589,-23.502],[-46.33615,-23.50195],[-46.33635,-23.50189],[-46.33655,-23.5018],[-46.33672,-23.50167],[-46.33686,-23.5015],[-46.33697,-23.50131],[-46.33704,-23.50112],[-46.3371,-23.50092],[-46.33712,-23.50072],[-46.33709,-23.50051],[-46.33703,-23.50028],[-46.33703,-23.49958],[-46.33702,-23.49946],[-46.33698,-23.49922],[-46.33695,-23.49906],[-46.3369,-23.49892],[-46.3368,-23.49869],[-46.33672,-23.49856],[-46.33663,-23.49844],[-46.33653,-23.49833],[-46.33634,-23.49818],[-46.33619,-23.49807],[-46.33546,-23.49764],[-46.33545,-23.49763],[-46.33553,-23.49757],[-46.33567,-23.49746],[-46.33578,-23.49734],[-46.33588,-23.49721],[-46.33601,-23.49698],[-46.3363,-23.49652],[-46.3364,-23.49639],[-46.3365,-23.49625],[-46.33657,-23.49609],[-46.3366,-23.49602],[-46.33665,-23.49574],[-46.33666,-23.4956],[-46.33665,-23.49543],[-46.33662,-23.49527],[-46.33656,-23.49511],[-46.33651,-23.495],[-46.33641,-23.49484],[-46.33628,-23.49469],[-46.33613,-23.49456],[-46.33592,-23.49442],[-46.33579,-23.49435],[-46.3356,-23.49427],[-46.33555,-23.49426],[-46.3356,-23.49411],[-46.33564,-23.49394],[-46.33564,-23.49377],[-46.33563,-23.49363],[-46.33559,-23.49342],[-46.3355,-23.49321],[-46.33543,-23.4931],[-46.33534,-23.49296],[-46.33522,-23.49284],[-46.33512,-23.49275],[-46.33495,-23.49263],[-46.33463,-23.49246],[-46.33439,-23.49237],[-46.33421,-23.49232],[-46.33414,-23.49231],[-46.33415,-23.49228],[-46.33416,-23.49213],[-46.33416,-23.49188],[-46.33412,-23.49162],[-46.33407,-23.49144],[-46.334,-23.49126],[-46.3339,-23.4911],[-46.3338,-23.49098],[-46.33362,-23.49079],[-46.33351,-23.4907],[-46.33332,-23.49059],[-46.33311,-23.49049],[-46.3328,-23.48987],[-46.33279,-23.48985],[-46.33264,-23.48957],[-46.33253,-23.48941],[-46.33211,-23.48889],[-46.33202,-23.48868],[-46.33167,-23.48774],[-46.33158,-23.48756],[-46.33145,-23.4874],[-46.3313,-23.48727],[-46.33112,-23.48717],[-46.33092,-23.48711],[-46.33072,-23.48709],[-46.33052,-23.48711],[-46.33033,-23.48718],[-46.32822,-23.48811],[-46.3281,-23.48808],[-46.32796,-23.48806],[-46.3278,-23.48805],[-46.32765,-23.48806],[-46.32751,-23.48808],[-46.32724,-23.48816],[-46.32645,-23.48852],[-46.32639,-23.48855],[-46.3262,-23.48865],[-46.32544,-23.48883],[-46.3252,-23.48892],[-46.32403,-23.48953],[-46.32348,-23.48956],[-46.32329,-23.4896],[-46.32202,-23.48994],[-46.32179,-23.49004],[-46.32131,-23.49031],[-46.3208,-23.49055],[-46.31947,-23.49092],[-46.31915,-23.49092],[-46.31907,-23.49089],[-46.31889,-23.49084],[-46.3187,-23.49082],[-46.31852,-23.49084],[-46.31804,-23.49093],[-46.31794,-23.49091],[-46.31781,-23.49081],[-46.31761,-23.49071],[-46.3174,-23.49066],[-46.3172,-23.49063],[-46.31701,-23.49063],[-46.31682,-23.49066],[-46.31665,-23.49072],[-46.31627,-23.49089],[-46.31611,-23.49091],[-46.31592,-23.49097],[-46.31584,-23.491],[-46.31583,-23.49099],[-46.31558,-23.49096],[-46.31539,-23.49095],[-46.31521,-23.49098],[-46.31503,-23.49104],[-46.31487,-23.49113],[-46.31472,-23.49125],[-46.31461,-23.4914],[-46.31454,-23.4915],[-46.31441,-23.49138],[-46.31426,-23.49127],[-46.31409,-23.49119],[-46.31391,-23.49115],[-46.31372,-23.49114],[-46.31354,-23.49116],[-46.31336,-23.49122],[-46.31298,-23.49139],[-46.31281,-23.49148],[-46.31266,-23.49161],[-46.31265,-23.49163],[-46.31262,-23.49162],[-46.31242,-23.49153],[-46.31226,-23.49148],[-46.31208,-23.49145],[-46.31191,-23.49146],[-46.31174,-23.4915],[-46.31136,-23.49161],[-46.31118,-23.49156],[-46.31102,-23.49153],[-46.31086,-23.49152],[-46.31085,-23.49152],[-46.31085,-23.49152],[-46.3107,-23.49139],[-46.31065,-23.49137],[-46.31059,-23.49123],[-46.31043,-23.49104],[-46.31029,-23.4909],[-46.31015,-23.49079],[-46.30999,-23.4907],[-46.30982,-23.49065],[-46.30964,-23.49062],[-46.3093,-23.49061],[-46.3091,-23.49062],[-46.3089,-23.49067],[-46.30872,-23.49076],[-46.30854,-23.49088],[-46.30844,-23.49095],[-46.3084,-23.49095],[-46.30821,-23.49098],[-46.30802,-23.49104],[-46.30785,-23.49113],[-46.3077,-23.49126],[-46.30753,-23.49144],[-46.30739,-23.49141],[-46.30719,-23.4914],[-46.30708,-23.4914],[-46.30684,-23.49144],[-46.30665,-23.49153],[-46.30648,-23.49153],[-46.30629,-23.49156],[-46.30611,-23.49162],[-46.30582,-23.49175],[-46.30566,-23.49184],[-46.30552,-23.49195],[-46.30541,-23.49209],[-46.30532,-23.49224],[-46.30522,-23.49246],[-46.30515,-23.49266],[-46.30512,-23.49287],[-46.30512,-23.49327],[-46.30487,-23.49368],[-46.3048,-23.49384],[-46.30475,-23.49401],[-46.30474,-23.49412],[-46.30466,-23.49413],[-46.30448,-23.49416],[-46.30432,-23.49423],[-46.30416,-23.49433],[-46.30403,-23.49445],[-46.30398,-23.49451],[-46.30391,-23.49448],[-46.30363,-23.49437],[-46.30348,-23.49432],[-46.30304,-23.49422],[-46.30286,-23.49419],[-46.30269,-23.4942],[-46.30252,-23.49424],[-46.30245,-23.49422],[-46.30227,-23.49423],[-46.3021,-23.49426],[-46.30185,-23.49433],[-46.30166,-23.49441],[-46.30148,-23.49452],[-46.30134,-23.49467],[-46.30091,-23.49521],[-46.30087,-23.49523],[-46.30061,-23.49523],[-46.30036,-23.4951],[-46.30025,-23.49499],[-46.3001,-23.49488],[-46.30002,-23.49483],[-46.29985,-23.49475],[-46.29968,-23.49471],[-46.29949,-23.49469],[-46.29931,-23.49471],[-46.29914,-23.49477],[-46.29897,-23.49485],[-46.29883,-23.49496],[-46.29855,-23.49522],[-46.29833,-23.49503],[-46.29814,-23.49482],[-46.29807,-23.49471],[-46.29794,-23.49454],[-46.29777,-23.49441],[-46.29758,-23.49431],[-46.29737,-23.49425],[-46.29727,-23.49423],[-46.29704,-23.49423],[-46.297,-23.49423],[-46.29698,-23.49421],[-46.29682,-23.4941],[-46.29665,-23.49402],[-46.29647,-23.49398],[-46.29629,-23.49395],[-46.29612,-23.49394],[-46.296,-23.49395],[-46.2959,-23.49392],[-46.29554,-23.49386],[-46.29535,-23.49384],[-46.29524,-23.49384],[-46.29506,-23.49378],[-46.29389,-23.49289],[-46.29384,-23.49281],[-46.29369,-23.49266],[-46.29366,-23.49263],[-46.29359,-23.49249],[-46.29346,-23.49232],[-46.29329,-23.49219],[-46.2931,-23.49209],[-46.29293,-23.49202],[-46.29282,-23.4919],[-46.29269,-23.49175],[-46.29255,-23.49163],[-46.29239,-23.49153],[-46.29222,-23.49148],[-46.29203,-23.49121],[-46.2919,-23.49106],[-46.29174,-23.49094],[-46.29155,-23.49086],[-46.29151,-23.49085],[-46.29149,-23.49083],[-46.29145,-23.49081],[-46.29145,-23.49077],[-46.29137,-23.49057],[-46.29126,-23.49039],[-46.2911,-23.49024],[-46.29093,-23.49009],[-46.29074,-23.48997],[-46.29053,-23.4899],[-46.29031,-23.48987],[-46.29018,-23.48987],[-46.29016,-23.48987],[-46.29012,-23.48985],[-46.29011,-23.48981],[-46.29002,-23.48966],[-46.2899,-23.48952],[-46.28976,-23.4894],[-46.28967,-23.48934],[-46.28951,-23.48925],[-46.28934,-23.48919],[-46.2892,-23.48916],[-46.28903,-23.48909],[-46.28899,-23.48885],[-46.28894,-23.48865],[-46.28885,-23.48847],[-46.28872,-23.48831],[-46.28856,-23.48817],[-46.28838,-23.48808],[-46.28818,-23.48802],[-46.28798,-23.488],[-46.28504,-23.48806],[-46.28355,-23.48672],[-46.28338,-23.48659],[-46.28318,-23.4865],[-46.28297,-23.48646],[-46.26709,-23.485],[-46.26691,-23.485],[-46.26672,-23.48504],[-46.26655,-23.48511],[-46.26639,-23.48521],[-46.26626,-23.48533],[-46.26614,-23.48548],[-46.26606,-23.48565],[-46.26306,-23.49365],[-46.26301,-23.49384],[-46.263,-23.49404],[-46.26303,-23.49424],[-46.26503,-23.50224],[-46.26504,-23.50229],[-46.26796,-23.51183],[-46.26114,-23.5235],[-46.26105,-23.52369],[-46.26101,-23.5239],[-46.26101,-23.52411],[-46.26105,-23.52432],[-46.26299,-23.53014],[-46.26296,-23.53076],[-46.26297,-23.53095],[-46.26301,-23.53113],[-46.26309,-23.53131],[-46.26311,-23.53134],[-46.26314,-23.53145],[-46.26312,-23.53158],[-46.26311,-23.53187],[-46.26311,-23.5319],[-46.26303,-23.53196],[-46.2629,-23.5321],[-46.2628,-23.53225],[-46.26273,-23.53242],[-46.26272,-23.53247],[-46.26267,-23.53269],[-46.26268,-23.53291],[-46.26273,-23.53312],[-46.26275,-23.53316],[-46.26266,-23.53323],[-46.26254,-23.53337],[-46.26247,-23.53346],[-46.26238,-23.53362],[-46.26231,-23.53379],[-46.26228,-23.53397],[-46.26227,-23.53412],[-46.26228,-23.5344],[-46.26232,-23.53457],[-46.26236,-23.53483],[-46.26241,-23.53503],[-46.2625,-23.53522],[-46.2625,-23.53522],[-46.26249,-23.53524],[-46.26245,-23.53534],[-46.2624,-23.53549],[-46.26238,-23.53564],[-46.26236,-23.5358],[-46.26237,-23.53597],[-46.2624,-23.53615],[-46.26243,-23.53626],[-46.2625,-23.53644],[-46.2626,-23.5366],[-46.26266,-23.53667],[-46.26278,-23.53681],[-46.26292,-23.53692],[-46.26309,-23.537],[-46.26326,-23.53705],[-46.26334,-23.53706],[-46.26356,-23.53708],[-46.26367,-23.53706],[-46.26372,-23.53709],[-46.26387,-23.53715],[-46.26404,-23.53718],[-46.26413,-23.53719],[-46.26433,-23.5372],[-46.26447,-23.53717],[-46.26453,-23.53722],[-46.26471,-23.53734],[-46.26492,-23.53741],[-46.26502,-23.53743],[-46.26525,-23.53745],[-46.26548,-23.53742],[-46.26569,-23.53737],[-46.26571,-23.53738],[-46.2658,-23.53742],[-46.26601,-23.53748],[-46.26622,-23.53749],[-46.26635,-23.53749],[-46.26637,-23.53755],[-46.26648,-23.53773],[-46.26662,-23.53788],[-46.26679,-23.53799],[-46.2669,-23.53805],[-46.26707,-23.53812],[-46.26725,-23.53817],[-46.26744,-23.53817],[-46.26762,-23.53815],[-46.26764,-23.53814],[-46.26764,-23.53814],[-46.26786,-23.53814],[-46.26795,-23.53811],[-46.26796,-23.53848],[-46.26799,-23.5387],[-46.26808,-23.53905],[-46.26815,-23.53923],[-46.26825,-23.5394],[-46.26839,-23.53955],[-46.26893,-23.54001],[-46.26907,-23.54011],[-46.26922,-23.54019],[-46.26931,-23.54022],[-46.26956,-23.5404],[-46.2696,-23.54049],[-46.26961,-23.54051],[-46.26968,-23.54091],[-46.26975,-23.54114],[-46.26988,-23.54135],[-46.27,-23.54151],[-46.27011,-23.54163],[-46.27014,-23.54165],[-46.26999,-23.54441],[-46.27,-23.54461],[-46.27005,-23.5448],[-46.27014,-23.54498],[-46.2704,-23.54541],[-46.27051,-23.54556],[-46.27065,-23.54569],[-46.2708,-23.54579],[-46.27113,-23.54595],[-46.27133,-23.54603],[-46.27155,-23.54606],[-46.27518,-23.54619],[-46.27519,-23.54619],[-46.27545,-23.5462],[-46.27565,-23.54618],[-46.27585,-23.54612],[-46.2759,-23.5461],[-46.27728,-23.5462],[-46.2773,-23.5462],[-46.2775,-23.54621],[-46.27775,-23.5462],[-46.27786,-23.54617],[-46.27799,-23.54613],[-46.27805,-23.54618],[-46.27812,-23.54622],[-46.27848,-23.54646],[-46.27861,-23.5466],[-46.27867,-23.54671],[-46.27907,-23.54801],[-46.27902,-23.54817],[-46.27897,-23.5484],[-46.27894,-23.5486],[-46.27896,-23.5488],[-46.27897,-23.54888],[-46.27903,-23.54907],[-46.27912,-23.54925],[-46.27925,-23.54941],[-46.27934,-23.54949],[-46.27946,-23.5496],[-46.2796,-23.54968],[-46.27971,-23.54974],[-46.27991,-23.54981],[-46.28012,-23.54984],[-46.28017,-23.54984],[-46.28018,-23.54985],[-46.2801,-23.54998],[-46.28003,-23.55014],[-46.28001,-23.55022],[-46.27997,-23.55045],[-46.27999,-23.55069],[-46.28,-23.55077],[-46.28006,-23.55095],[-46.28,-23.55105],[-46.27994,-23.55122],[-46.27991,-23.5514],[-46.27991,-23.55156],[-46.27991,-23.55156],[-46.27982,-23.55159],[-46.27963,-23.55167],[-46.27946,-23.5518],[-46.27932,-23.55195],[-46.27921,-23.55214],[-46.27918,-23.55221],[-46.27912,-23.55239],[-46.27912,-23.5524],[-46.27911,-23.5524],[-46.27906,-23.55245],[-46.27895,-23.55247],[-46.27876,-23.55254],[-46.27859,-23.55264],[-46.27851,-23.55271],[-46.27837,-23.55284],[-46.27826,-23.55299],[-46.27818,-23.55316],[-46.27806,-23.5535],[-46.27801,-23.55367],[-46.278,-23.55384],[-46.27796,-23.55393],[-46.27792,-23.55407],[-46.27789,-23.55427],[-46.27789,-23.55447],[-46.27792,-23.5546],[-46.27792,-23.55461],[-46.27785,-23.55477],[-46.27781,-23.55494],[-46.2778,-23.55512],[-46.27782,-23.5553],[-46.27783,-23.55535],[-46.27788,-23.55552],[-46.27797,-23.55568],[-46.27808,-23.55582],[-46.27822,-23.55594],[-46.27824,-23.55595],[-46.27825,-23.55601],[-46.27835,-23.55621],[-46.2785,-23.55639],[-46.27854,-23.55643],[-46.27868,-23.55654],[-46.27884,-23.55663],[-46.27898,-23.55668],[-46.279,-23.5567],[-46.27904,-23.55674],[-46.27923,-23.55689],[-46.27945,-23.55698],[-46.27952,-23.55701],[-46.27974,-23.55705],[-46.27976,-23.55705],[-46.27982,-23.55734],[-46.27981,-23.55736],[-46.2798,-23.55752],[-46.27981,-23.5576],[-46.2798,-23.55769],[-46.2798,-23.55769],[-46.27977,-23.55773],[-46.27966,-23.55787],[-46.27957,-23.55802],[-46.27952,-23.55819],[-46.2795,-23.55826],[-46.27948,-23.55846],[-46.27949,-23.55865],[-46.27955,-23.55884],[-46.27957,-23.55889],[-46.27956,-23.55905],[-46.27957,-23.55926],[-46.27963,-23.55947],[-46.27972,-23.55966],[-46.27986,-23.55988],[-46.27998,-23.56002],[-46.28007,-23.56012],[-46.28021,-23.56024],[-46.28022,-23.56024],[-46.28023,-23.56027],[-46.28054,-23.56064],[-46.28064,-23.5609],[-46.28074,-23.5611],[-46.28088,-23.56127],[-46.28106,-23.56141],[-46.28109,-23.56143],[-46.28111,-23.56145],[-46.28115,-23.56157],[-46.28123,-23.56176],[-46.28135,-23.56193],[-46.28142,-23.56201],[-46.28151,-23.56209],[-46.28152,-23.56211],[-46.28176,-23.56258],[-46.28177,-23.5626],[-46.28196,-23.56296],[-46.28203,-23.56307],[-46.28237,-23.56353],[-46.2824,-23.56358],[-46.28243,-23.5637],[-46.28245,-23.56384],[-46.2825,-23.56403],[-46.28259,-23.5642],[-46.28271,-23.56436],[-46.28286,-23.56449],[-46.28294,-23.56454],[-46.28295,-23.5646],[-46.28298,-23.5648],[-46.28298,-23.5648],[-46.283,-23.56489],[-46.28304,-23.56508],[-46.28313,-23.56531],[-46.2832,-23.56547],[-46.2833,-23.56561],[-46.28341,-23.56573],[-46.28346,-23.56577],[-46.28335,-23.56585],[-46.28323,-23.566],[-46.28313,-23.56617],[-46.28302,-23.56641],[-46.28297,-23.56659],[-46.28285,-23.56709],[-46.28282,-23.56737],[-46.28284,-23.56768],[-46.28284,-23.56773],[-46.28282,-23.56783],[-46.2828,-23.56791],[-46.28278,-23.56813],[-46.28281,-23.56834],[-46.28282,-23.5684],[-46.28179,-23.56908],[-46.28173,-23.5691],[-46.28159,-23.56921],[-46.28158,-23.56921],[-46.28156,-23.56921],[-46.28145,-23.56926],[-46.28126,-23.56935],[-46.28119,-23.5694],[-46.28104,-23.56952],[-46.28092,-23.56966],[-46.28088,-23.56972],[-46.28082,-23.56981],[-46.28079,-23.56986],[-46.28073,-23.57],[-46.28069,-23.57015],[-46.28068,-23.5702],[-46.28066,-23.57035],[-46.28061,-23.57117],[-46.28017,-23.57417],[-46.2744,-23.58461],[-46.26705,-23.59123],[-46.26697,-23.59131],[-46.26603,-23.59237],[-46.26593,-23.59251],[-46.26585,-23.59266],[-46.26557,-23.59335],[-46.26551,-23.59353],[-46.26309,-23.60547],[-46.25776,-23.6101],[-46.2576,-23.61027],[-46.25749,-23.61047],[-46.25743,-23.61062],[-46.25737,-23.61081],[-46.25732,-23.61103],[-46.2573,-23.61122],[-46.25732,-23.61142],[-46.25739,-23.61174],[-46.25745,-23.61194],[-46.25756,-23.61213],[-46.25785,-23.61253],[-46.25795,-23.61265],[-46.25807,-23.61275],[-46.25861,-23.61315],[-46.25867,-23.61319],[-46.25901,-23.61341],[-46.25915,-23.61367],[-46.25926,-23.61384],[-46.25941,-23.61398],[-46.25958,-23.61409],[-46.25989,-23.61424],[-46.25996,-23.61448],[-46.26003,-23.61464],[-46.26012,-23.61478],[-46.26024,-23.61493],[-46.26022,-23.61498],[-46.26019,-23.61518],[-46.26021,-23.61539],[-46.26027,-23.61559],[-46.26037,-23.61577],[-46.26043,-23.61587],[-46.26056,-23.61602],[-46.26069,-23.61612],[-46.26072,-23.61625],[-46.2608,-23.61643],[-46.26091,-23.61658],[-46.26096,-23.61662],[-46.26096,-23.61665],[-46.26096,-23.61666],[-46.26095,-23.61669],[-46.26092,-23.61687],[-46.26092,-23.61706],[-46.26095,-23.61724],[-46.26102,-23.61741],[-46.26104,-23.61746],[-46.26099,-23.61763],[-46.26096,-23.61782],[-46.26098,-23.61801],[-46.26103,-23.6182],[-46.2611,-23.61834],[-46.2611,-23.61837],[-46.26107,-23.61849],[-46.26092,-23.61881],[-46.26082,-23.61898],[-46.26073,-23.61918],[-46.2607,-23.61936],[-46.26068,-23.61938],[-46.2606,-23.61955],[-46.26055,-23.61973],[-46.26053,-23.61983],[-46.26052,-23.62005],[-46.26055,-23.62027],[-46.26053,-23.62043],[-46.26053,-23.62062],[-46.26057,-23.6208],[-46.26068,-23.62116],[-46.26074,-23.62132],[-46.26083,-23.62146],[-46.26092,-23.62155],[-46.26093,-23.62164],[-46.26098,-23.62181],[-46.26104,-23.62191],[-46.26102,-23.62209],[-46.26104,-23.62229],[-46.2611,-23.62248],[-46.26121,-23.62266],[-46.26129,-23.62277],[-46.26129,-23.62277],[-46.26137,-23.62289],[-46.26151,-23.62304],[-46.2616,-23.62312],[-46.26167,-23.62325],[-46.26177,-23.62338],[-46.26189,-23.62353],[-46.26193,-23.62357],[-46.26193,-23.62363],[-46.26195,-23.62375],[-46.26201,-23.62394],[-46.26211,-23.62411],[-46.26224,-23.62427],[-46.26239,-23.62439],[-46.2624,-23.62441],[-46.26244,-23.62449],[-46.26238,-23.62462],[-46.26234,-23.62481],[-46.26233,-23.62501],[-46.26237,-23.6252],[-46.26243,-23.62538],[-46.26252,-23.62553],[-46.26247,-23.62575],[-46.26245,-23.62587],[-46.26242,-23.62608],[-46.26242,-23.62629],[-46.26246,-23.6265],[-46.26255,-23.62669],[-46.26256,-23.62671],[-46.26256,-23.62678],[-46.26258,-23.62697],[-46.26263,-23.62716],[-46.26273,-23.62733],[-46.26276,-23.62739],[-46.26285,-23.62749],[-46.26285,-23.62754],[-46.26289,-23.62774],[-46.26297,-23.62792],[-46.26308,-23.62809],[-46.26322,-23.62823],[-46.26331,-23.62829],[-46.26326,-23.62834],[-46.26314,-23.62848],[-46.26306,-23.62865],[-46.26301,-23.62882],[-46.26298,-23.629],[-46.26298,-23.62918],[-46.26299,-23.62936],[-46.26303,-23.62953],[-46.26304,-23.62954],[-46.26297,-23.6296],[-46.26282,-23.62976],[-46.26272,-23.62995],[-46.26272,-23.62995],[-46.26266,-23.63002],[-46.26256,-23.63017],[-46.26248,-23.63033],[-46.26244,-23.63051],[-46.26243,-23.63069],[-46.26243,-23.63074],[-46.26233,-23.63082],[-46.26219,-23.63098],[-46.26212,-23.63108],[-46.26201,-23.63127],[-46.262,-23.6313],[-46.26182,-23.63136],[-46.26171,-23.63141],[-46.26147,-23.63155],[-46.26141,-23.6316],[-46.26129,-23.63172],[-46.26119,-23.63187],[-46.26118,-23.63188],[-46.26111,-23.63187],[-46.26092,-23.6319],[-46.26073,-23.63196],[-46.26058,-23.63203],[-46.26041,-23.63213],[-46.26026,-23.63227],[-46.26014,-23.63243],[-46.26006,-23.63261],[-46.26005,-23.63264],[-46.26001,-23.63265],[-46.25982,-23.63273],[-46.25965,-23.63286],[-46.25951,-23.63301],[-46.25941,-23.63319],[-46.25939,-23.63323],[-46.25937,-23.63323],[-46.25927,-23.63326],[-46.25907,-23.63334],[-46.25889,-23.63347],[-46.25874,-23.63364],[-46.25866,-23.63374],[-46.25856,-23.63391],[-46.25849,-23.63411],[-46.25849,-23.63415],[-46.2584,-23.63424],[-46.25829,-23.6344],[-46.25821,-23.63457],[-46.2581,-23.63492],[-46.25807,-23.63503],[-46.25806,-23.63511],[-46.25804,-23.63528],[-46.25805,-23.63545],[-46.25809,-23.63562],[-46.25816,-23.63578],[-46.25823,-23.63592],[-46.25828,-23.636],[-46.25824,-23.63607],[-46.25817,-23.63627],[-46.25816,-23.63638],[-46.25811,-23.63648],[-46.25807,-23.63664],[-46.25803,-23.63682],[-46.25802,-23.637],[-46.25805,-23.63718],[-46.25811,-23.63735],[-46.25815,-23.63741],[-46.25766,-23.63782],[-46.25753,-23.63795],[-46.25742,-23.63811],[-46.25742,-23.63812],[-46.25734,-23.63815],[-46.25717,-23.63823],[-46.25702,-23.63833],[-46.25689,-23.63847],[-46.25679,-23.63862],[-46.25672,-23.63879],[-46.25668,-23.63897],[-46.25667,-23.63915],[-46.25669,-23.63943],[-46.25672,-23.63964],[-46.25677,-23.63977],[-46.2567,-23.63982],[-46.25656,-23.63996],[-46.25645,-23.64012],[-46.25637,-23.64031],[-46.25633,-23.64044],[-46.25629,-23.64065],[-46.2563,-23.64085],[-46.25634,-23.64105],[-46.25643,-23.64124],[-46.2565,-23.64134],[-46.25649,-23.64145],[-46.25648,-23.6416],[-46.2565,-23.64175],[-46.25654,-23.64199],[-46.25659,-23.64217],[-46.25667,-23.64233],[-46.25674,-23.64242],[-46.25674,-23.64244],[-46.25674,-23.64262],[-46.25678,-23.64279],[-46.25683,-23.6429],[-46.25671,-23.64297],[-46.25657,-23.6431],[-46.25646,-23.64326],[-46.25638,-23.64344],[-46.25634,-23.64362],[-46.25633,-23.64382],[-46.25635,-23.64404],[-46.25635,-23.64409],[-46.25632,-23.64415],[-46.25622,-23.64432],[-46.25613,-23.64451],[-46.25605,-23.64478],[-46.25601,-23.64493],[-46.256,-23.64508],[-46.256,-23.64516],[-46.25602,-23.64537],[-46.25608,-23.64555],[-46.25605,-23.64558],[-46.25599,-23.64562],[-46.25588,-23.6457],[-46.25581,-23.64577],[-46.25534,-23.64623],[-46.25532,-23.64625],[-46.25505,-23.64652],[-46.25489,-23.64675],[-46.25454,-23.64742],[-46.25444,-23.64768],[-46.25439,-23.64795],[-46.25437,-23.64815],[-46.25437,-23.64822],[-46.25431,-23.64832],[-46.25428,-23.64838],[-46.25411,-23.64849],[-46.25393,-23.64862],[-46.25379,-23.64878],[-46.25369,-23.64898],[-46.25363,-23.64919],[-46.25361,-23.64935],[-46.2536,-23.64953],[-46.2536,-23.64954],[-46.25354,-23.6496],[-46.25343,-23.64978],[-46.25336,-23.64997],[-46.25333,-23.65017],[-46.25334,-23.65038],[-46.25339,-23.65057],[-46.25346,-23.65073],[-46.25344,-23.65085],[-46.25344,-23.65088],[-46.25339,-23.65102],[-46.25333,-23.65124],[-46.25333,-23.65147],[-46.25336,-23.65175],[-46.25339,-23.65193],[-46.25346,-23.6521],[-46.25355,-23.65225],[-46.25357,-23.65227],[-46.25357,-23.65228],[-46.25366,-23.65245],[-46.25378,-23.65261],[-46.25384,-23.65267],[-46.25395,-23.65276],[-46.25394,-23.65281],[-46.25391,-23.65299],[-46.25389,-23.6532],[-46.25392,-23.6534],[-46.254,-23.6536],[-46.25411,-23.65378],[-46.25426,-23.65393],[-46.25443,-23.65405],[-46.25463,-23.65412],[-46.25473,-23.65415],[-46.25492,-23.65418],[-46.25512,-23.65418],[-46.25512,-23.65418],[-46.25513,-23.65421],[-46.25524,-23.65475],[-46.25527,-23.655],[-46.25531,-23.6552],[-46.2554,-23.65538],[-46.25551,-23.65555],[-46.25566,-23.65568],[-46.25583,-23.65579],[-46.25588,-23.65581],[-46.25592,-23.6559],[-46.25604,-23.65611],[-46.25621,-23.65632],[-46.25628,-23.6564],[-46.25631,-23.65642],[-46.25627,-23.65647],[-46.25617,-23.65663],[-46.25611,-23.6568],[-46.25607,-23.65698],[-46.25607,-23.65716],[-46.25611,-23.65734],[-46.25623,-23.65777],[-46.25631,-23.65798],[-46.25646,-23.65825],[-46.25642,-23.65839],[-46.25639,-23.65858],[-46.25639,-23.65869],[-46.2564,-23.65884],[-46.25642,-23.65896],[-46.25642,-23.65901],[-46.25644,-23.65918],[-46.25644,-23.6592],[-46.25643,-23.65923],[-46.25638,-23.65946],[-46.25638,-23.65969],[-46.2564,-23.65979],[-46.25644,-23.65999],[-46.25653,-23.66017],[-46.25665,-23.66033],[-46.2568,-23.66047],[-46.25698,-23.66057],[-46.25717,-23.66063],[-46.25723,-23.66065],[-46.2574,-23.66067],[-46.25757,-23.66066],[-46.25764,-23.66065],[-46.25766,-23.66065],[-46.25769,-23.66081],[-46.25772,-23.6609],[-46.25772,-23.66092],[-46.25773,-23.66103],[-46.25776,-23.66122],[-46.25775,-23.66125],[-46.25772,-23.66132],[-46.25758,-23.66137],[-46.25741,-23.66143],[-46.25727,-23.66153],[-46.25713,-23.66163],[-46.257,-23.66175],[-46.25689,-23.6619],[-46.25681,-23.66206],[-46.25676,-23.66223],[-46.25673,-23.66237],[-46.25671,-23.66256],[-46.25673,-23.66275],[-46.25679,-23.66293],[-46.25687,-23.6631],[-46.25693,-23.66318],[-46.25693,-23.66321],[-46.25692,-23.66341],[-46.25696,-23.6636],[-46.25703,-23.66379],[-46.25714,-23.66395],[-46.25716,-23.66397],[-46.25715,-23.66419],[-46.25719,-23.66489],[-46.25722,-23.66504],[-46.2572,-23.66514],[-46.25722,-23.66534],[-46.25727,-23.66554],[-46.25736,-23.66572],[-46.25742,-23.66582],[-46.25723,-23.66578],[-46.25703,-23.66578],[-46.25683,-23.66583],[-46.25665,-23.66591],[-46.25648,-23.66603],[-46.25635,-23.66618],[-46.25629,-23.66626],[-46.25619,-23.66642],[-46.25612,-23.66659],[-46.25609,-23.66677],[-46.25609,-23.66696],[-46.25613,-23.66714],[-46.25621,-23.66742],[-46.25616,-23.66757],[-46.25613,-23.66777],[-46.25613,-23.66798],[-46.25618,-23.66818],[-46.25626,-23.66836],[-46.25638,-23.66852],[-46.25653,-23.66866],[-46.2567,-23.66876],[-46.25673,-23.66889],[-46.25672,-23.66892],[-46.25668,-23.66914],[-46.25668,-23.66936],[-46.2567,-23.66947],[-46.25676,-23.66968],[-46.25686,-23.66988],[-46.25692,-23.66997],[-46.25704,-23.67012],[-46.25708,-23.67015],[-46.25711,-23.67029],[-46.25719,-23.67047],[-46.2573,-23.67062],[-46.25743,-23.67076],[-46.2576,-23.67086],[-46.25777,-23.67094],[-46.25796,-23.67097],[-46.25926,-23.67109],[-46.25937,-23.6712],[-46.25982,-23.67245],[-46.25982,-23.67247],[-46.26015,-23.6733],[-46.26025,-23.67349],[-46.26074,-23.67422],[-46.26105,-23.67489],[-46.26115,-23.67506],[-46.26129,-23.67521],[-46.26145,-23.67533],[-46.26163,-23.67541],[-46.26182,-23.67546],[-46.26184,-23.67546],[-46.26184,-23.67554],[-46.26188,-23.67572],[-46.26196,-23.6759],[-46.26249,-23.67687],[-46.26259,-23.67702],[-46.26421,-23.67901],[-46.26433,-23.67914],[-46.26446,-23.67922],[-46.2644,-23.67928],[-46.2643,-23.67947],[-46.26424,-23.67967],[-46.26422,-23.67988],[-46.26425,-23.68009],[-46.26432,-23.68029],[-46.26454,-23.68076],[-46.26464,-23.68093],[-46.26477,-23.68107],[-46.26492,-23.68119],[-46.2651,-23.68127],[-46.26528,-23.68132],[-46.26556,-23.68137],[-46.26568,-23.68151],[-46.26564,-23.68158],[-46.2656,-23.68177],[-46.26559,-23.68195],[-46.26562,-23.68214],[-46.26568,-23.68231],[-46.26578,-23.68247],[-46.2659,-23.68262],[-46.26605,-23.68276],[-46.26543,-23.68308],[-46.26527,-23.68319],[-46.26514,-23.68332],[-46.26503,-23.68347],[-46.26495,-23.68364],[-46.26491,-23.68382],[-46.2649,-23.684],[-46.26492,-23.68419],[-46.26498,-23.68437],[-46.26507,-23.68453],[-46.26615,-23.68612],[-46.26624,-23.68624],[-46.26635,-23.68634],[-46.2669,-23.68678],[-46.26712,-23.68692],[-46.26789,-23.68726],[-46.26796,-23.68808],[-46.26799,-23.68828],[-46.26807,-23.68847],[-46.26818,-23.68864],[-46.26833,-23.68879],[-46.26982,-23.68998],[-46.26999,-23.69009],[-46.27018,-23.69016],[-46.27151,-23.69052],[-46.27233,-23.69101],[-46.27252,-23.6911],[-46.27273,-23.69115],[-46.27295,-23.69115],[-46.27316,-23.69111],[-46.27335,-23.69102],[-46.27349,-23.69094],[-46.27559,-23.69152],[-46.27641,-23.69192],[-46.27691,-23.69233],[-46.27704,-23.69242],[-46.2772,-23.69249],[-46.27794,-23.69277],[-46.27804,-23.6928],[-46.27809,-23.69281],[-46.27812,-23.69297],[-46.27829,-23.69352],[-46.27836,-23.69369],[-46.27847,-23.69384],[-46.27859,-23.69398],[-46.27874,-23.69408],[-46.27891,-23.69416],[-46.27909,-23.69421],[-46.27914,-23.69421],[-46.27992,-23.69535],[-46.28004,-23.69549],[-46.28018,-23.6956],[-46.28033,-23.69569],[-46.2805,-23.69575],[-46.28064,-23.69578],[-46.28098,-23.69659],[-46.28107,-23.69677],[-46.2812,-23.69692],[-46.28136,-23.69705],[-46.28154,-23.69714],[-46.28174,-23.69719],[-46.28194,-23.6972],[-46.28214,-23.69717],[-46.28233,-23.6971],[-46.2832,-23.69668],[-46.28339,-23.69693],[-46.28354,-23.69709],[-46.28371,-23.69721],[-46.2839,-23.69729],[-46.28411,-23.69733],[-46.28432,-23.69732],[-46.28452,-23.69727],[-46.28524,-23.69702],[-46.28611,-23.69711],[-46.28617,-23.69711],[-46.28691,-23.69713],[-46.28692,-23.69738],[-46.28695,-23.69757],[-46.28701,-23.69774],[-46.28725,-23.6983],[-46.28735,-23.69848],[-46.28749,-23.69863],[-46.28757,-23.6987],[-46.28766,-23.69879],[-46.28782,-23.69891],[-46.288,-23.69899],[-46.2882,-23.69904],[-46.28849,-23.69908],[-46.28873,-23.69908],[-46.28924,-23.69902],[-46.28939,-23.69909],[-46.2895,-23.69917],[-46.29013,-23.69967],[-46.29019,-23.69971],[-46.29033,-23.6998],[-46.29033,-23.6999],[-46.29036,-23.7001],[-46.29043,-23.7003],[-46.29054,-23.70047],[-46.29068,-23.70062],[-46.29139,-23.70123],[-46.29155,-23.70135],[-46.29174,-23.70142],[-46.29194,-23.70147],[-46.29214,-23.70146],[-46.29224,-23.70144],[-46.2928,-23.70163],[-46.29287,-23.70166],[-46.29312,-23.7019],[-46.29316,-23.70193],[-46.29319,-23.70196],[-46.29319,-23.702],[-46.29326,-23.70219],[-46.29336,-23.70237],[-46.29349,-23.70252],[-46.29446,-23.70342],[-46.29448,-23.70343],[-46.29459,-23.70354],[-46.29473,-23.70364],[-46.29488,-23.70372],[-46.29505,-23.70377],[-46.29537,-23.70384],[-46.29559,-23.70386],[-46.29601,-23.70386],[-46.29658,-23.70401],[-46.29675,-23.70455],[-46.29655,-23.70506],[-46.29639,-23.70545],[-46.29633,-23.70565],[-46.29631,-23.70586],[-46.29632,-23.70591],[-46.29591,-23.70617],[-46.29577,-23.70629],[-46.29565,-23.70643],[-46.29555,-23.70659],[-46.29549,-23.70676],[-46.29546,-23.70695],[-46.29547,-23.70713],[-46.29551,-23.70731],[-46.29556,-23.70748],[-46.29553,-23.70821],[-46.29553,-23.70822],[-46.29552,-23.70855],[-46.29549,-23.70855],[-46.29529,-23.70858],[-46.29511,-23.70864],[-46.29496,-23.70873],[-46.29493,-23.70873],[-46.29475,-23.70873],[-46.29457,-23.70877],[-46.2944,-23.70883],[-46.29425,-23.70893],[-46.29411,-23.70905],[-46.29384,-23.70936],[-46.29372,-23.70953],[-46.29363,-23.70972],[-46.29359,-23.70992],[-46.29359,-23.71013],[-46.29361,-23.71023],[-46.29359,-23.71028],[-46.29356,-23.71047],[-46.29357,-23.71066],[-46.29362,-23.71097],[-46.29367,-23.71117],[-46.29376,-23.71135],[-46.29414,-23.71195],[-46.29425,-23.7121],[-46.29439,-23.71223],[-46.29453,-23.71231],[-46.29457,-23.7124],[-46.29454,-23.71248],[-46.29451,-23.71268],[-46.29452,-23.71288],[-46.29457,-23.71307],[-46.29465,-23.71325],[-46.29477,-23.71341],[-46.29489,-23.71354],[-46.29505,-23.71368],[-46.29523,-23.71378],[-46.29542,-23.71384],[-46.29545,-23.71385],[-46.29546,-23.71385],[-46.29547,-23.71386],[-46.29545,-23.71388],[-46.29524,-23.71406],[-46.29511,-23.7142],[-46.29502,-23.71435],[-46.29495,-23.71453],[-46.29491,-23.71471],[-46.29491,-23.71489],[-46.29495,-23.71507],[-46.2951,-23.71561],[-46.29504,-23.71576],[-46.29498,-23.71595],[-46.29475,-23.71716],[-46.29475,-23.7172],[-46.29457,-23.7184],[-46.29438,-23.71905],[-46.29435,-23.71923],[-46.29435,-23.71941],[-46.29438,-23.7196],[-46.29445,-23.71977],[-46.29454,-23.71993],[-46.29467,-23.72007],[-46.29544,-23.72077],[-46.29596,-23.72175],[-46.29588,-23.72192],[-46.29583,-23.72213],[-46.29583,-23.72234],[-46.29587,-23.72255],[-46.29596,-23.72284],[-46.296,-23.72294],[-46.29596,-23.72306],[-46.29594,-23.72327],[-46.29597,-23.72348],[-46.29604,-23.7238],[-46.29609,-23.72397],[-46.29618,-23.72413],[-46.29629,-23.72427],[-46.29666,-23.72466],[-46.29667,-23.72473],[-46.29674,-23.72488],[-46.29685,-23.7251],[-46.29695,-23.72525],[-46.29708,-23.72539],[-46.29722,-23.7255],[-46.29739,-23.72558],[-46.29768,-23.72568],[-46.29785,-23.72573],[-46.29803,-23.72575],[-46.2982,-23.72573],[-46.29846,-23.72568],[-46.29847,-23.72569],[-46.29858,-23.72585],[-46.29872,-23.72598],[-46.2999,-23.72688],[-46.30005,-23.72698],[-46.30022,-23.72705],[-46.3004,-23.72709],[-46.30085,-23.72714],[-46.3008,-23.72728],[-46.30076,-23.72745],[-46.30076,-23.72762],[-46.30078,-23.72779],[-46.30094,-23.72852],[-46.30101,-23.72872],[-46.30111,-23.7289],[-46.30125,-23.72905],[-46.30141,-23.72917],[-46.30177,-23.72938],[-46.3026,-23.7304],[-46.30273,-23.73053],[-46.30288,-23.73064],[-46.30304,-23.73071],[-46.30362,-23.73092],[-46.30374,-23.73104],[-46.30383,-23.73112],[-46.30438,-23.73156],[-46.3044,-23.7316],[-46.30452,-23.73179],[-46.30467,-23.73195],[-46.30486,-23.73207],[-46.30577,-23.73253],[-46.30584,-23.73266],[-46.30586,-23.73383],[-46.30588,-23.734],[-46.30592,-23.73416],[-46.30599,-23.73431],[-46.30681,-23.73574],[-46.3071,-23.73659],[-46.30718,-23.73677],[-46.3073,-23.73693],[-46.30745,-23.73707],[-46.30762,-23.73717],[-46.30853,-23.73759],[-46.30909,-23.73808],[-46.30928,-23.7386],[-46.30939,-23.73882],[-46.30955,-23.739],[-46.31022,-23.73959],[-46.31116,-23.74068],[-46.31116,-23.74069],[-46.31161,-23.7412],[-46.31164,-23.74123],[-46.31212,-23.74173],[-46.31228,-23.74187],[-46.31255,-23.74205],[-46.31262,-23.74209],[-46.31309,-23.74235],[-46.31328,-23.74243],[-46.31349,-23.74247],[-46.3137,-23.74247],[-46.31406,-23.74243],[-46.3143,-23.74243],[-46.3149,-23.74249],[-46.31547,-23.74281],[-46.3155,-23.74283],[-46.3157,-23.74293],[-46.31636,-23.7434],[-46.31727,-23.74429],[-46.3179,-23.7449],[-46.31802,-23.745],[-46.31816,-23.74508],[-46.31832,-23.74514],[-46.31945,-23.74547],[-46.32014,-23.74582],[-46.32031,-23.74589],[-46.32049,-23.74592],[-46.32079,-23.74595],[-46.32102,-23.74594],[-46.32124,-23.74588],[-46.32156,-23.74576],[-46.32171,-23.74569],[-46.32185,-23.74559],[-46.32196,-23.74547],[-46.32208,-23.74534],[-46.3222,-23.74517],[-46.32264,-23.74434],[-46.32272,-23.74416],[-46.32276,-23.74398],[-46.32276,-23.74379],[-46.32273,-23.7436],[-46.32266,-23.74343],[-46.32257,-23.74326],[-46.32244,-23.74312],[-46.32229,-23.74301],[-46.32212,-23.74293],[-46.32194,-23.74288],[-46.32147,-23.7428],[-46.3195,-23.74103],[-46.31898,-23.74034],[-46.31892,-23.74016],[-46.31882,-23.73995],[-46.31867,-23.73977],[-46.31807,-23.73917],[-46.31814,-23.73885],[-46.31816,-23.73867],[-46.31815,-23.7385],[-46.31809,-23.73797],[-46.3191,-23.73754],[-46.31934,-23.7374],[-46.31956,-23.73721],[-46.31967,-23.73726],[-46.32022,-23.73743],[-46.32041,-23.73747],[-46.3206,-23.73747],[-46.32079,-23.73743],[-46.32097,-23.73736],[-46.32113,-23.73726],[-46.32127,-23.73712],[-46.32165,-23.73667],[-46.32253,-23.73626],[-46.32257,-23.73623],[-46.32326,-23.73586],[-46.32339,-23.73577],[-46.32351,-23.73566],[-46.32479,-23.7343],[-46.32493,-23.73411],[-46.32502,-23.73389],[-46.32525,-23.73307],[-46.32529,-23.73288],[-46.32529,-23.73269],[-46.32525,-23.7325],[-46.32521,-23.73238],[-46.32544,-23.73151],[-46.32589,-23.73125],[-46.32691,-23.73087],[-46.32705,-23.7308],[-46.32718,-23.73072],[-46.32811,-23.73],[-46.32824,-23.72987],[-46.32835,-23.72973],[-46.32843,-23.72957],[-46.32848,-23.7294],[-46.32868,-23.72838],[-46.3287,-23.72818],[-46.32867,-23.72798],[-46.32861,-23.72779],[-46.32851,-23.72761],[-46.32838,-23.72746],[-46.32821,-23.72734],[-46.32804,-23.72725],[-46.32815,-23.7271],[-46.32823,-23.72692],[-46.32827,-23.72672],[-46.32827,-23.72652],[-46.3282,-23.72571],[-46.32817,-23.72555],[-46.32805,-23.72513],[-46.32794,-23.72487],[-46.32768,-23.72443],[-46.32757,-23.72428],[-46.32743,-23.72416],[-46.32727,-23.72406],[-46.32703,-23.72394],[-46.32753,-23.72308],[-46.32763,-23.72282],[-46.32785,-23.72196],[-46.32803,-23.72127],[-46.32806,-23.72108],[-46.32805,-23.72089],[-46.32801,-23.72071],[-46.32793,-23.72053],[-46.32759,-23.71992],[-46.32747,-23.71976],[-46.32739,-23.71968],[-46.32749,-23.71953],[-46.32757,-23.71937],[-46.32763,-23.7192],[-46.32765,-23.71902],[-46.32764,-23.71884],[-46.32751,-23.71788],[-46.32736,-23.71647],[-46.32742,-23.71557],[-46.32762,-23.7149],[-46.32766,-23.71468],[-46.32765,-23.71446],[-46.32759,-23.71424],[-46.32679,-23.71223],[-46.32721,-23.71153],[-46.32729,-23.71136],[-46.32734,-23.71118],[-46.32735,-23.71098],[-46.32733,-23.7108],[-46.32727,-23.71061],[-46.32718,-23.71045],[-46.32658,-23.70957],[-46.32644,-23.70942],[-46.32628,-23.70929],[-46.32594,-23.70908],[-46.32584,-23.70868],[-46.32594,-23.7078],[-46.32594,-23.7076],[-46.32578,-23.70586],[-46.32573,-23.70563],[-46.32562,-23.70541],[-46.3252,-23.70477],[-46.32508,-23.70461],[-46.32496,-23.70449],[-46.32516,-23.70364],[-46.32536,-23.70341],[-46.32667,-23.70342],[-46.3277,-23.70357],[-46.32742,-23.70409],[-46.32736,-23.70423],[-46.32732,-23.70438],[-46.32709,-23.70555],[-46.32707,-23.70575],[-46.32709,-23.70596],[-46.32745,-23.70754],[-46.32752,-23.70775],[-46.32791,-23.70856],[-46.32801,-23.70873],[-46.32814,-23.70887],[-46.32852,-23.70921],[-46.32871,-23.70935],[-46.32893,-23.70943],[-46.32941,-23.70956],[-46.32967,-23.70959],[-46.33009,-23.70959],[-46.33065,-23.70966],[-46.33085,-23.70966],[-46.33104,-23.70962],[-46.33122,-23.70955],[-46.33139,-23.70944],[-46.33153,-23.7093],[-46.33164,-23.70914],[-46.33172,-23.70896],[-46.33176,-23.70876],[-46.33176,-23.70857],[-46.33173,-23.70828],[-46.33172,-23.70819],[-46.33188,-23.70786],[-46.33194,-23.70772],[-46.33197,-23.70757],[-46.33201,-23.70733],[-46.33202,-23.70716],[-46.33201,-23.70615],[-46.332,-23.70611],[-46.332,-23.70599],[-46.3321,-23.70587],[-46.33221,-23.70565],[-46.33226,-23.70552],[-46.33226,-23.70552],[-46.33242,-23.70542],[-46.33256,-23.7053],[-46.33273,-23.70511],[-46.33288,-23.70492],[-46.33301,-23.7047],[-46.33309,-23.7045],[-46.33314,-23.70429],[-46.33316,-23.70408],[-46.33322,-23.70384],[-46.33325,-23.70368],[-46.33326,-23.70355],[-46.33326,-23.70329],[-46.33318,-23.70282],[-46.33322,-23.70244],[-46.33323,-23.70229],[-46.33321,-23.70191],[-46.33319,-23.70173],[-46.33309,-23.70133],[-46.33306,-23.7007],[-46.33304,-23.70053],[-46.33295,-23.70013],[-46.33289,-23.69948],[-46.33284,-23.69927],[-46.33276,-23.69908],[-46.33274,-23.69905],[-46.33278,-23.6989],[-46.3328,-23.6987],[-46.33279,-23.69836],[-46.33277,-23.69818],[-46.33272,-23.69801],[-46.33268,-23.69793],[-46.33268,-23.69787],[-46.33282,-23.69673],[-46.33282,-23.69648],[-46.33279,-23.69635],[-46.33287,-23.69628],[-46.33303,-23.69612],[-46.33315,-23.69592],[-46.3332,-23.69581],[-46.33322,-23.69578],[-46.3334,-23.69565],[-46.33351,-23.69554],[-46.33359,-23.69546],[-46.33367,-23.6954],[-46.33385,-23.69525],[-46.33394,-23.69514],[-46.33405,-23.69499],[-46.33413,-23.69482],[-46.33418,-23.69464],[-46.3342,-23.69454],[-46.33421,-23.69433],[-46.33418,-23.69412],[-46.33417,-23.6941],[-46.33434,-23.69399],[-46.33437,-23.69397],[-46.33445,-23.69392],[-46.33454,-23.69385],[-46.33526,-23.69324],[-46.3353,-23.6932],[-46.33533,-23.69317],[-46.33596,-23.69265],[-46.33609,-23.69252],[-46.33626,-23.69232],[-46.33636,-23.69216],[-46.33644,-23.69199],[-46.3365,-23.6918],[-46.33655,-23.69153],[-46.33655,-23.69146],[-46.33661,-23.69128],[-46.3367,-23.69123],[-46.33676,-23.6912],[-46.33693,-23.69109],[-46.33711,-23.69094],[-46.33726,-23.69075],[-46.33732,-23.69064],[-46.33739,-23.69051],[-46.33743,-23.69037],[-46.33745,-23.69028],[-46.33768,-23.68953],[-46.33771,-23.68939],[-46.338,-23.68759],[-46.33802,-23.68741],[-46.338,-23.68723],[-46.33795,-23.68706],[-46.33784,-23.68679],[-46.33778,-23.68656],[-46.33771,-23.68638],[-46.3377,-23.68637],[-46.33787,-23.6862],[-46.33798,-23.68606],[-46.33806,-23.68591],[-46.33812,-23.68574],[-46.33816,-23.68561],[-46.33818,-23.68533],[-46.33818,-23.68517],[-46.33816,-23.68499],[-46.3381,-23.68482],[-46.33796,-23.68447],[-46.33797,-23.68442],[-46.33804,-23.68423],[-46.33807,-23.68403],[-46.33808,-23.68325],[-46.33806,-23.68299],[-46.33796,-23.6826],[-46.33789,-23.6824],[-46.33778,-23.68223],[-46.33771,-23.68215],[-46.33784,-23.68203],[-46.33795,-23.68188],[-46.33804,-23.68171],[-46.33812,-23.6815],[-46.33817,-23.68125],[-46.33818,-23.68118],[-46.33822,-23.68106],[-46.33825,-23.68089],[-46.33825,-23.68071],[-46.33821,-23.68028],[-46.33845,-23.6793],[-46.33876,-23.67844],[-46.33885,-23.67835],[-46.33895,-23.67819],[-46.33902,-23.67803],[-46.33903,-23.67795],[-46.33928,-23.67794],[-46.33946,-23.67791],[-46.33963,-23.67785],[-46.33979,-23.67776],[-46.34005,-23.67758],[-46.34021,-23.67744],[-46.34034,-23.67727],[-46.34035,-23.67725],[-46.34102,-23.67685],[-46.34102,-23.67685],[-46.34113,-23.67682],[-46.34124,-23.67679],[-46.34148,-23.6767],[-46.34168,-23.6766],[-46.34186,-23.67645],[-46.34214,-23.67617],[-46.34235,-23.67596],[-46.34253,-23.67577],[-46.34259,-23.67571],[-46.34268,-23.67563],[-46.34303,-23.67545],[-46.34326,-23.67533],[-46.34342,-23.67522],[-46.3439,-23.67485],[-46.34407,-23.67466],[-46.34408,-23.67465],[-46.3441,-23.67465],[-46.34428,-23.67464],[-46.34446,-23.67458],[-46.34462,-23.6745],[-46.34477,-23.67439],[-46.34489,-23.67425],[-46.3452,-23.67383],[-46.34523,-23.67379],[-46.34541,-23.67352],[-46.34548,-23.67346],[-46.34588,-23.67336],[-46.34606,-23.67329],[-46.34623,-23.67318],[-46.34638,-23.67304],[-46.34649,-23.67288],[-46.34657,-23.6727],[-46.34662,-23.67255],[-46.34669,-23.67252],[-46.34689,-23.67239],[-46.34702,-23.67229],[-46.34713,-23.67218],[-46.34722,-23.67206],[-46.3475,-23.67163],[-46.34758,-23.67148],[-46.34762,-23.67139],[-46.34776,-23.67138],[-46.34793,-23.67134],[-46.34809,-23.67127],[-46.34823,-23.67118],[-46.34832,-23.67112],[-46.34837,-23.67108],[-46.34851,-23.67096],[-46.34866,-23.67079],[-46.34877,-23.67065],[-46.34948,-23.66953],[-46.34957,-23.66943],[-46.3496,-23.6694],[-46.34968,-23.6693],[-46.34974,-23.66923],[-46.34982,-23.66911],[-46.34993,-23.66887],[-46.34998,-23.66874],[-46.35002,-23.66856],[-46.35004,-23.66839],[-46.35003,-23.66836],[-46.35067,-23.66763],[-46.3507,-23.66759],[-46.35077,-23.6675],[-46.35093,-23.66747],[-46.3511,-23.66742],[-46.35126,-23.66735],[-46.35141,-23.66724],[-46.35164,-23.66704],[-46.35183,-23.66701],[-46.35218,-23.66703],[-46.35233,-23.66703],[-46.35248,-23.66701],[-46.35282,-23.66693],[-46.35301,-23.66687],[-46.35318,-23.66677],[-46.35333,-23.66664],[-46.35345,-23.66649],[-46.35418,-23.66531],[-46.35422,-23.66528],[-46.35435,-23.66526],[-46.35487,-23.66528],[-46.355,-23.66527],[-46.35623,-23.66513],[-46.35645,-23.66508],[-46.35666,-23.66498],[-46.35708,-23.6647],[-46.35724,-23.66457],[-46.35737,-23.66442],[-46.35746,-23.66424],[-46.35752,-23.66404],[-46.35763,-23.66338],[-46.35765,-23.66323],[-46.35764,-23.66309],[-46.35758,-23.6626],[-46.359,-23.66118],[-46.35911,-23.66104],[-46.3592,-23.66089],[-46.35926,-23.66072],[-46.35936,-23.66034],[-46.35939,-23.66016],[-46.35938,-23.65997],[-46.35934,-23.65979],[-46.35927,-23.65962],[-46.35917,-23.65946],[-46.35837,-23.65846],[-46.35819,-23.65802],[-46.35818,-23.65608],[-46.35816,-23.65593],[-46.35813,-23.65578],[-46.35761,-23.6542],[-46.35731,-23.65269],[-46.35717,-23.65197],[-46.35711,-23.65177],[-46.35701,-23.65159],[-46.35687,-23.65144],[-46.35671,-23.65131],[-46.35603,-23.6509],[-46.35632,-23.65047],[-46.35641,-23.6503],[-46.35647,-23.65011],[-46.35649,-23.64992],[-46.35647,-23.64972],[-46.35642,-23.64954],[-46.35633,-23.64936],[-46.35621,-23.64921],[-46.35594,-23.64894],[-46.3558,-23.64882],[-46.35565,-23.64873],[-46.35508,-23.64846],[-46.35491,-23.6484],[-46.35474,-23.64837],[-46.35402,-23.64831],[-46.35401,-23.64817],[-46.3545,-23.64699],[-46.35499,-23.64636],[-46.35509,-23.6462],[-46.35516,-23.64603],[-46.3552,-23.64584],[-46.3552,-23.64565],[-46.35517,-23.64547],[-46.3551,-23.64529],[-46.35499,-23.64513],[-46.35486,-23.64499],[-46.35471,-23.64488],[-46.35398,-23.64445],[-46.35399,-23.6444],[-46.35401,-23.64421],[-46.35401,-23.64407],[-46.35481,-23.64346],[-46.35494,-23.64333],[-46.35505,-23.64318],[-46.35513,-23.64301],[-46.35518,-23.64284],[-46.35535,-23.64183],[-46.35537,-23.64165],[-46.35535,-23.6409],[-46.35535,-23.6408],[-46.35533,-23.64069],[-46.35561,-23.64037],[-46.35572,-23.64021],[-46.3558,-23.64004],[-46.35584,-23.63986],[-46.35585,-23.63967],[-46.3558,-23.63885],[-46.3561,-23.63898],[-46.3564,-23.63923],[-46.35705,-23.64015],[-46.35722,-23.64033],[-46.35742,-23.64046],[-46.35814,-23.64083],[-46.35831,-23.64089],[-46.35848,-23.64093],[-46.35996,-23.6411],[-46.36015,-23.64126],[-46.36022,-23.64151],[-46.36027,-23.64167],[-46.36035,-23.64181],[-46.36045,-23.64194],[-46.36087,-23.64239],[-46.36103,-23.64253],[-46.36121,-23.64263],[-46.36238,-23.64314],[-46.36265,-23.64322],[-46.36363,-23.64335],[-46.36376,-23.64336],[-46.36443,-23.64336],[-46.36612,-23.64408],[-46.36629,-23.64413],[-46.36645,-23.64416],[-46.36663,-23.64415],[-46.36774,-23.64403],[-46.36791,-23.644],[-46.36807,-23.64393],[-46.36866,-23.64364],[-46.36881,-23.64355],[-46.36894,-23.64344],[-46.36904,-23.64331],[-46.36938,-23.64281],[-46.36946,-23.64267],[-46.3695,-23.64255],[-46.37008,-23.64249],[-46.37029,-23.64245],[-46.37048,-23.64236],[-46.37152,-23.64175],[-46.37167,-23.64164],[-46.3718,-23.6415],[-46.37191,-23.64135],[-46.37198,-23.64117],[-46.37207,-23.64084],[-46.37238,-23.64067],[-46.37312,-23.64058],[-46.3741,-23.64076],[-46.37432,-23.64077],[-46.37453,-23.64074],[-46.37473,-23.64066],[-46.37491,-23.64055],[-46.37494,-23.64052],[-46.37534,-23.64055],[-46.37554,-23.64054],[-46.37573,-23.64049],[-46.37618,-23.64034],[-46.37638,-23.64024],[-46.37678,-23.63999],[-46.37694,-23.63986],[-46.37708,-23.6397],[-46.37794,-23.63845],[-46.37805,-23.63821],[-46.37822,-23.63774],[-46.37873,-23.6372],[-46.37884,-23.63707],[-46.37892,-23.63691],[-46.3791,-23.6365],[-46.37913,-23.63645],[-46.37927,-23.63619],[-46.37933,-23.63602],[-46.37944,-23.63568],[-46.37948,-23.63551],[-46.3798,-23.63321],[-46.37995,-23.63275],[-46.38002,-23.63267],[-46.38014,-23.63251],[-46.38022,-23.63232],[-46.38026,-23.63212],[-46.38034,-23.63151],[-46.38034,-23.63138],[-46.38034,-23.63101],[-46.38064,-23.63025],[-46.3807,-23.63005],[-46.38071,-23.62984],[-46.38069,-23.62931],[-46.38067,-23.62911],[-46.3806,-23.62893],[-46.38052,-23.62878],[-46.38078,-23.62838],[-46.38164,-23.6274],[-46.38178,-23.6272],[-46.38186,-23.62698],[-46.38222,-23.62555],[-46.38295,-23.6244],[-46.38303,-23.62424],[-46.38359,-23.62284],[-46.3836,-23.62282],[-46.38427,-23.62104],[-46.38431,-23.62091],[-46.38448,-23.62014],[-46.38449,-23.62008],[-46.38461,-23.61992]]]},"properties":{"ghs":"6gz","size":899.15,"ghs_len":3,"ghs_area":215.76,"ghs_bytes":606694,"ghs_items":2362,"size_unit":"km","ghsval_unit":"bytes","ghs_itemsdensity":10.95,"size_unitdensity":4.17}}]}
