{"type":"FeatureCollection","features":[{"type":"Feature","geometry":{"type":"Polygon","coordinates":[[[-47.36605,-22.5],[-47.34325,-22.49779],[-47.33552,-22.49705],[-47.32512,-22.48381],[-47.32595,-22.48132],[-47.32599,-22.48113],[-47.326,-22.48093],[-47.32596,-22.48074],[-47.32589,-22.48055],[-47.32579,-22.48039],[-47.32566,-22.48024],[-47.3255,-22.48013],[-47.32532,-22.48005],[-47.31932,-22.47805],[-47.31924,-22.47803],[-47.31586,-22.47718],[-47.31098,-22.4528],[-47.31093,-22.45263],[-47.31085,-22.45248],[-47.31075,-22.45234],[-47.30275,-22.44334],[-47.3026,-22.4432],[-47.30243,-22.44309],[-47.30223,-22.44303],[-47.30203,-22.443],[-47.30183,-22.44301],[-47.30164,-22.44307],[-47.30146,-22.44316],[-47.3013,-22.44329],[-47.30117,-22.44344],[-47.30108,-22.44362],[-47.29432,-22.46003],[-47.27648,-22.46084],[-47.27627,-22.46085],[-47.27458,-22.46093],[-47.27295,-22.461],[-47.27275,-22.46103],[-47.27256,-22.4611],[-47.27239,-22.46121],[-47.26366,-22.468],[-47.257,-22.468],[-47.25681,-22.46802],[-47.25663,-22.46807],[-47.25646,-22.46816],[-47.25631,-22.46828],[-47.25619,-22.46842],[-47.25133,-22.47522],[-47.24355,-22.47911],[-47.24338,-22.47922],[-47.24323,-22.47937],[-47.24311,-22.47954],[-47.24303,-22.47974],[-47.243,-22.47995],[-47.24301,-22.48016],[-47.24593,-22.49862],[-47.24437,-22.5],[-47.36605,-22.5]]]},"properties":{"ghs":"6","size":1,"ghs_len":1,"ghs_area":35.05,"ghs_bytes":2338,"ghs_items":3,"size_unit":"km2","ghsval_unit":"bytes","ghs_itemsdensity":0.09,"size_unitdensity":0.03}},{"type":"Feature","geometry":{"type":"Polygon","coordinates":[[[-47.46094,-22.54395],[-47.46094,-22.58789],[-47.46094,-22.67578],[-47.27781,-22.67578],[-47.27693,-22.67767],[-47.27686,-22.67787],[-47.27654,-22.67927],[-47.27651,-22.6795],[-47.27654,-22.67973],[-47.2772,-22.6825],[-47.27727,-22.6827],[-47.27738,-22.68288],[-47.27815,-22.68389],[-47.27825,-22.684],[-47.27837,-22.68409],[-47.27968,-22.68502],[-47.27983,-22.68511],[-47.28366,-22.68692],[-47.28404,-22.68724],[-47.28404,-22.68731],[-47.28403,-22.68735],[-47.28351,-22.68794],[-47.2833,-22.68813],[-47.28305,-22.68823],[-47.28218,-22.68841],[-47.27964,-22.68866],[-47.27943,-22.6887],[-47.27922,-22.6888],[-47.2786,-22.68917],[-47.27845,-22.68928],[-47.27833,-22.68942],[-47.27823,-22.68958],[-47.27816,-22.68975],[-47.27812,-22.68994],[-47.27812,-22.69012],[-47.27816,-22.69031],[-47.2785,-22.69149],[-47.27852,-22.69156],[-47.27891,-22.69263],[-47.279,-22.69281],[-47.27912,-22.69298],[-47.27928,-22.69311],[-47.27946,-22.69321],[-47.27993,-22.69341],[-47.28011,-22.69346],[-47.28029,-22.69348],[-47.28048,-22.69347],[-47.28155,-22.6933],[-47.28223,-22.69329],[-47.28442,-22.69422],[-47.2845,-22.69425],[-47.28546,-22.69456],[-47.28563,-22.6946],[-47.28657,-22.69474],[-47.28684,-22.69474],[-47.2874,-22.69467],[-47.28751,-22.69465],[-47.28944,-22.69418],[-47.29134,-22.69395],[-47.29168,-22.69395],[-47.29185,-22.69393],[-47.29202,-22.69389],[-47.29217,-22.69382],[-47.29363,-22.693],[-47.29371,-22.69295],[-47.29476,-22.69223],[-47.29485,-22.69216],[-47.29553,-22.69156],[-47.29557,-22.69152],[-47.29667,-22.69045],[-47.29707,-22.69008],[-47.29736,-22.68983],[-47.29769,-22.6896],[-47.29809,-22.68938],[-47.29846,-22.68921],[-47.29881,-22.68909],[-47.29927,-22.68899],[-47.29985,-22.68887],[-47.30046,-22.68879],[-47.30119,-22.68873],[-47.3012,-22.68873],[-47.30196,-22.68867],[-47.30203,-22.68866],[-47.30249,-22.68859],[-47.3025,-22.68859],[-47.30297,-22.68851],[-47.30344,-22.68845],[-47.30395,-22.6884],[-47.30463,-22.68835],[-47.30534,-22.68838],[-47.30535,-22.68839],[-47.30613,-22.68841],[-47.30618,-22.68841],[-47.30679,-22.6884],[-47.3068,-22.6884],[-47.30771,-22.68839],[-47.30773,-22.68839],[-47.30816,-22.68837],[-47.30818,-22.68837],[-47.30859,-22.68834],[-47.30862,-22.68834],[-47.31032,-22.68818],[-47.31032,-22.68818],[-47.311,-22.68812],[-47.31135,-22.68809],[-47.3116,-22.6881],[-47.31173,-22.68811],[-47.31187,-22.68815],[-47.31206,-22.6882],[-47.31221,-22.68825],[-47.31248,-22.68836],[-47.31276,-22.68849],[-47.31285,-22.68855],[-47.31295,-22.68863],[-47.31345,-22.68906],[-47.31403,-22.68961],[-47.31451,-22.69013],[-47.31493,-22.69066],[-47.31551,-22.6916],[-47.31617,-22.69272],[-47.31621,-22.69279],[-47.31643,-22.6931],[-47.31646,-22.69314],[-47.31667,-22.69341],[-47.3167,-22.69344],[-47.31717,-22.694],[-47.31718,-22.694],[-47.31763,-22.69453],[-47.31766,-22.69456],[-47.31789,-22.69481],[-47.31799,-22.6949],[-47.3182,-22.69507],[-47.31826,-22.69512],[-47.31884,-22.69553],[-47.31892,-22.69558],[-47.31925,-22.69577],[-47.31933,-22.69582],[-47.31967,-22.69597],[-47.3197,-22.69599],[-47.32052,-22.69634],[-47.32054,-22.69634],[-47.32098,-22.69652],[-47.32101,-22.69653],[-47.32142,-22.69668],[-47.32165,-22.69678],[-47.32179,-22.69686],[-47.32192,-22.69695],[-47.32196,-22.697],[-47.32199,-22.69705],[-47.322,-22.69706],[-47.322,-22.69708],[-47.32204,-22.69737],[-47.32205,-22.69754],[-47.32205,-22.69774],[-47.32204,-22.69819],[-47.32201,-22.69867],[-47.32195,-22.69903],[-47.32194,-22.69905],[-47.32189,-22.69945],[-47.32188,-22.69951],[-47.32182,-22.7003],[-47.32183,-22.70057],[-47.3219,-22.7009],[-47.32196,-22.7011],[-47.32214,-22.70152],[-47.32214,-22.70153],[-47.32226,-22.70179],[-47.32224,-22.7019],[-47.32223,-22.70198],[-47.32222,-22.70217],[-47.32215,-22.70227],[-47.3221,-22.70234],[-47.32195,-22.70259],[-47.32193,-22.70263],[-47.32149,-22.70348],[-47.32147,-22.70352],[-47.32119,-22.70412],[-47.32085,-22.70482],[-47.32062,-22.70516],[-47.3204,-22.70547],[-47.32039,-22.70548],[-47.32019,-22.70576],[-47.32007,-22.70599],[-47.31998,-22.70623],[-47.31994,-22.70635],[-47.31989,-22.70657],[-47.31986,-22.70677],[-47.31986,-22.70696],[-47.31989,-22.70723],[-47.31996,-22.70751],[-47.31996,-22.70752],[-47.32003,-22.70781],[-47.32008,-22.70796],[-47.32027,-22.7084],[-47.32032,-22.7085],[-47.32056,-22.70891],[-47.32057,-22.70893],[-47.321,-22.70964],[-47.3213,-22.7102],[-47.32132,-22.71022],[-47.32151,-22.71055],[-47.32154,-22.7106],[-47.32172,-22.71086],[-47.32181,-22.71098],[-47.32198,-22.71117],[-47.32205,-22.71124],[-47.32227,-22.71144],[-47.32245,-22.71157],[-47.32264,-22.71168],[-47.32272,-22.71172],[-47.323,-22.71185],[-47.32302,-22.71185],[-47.32331,-22.71198],[-47.32338,-22.71201],[-47.32417,-22.71229],[-47.32423,-22.71231],[-47.32484,-22.71248],[-47.32492,-22.7125],[-47.32555,-22.71262],[-47.32586,-22.71269],[-47.3261,-22.71275],[-47.32659,-22.71291],[-47.32768,-22.71329],[-47.32874,-22.71372],[-47.32942,-22.71403],[-47.32972,-22.71416],[-47.32989,-22.71427],[-47.33012,-22.71437],[-47.33032,-22.71443],[-47.33047,-22.71447],[-47.33107,-22.71456],[-47.33121,-22.71457],[-47.33179,-22.71458],[-47.33264,-22.7146],[-47.33316,-22.71463],[-47.33324,-22.71463],[-47.33355,-22.71462],[-47.3337,-22.71461],[-47.33396,-22.71456],[-47.334,-22.71455],[-47.33429,-22.71449],[-47.33444,-22.71444],[-47.33472,-22.71433],[-47.33482,-22.71429],[-47.33548,-22.71394],[-47.33554,-22.71391],[-47.33643,-22.71337],[-47.33692,-22.71308],[-47.33694,-22.71307],[-47.3374,-22.71279],[-47.33752,-22.71271],[-47.33782,-22.71246],[-47.33789,-22.7124],[-47.33822,-22.71207],[-47.33862,-22.71168],[-47.33905,-22.71127],[-47.3395,-22.71094],[-47.34188,-22.70941],[-47.34192,-22.70938],[-47.34354,-22.70825],[-47.34357,-22.70822],[-47.34395,-22.70793],[-47.344,-22.70788],[-47.34434,-22.70758],[-47.34437,-22.70756],[-47.34478,-22.70717],[-47.34481,-22.70715],[-47.3451,-22.70685],[-47.34607,-22.70592],[-47.34716,-22.70495],[-47.34718,-22.70493],[-47.34785,-22.7043],[-47.34819,-22.70399],[-47.34822,-22.70396],[-47.34837,-22.70381],[-47.34848,-22.70368],[-47.34856,-22.70357],[-47.3486,-22.7035],[-47.3487,-22.70333],[-47.3488,-22.70309],[-47.34901,-22.70235],[-47.34902,-22.70231],[-47.34924,-22.70144],[-47.34973,-22.69999],[-47.35011,-22.6989],[-47.35037,-22.69831],[-47.35037,-22.6983],[-47.35047,-22.69806],[-47.35058,-22.69787],[-47.3507,-22.69768],[-47.35081,-22.69753],[-47.35101,-22.69733],[-47.35136,-22.69704],[-47.35138,-22.69702],[-47.35206,-22.69642],[-47.35208,-22.6964],[-47.35242,-22.69608],[-47.35247,-22.69604],[-47.35273,-22.69576],[-47.35276,-22.69573],[-47.35322,-22.69521],[-47.35361,-22.69479],[-47.35362,-22.69478],[-47.35404,-22.69433],[-47.35446,-22.69396],[-47.3545,-22.69392],[-47.35499,-22.69343],[-47.35544,-22.69307],[-47.35644,-22.69228],[-47.35828,-22.69098],[-47.36012,-22.68972],[-47.36016,-22.68969],[-47.36045,-22.68948],[-47.36053,-22.68941],[-47.36094,-22.68902],[-47.36106,-22.68889],[-47.36133,-22.68852],[-47.36138,-22.68844],[-47.36162,-22.68805],[-47.36165,-22.68799],[-47.36201,-22.68728],[-47.36203,-22.68726],[-47.36218,-22.68693],[-47.36223,-22.68681],[-47.36233,-22.68648],[-47.36236,-22.68636],[-47.36246,-22.68587],[-47.36246,-22.68582],[-47.36253,-22.6853],[-47.36254,-22.68527],[-47.36266,-22.68416],[-47.36266,-22.6841],[-47.36272,-22.68276],[-47.36276,-22.68213],[-47.36278,-22.68185],[-47.36286,-22.6815],[-47.36306,-22.68149],[-47.36322,-22.68149],[-47.36334,-22.68151],[-47.36421,-22.68173],[-47.36475,-22.68188],[-47.36528,-22.68209],[-47.36544,-22.68214],[-47.36614,-22.68229],[-47.36681,-22.68251],[-47.36725,-22.68268],[-47.36748,-22.68275],[-47.36785,-22.6828],[-47.36795,-22.68281],[-47.36826,-22.68282],[-47.3683,-22.68282],[-47.36877,-22.68281],[-47.36879,-22.68281],[-47.3695,-22.68279],[-47.37013,-22.6828],[-47.37027,-22.68282],[-47.3704,-22.68285],[-47.3705,-22.68289],[-47.37101,-22.68317],[-47.37108,-22.6832],[-47.37144,-22.68337],[-47.37251,-22.68398],[-47.37312,-22.68434],[-47.37315,-22.68435],[-47.3737,-22.68465],[-47.37564,-22.68579],[-47.37564,-22.68579],[-47.37662,-22.68636],[-47.37665,-22.68638],[-47.3776,-22.68689],[-47.37764,-22.68691],[-47.37838,-22.68728],[-47.37841,-22.68729],[-47.37911,-22.68761],[-47.37932,-22.68773],[-47.37949,-22.68786],[-47.37979,-22.68815],[-47.37982,-22.68817],[-47.38074,-22.68897],[-47.38172,-22.68992],[-47.38264,-22.69088],[-47.38291,-22.69121],[-47.38341,-22.69189],[-47.38408,-22.69292],[-47.38439,-22.69351],[-47.38468,-22.69413],[-47.38469,-22.69417],[-47.38551,-22.6958],[-47.38553,-22.69584],[-47.3858,-22.69632],[-47.386,-22.69673],[-47.38628,-22.69735],[-47.38697,-22.69932],[-47.38698,-22.69934],[-47.38712,-22.69973],[-47.38714,-22.69978],[-47.38734,-22.70022],[-47.38742,-22.70036],[-47.38767,-22.70075],[-47.38772,-22.70082],[-47.38812,-22.70133],[-47.38812,-22.70133],[-47.38846,-22.70176],[-47.38888,-22.70233],[-47.38934,-22.70302],[-47.38975,-22.70364],[-47.38975,-22.70365],[-47.39007,-22.70411],[-47.39015,-22.70422],[-47.39036,-22.70444],[-47.39081,-22.70497],[-47.39087,-22.70503],[-47.39117,-22.70533],[-47.39121,-22.70536],[-47.39159,-22.7057],[-47.39162,-22.70572],[-47.39192,-22.70597],[-47.39199,-22.70602],[-47.39242,-22.70631],[-47.3933,-22.70692],[-47.39334,-22.70695],[-47.39411,-22.70743],[-47.39415,-22.70745],[-47.3949,-22.70788],[-47.39491,-22.70788],[-47.39591,-22.70844],[-47.39595,-22.70846],[-47.39703,-22.70901],[-47.39906,-22.71013],[-47.39908,-22.71015],[-47.39969,-22.71047],[-47.3997,-22.71047],[-47.40026,-22.71075],[-47.40031,-22.71078],[-47.40066,-22.71093],[-47.40076,-22.71096],[-47.40115,-22.71109],[-47.40126,-22.71112],[-47.40161,-22.71119],[-47.40168,-22.7112],[-47.40215,-22.71126],[-47.40224,-22.71126],[-47.4025,-22.71127],[-47.40263,-22.71127],[-47.40288,-22.71124],[-47.40295,-22.71123],[-47.40332,-22.71117],[-47.40336,-22.71116],[-47.40379,-22.71106],[-47.4038,-22.71106],[-47.40428,-22.71096],[-47.40429,-22.71096],[-47.40461,-22.71088],[-47.40476,-22.71086],[-47.40509,-22.71087],[-47.40553,-22.71092],[-47.40599,-22.71102],[-47.4065,-22.71116],[-47.4071,-22.71137],[-47.40751,-22.71156],[-47.40786,-22.71176],[-47.40805,-22.71187],[-47.40811,-22.71192],[-47.40816,-22.71198],[-47.4082,-22.71204],[-47.40823,-22.71209],[-47.40833,-22.71232],[-47.40834,-22.71234],[-47.40849,-22.71267],[-47.40852,-22.71274],[-47.40873,-22.71311],[-47.40879,-22.71322],[-47.40905,-22.71357],[-47.40921,-22.71381],[-47.40926,-22.71387],[-47.40945,-22.71411],[-47.40954,-22.7142],[-47.40981,-22.71447],[-47.40987,-22.71453],[-47.41007,-22.71469],[-47.41013,-22.71474],[-47.41042,-22.71495],[-47.41058,-22.71504],[-47.41092,-22.71521],[-47.4111,-22.71527],[-47.41173,-22.71543],[-47.41184,-22.71545],[-47.41245,-22.71554],[-47.41258,-22.71555],[-47.41306,-22.71556],[-47.41316,-22.71555],[-47.41369,-22.71551],[-47.41382,-22.71549],[-47.41437,-22.71536],[-47.41449,-22.71533],[-47.41493,-22.71517],[-47.415,-22.71514],[-47.41529,-22.71501],[-47.41549,-22.71489],[-47.4157,-22.71473],[-47.41577,-22.71467],[-47.41612,-22.71433],[-47.41861,-22.71228],[-47.4191,-22.71191],[-47.41938,-22.71179],[-47.41959,-22.71172],[-47.41986,-22.71172],[-47.42014,-22.71173],[-47.42038,-22.71176],[-47.4204,-22.71177],[-47.42079,-22.71184],[-47.42088,-22.71185],[-47.42127,-22.7119],[-47.42128,-22.7119],[-47.422,-22.71196],[-47.42212,-22.71197],[-47.4226,-22.71196],[-47.42266,-22.71195],[-47.42308,-22.71192],[-47.4232,-22.7119],[-47.42354,-22.71183],[-47.42363,-22.71181],[-47.42396,-22.71171],[-47.42427,-22.71162],[-47.42451,-22.71158],[-47.42475,-22.71155],[-47.42512,-22.71159],[-47.42554,-22.71168],[-47.42561,-22.71169],[-47.42619,-22.71178],[-47.42628,-22.71179],[-47.42685,-22.71182],[-47.42686,-22.71182],[-47.42753,-22.71184],[-47.42758,-22.71184],[-47.42792,-22.71184],[-47.42866,-22.71195],[-47.42897,-22.71208],[-47.42973,-22.71247],[-47.43043,-22.71289],[-47.43047,-22.71292],[-47.43113,-22.71327],[-47.43146,-22.71348],[-47.4316,-22.71355],[-47.43206,-22.71375],[-47.4321,-22.71376],[-47.4325,-22.71391],[-47.43261,-22.71395],[-47.43309,-22.71407],[-47.43315,-22.71408],[-47.43356,-22.71417],[-47.43364,-22.71418],[-47.4341,-22.71423],[-47.43413,-22.71423],[-47.43464,-22.71428],[-47.43469,-22.71428],[-47.43529,-22.7143],[-47.43538,-22.7143],[-47.43616,-22.71424],[-47.4365,-22.71424],[-47.43671,-22.71426],[-47.4369,-22.7143],[-47.43718,-22.7144],[-47.43728,-22.71444],[-47.4374,-22.71453],[-47.4378,-22.71485],[-47.43791,-22.71492],[-47.43848,-22.71527],[-47.43877,-22.71544],[-47.43945,-22.7159],[-47.43992,-22.71632],[-47.44002,-22.7164],[-47.44128,-22.71725],[-47.4414,-22.71731],[-47.44203,-22.71762],[-47.44205,-22.71763],[-47.44244,-22.71781],[-47.44245,-22.71782],[-47.44247,-22.71783],[-47.44253,-22.71788],[-47.44262,-22.71796],[-47.4427,-22.71807],[-47.44275,-22.71815],[-47.44281,-22.7183],[-47.44283,-22.71841],[-47.44285,-22.71864],[-47.44284,-22.71905],[-47.44284,-22.71916],[-47.44286,-22.71949],[-47.44287,-22.71956],[-47.44297,-22.7202],[-47.44298,-22.72024],[-47.44309,-22.72078],[-47.44311,-22.72087],[-47.44329,-22.72148],[-47.44331,-22.72152],[-47.44342,-22.72185],[-47.44344,-22.72191],[-47.44358,-22.72222],[-47.4436,-22.72228],[-47.44437,-22.7238],[-47.44441,-22.72388],[-47.44469,-22.72433],[-47.44474,-22.7244],[-47.44512,-22.7249],[-47.44521,-22.725],[-47.44583,-22.72564],[-47.44593,-22.72573],[-47.4469,-22.72647],[-47.44692,-22.72649],[-47.44785,-22.72717],[-47.44787,-22.72719],[-47.44901,-22.72798],[-47.44902,-22.72798],[-47.45018,-22.72877],[-47.45079,-22.72919],[-47.45085,-22.72923],[-47.45143,-22.72957],[-47.45152,-22.72961],[-47.45228,-22.72997],[-47.45231,-22.72998],[-47.4527,-22.73015],[-47.45271,-22.73015],[-47.45293,-22.73024],[-47.45309,-22.73029],[-47.45337,-22.73035],[-47.45348,-22.73037],[-47.4538,-22.73041],[-47.45385,-22.73041],[-47.45429,-22.73044],[-47.45432,-22.73044],[-47.4547,-22.73045],[-47.45485,-22.73045],[-47.45523,-22.7304],[-47.4554,-22.73037],[-47.4557,-22.73027],[-47.4558,-22.73024],[-47.45604,-22.73014],[-47.45617,-22.73007],[-47.45638,-22.72995],[-47.45647,-22.72989],[-47.4567,-22.72971],[-47.45685,-22.72958],[-47.45722,-22.72917],[-47.45725,-22.72912],[-47.45745,-22.72887],[-47.45769,-22.72862],[-47.45795,-22.72835],[-47.45869,-22.72764],[-47.45873,-22.7276],[-47.45886,-22.72746],[-47.45898,-22.72737],[-47.45924,-22.7272],[-47.45928,-22.72718],[-47.45933,-22.72718],[-47.45937,-22.72735],[-47.45946,-22.72779],[-47.4595,-22.72816],[-47.45951,-22.72865],[-47.45952,-22.72868],[-47.4596,-22.7302],[-47.45963,-22.73085],[-47.45964,-22.73098],[-47.4597,-22.73134],[-47.45973,-22.73148],[-47.45984,-22.7318],[-47.45992,-22.73208],[-47.45998,-22.73224],[-47.46012,-22.73254],[-47.46016,-22.73262],[-47.46029,-22.73283],[-47.46031,-22.73286],[-47.46066,-22.73341],[-47.46068,-22.73343],[-47.46085,-22.73368],[-47.46087,-22.7337],[-47.46115,-22.73408],[-47.46115,-22.73409],[-47.46153,-22.7346],[-47.46165,-22.73473],[-47.46196,-22.73503],[-47.46212,-22.73516],[-47.46238,-22.73531],[-47.46242,-22.73534],[-47.46279,-22.73554],[-47.46283,-22.73557],[-47.46353,-22.73592],[-47.46357,-22.73593],[-47.46411,-22.73618],[-47.46417,-22.7362],[-47.46469,-22.7364],[-47.46478,-22.73644],[-47.46496,-22.73651],[-47.46513,-22.73656],[-47.46543,-22.73662],[-47.46558,-22.73664],[-47.46592,-22.73665],[-47.46615,-22.73663],[-47.46652,-22.73656],[-47.46661,-22.73653],[-47.46702,-22.73641],[-47.46724,-22.73631],[-47.46743,-22.7362],[-47.46752,-22.73614],[-47.46773,-22.73598],[-47.46787,-22.73585],[-47.46814,-22.73555],[-47.46823,-22.73543],[-47.46844,-22.7351],[-47.46878,-22.73465],[-47.46919,-22.73416],[-47.46955,-22.73376],[-47.47,-22.73332],[-47.47042,-22.73295],[-47.47076,-22.73273],[-47.47101,-22.73258],[-47.47117,-22.7325],[-47.47118,-22.7325],[-47.47124,-22.7325],[-47.47128,-22.73257],[-47.47132,-22.73267],[-47.47132,-22.73269],[-47.47132,-22.73278],[-47.47125,-22.73316],[-47.47116,-22.73366],[-47.47114,-22.73377],[-47.47109,-22.73442],[-47.47109,-22.73446],[-47.47107,-22.73482],[-47.47107,-22.73487],[-47.47108,-22.73522],[-47.47108,-22.73524],[-47.47109,-22.73561],[-47.47111,-22.73577],[-47.47118,-22.73609],[-47.4712,-22.73617],[-47.47128,-22.73646],[-47.4713,-22.73653],[-47.47142,-22.73686],[-47.47146,-22.73694],[-47.47165,-22.73736],[-47.47172,-22.73748],[-47.47198,-22.73787],[-47.47213,-22.73805],[-47.47238,-22.73829],[-47.47246,-22.73835],[-47.47282,-22.73863],[-47.47283,-22.73864],[-47.47316,-22.73888],[-47.47337,-22.73899],[-47.47374,-22.73915],[-47.47397,-22.73921],[-47.47452,-22.7393],[-47.47459,-22.73931],[-47.47511,-22.73935],[-47.47514,-22.73935],[-47.47587,-22.7394],[-47.47599,-22.73939],[-47.47638,-22.73937],[-47.47645,-22.73936],[-47.47664,-22.73934],[-47.47683,-22.73929],[-47.47702,-22.73923],[-47.47717,-22.73916],[-47.47741,-22.73903],[-47.47746,-22.73901],[-47.47792,-22.73873],[-47.47837,-22.73847],[-47.47846,-22.7384],[-47.47875,-22.73818],[-47.479,-22.73802],[-47.47921,-22.73791],[-47.47993,-22.73756],[-47.48055,-22.7373],[-47.48123,-22.73704],[-47.48195,-22.73679],[-47.48197,-22.73678],[-47.48269,-22.73651],[-47.48272,-22.7365],[-47.48313,-22.73632],[-47.48321,-22.73629],[-47.48365,-22.73605],[-47.48368,-22.73603],[-47.48415,-22.73576],[-47.48422,-22.73572],[-47.48462,-22.73545],[-47.48463,-22.73543],[-47.48505,-22.73513],[-47.48514,-22.73506],[-47.48545,-22.73477],[-47.48553,-22.73469],[-47.48572,-22.73447],[-47.48581,-22.73435],[-47.48598,-22.73407],[-47.48605,-22.73392],[-47.48631,-22.73329],[-47.48631,-22.73328],[-47.48662,-22.73247],[-47.48684,-22.7319],[-47.48699,-22.73157],[-47.48714,-22.73127],[-47.48731,-22.73095],[-47.48778,-22.73017],[-47.4878,-22.73013],[-47.4882,-22.72939],[-47.48914,-22.7277],[-47.48915,-22.72767],[-47.48955,-22.72689],[-47.49001,-22.72615],[-47.49114,-22.72456],[-47.49117,-22.72451],[-47.49171,-22.72364],[-47.49209,-22.72306],[-47.49211,-22.72301],[-47.49245,-22.72244],[-47.4925,-22.72233],[-47.49263,-22.72203],[-47.49269,-22.72185],[-47.49275,-22.72157],[-47.49277,-22.72146],[-47.4928,-22.72113],[-47.4928,-22.72097],[-47.49277,-22.72049],[-47.49277,-22.72048],[-47.49273,-22.7198],[-47.49266,-22.71825],[-47.49264,-22.71743],[-47.49264,-22.71735],[-47.49257,-22.71665],[-47.49257,-22.71661],[-47.49248,-22.71596],[-47.49247,-22.71592],[-47.49223,-22.71458],[-47.49216,-22.71411],[-47.49213,-22.71368],[-47.49214,-22.71318],[-47.49217,-22.71267],[-47.49226,-22.7119],[-47.49232,-22.71167],[-47.49237,-22.71155],[-47.49239,-22.71152],[-47.49251,-22.71138],[-47.49264,-22.71125],[-47.49291,-22.71108],[-47.49319,-22.71092],[-47.4937,-22.71068],[-47.49375,-22.71066],[-47.49416,-22.71044],[-47.4942,-22.71041],[-47.49484,-22.71002],[-47.4949,-22.70999],[-47.49518,-22.70979],[-47.49526,-22.70973],[-47.49561,-22.70942],[-47.49564,-22.7094],[-47.49594,-22.70912],[-47.49599,-22.70907],[-47.49649,-22.70855],[-47.49723,-22.70775],[-47.49725,-22.70773],[-47.49755,-22.7074],[-47.49781,-22.70719],[-47.49829,-22.70679],[-47.49883,-22.70636],[-47.49937,-22.70599],[-47.49943,-22.70594],[-47.49994,-22.70553],[-47.5,-22.70547],[-47.50041,-22.70507],[-47.50046,-22.70503],[-47.50104,-22.70439],[-47.5011,-22.70432],[-47.50158,-22.70367],[-47.5016,-22.70365],[-47.50236,-22.70257],[-47.50241,-22.70249],[-47.5028,-22.7018],[-47.5028,-22.70179],[-47.50319,-22.70108],[-47.50323,-22.70102],[-47.50353,-22.70035],[-47.50354,-22.70032],[-47.50386,-22.69957],[-47.50388,-22.69952],[-47.5041,-22.69891],[-47.50413,-22.69881],[-47.50426,-22.69826],[-47.50429,-22.69812],[-47.50431,-22.6979],[-47.50431,-22.69775],[-47.5043,-22.69756],[-47.5043,-22.69747],[-47.50425,-22.69718],[-47.50421,-22.69699],[-47.50411,-22.69673],[-47.50405,-22.69659],[-47.50397,-22.69646],[-47.50373,-22.69614],[-47.50373,-22.69614],[-47.50347,-22.6958],[-47.50327,-22.69553],[-47.50311,-22.69526],[-47.50298,-22.695],[-47.50281,-22.6946],[-47.50268,-22.69422],[-47.50262,-22.6939],[-47.50256,-22.69352],[-47.50254,-22.69321],[-47.50255,-22.69264],[-47.5026,-22.69197],[-47.50264,-22.69168],[-47.5027,-22.69147],[-47.50275,-22.69138],[-47.50284,-22.69124],[-47.50288,-22.69119],[-47.50297,-22.69117],[-47.50334,-22.69114],[-47.50339,-22.69114],[-47.50398,-22.69106],[-47.50404,-22.69105],[-47.5047,-22.69093],[-47.50477,-22.69091],[-47.50528,-22.69077],[-47.50546,-22.69076],[-47.50564,-22.69077],[-47.50603,-22.6908],[-47.50659,-22.69088],[-47.50748,-22.69102],[-47.50841,-22.69117],[-47.50843,-22.69117],[-47.50913,-22.69126],[-47.50948,-22.69134],[-47.50976,-22.69142],[-47.50998,-22.69154],[-47.51037,-22.69183],[-47.51043,-22.69186],[-47.51075,-22.69206],[-47.51092,-22.69215],[-47.5111,-22.6922],[-47.51129,-22.69222],[-47.51148,-22.6922],[-47.51166,-22.69215],[-47.51183,-22.69206],[-47.51198,-22.69194],[-47.5121,-22.6918],[-47.51218,-22.69168],[-47.5122,-22.69167],[-47.51232,-22.69156],[-47.51243,-22.69144],[-47.51249,-22.69134],[-47.51259,-22.69117],[-47.51265,-22.69098],[-47.51268,-22.69085],[-47.5127,-22.69058],[-47.51267,-22.69006],[-47.51265,-22.68989],[-47.51259,-22.68973],[-47.51252,-22.68958],[-47.51247,-22.68951],[-47.51235,-22.68935],[-47.51233,-22.68933],[-47.51235,-22.68926],[-47.51237,-22.68908],[-47.51238,-22.68893],[-47.51236,-22.68869],[-47.51226,-22.68824],[-47.51219,-22.68803],[-47.51208,-22.68785],[-47.51195,-22.68771],[-47.51194,-22.68708],[-47.51192,-22.68687],[-47.51186,-22.68668],[-47.51175,-22.6865],[-47.51161,-22.68634],[-47.51145,-22.68622],[-47.5114,-22.68619],[-47.51133,-22.68616],[-47.51134,-22.68609],[-47.51134,-22.68596],[-47.51134,-22.68575],[-47.5113,-22.6855],[-47.51126,-22.68534],[-47.51119,-22.68518],[-47.51083,-22.68448],[-47.5107,-22.6843],[-47.51061,-22.68419],[-47.51045,-22.68404],[-47.51034,-22.68397],[-47.51032,-22.68388],[-47.51039,-22.68372],[-47.51044,-22.68353],[-47.51045,-22.68335],[-47.51043,-22.68316],[-47.51041,-22.68306],[-47.51034,-22.68285],[-47.51022,-22.68265],[-47.51005,-22.68244],[-47.50992,-22.68231],[-47.50977,-22.6822],[-47.50952,-22.68205],[-47.5092,-22.68176],[-47.50902,-22.68163],[-47.5083,-22.68122],[-47.50821,-22.68118],[-47.50811,-22.68113],[-47.50795,-22.68108],[-47.50778,-22.68105],[-47.50769,-22.68104],[-47.50749,-22.68105],[-47.5073,-22.68109],[-47.50712,-22.68117],[-47.50708,-22.6812],[-47.50691,-22.68132],[-47.50687,-22.68132],[-47.50676,-22.68124],[-47.50659,-22.68117],[-47.5064,-22.68113],[-47.50622,-22.68112],[-47.50613,-22.68112],[-47.50595,-22.68115],[-47.50578,-22.68121],[-47.50573,-22.68123],[-47.50558,-22.68132],[-47.50561,-22.68129],[-47.5057,-22.68112],[-47.50575,-22.68094],[-47.50578,-22.68075],[-47.50576,-22.68056],[-47.50571,-22.68037],[-47.5053,-22.67928],[-47.50629,-22.6786],[-47.50644,-22.67848],[-47.50656,-22.67833],[-47.50664,-22.67816],[-47.50748,-22.67612],[-47.50754,-22.67592],[-47.50756,-22.67571],[-47.50753,-22.67551],[-47.50746,-22.67531],[-47.50736,-22.67514],[-47.50721,-22.67499],[-47.50705,-22.67487],[-47.50621,-22.6744],[-47.50601,-22.67363],[-47.50594,-22.67345],[-47.50583,-22.67327],[-47.50569,-22.67313],[-47.50552,-22.67301],[-47.5048,-22.67261],[-47.50462,-22.67254],[-47.50443,-22.6725],[-47.50424,-22.67249],[-47.50405,-22.67253],[-47.50392,-22.67256],[-47.50384,-22.67244],[-47.50366,-22.67228],[-47.50142,-22.67063],[-47.50129,-22.67054],[-47.50114,-22.67048],[-47.50064,-22.67032],[-47.50013,-22.66984],[-47.49999,-22.66972],[-47.49982,-22.66963],[-47.49964,-22.66958],[-47.49949,-22.66956],[-47.49908,-22.66905],[-47.49894,-22.66891],[-47.49877,-22.66879],[-47.49859,-22.66871],[-47.4984,-22.66867],[-47.4982,-22.66867],[-47.498,-22.66871],[-47.49788,-22.66876],[-47.49797,-22.66847],[-47.49801,-22.66829],[-47.49802,-22.6681],[-47.49799,-22.66792],[-47.49792,-22.66775],[-47.49783,-22.66759],[-47.49771,-22.66745],[-47.49747,-22.66722],[-47.49753,-22.66708],[-47.49756,-22.66691],[-47.49757,-22.6669],[-47.49767,-22.66677],[-47.49775,-22.66662],[-47.49781,-22.66646],[-47.49783,-22.66637],[-47.49786,-22.66619],[-47.49786,-22.666],[-47.49782,-22.66582],[-47.49775,-22.66565],[-47.49765,-22.6655],[-47.4976,-22.66544],[-47.49743,-22.66527],[-47.49723,-22.66515],[-47.49706,-22.66507],[-47.49689,-22.66502],[-47.49671,-22.66499],[-47.49653,-22.66499],[-47.49645,-22.665],[-47.49625,-22.66505],[-47.49606,-22.66513],[-47.49602,-22.66516],[-47.496,-22.66511],[-47.49592,-22.66497],[-47.49585,-22.66488],[-47.49584,-22.6648],[-47.49578,-22.66462],[-47.49569,-22.66446],[-47.49554,-22.66426],[-47.49541,-22.6641],[-47.49524,-22.66397],[-47.49505,-22.66388],[-47.49484,-22.66384],[-47.49463,-22.66383],[-47.49443,-22.66387],[-47.49419,-22.66395],[-47.49402,-22.66402],[-47.49387,-22.66411],[-47.49374,-22.66424],[-47.49367,-22.66431],[-47.49347,-22.66428],[-47.49333,-22.66427],[-47.4933,-22.66424],[-47.49313,-22.66413],[-47.49299,-22.66407],[-47.49306,-22.66279],[-47.49305,-22.6626],[-47.49301,-22.66241],[-47.49293,-22.66224],[-47.49283,-22.66209],[-47.49269,-22.66195],[-47.49266,-22.66192],[-47.49263,-22.66162],[-47.4928,-22.6614],[-47.49291,-22.66123],[-47.49298,-22.66104],[-47.49301,-22.66085],[-47.493,-22.66065],[-47.49296,-22.66045],[-47.49287,-22.66027],[-47.49276,-22.66011],[-47.49261,-22.65998],[-47.49256,-22.65995],[-47.49281,-22.65959],[-47.49295,-22.65941],[-47.49305,-22.65924],[-47.49312,-22.65905],[-47.49313,-22.65897],[-47.4934,-22.65885],[-47.49375,-22.65889],[-47.49394,-22.65889],[-47.49413,-22.65886],[-47.4943,-22.65879],[-47.49446,-22.65869],[-47.4946,-22.65856],[-47.49471,-22.6584],[-47.4948,-22.65823],[-47.49481,-22.65817],[-47.49483,-22.65817],[-47.49499,-22.65809],[-47.49514,-22.65799],[-47.49527,-22.65786],[-47.49537,-22.65771],[-47.49545,-22.65755],[-47.49564,-22.657],[-47.49571,-22.65697],[-47.49589,-22.65686],[-47.49604,-22.65671],[-47.49616,-22.65654],[-47.49618,-22.6565],[-47.49626,-22.65648],[-47.49643,-22.65639],[-47.49659,-22.65626],[-47.49671,-22.65611],[-47.49681,-22.65594],[-47.49684,-22.65585],[-47.4969,-22.65586],[-47.4971,-22.65586],[-47.4973,-22.65583],[-47.49748,-22.65575],[-47.49765,-22.65564],[-47.49779,-22.6555],[-47.4979,-22.65533],[-47.49797,-22.65514],[-47.498,-22.65505],[-47.49804,-22.65484],[-47.49803,-22.65463],[-47.49798,-22.65443],[-47.49789,-22.65424],[-47.49776,-22.65408],[-47.49761,-22.65392],[-47.49765,-22.65384],[-47.49772,-22.65371],[-47.4978,-22.6535],[-47.49785,-22.65328],[-47.49786,-22.65305],[-47.49783,-22.65276],[-47.49779,-22.65256],[-47.49771,-22.65237],[-47.4977,-22.65236],[-47.4977,-22.65234],[-47.49766,-22.65215],[-47.49757,-22.65197],[-47.49749,-22.65183],[-47.49738,-22.65169],[-47.49725,-22.65156],[-47.49715,-22.6515],[-47.49714,-22.65143],[-47.4971,-22.65124],[-47.49702,-22.65106],[-47.49692,-22.6509],[-47.4969,-22.65089],[-47.49686,-22.65076],[-47.49677,-22.65058],[-47.49664,-22.65042],[-47.49647,-22.65029],[-47.49629,-22.6502],[-47.49609,-22.65014],[-47.49584,-22.6501],[-47.49584,-22.6501],[-47.4959,-22.65007],[-47.49604,-22.64995],[-47.49613,-22.64987],[-47.49625,-22.64972],[-47.49635,-22.64955],[-47.49641,-22.64937],[-47.49643,-22.64917],[-47.49642,-22.64906],[-47.49647,-22.64898],[-47.49652,-22.64877],[-47.49654,-22.64868],[-47.49655,-22.64845],[-47.49651,-22.64823],[-47.49642,-22.64802],[-47.49634,-22.64787],[-47.49622,-22.6477],[-47.49607,-22.64756],[-47.4959,-22.64746],[-47.49559,-22.64731],[-47.49544,-22.64725],[-47.49527,-22.64722],[-47.4951,-22.64722],[-47.49488,-22.64723],[-47.49477,-22.6471],[-47.49459,-22.64698],[-47.49441,-22.64688],[-47.49436,-22.64685],[-47.49435,-22.64681],[-47.49428,-22.64662],[-47.49417,-22.64646],[-47.49371,-22.64589],[-47.49358,-22.64575],[-47.49342,-22.64564],[-47.4933,-22.64557],[-47.49314,-22.6455],[-47.49296,-22.64545],[-47.49279,-22.64544],[-47.49252,-22.64545],[-47.49235,-22.64547],[-47.49218,-22.64552],[-47.49206,-22.64557],[-47.49195,-22.64555],[-47.49166,-22.64553],[-47.49143,-22.64554],[-47.49137,-22.64556],[-47.49134,-22.64553],[-47.49119,-22.64544],[-47.49103,-22.64537],[-47.49084,-22.64531],[-47.49061,-22.64527],[-47.49048,-22.64528],[-47.4905,-22.64514],[-47.49049,-22.64496],[-47.49045,-22.64478],[-47.49037,-22.6446],[-47.49027,-22.64445],[-47.49014,-22.64432],[-47.48998,-22.64421],[-47.48826,-22.64326],[-47.48764,-22.64074],[-47.48706,-22.63815],[-47.48823,-22.63604],[-47.4883,-22.63587],[-47.48834,-22.63568],[-47.48835,-22.63549],[-47.4883,-22.63478],[-47.48947,-22.63405],[-47.48959,-22.63396],[-47.4897,-22.63386],[-47.49045,-22.63298],[-47.49057,-22.63282],[-47.49065,-22.63263],[-47.49069,-22.63243],[-47.49068,-22.63222],[-47.49061,-22.63158],[-47.49157,-22.62984],[-47.49165,-22.62964],[-47.49169,-22.62943],[-47.49174,-22.62866],[-47.49221,-22.62734],[-47.4925,-22.62718],[-47.49265,-22.62708],[-47.49278,-22.62695],[-47.49289,-22.6268],[-47.49419,-22.62456],[-47.49456,-22.62403],[-47.49464,-22.6239],[-47.49512,-22.6229],[-47.49518,-22.62276],[-47.49519,-22.62274],[-47.49593,-22.62149],[-47.49603,-22.62127],[-47.49607,-22.62104],[-47.49612,-22.62025],[-47.49613,-22.62024],[-47.49626,-22.62011],[-47.49788,-22.61825],[-47.498,-22.61809],[-47.49808,-22.61791],[-47.49812,-22.61772],[-47.49812,-22.61752],[-47.49809,-22.61732],[-47.49802,-22.61714],[-47.49791,-22.61697],[-47.49777,-22.61683],[-47.49733,-22.61646],[-47.49721,-22.61579],[-47.4972,-22.61576],[-47.497,-22.61486],[-47.49711,-22.61428],[-47.49768,-22.61383],[-47.49782,-22.61369],[-47.49793,-22.61353],[-47.49801,-22.61335],[-47.49805,-22.61315],[-47.49805,-22.61296],[-47.49801,-22.61276],[-47.49793,-22.61258],[-47.49783,-22.61242],[-47.49769,-22.61228],[-47.49752,-22.61217],[-47.49693,-22.61185],[-47.49689,-22.61175],[-47.4968,-22.61158],[-47.49669,-22.61143],[-47.49654,-22.6113],[-47.49639,-22.61121],[-47.49642,-22.61093],[-47.49642,-22.61074],[-47.49638,-22.61056],[-47.49631,-22.61039],[-47.49622,-22.61024],[-47.49609,-22.6101],[-47.49567,-22.60972],[-47.49535,-22.60897],[-47.49525,-22.60878],[-47.4951,-22.60862],[-47.49504,-22.60858],[-47.49502,-22.6084],[-47.49497,-22.60822],[-47.49487,-22.60805],[-47.49478,-22.60792],[-47.49486,-22.60782],[-47.49494,-22.60766],[-47.495,-22.60748],[-47.49509,-22.607],[-47.49511,-22.60679],[-47.49509,-22.60659],[-47.49503,-22.6064],[-47.49493,-22.60622],[-47.4948,-22.60607],[-47.49475,-22.60604],[-47.49488,-22.6057],[-47.49493,-22.60548],[-47.49494,-22.60526],[-47.49489,-22.60504],[-47.49486,-22.60493],[-47.49477,-22.60474],[-47.49466,-22.60458],[-47.4946,-22.60453],[-47.49466,-22.60415],[-47.49502,-22.60392],[-47.49516,-22.60381],[-47.49528,-22.60367],[-47.49538,-22.60351],[-47.49582,-22.6026],[-47.49589,-22.6024],[-47.49592,-22.6022],[-47.4959,-22.60199],[-47.49584,-22.60179],[-47.49575,-22.60161],[-47.49524,-22.60085],[-47.49549,-22.60029],[-47.49556,-22.60011],[-47.49558,-22.59992],[-47.49557,-22.59972],[-47.49552,-22.59954],[-47.4949,-22.59781],[-47.49491,-22.59702],[-47.49489,-22.59682],[-47.49484,-22.59664],[-47.49475,-22.59646],[-47.49463,-22.59631],[-47.49458,-22.59627],[-47.49458,-22.59626],[-47.49456,-22.59607],[-47.49451,-22.59589],[-47.49442,-22.59572],[-47.49431,-22.59555],[-47.49418,-22.59539],[-47.49403,-22.59527],[-47.49401,-22.59525],[-47.49393,-22.59509],[-47.49391,-22.59507],[-47.49389,-22.59497],[-47.49381,-22.59477],[-47.49369,-22.5946],[-47.49362,-22.59453],[-47.49371,-22.59348],[-47.49371,-22.59332],[-47.49364,-22.59239],[-47.49359,-22.59216],[-47.49329,-22.59124],[-47.49317,-22.59098],[-47.49182,-22.58901],[-47.49142,-22.58789],[-47.4914,-22.58665],[-47.49172,-22.5841],[-47.49173,-22.58387],[-47.49144,-22.58131],[-47.49142,-22.58123],[-47.49101,-22.57906],[-47.49092,-22.57879],[-47.49033,-22.57762],[-47.49023,-22.57747],[-47.49011,-22.57734],[-47.48997,-22.57723],[-47.48818,-22.57608],[-47.48811,-22.57604],[-47.48646,-22.57518],[-47.48553,-22.57439],[-47.48537,-22.57429],[-47.4852,-22.57421],[-47.48421,-22.57389],[-47.48413,-22.57382],[-47.4838,-22.57329],[-47.48292,-22.57182],[-47.48279,-22.57166],[-47.48263,-22.57152],[-47.48217,-22.5712],[-47.4798,-22.56842],[-47.47968,-22.5683],[-47.47954,-22.56821],[-47.47922,-22.56802],[-47.47905,-22.56794],[-47.47887,-22.56789],[-47.47826,-22.5678],[-47.47816,-22.56775],[-47.4775,-22.56705],[-47.47681,-22.56592],[-47.47529,-22.56313],[-47.47658,-22.56338],[-47.47964,-22.56405],[-47.47984,-22.56407],[-47.48073,-22.56408],[-47.48172,-22.56447],[-47.48194,-22.56453],[-47.48216,-22.56454],[-47.48343,-22.56444],[-47.4836,-22.56441],[-47.48461,-22.56415],[-47.48478,-22.56409],[-47.48495,-22.56399],[-47.4859,-22.5633],[-47.48603,-22.56318],[-47.48615,-22.56305],[-47.48661,-22.56235],[-47.48689,-22.56198],[-47.48715,-22.56184],[-47.49002,-22.56083],[-47.49021,-22.56074],[-47.49037,-22.56062],[-47.49051,-22.56046],[-47.49061,-22.56028],[-47.49067,-22.56009],[-47.49069,-22.55988],[-47.49067,-22.55968],[-47.49061,-22.55948],[-47.49051,-22.55931],[-47.48979,-22.55829],[-47.48968,-22.55817],[-47.48956,-22.55807],[-47.48849,-22.55728],[-47.48806,-22.5568],[-47.4878,-22.55634],[-47.48768,-22.55466],[-47.48766,-22.5545],[-47.48647,-22.54921],[-47.48642,-22.54904],[-47.48634,-22.54889],[-47.48594,-22.54827],[-47.48593,-22.54827],[-47.4855,-22.54761],[-47.48531,-22.54697],[-47.48498,-22.54528],[-47.48497,-22.54502],[-47.48569,-22.5434],[-47.48576,-22.54316],[-47.48577,-22.54292],[-47.48572,-22.54215],[-47.48569,-22.54197],[-47.48544,-22.541],[-47.48544,-22.54059],[-47.4861,-22.53946],[-47.48617,-22.53932],[-47.48622,-22.53917],[-47.4869,-22.53601],[-47.48692,-22.53572],[-47.48686,-22.53483],[-47.48685,-22.53477],[-47.48664,-22.53323],[-47.48659,-22.53303],[-47.4865,-22.53284],[-47.48581,-22.53173],[-47.48571,-22.5316],[-47.48559,-22.53149],[-47.48461,-22.53068],[-47.48358,-22.52944],[-47.48347,-22.52932],[-47.48333,-22.52922],[-47.48318,-22.52915],[-47.48196,-22.52867],[-47.48189,-22.52863],[-47.48182,-22.52838],[-47.48176,-22.52821],[-47.48166,-22.52806],[-47.47984,-22.52566],[-47.4797,-22.52551],[-47.47953,-22.52539],[-47.47934,-22.52531],[-47.47914,-22.52527],[-47.47894,-22.52527],[-47.4776,-22.52541],[-47.47634,-22.52554],[-47.47612,-22.52559],[-47.47592,-22.52569],[-47.47545,-22.52598],[-47.47531,-22.52609],[-47.474,-22.52728],[-47.47385,-22.52745],[-47.47353,-22.52791],[-47.47343,-22.52809],[-47.47283,-22.5295],[-47.47187,-22.53045],[-47.47179,-22.53055],[-47.47092,-22.53168],[-47.47087,-22.53174],[-47.46991,-22.5332],[-47.4689,-22.53414],[-47.46853,-22.53431],[-47.46804,-22.53444],[-47.46768,-22.53437],[-47.46527,-22.53306],[-47.46132,-22.52987],[-47.46117,-22.52977],[-47.461,-22.52969],[-47.46094,-22.52967],[-47.46094,-22.54395]]]},"properties":{"ghs":"6gy","size":7.3,"ghs_len":3,"ghs_area":135.1,"ghs_bytes":212991,"ghs_items":148,"size_unit":"km2","ghsval_unit":"bytes","ghs_itemsdensity":1.1,"size_unitdensity":0.05}},{"type":"Feature","geometry":{"type":"Polygon","coordinates":[[[-47.41699,-22.58789],[-47.41699,-22.63184],[-47.37305,-22.63184],[-47.37305,-22.58789],[-47.37305,-22.54395],[-47.41699,-22.54395],[-47.46094,-22.54395],[-47.46094,-22.52967],[-47.46067,-22.52958],[-47.4604,-22.52954],[-47.46013,-22.52953],[-47.45994,-22.52954],[-47.45975,-22.52958],[-47.45958,-22.52967],[-47.45943,-22.52978],[-47.45914,-22.53004],[-47.4591,-22.53007],[-47.45861,-22.53055],[-47.45754,-22.53152],[-47.45679,-22.5315],[-47.45663,-22.5315],[-47.45377,-22.53185],[-47.45214,-22.53148],[-47.44275,-22.52358],[-47.44262,-22.52349],[-47.43552,-22.51915],[-47.43534,-22.51906],[-47.43515,-22.51901],[-47.43495,-22.519],[-47.43476,-22.51903],[-47.42688,-22.521],[-47.425,-22.521],[-47.42482,-22.52102],[-47.42465,-22.52106],[-47.41682,-22.524],[-47.40918,-22.52687],[-47.39616,-22.51664],[-47.39996,-22.50429],[-47.4,-22.5041],[-47.39999,-22.5039],[-47.39995,-22.5037],[-47.39987,-22.50351],[-47.39976,-22.50335],[-47.39961,-22.50321],[-47.39944,-22.5031],[-47.39925,-22.50303],[-47.39905,-22.503],[-47.39885,-22.50301],[-47.37915,-22.50597],[-47.36642,-22.50009],[-47.36626,-22.50003],[-47.3661,-22.5],[-47.36605,-22.5],[-47.24437,-22.5],[-47.23734,-22.50625],[-47.23719,-22.50641],[-47.23708,-22.5066],[-47.23702,-22.5068],[-47.23502,-22.5168],[-47.235,-22.517],[-47.235,-22.51976],[-47.23226,-22.52525],[-47.21157,-22.5351],[-47.21141,-22.5352],[-47.21126,-22.53532],[-47.21115,-22.53547],[-47.21106,-22.53565],[-47.21101,-22.53583],[-47.211,-22.53602],[-47.21102,-22.53621],[-47.21402,-22.55021],[-47.21406,-22.55034],[-47.21906,-22.56434],[-47.21915,-22.56452],[-47.21927,-22.56468],[-47.21942,-22.56481],[-47.22617,-22.56963],[-47.23006,-22.58034],[-47.23014,-22.58052],[-47.23026,-22.58067],[-47.23041,-22.5808],[-47.23057,-22.5809],[-47.23076,-22.58097],[-47.24116,-22.58357],[-47.22625,-22.60034],[-47.22613,-22.60051],[-47.22605,-22.6007],[-47.226,-22.60091],[-47.22601,-22.60112],[-47.22605,-22.60132],[-47.22614,-22.60151],[-47.23214,-22.61151],[-47.23228,-22.61169],[-47.23246,-22.61184],[-47.25223,-22.62469],[-47.25911,-22.63845],[-47.25922,-22.63862],[-47.25936,-22.63877],[-47.26494,-22.64342],[-47.26401,-22.65088],[-47.264,-22.65107],[-47.26404,-22.65126],[-47.2641,-22.65144],[-47.26421,-22.65161],[-47.26434,-22.65175],[-47.27641,-22.66234],[-47.27661,-22.66248],[-47.27734,-22.66285],[-47.27758,-22.66294],[-47.27776,-22.66298],[-47.27777,-22.66304],[-47.2778,-22.66325],[-47.27787,-22.66344],[-47.27799,-22.66362],[-47.27814,-22.66377],[-47.27824,-22.66385],[-47.27886,-22.66525],[-47.27886,-22.66528],[-47.27827,-22.66569],[-47.2781,-22.66584],[-47.27797,-22.66601],[-47.27728,-22.66722],[-47.27721,-22.66739],[-47.27716,-22.66757],[-47.27715,-22.66775],[-47.2772,-22.66904],[-47.27722,-22.66923],[-47.27728,-22.66941],[-47.27737,-22.66957],[-47.2775,-22.66972],[-47.27764,-22.66984],[-47.27853,-22.67042],[-47.27877,-22.67155],[-47.27828,-22.67479],[-47.27781,-22.67578],[-47.46094,-22.67578],[-47.46094,-22.58789],[-47.41699,-22.58789]]]},"properties":{"ghs":"6gyr","size":53.25,"ghs_len":4,"ghs_area":358.54,"ghs_bytes":2075083,"ghs_items":1180,"size_unit":"km2","ghsval_unit":"bytes","ghs_itemsdensity":3.29,"size_unitdensity":0.15}},{"type":"Feature","geometry":{"type":"Polygon","coordinates":[[[-47.41699,-22.58789],[-47.37305,-22.58789],[-47.37305,-22.63184],[-47.41699,-22.63184],[-47.41699,-22.58789]]]},"properties":{"ghs":"6gyr3","size":11.07,"ghs_len":5,"ghs_area":21.99,"ghs_bytes":1381371,"ghs_items":686,"size_unit":"km2","ghsval_unit":"bytes","ghs_itemsdensity":31.2,"size_unitdensity":0.5}},{"type":"Feature","geometry":{"type":"Polygon","coordinates":[[[-47.46094,-22.54395],[-47.41699,-22.54395],[-47.41699,-22.58789],[-47.46094,-22.58789],[-47.46094,-22.54395]]]},"properties":{"ghs":"6gyr8","size":12.25,"ghs_len":5,"ghs_area":21.99,"ghs_bytes":1616854,"ghs_items":1119,"size_unit":"km2","ghsval_unit":"bytes","ghs_itemsdensity":50.88,"size_unitdensity":0.56}},{"type":"Feature","geometry":{"type":"Polygon","coordinates":[[[-47.41699,-22.54395],[-47.37305,-22.54395],[-47.37305,-22.58789],[-47.41699,-22.58789],[-47.41699,-22.54395]]]},"properties":{"ghs":"6gyr9","size":15.74,"ghs_len":5,"ghs_area":21.99,"ghs_bytes":2345413,"ghs_items":1661,"size_unit":"km2","ghsval_unit":"bytes","ghs_itemsdensity":75.52,"size_unitdensity":0.72}}]}
