{"type": "FeatureCollection", "features": [
{"type": "Feature", "geometry": {"type": "Polygon", "coordinates": [[[-46.226953, -23.890676], [-46.226913, -23.890899], [-46.228156, -23.891074], [-46.228196, -23.890851], [-46.226953, -23.890676]]]}, "properties": {"nsvia": "Caetê", "address": "Rua Caminho 2 (Caete), 0"}},
{"type": "Feature", "geometry": {"type": "Polygon", "coordinates": [[[-46.227324, -23.886149], [-46.227314, -23.885896], [-46.226146, -23.885941], [-46.226225, -23.886188], [-46.227324, -23.886149]]]}, "properties": {"nsvia": "Caetê", "address": "Rua Caminho 7 (Caete), 0"}},
{"type": "Feature", "geometry": {"type": "Polygon", "coordinates": [[[-46.22446, -23.890437], [-46.22463, -23.890528], [-46.224876, -23.890588], [-46.225003, -23.890601], [-46.225139, -23.890174], [-46.224591, -23.890029], [-46.22446, -23.890437]]]}, "properties": {"nsvia": "Caetê", "address": "Rodovia Doutor Manoel Hyppolito Rêgo, 0"}},
{"type": "Feature", "geometry": {"type": "Polygon", "coordinates": [[[-46.228256, -23.894143], [-46.228346, -23.894365], [-46.229053, -23.894094], [-46.229064, -23.893905], [-46.229017, -23.893796], [-46.228916, -23.89363], [-46.228256, -23.894143]]]}, "properties": {"nsvia": "Caetê", "address": "Rua Caminho 1 (Caete), 0"}},
{"type": "Feature", "geometry": {"type": "Polygon", "coordinates": [[[-46.226913, -23.890899], [-46.226873, -23.891121], [-46.228097, -23.891294], [-46.228156, -23.891074], [-46.226913, -23.890899]]]}, "properties": {"nsvia": "Caetê", "address": "Rua Caminho 2 (Caete), 0"}},
{"type": "Feature", "geometry": {"type": "Polygon", "coordinates": [[[-46.224511, -23.886342], [-46.224575, -23.886606], [-46.225532, -23.886405], [-46.225469, -23.886141], [-46.224511, -23.886342]]]}, "properties": {"nsvia": "Caetê", "address": "Rua Caminho 6 (Caete), 0"}},
{"type": "Feature", "geometry": {"type": "Polygon", "coordinates": [[[-46.189975, -23.885885], [-46.188588, -23.885211], [-46.188446, -23.885483], [-46.18986, -23.886139], [-46.189975, -23.885885]]]}, "properties": {"nsvia": "Caruara", "address": "Rua Andrade Soares, 0"}},
{"type": "Feature", "geometry": {"type": "Polygon", "coordinates": [[[-46.19221, -23.885304], [-46.192141, -23.885424], [-46.192073, -23.885544], [-46.191936, -23.885784], [-46.19173, -23.886144], [-46.191975, -23.88626], [-46.192591, -23.88518], [-46.192477, -23.885127], [-46.192346, -23.885065], [-46.19221, -23.885304]]]}, "properties": {"nsvia": "Caruara", "address": "Rua Caramuru do Caruara, 0"}},
{"type": "Feature", "geometry": {"type": "Polygon", "coordinates": [[[-46.188209, -23.88457], [-46.187933, -23.884503], [-46.18751, -23.886605], [-46.18768, -23.88665], [-46.187796, -23.886682], [-46.187878, -23.886257], [-46.188209, -23.88457]]]}, "properties": {"nsvia": "Caruara", "address": "Rua Caramuru do Caruara, 0"}},
{"type": "Feature", "geometry": {"type": "Polygon", "coordinates": [[[-46.190331, -23.883149], [-46.190064, -23.884272], [-46.19036, -23.884414], [-46.190647, -23.883215], [-46.190331, -23.883149]]]}, "properties": {"nsvia": "Caruara", "address": "Rua Xavantes, 0"}},
{"type": "Feature", "geometry": {"type": "Polygon", "coordinates": [[[-46.224834, -23.891904], [-46.225925, -23.892061], [-46.225974, -23.891794], [-46.224892, -23.891637], [-46.224834, -23.891904]]]}, "properties": {"nsvia": "Caetê", "address": "Rua Caminho 3 (Caete), 0"}},
{"type": "Feature", "geometry": {"type": "Polygon", "coordinates": [[[-46.22435, -23.888146], [-46.225218, -23.88857], [-46.225354, -23.88833], [-46.224487, -23.887906], [-46.22435, -23.888146]]]}, "properties": {"nsvia": "Caetê", "address": "Rua Caminho 6 (Caete), 0"}},
{"type": "Feature", "geometry": {"type": "Polygon", "coordinates": [[[-46.18652, -23.887063], [-46.186836, -23.888113], [-46.187079, -23.888173], [-46.187396, -23.886574], [-46.187215, -23.886524], [-46.18694, -23.88645], [-46.18666, -23.886375], [-46.186559, -23.88687], [-46.18652, -23.887063]]]}, "properties": {"nsvia": "Caruara", "address": "Rua Tamoio, 0"}},
{"type": "Feature", "geometry": {"type": "Polygon", "coordinates": [[[-46.190586, -23.885692], [-46.19055, -23.885739], [-46.190475, -23.8858], [-46.190403, -23.885829], [-46.190306, -23.885847], [-46.190225, -23.885841], [-46.190153, -23.885817], [-46.190138, -23.885817], [-46.190069, -23.885933], [-46.191485, -23.886586], [-46.191684, -23.886226], [-46.190586, -23.885692]]]}, "properties": {"nsvia": "Caruara", "address": "Praça Encarnacion Alves Corpas, 0"}},
{"type": "Feature", "geometry": {"type": "Polygon", "coordinates": [[[-46.192952, -23.886724], [-46.193549, -23.887007], [-46.193577, -23.887021], [-46.193596, -23.886896], [-46.193595, -23.886752], [-46.193579, -23.886622], [-46.193574, -23.886255], [-46.193616, -23.886149], [-46.193676, -23.886069], [-46.19373, -23.886003], [-46.193778, -23.885958], [-46.193832, -23.885912], [-46.193991, -23.885841], [-46.193845, -23.885773], [-46.193569, -23.885643], [-46.192952, -23.886724]]]}, "properties": {"nsvia": "Caruara", "address": "Rua Caramuru do Caruara, 0"}},
{"type": "Feature", "geometry": {"type": "Polygon", "coordinates": [[[-46.188363, -23.883685], [-46.188205, -23.884473], [-46.188432, -23.884542], [-46.188504, -23.884574], [-46.18867, -23.883746], [-46.188363, -23.883685]]]}, "properties": {"nsvia": "Caruara", "address": "Rua Caramuru do Caruara, 0"}},
{"type": "Feature", "geometry": {"type": "Polygon", "coordinates": [[[-46.187967, -23.882671], [-46.187787, -23.883571], [-46.188056, -23.883625], [-46.188236, -23.882724], [-46.187967, -23.882671]]]}, "properties": {"nsvia": "Caruara", "address": "Rua Xavantes, 0"}},
{"type": "Feature", "geometry": {"type": "Polygon", "coordinates": [[[-46.366454, -23.857635], [-46.365509, -23.857621], [-46.363118, -23.857473], [-46.360269, -23.85932], [-46.359756, -23.859076], [-46.360223, -23.858174], [-46.359384, -23.858083], [-46.358756, -23.859171], [-46.356617, -23.858949], [-46.356049, -23.858324], [-46.355881, -23.85701], [-46.354939, -23.857393], [-46.354264, -23.857522], [-46.353866, -23.857707], [-46.35408, -23.859042], [-46.353134, -23.859856], [-46.352622, -23.859401], [-46.351629, -23.859332], [-46.350227, -23.860596], [-46.351465, -23.861236], [-46.351894, -23.862612], [-46.352334, -23.862799], [-46.353965, -23.862841], [-46.354229, -23.862621], [-46.35432, -23.862397], [-46.354206, -23.862075], [-46.353796, -23.861626], [-46.353781, -23.861312], [-46.353699, -23.860898], [-46.353802, -23.86041], [-46.354212, -23.859964], [-46.355005, -23.859819], [-46.355694, -23.859924], [-46.355942, -23.860063], [-46.356162, -23.8605], [-46.356539, -23.8605], [-46.356605, -23.860595], [-46.358028, -23.860636], [-46.358888, -23.859998], [-46.359098, -23.860011], [-46.359094, -23.860664], [-46.360026, -23.860509], [-46.360381, -23.860077], [-46.360562, -23.859998], [-46.360653, -23.859968], [-46.361594, -23.860247], [-46.363795, -23.859154], [-46.363973, -23.858796], [-46.364028, -23.858803], [-46.365161, -23.857799], [-46.366483, -23.857726], [-46.366454, -23.857635]]]}, "properties": {"info": {"is_agg": true, "properties_agg": [{"via": "Rodovia Cônego Domênico Rangoni", "hnum": 0, "nsvia": "Piaçaguera", "feature_id": 5607}], "geom_cmp_equals": [true], "geom_cmp_intersec": [1]}, "error": 100, "nsvia": "Piaçaguera", "address": "Rodovia Cônego Domênico Rangoni, 0"}},
{"type": "Feature", "geometry": {"type": "Polygon", "coordinates": [[[-46.224117, -23.891813], [-46.224798, -23.891898], [-46.224882, -23.89146], [-46.224709, -23.891439], [-46.224541, -23.891396], [-46.224381, -23.891332], [-46.224277, -23.891272], [-46.224273, -23.89127], [-46.224268, -23.891268], [-46.224262, -23.891266], [-46.224257, -23.891266], [-46.224252, -23.891265], [-46.224246, -23.891265], [-46.224236, -23.891267], [-46.224231, -23.891269], [-46.224226, -23.891272], [-46.224222, -23.891274], [-46.224217, -23.891278], [-46.224214, -23.891281], [-46.224208, -23.891289], [-46.224204, -23.891299], [-46.224203, -23.891303], [-46.224117, -23.891813]]]}, "properties": {"nsvia": "Caetê", "address": "Rua Caminho 6 (Caete), 0"}},
{"type": "Feature", "geometry": {"type": "Polygon", "coordinates": [[[-46.225091, -23.888972], [-46.225564, -23.889212], [-46.225814, -23.888619], [-46.225411, -23.888412], [-46.225091, -23.888972]]]}, "properties": {"nsvia": "Caetê", "address": "Rua Caminho 6 (Caete), 0"}},
{"type": "Feature", "geometry": {"type": "Polygon", "coordinates": [[[-46.226286, -23.890569], [-46.226174, -23.891194], [-46.226174, -23.891209], [-46.226176, -23.891214], [-46.226177, -23.891218], [-46.22618, -23.891223], [-46.226186, -23.891231], [-46.22619, -23.891235], [-46.226194, -23.891238], [-46.226199, -23.89124], [-46.226204, -23.891243], [-46.226209, -23.891244], [-46.226214, -23.891246], [-46.226698, -23.891323], [-46.226703, -23.891324], [-46.226708, -23.891324], [-46.226714, -23.891323], [-46.226719, -23.891323], [-46.226724, -23.891321], [-46.226728, -23.891319], [-46.226733, -23.891317], [-46.226741, -23.891311], [-46.226744, -23.891308], [-46.22675, -23.8913], [-46.226752, -23.891295], [-46.226754, -23.891291], [-46.226755, -23.891286], [-46.226867, -23.890663], [-46.226286, -23.890569]]]}, "properties": {"nsvia": "Caetê", "address": "Rua Caminho 4 (Caete), 0"}},
{"type": "Feature", "geometry": {"type": "Polygon", "coordinates": [[[-46.190712, -23.884583], [-46.19036, -23.884414], [-46.189793, -23.884142], [-46.189523, -23.884012], [-46.189252, -23.883882], [-46.189119, -23.884123], [-46.190575, -23.884823], [-46.190712, -23.884583]]]}, "properties": {"nsvia": "Caruara", "address": "Rua Andrade Soares, 0"}},
{"type": "Feature", "geometry": {"type": "Polygon", "coordinates": [[[-46.196517, -23.884454], [-46.196289, -23.885554], [-46.19659, -23.885551], [-46.196805, -23.884513], [-46.196517, -23.884454]]]}, "properties": {"nsvia": "Caruara", "address": "Rua Xavantes, 0"}},
{"type": "Feature", "geometry": {"type": "Polygon", "coordinates": [[[-46.194128, -23.88197], [-46.193805, -23.883233], [-46.194092, -23.883295], [-46.194438, -23.881941], [-46.194128, -23.88197]]]}, "properties": {"nsvia": "Caruara", "address": "Rua Tapuia, 0"}},
{"type": "Feature", "geometry": {"type": "Polygon", "coordinates": [[[-46.191588, -23.882197], [-46.191453, -23.882724], [-46.192371, -23.882923], [-46.192578, -23.882114], [-46.191588, -23.882197]]]}, "properties": {"nsvia": "Caruara", "address": "Rua Tapuia, 0"}},
{"type": "Feature", "geometry": {"type": "Polygon", "coordinates": [[[-46.189486, -23.882215], [-46.189424, -23.882167], [-46.18937, -23.882145], [-46.189325, -23.8821], [-46.189213, -23.882018], [-46.18918, -23.881995], [-46.189123, -23.881984], [-46.189078, -23.881981], [-46.189041, -23.881981], [-46.188897, -23.88202], [-46.188811, -23.88204], [-46.188689, -23.882086], [-46.188652, -23.88212], [-46.189543, -23.88229], [-46.189486, -23.882215]]]}, "properties": {"nsvia": "Caruara", "address": "Rua Xavantes, 0"}},
{"type": "Feature", "geometry": {"type": "Polygon", "coordinates": [[[-46.224043, -23.890218], [-46.223687, -23.890101], [-46.223487, -23.890753], [-46.223823, -23.89094], [-46.224043, -23.890218]]]}, "properties": {"nsvia": "Caetê", "address": "Rua Caminho 4 (Caete), 0"}},
{"type": "Feature", "geometry": {"type": "Polygon", "coordinates": [[[-46.18928, -23.887546], [-46.187871, -23.8872], [-46.187826, -23.887423], [-46.18923, -23.887767], [-46.18928, -23.887546]]]}, "properties": {"nsvia": "Caruara", "address": "Rua Andrade Soares, 0"}},
{"type": "Feature", "geometry": {"type": "Polygon", "coordinates": [[[-46.183861, -23.882234], [-46.183819, -23.88223], [-46.183759, -23.882216], [-46.183701, -23.882194], [-46.183644, -23.88216], [-46.183603, -23.882125], [-46.183312, -23.883576], [-46.183582, -23.883624], [-46.183861, -23.882234]]]}, "properties": {"nsvia": "Caruara", "address": "Rua Caramuru do Caruara, 0"}},
{"type": "Feature", "geometry": {"type": "Polygon", "coordinates": [[[-46.195991, -23.881784], [-46.195526, -23.883604], [-46.195813, -23.883666], [-46.196291, -23.881794], [-46.195991, -23.881784]]]}, "properties": {"nsvia": "Caruara", "address": "Rua Tapuia, 0"}},
{"type": "Feature", "geometry": {"type": "Polygon", "coordinates": [[[-46.195677, -23.881828], [-46.195239, -23.883542], [-46.195526, -23.883604], [-46.195991, -23.881784], [-46.195677, -23.881828]]]}, "properties": {"nsvia": "Caruara", "address": "Rua Tapuia, 0"}},
{"type": "Feature", "geometry": {"type": "Polygon", "coordinates": [[[-46.228561, -23.897574], [-46.229003, -23.897164], [-46.228121, -23.897211], [-46.227839, -23.897839], [-46.228561, -23.897574]]]}, "properties": {"nsvia": "Caetê", "address": "Rua Caminho 1 (Caete), 0"}},
{"type": "Feature", "geometry": {"type": "Polygon", "coordinates": [[[-46.224132, -23.884782], [-46.224256, -23.885284], [-46.225214, -23.885083], [-46.225163, -23.884869], [-46.22516, -23.88486], [-46.225156, -23.884851], [-46.225152, -23.884843], [-46.22514, -23.884827], [-46.225133, -23.884821], [-46.225125, -23.884815], [-46.225116, -23.884809], [-46.225107, -23.884805], [-46.225097, -23.884801], [-46.224658, -23.884666], [-46.224132, -23.884782]]]}, "properties": {"nsvia": "Caetê", "address": "Rua Caminho 6 (Caete), 0"}},
{"type": "Feature", "geometry": {"type": "Polygon", "coordinates": [[[-46.224575, -23.886606], [-46.224639, -23.886871], [-46.225596, -23.88667], [-46.225532, -23.886405], [-46.224575, -23.886606]]]}, "properties": {"nsvia": "Caetê", "address": "Rua Caminho 6 (Caete), 0"}},
{"type": "Feature", "geometry": {"type": "Polygon", "coordinates": [[[-46.224111, -23.891091], [-46.224115, -23.891093], [-46.22412, -23.891095], [-46.22413, -23.891097], [-46.224141, -23.891097], [-46.224146, -23.891096], [-46.224151, -23.891094], [-46.224156, -23.891093], [-46.22416, -23.89109], [-46.224165, -23.891088], [-46.224169, -23.891085], [-46.224178, -23.891073], [-46.22418, -23.891069], [-46.224182, -23.891064], [-46.224376, -23.890452], [-46.224289, -23.890436], [-46.224211, -23.890343], [-46.224214, -23.890302], [-46.224136, -23.890247], [-46.224043, -23.890218], [-46.223823, -23.89094], [-46.224111, -23.891091]]]}, "properties": {"nsvia": "Caetê", "address": "Rua Caminho 4 (Caete), 0"}},
{"type": "Feature", "geometry": {"type": "Polygon", "coordinates": [[[-46.188056, -23.883625], [-46.187903, -23.884387], [-46.188205, -23.884473], [-46.188363, -23.883685], [-46.188056, -23.883625]]]}, "properties": {"nsvia": "Caruara", "address": "Rua Caramuru do Caruara, 0"}},
{"type": "Feature", "geometry": {"type": "Polygon", "coordinates": [[[-46.187071, -23.88435], [-46.18666, -23.886375], [-46.18694, -23.88645], [-46.187351, -23.884399], [-46.187071, -23.88435]]]}, "properties": {"nsvia": "Caruara", "address": "Rua Caramuru do Caruara, 0"}},
{"type": "Feature", "geometry": {"type": "Polygon", "coordinates": [[[-46.1883, -23.885767], [-46.18843, -23.885515], [-46.188531, -23.885313], [-46.188588, -23.885211], [-46.188806, -23.884826], [-46.188209, -23.88457], [-46.187878, -23.886257], [-46.188021, -23.886312], [-46.188181, -23.886005], [-46.1883, -23.885767]]]}, "properties": {"nsvia": "Caruara", "address": "Rua Caramuru do Caruara, 0"}},
{"type": "Feature", "geometry": {"type": "Polygon", "coordinates": [[[-46.225708, -23.886843], [-46.226264, -23.886732], [-46.226214, -23.886282], [-46.225602, -23.886402], [-46.225708, -23.886843]]]}, "properties": {"nsvia": "Caetê", "address": "Rua Caminho 6 (Caete), 0"}},
{"type": "Feature", "geometry": {"type": "Polygon", "coordinates": [[[-46.224702, -23.887135], [-46.224766, -23.8874], [-46.225724, -23.887199], [-46.22566, -23.886934], [-46.224702, -23.887135]]]}, "properties": {"nsvia": "Caetê", "address": "Rua Caminho 6 (Caete), 0"}},
{"type": "Feature", "geometry": {"type": "Polygon", "coordinates": [[[-46.190899, -23.887901], [-46.190845, -23.888122], [-46.19079, -23.888342], [-46.190739, -23.888548], [-46.190682, -23.888783], [-46.190627, -23.889007], [-46.190938, -23.889075], [-46.191267, -23.887741], [-46.191198, -23.887728], [-46.190953, -23.887681], [-46.190899, -23.887901]]]}, "properties": {"nsvia": "Caruara", "address": "Rua Tamoio, 0"}},
{"type": "Feature", "geometry": {"type": "Polygon", "coordinates": [[[-46.18751, -23.886605], [-46.187396, -23.886574], [-46.187079, -23.888173], [-46.187365, -23.888244], [-46.18768, -23.88665], [-46.18751, -23.886605]]]}, "properties": {"nsvia": "Caruara", "address": "Rua Tamoio, 0"}},
{"type": "Feature", "geometry": {"type": "Polygon", "coordinates": [[[-46.19079, -23.888342], [-46.190845, -23.888122], [-46.189335, -23.88779], [-46.189281, -23.888011], [-46.19079, -23.888342]]]}, "properties": {"nsvia": "Caruara", "address": "Rua Andrade Soares, 0"}},
{"type": "Feature", "geometry": {"type": "Polygon", "coordinates": [[[-46.189512, -23.886868], [-46.189514, -23.886865], [-46.189636, -23.886619], [-46.188181, -23.886005], [-46.188021, -23.886312], [-46.189512, -23.886868]]]}, "properties": {"nsvia": "Caruara", "address": "Rua Andrade Soares, 0"}},
{"type": "Feature", "geometry": {"type": "Polygon", "coordinates": [[[-46.184464, -23.882131], [-46.184151, -23.882178], [-46.183852, -23.883671], [-46.184122, -23.883719], [-46.184464, -23.882131]]]}, "properties": {"nsvia": "Caruara", "address": "Rua Caramuru do Caruara, 0"}},
{"type": "Feature", "geometry": {"type": "Polygon", "coordinates": [[[-46.184754, -23.882085], [-46.184464, -23.882131], [-46.184122, -23.883719], [-46.184392, -23.883767], [-46.184754, -23.882085]]]}, "properties": {"nsvia": "Caruara", "address": "Rua Caramuru do Caruara, 0"}},
{"type": "Feature", "geometry": {"type": "Polygon", "coordinates": [[[-46.226701, -23.893812], [-46.22713, -23.894046], [-46.227522, -23.893605], [-46.227137, -23.893324], [-46.226701, -23.893812]]]}, "properties": {"nsvia": "Caetê", "address": "Rua Caminho 1 (Caete), 0"}},
{"type": "Feature", "geometry": {"type": "Polygon", "coordinates": [[[-46.227982, -23.89731], [-46.227294, -23.897042], [-46.227287, -23.897268], [-46.22772, -23.897865], [-46.227982, -23.89731]]]}, "properties": {"nsvia": "Caetê", "address": "Rua Caminho 1 (Caete), 0"}},
{"type": "Feature", "geometry": {"type": "Polygon", "coordinates": [[[-46.225643, -23.889073], [-46.225572, -23.889289], [-46.22673, -23.889636], [-46.226805, -23.889421], [-46.225643, -23.889073]]]}, "properties": {"nsvia": "Caetê", "address": "Rua Caminho 7 (Caete), 0"}},
{"type": "Feature", "geometry": {"type": "Polygon", "coordinates": [[[-46.193845, -23.885773], [-46.193991, -23.885841], [-46.194144, -23.885782], [-46.194522, -23.884028], [-46.194219, -23.883965], [-46.193845, -23.885773]]]}, "properties": {"nsvia": "Caruara", "address": "Rua Xavantes, 0"}},
{"type": "Feature", "geometry": {"type": "Polygon", "coordinates": [[[-46.225602, -23.886402], [-46.226214, -23.886282], [-46.226199, -23.886184], [-46.226142, -23.886121], [-46.226125, -23.885987], [-46.226093, -23.885845], [-46.225507, -23.885959], [-46.225602, -23.886402]]]}, "properties": {"nsvia": "Caetê", "address": "Rua Caminho 6 (Caete), 0"}},
{"type": "Feature", "geometry": {"type": "Polygon", "coordinates": [[[-46.225389, -23.885521], [-46.225507, -23.885959], [-46.226093, -23.885845], [-46.226061, -23.885748], [-46.226059, -23.885568], [-46.226041, -23.885388], [-46.225389, -23.885521]]]}, "properties": {"nsvia": "Caetê", "address": "Rua Caminho 6 (Caete), 0"}},
{"type": "Feature", "geometry": {"type": "Polygon", "coordinates": [[[-46.22394, -23.888866], [-46.224807, -23.88929], [-46.224944, -23.88905], [-46.224077, -23.888626], [-46.22394, -23.888866]]]}, "properties": {"nsvia": "Caetê", "address": "Rua Caminho 6 (Caete), 0"}},
{"type": "Feature", "geometry": {"type": "Polygon", "coordinates": [[[-46.191894, -23.887858], [-46.192046, -23.88789], [-46.192661, -23.88669], [-46.192417, -23.886574], [-46.191769, -23.887834], [-46.191894, -23.887858]]]}, "properties": {"nsvia": "Caruara", "address": "Rua Caramuru do Caruara, 0"}},
{"type": "Feature", "geometry": {"type": "Polygon", "coordinates": [[[-46.185181, -23.884016], [-46.184871, -23.885562], [-46.185113, -23.885751], [-46.185451, -23.884064], [-46.185181, -23.884016]]]}, "properties": {"nsvia": "Caruara", "address": "Rua Caramuru do Caruara, 0"}},
{"type": "Feature", "geometry": {"type": "Polygon", "coordinates": [[[-46.315221, -23.885053], [-46.314612, -23.885408], [-46.314356, -23.885796], [-46.314141, -23.885915], [-46.314007, -23.88606], [-46.312891, -23.886769], [-46.310297, -23.892131], [-46.310484, -23.892605], [-46.310703, -23.893196], [-46.310999, -23.893969], [-46.311122, -23.894321], [-46.311596, -23.894828], [-46.312121, -23.895348], [-46.312678, -23.895679], [-46.313086, -23.895503], [-46.313385, -23.895247], [-46.313605, -23.895178], [-46.314102, -23.89531], [-46.314419, -23.895314], [-46.314723, -23.895616], [-46.314731, -23.895627], [-46.314857, -23.894293], [-46.314833, -23.894104], [-46.314828, -23.894035], [-46.314806, -23.893895], [-46.314483, -23.893804], [-46.314204, -23.893435], [-46.314085, -23.892938], [-46.314274, -23.892574], [-46.314279, -23.892236], [-46.314358, -23.891785], [-46.314575, -23.891193], [-46.314803, -23.890578], [-46.31487, -23.890271], [-46.314956, -23.889354], [-46.315021, -23.888979], [-46.315087, -23.888599], [-46.315306, -23.8881], [-46.315299, -23.88792], [-46.315495, -23.887519], [-46.316095, -23.887528], [-46.316327, -23.887507], [-46.316817, -23.887879], [-46.317985, -23.888701], [-46.318261, -23.88887], [-46.318828, -23.889261], [-46.319182, -23.889546], [-46.319479, -23.889738], [-46.320012, -23.890081], [-46.320346, -23.890507], [-46.321302, -23.889876], [-46.321466, -23.890203], [-46.321694, -23.89034], [-46.321739, -23.890459], [-46.321974, -23.890747], [-46.322245, -23.891108], [-46.322459, -23.891585], [-46.322614, -23.892114], [-46.323005, -23.892034], [-46.322949, -23.891985], [-46.322859, -23.891778], [-46.322806, -23.891392], [-46.32273, -23.891321], [-46.322538, -23.890825], [-46.322477, -23.8908], [-46.322251, -23.890452], [-46.321889, -23.890019], [-46.32172, -23.889973], [-46.321602, -23.889571], [-46.320903, -23.888967], [-46.320772, -23.888909], [-46.320446, -23.888612], [-46.320303, -23.88844], [-46.32012, -23.888317], [-46.319592, -23.887895], [-46.319177, -23.887513], [-46.318874, -23.887255], [-46.318368, -23.886823], [-46.318052, -23.886503], [-46.317874, -23.886374], [-46.317514, -23.885996], [-46.31733, -23.885924], [-46.317202, -23.88578], [-46.317032, -23.885741], [-46.316975, -23.885637], [-46.316675, -23.88551], [-46.316485, -23.885371], [-46.316395, -23.885239], [-46.316228, -23.885083], [-46.315926, -23.884861], [-46.315785, -23.884723], [-46.315221, -23.885053]]]}, "properties": {"nsvia": "Piaçaguera", "address": "Rodovia Cônego Domênico Rangoni, 0"}},
{"type": "Feature", "geometry": {"type": "Polygon", "coordinates": [[[-46.227241, -23.893297], [-46.227626, -23.893578], [-46.228005, -23.893145], [-46.22758, -23.892901], [-46.227241, -23.893297]]]}, "properties": {"nsvia": "Caetê", "address": "Rua Caminho 1 (Caete), 0"}},
{"type": "Feature", "geometry": {"type": "Polygon", "coordinates": [[[-46.22726, -23.888384], [-46.227188, -23.888628], [-46.228495, -23.888991], [-46.228504, -23.888736], [-46.22726, -23.888384]]]}, "properties": {"nsvia": "Caetê", "address": "Rua Caminho 7 (Caete), 0"}},
{"type": "Feature", "geometry": {"type": "Polygon", "coordinates": [[[-46.189334, -23.887325], [-46.187915, -23.886977], [-46.187871, -23.8872], [-46.18928, -23.887546], [-46.189334, -23.887325]]]}, "properties": {"nsvia": "Caruara", "address": "Rua Andrade Soares, 0"}},
{"type": "Feature", "geometry": {"type": "Polygon", "coordinates": [[[-46.18923, -23.887767], [-46.187826, -23.887423], [-46.187782, -23.887646], [-46.189183, -23.887989], [-46.18923, -23.887767]]]}, "properties": {"nsvia": "Caruara", "address": "Rua Andrade Soares, 0"}},
{"type": "Feature", "geometry": {"type": "Polygon", "coordinates": [[[-46.189907, -23.885241], [-46.189943, -23.885249], [-46.189982, -23.885239], [-46.190023, -23.885218], [-46.190079, -23.885177], [-46.190132, -23.885156], [-46.190178, -23.885141], [-46.190255, -23.885133], [-46.190319, -23.885138], [-46.190371, -23.885128], [-46.190411, -23.885104], [-46.190439, -23.885064], [-46.188985, -23.884365], [-46.188796, -23.884707], [-46.189907, -23.885241]]]}, "properties": {"nsvia": "Caruara", "address": "Praça Encarnacion Alves Corpas, 0"}},
{"type": "Feature", "geometry": {"type": "Polygon", "coordinates": [[[-46.191394, -23.883375], [-46.190647, -23.883215], [-46.19036, -23.884414], [-46.190712, -23.884583], [-46.191394, -23.883375]]]}, "properties": {"nsvia": "Caruara", "address": "Rua Xavantes, 0"}},
{"type": "Feature", "geometry": {"type": "Polygon", "coordinates": [[[-46.194747, -23.881915], [-46.194379, -23.883356], [-46.194666, -23.883418], [-46.195056, -23.881889], [-46.194747, -23.881915]]]}, "properties": {"nsvia": "Caruara", "address": "Rua Tapuia, 0"}},
{"type": "Feature", "geometry": {"type": "Polygon", "coordinates": [[[-46.307179, -23.889529], [-46.306776, -23.889849], [-46.306331, -23.890226], [-46.306762, -23.890279], [-46.310866, -23.887245], [-46.307179, -23.889529]]]}, "properties": {"nsvia": "Piaçaguera", "address": "Rodovia Cônego Domênico Rangoni, 0"}},
{"type": "Feature", "geometry": {"type": "Polygon", "coordinates": [[[-46.310866, -23.887245], [-46.306762, -23.890279], [-46.30697, -23.890297], [-46.307948, -23.890371], [-46.308866, -23.89093], [-46.309175, -23.891124], [-46.309602, -23.89139], [-46.309821, -23.891526], [-46.31015, -23.891717], [-46.310232, -23.89193], [-46.310286, -23.892103], [-46.310297, -23.892131], [-46.312891, -23.886769], [-46.314007, -23.88606], [-46.314141, -23.885915], [-46.314356, -23.885796], [-46.314612, -23.885408], [-46.315221, -23.885053], [-46.315785, -23.884723], [-46.315436, -23.884484], [-46.310866, -23.887245]]]}, "properties": {"nsvia": "Piaçaguera", "address": "Rodovia Cônego Domênico Rangoni, 0"}},
{"type": "Feature", "geometry": {"type": "Polygon", "coordinates": [[[-46.225572, -23.889289], [-46.22543, -23.889648], [-46.226589, -23.889842], [-46.2266, -23.889843], [-46.226611, -23.889843], [-46.226622, -23.889842], [-46.226633, -23.88984], [-46.226643, -23.889837], [-46.226653, -23.889833], [-46.226663, -23.889828], [-46.226679, -23.889814], [-46.226686, -23.889806], [-46.226692, -23.889798], [-46.226697, -23.889789], [-46.226701, -23.889779], [-46.226703, -23.889769], [-46.22673, -23.889636], [-46.225572, -23.889289]]]}, "properties": {"nsvia": "Caetê", "address": "Rua Caminho 7 (Caete), 0"}},
{"type": "Feature", "geometry": {"type": "Polygon", "coordinates": [[[-46.22414, -23.889343], [-46.224344, -23.889436], [-46.224559, -23.889509], [-46.224617, -23.889521], [-46.224625, -23.889522], [-46.224643, -23.889522], [-46.224651, -23.88952], [-46.22466, -23.889518], [-46.224668, -23.889515], [-46.224682, -23.889507], [-46.224689, -23.889501], [-46.224695, -23.889495], [-46.2247, -23.889489], [-46.224704, -23.889482], [-46.224807, -23.88929], [-46.223938, -23.888871], [-46.223786, -23.889138], [-46.22414, -23.889343]]]}, "properties": {"nsvia": "Caetê", "address": "Rua Caminho 6 (Caete), 0"}},
{"type": "Feature", "geometry": {"type": "Polygon", "coordinates": [[[-46.190682, -23.888783], [-46.190739, -23.888548], [-46.18923, -23.888217], [-46.189172, -23.888452], [-46.190682, -23.888783]]]}, "properties": {"nsvia": "Caruara", "address": "Rua Andrade Soares, 6"}},
{"type": "Feature", "geometry": {"type": "Polygon", "coordinates": [[[-46.19048, -23.885204], [-46.190543, -23.88525], [-46.190578, -23.885287], [-46.190615, -23.885339], [-46.190636, -23.885388], [-46.190651, -23.885435], [-46.190659, -23.885493], [-46.190656, -23.885555], [-46.19064, -23.88562], [-46.19173, -23.886144], [-46.191936, -23.885784], [-46.190533, -23.88511], [-46.19048, -23.885204]]]}, "properties": {"info": {"is_agg": true, "properties_agg": [{"via": "Rua Andrade Soares", "hnum": 422, "nsvia": "Caruara", "feature_id": 44334}], "geom_cmp_equals": [true], "geom_cmp_intersec": [1]}, "error": 100, "nsvia": "Caruara", "address": "Praça Encarnacion Alves Corpas, 0"}},
{"type": "Feature", "geometry": {"type": "Polygon", "coordinates": [[[-46.189975, -23.885885], [-46.190033, -23.885775], [-46.19003, -23.885762], [-46.189991, -23.885723], [-46.189964, -23.885689], [-46.18993, -23.885643], [-46.189913, -23.885613], [-46.189895, -23.885577], [-46.189884, -23.885541], [-46.189879, -23.885499], [-46.189877, -23.885475], [-46.189881, -23.885433], [-46.189886, -23.885403], [-46.189894, -23.885372], [-46.189897, -23.885352], [-46.189889, -23.885341], [-46.18988, -23.885336], [-46.189417, -23.885119], [-46.188806, -23.884826], [-46.188588, -23.885211], [-46.189975, -23.885885]]]}, "properties": {"nsvia": "Caruara", "address": "Praça Encarnacion Alves Corpas, 0"}},
{"type": "Feature", "geometry": {"type": "Polygon", "coordinates": [[[-46.192708, -23.886608], [-46.192952, -23.886724], [-46.193569, -23.885643], [-46.193328, -23.885529], [-46.192708, -23.886608]]]}, "properties": {"nsvia": "Caruara", "address": "Rua Caramuru do Caruara, 0"}},
{"type": "Feature", "geometry": {"type": "Polygon", "coordinates": [[[-46.192219, -23.886376], [-46.192464, -23.886492], [-46.19308, -23.885412], [-46.193025, -23.885386], [-46.192853, -23.885304], [-46.192219, -23.886376]]]}, "properties": {"nsvia": "Caruara", "address": "Rua Caramuru do Caruara, 0"}},
{"type": "Feature", "geometry": {"type": "Polygon", "coordinates": [[[-46.186108, -23.882304], [-46.185839, -23.882251], [-46.185472, -23.883957], [-46.185743, -23.884005], [-46.186108, -23.882304]]]}, "properties": {"nsvia": "Caruara", "address": "Rua Caramuru do Caruara, 0"}},
{"type": "Feature", "geometry": {"type": "Polygon", "coordinates": [[[-46.19777, -23.881928], [-46.197247, -23.883976], [-46.197859, -23.884108], [-46.197886, -23.884027], [-46.197896, -23.883889], [-46.197836, -23.883349], [-46.197828, -23.883104], [-46.197835, -23.882666], [-46.197833, -23.882385], [-46.19782, -23.882186], [-46.197835, -23.881942], [-46.19777, -23.881928]]]}, "properties": {"nsvia": "Caruara", "address": "Rua Tapuia, 0"}},
{"type": "Feature", "geometry": {"type": "Polygon", "coordinates": [[[-46.36732, -23.869647], [-46.365544, -23.869508], [-46.364443, -23.869392], [-46.363784, -23.86931], [-46.363397, -23.86921], [-46.362993, -23.868992], [-46.362717, -23.868684], [-46.362495, -23.86831], [-46.36095, -23.865337], [-46.36028, -23.864066], [-46.360076, -23.863582], [-46.35993, -23.863147], [-46.359791, -23.862536], [-46.359729, -23.862147], [-46.3597, -23.861757], [-46.359686, -23.861236], [-46.359738, -23.860647], [-46.359841, -23.860187], [-46.360045, -23.859756], [-46.360295, -23.859202], [-46.360615, -23.858603], [-46.360381, -23.858506], [-46.359989, -23.85916], [-46.359687, -23.859798], [-46.359476, -23.860289], [-46.35939, -23.860772], [-46.359321, -23.861377], [-46.359368, -23.861867], [-46.359398, -23.862341], [-46.359487, -23.862883], [-46.3596, -23.863349], [-46.359746, -23.863799], [-46.35995, -23.864257], [-46.360416, -23.865064], [-46.361879, -23.86782], [-46.362246, -23.868543], [-46.362552, -23.868996], [-46.3629, -23.869317], [-46.363312, -23.869506], [-46.363867, -23.869597], [-46.364555, -23.869679], [-46.365555, -23.869744], [-46.365565, -23.870066], [-46.365355, -23.870596], [-46.364895, -23.871293], [-46.364221, -23.871993], [-46.363618, -23.872757], [-46.363304, -23.873586], [-46.363203, -23.874247], [-46.362813, -23.87479], [-46.362318, -23.87541], [-46.36186, -23.876273], [-46.361309, -23.876797], [-46.360467, -23.876978], [-46.359356, -23.877153], [-46.358063, -23.877165], [-46.358027, -23.877165], [-46.357991, -23.877132], [-46.357168, -23.877338], [-46.356774, -23.877473], [-46.356419, -23.877839], [-46.356388, -23.878302], [-46.356716, -23.878761], [-46.357296, -23.879317], [-46.357985, -23.880005], [-46.358578, -23.880616], [-46.359291, -23.881215], [-46.360123, -23.881868], [-46.361029, -23.882685], [-46.361881, -23.883201], [-46.362955, -23.883679], [-46.363808, -23.883863], [-46.364669, -23.883941], [-46.365674, -23.883932], [-46.366788, -23.883955], [-46.367612, -23.883782], [-46.368292, -23.883644], [-46.369294, -23.883272], [-46.36994, -23.883233], [-46.370909, -23.883192], [-46.371805, -23.883019], [-46.372449, -23.882815], [-46.373056, -23.882512], [-46.373481, -23.88198], [-46.373798, -23.881416], [-46.373899, -23.880755], [-46.373891, -23.879996], [-46.373957, -23.879401], [-46.374057, -23.878706], [-46.374157, -23.878012], [-46.374042, -23.877254], [-46.373857, -23.87676], [-46.37342, -23.876236], [-46.373163, -23.875677], [-46.372763, -23.875185], [-46.372328, -23.874826], [-46.371644, -23.874568], [-46.370995, -23.874343], [-46.37067, -23.874213], [-46.370524, -23.873984], [-46.370842, -23.873453], [-46.371018, -23.873088], [-46.370941, -23.872659], [-46.370791, -23.872], [-46.37079, -23.871967], [-46.370606, -23.871474], [-46.370601, -23.871045], [-46.370778, -23.870812], [-46.371279, -23.870609], [-46.371937, -23.870396], [-46.372527, -23.870044], [-46.36732, -23.869647]]]}, "properties": {"info": {"is_agg": true, "properties_agg": [{"via": "Rodovia Cônego Domênico Rangoni", "hnum": 0, "nsvia": "Piaçaguera", "feature_id": 36927}], "geom_cmp_equals": [true], "geom_cmp_intersec": [1]}, "error": 100, "nsvia": "Piaçaguera", "address": "Rodovia Cônego Domênico Rangoni, 0"}},
{"type": "Feature", "geometry": {"type": "Polygon", "coordinates": [[[-46.229003, -23.897164], [-46.229319, -23.896842], [-46.22826, -23.896903], [-46.228121, -23.897211], [-46.229003, -23.897164]]]}, "properties": {"nsvia": "Caetê", "address": "Rua Caminho 1 (Caete), 0"}},
{"type": "Feature", "geometry": {"type": "Polygon", "coordinates": [[[-46.225245, -23.893066], [-46.224371, -23.892943], [-46.224287, -23.893075], [-46.224279, -23.893527], [-46.224335, -23.893682], [-46.225245, -23.893066]]]}, "properties": {"nsvia": "Caetê", "address": "Rua Caminho 1 (Caete), 0"}},
{"type": "Feature", "geometry": {"type": "Polygon", "coordinates": [[[-46.227188, -23.888628], [-46.227108, -23.888841], [-46.22847, -23.889224], [-46.228495, -23.888991], [-46.227188, -23.888628]]]}, "properties": {"nsvia": "Caetê", "address": "Rua Caminho 7 (Caete), 0"}},
{"type": "Feature", "geometry": {"type": "Polygon", "coordinates": [[[-46.22743, -23.887903], [-46.228538, -23.888214], [-46.228547, -23.88797], [-46.227482, -23.887655], [-46.22743, -23.887903]]]}, "properties": {"nsvia": "Caetê", "address": "Rua Caminho 7 (Caete), 0"}},
{"type": "Feature", "geometry": {"type": "Polygon", "coordinates": [[[-46.226198, -23.88791], [-46.227216, -23.888215], [-46.227294, -23.887954], [-46.226314, -23.887658], [-46.226198, -23.88791]]]}, "properties": {"nsvia": "Caetê", "address": "Rua Caminho 7 (Caete), 0"}},
{"type": "Feature", "geometry": {"type": "Polygon", "coordinates": [[[-46.226058, -23.888153], [-46.227123, -23.888472], [-46.227216, -23.888215], [-46.226198, -23.88791], [-46.226058, -23.888153]]]}, "properties": {"nsvia": "Caetê", "address": "Rua Caminho 7 (Caete), 0"}},
{"type": "Feature", "geometry": {"type": "Polygon", "coordinates": [[[-46.223304, -23.891338], [-46.224091, -23.891434], [-46.224129, -23.891213], [-46.224129, -23.891203], [-46.224127, -23.891193], [-46.224125, -23.891189], [-46.224123, -23.891184], [-46.224117, -23.891176], [-46.224113, -23.891172], [-46.224109, -23.891169], [-46.224104, -23.891167], [-46.223191, -23.890696], [-46.223304, -23.891338]]]}, "properties": {"nsvia": "Caetê", "address": "Rua Caminho 6 (Caete), 0"}},
{"type": "Feature", "geometry": {"type": "Polygon", "coordinates": [[[-46.189117, -23.888675], [-46.190627, -23.889007], [-46.190682, -23.888783], [-46.189172, -23.888452], [-46.189117, -23.888675]]]}, "properties": {"nsvia": "Caruara", "address": "Rua Andrade Soares, 0"}},
{"type": "Feature", "geometry": {"type": "Polygon", "coordinates": [[[-46.192464, -23.886492], [-46.192708, -23.886608], [-46.193328, -23.885529], [-46.193299, -23.885515], [-46.19308, -23.885412], [-46.192464, -23.886492]]]}, "properties": {"nsvia": "Caruara", "address": "Rua Caramuru do Caruara, 0"}},
{"type": "Feature", "geometry": {"type": "Polygon", "coordinates": [[[-46.186261, -23.884207], [-46.185918, -23.885921], [-46.186118, -23.886232], [-46.186531, -23.884255], [-46.186261, -23.884207]]]}, "properties": {"nsvia": "Caruara", "address": "Rua Caramuru do Caruara, 0"}},
{"type": "Feature", "geometry": {"type": "Polygon", "coordinates": [[[-46.192477, -23.885127], [-46.192591, -23.88518], [-46.192746, -23.885254], [-46.193063, -23.883726], [-46.192786, -23.883666], [-46.192477, -23.885127]]]}, "properties": {"nsvia": "Caruara", "address": "Rua Xavantes, 0"}},
{"type": "Feature", "geometry": {"type": "Polygon", "coordinates": [[[-46.18716, -23.882512], [-46.18698, -23.883412], [-46.187249, -23.883465], [-46.187429, -23.882565], [-46.18716, -23.882512]]]}, "properties": {"nsvia": "Caruara", "address": "Rua Xavantes, 0"}},
{"type": "Feature", "geometry": {"type": "Polygon", "coordinates": [[[-46.189756, -23.883029], [-46.189523, -23.884012], [-46.189793, -23.884142], [-46.190044, -23.883089], [-46.189756, -23.883029]]]}, "properties": {"nsvia": "Caruara", "address": "Rua Xavantes, 0"}},
{"type": "Feature", "geometry": {"type": "Polygon", "coordinates": [[[-46.187351, -23.884399], [-46.18694, -23.88645], [-46.187215, -23.886524], [-46.187631, -23.884449], [-46.187351, -23.884399]]]}, "properties": {"nsvia": "Caruara", "address": "Rua Caramuru do Caruara, 0"}},
{"type": "Feature", "geometry": {"type": "Polygon", "coordinates": [[[-46.190533, -23.88511], [-46.191936, -23.885784], [-46.192073, -23.885544], [-46.190669, -23.884869], [-46.190533, -23.88511]]]}, "properties": {"nsvia": "Caruara", "address": "Rua Andrade Soares, 0"}},
{"type": "Feature", "geometry": {"type": "Polygon", "coordinates": [[[-46.226559, -23.893553], [-46.226608, -23.893661], [-46.22661, -23.893779], [-46.226701, -23.893812], [-46.227137, -23.893324], [-46.22656, -23.892889], [-46.226446, -23.893522], [-46.226559, -23.893553]]]}, "properties": {"nsvia": "Caetê", "address": "Rua Caminho 1 (Caete), 0"}},
{"type": "Feature", "geometry": {"type": "Polygon", "coordinates": [[[-46.228461, -23.895804], [-46.228395, -23.895357], [-46.227812, -23.895419], [-46.227766, -23.895461], [-46.227725, -23.895507], [-46.22769, -23.895557], [-46.227661, -23.89561], [-46.227637, -23.895666], [-46.227621, -23.895723], [-46.227611, -23.895782], [-46.227607, -23.895841], [-46.227611, -23.895901], [-46.228461, -23.895804]]]}, "properties": {"nsvia": "Caetê", "address": "Rua Caminho 1 (Caete), 0"}},
{"type": "Feature", "geometry": {"type": "Polygon", "coordinates": [[[-46.22712, -23.890015], [-46.227105, -23.890015], [-46.227095, -23.890017], [-46.22709, -23.890019], [-46.227086, -23.890022], [-46.227082, -23.890024], [-46.227078, -23.890028], [-46.227074, -23.890031], [-46.227071, -23.890035], [-46.227067, -23.890043], [-46.227065, -23.890048], [-46.227064, -23.890052], [-46.227032, -23.89023], [-46.228284, -23.890407], [-46.228323, -23.890199], [-46.22712, -23.890015]]]}, "properties": {"nsvia": "Caetê", "address": "Rua Caminho 2 (Caete), 0"}},
{"type": "Feature", "geometry": {"type": "Polygon", "coordinates": [[[-46.227414, -23.886142], [-46.227441, -23.886394], [-46.228578, -23.886741], [-46.22859, -23.886488], [-46.227414, -23.886142]]]}, "properties": {"nsvia": "Caetê", "address": "Rua Caminho 7 (Caete), 0"}},
{"type": "Feature", "geometry": {"type": "Polygon", "coordinates": [[[-46.225411, -23.888412], [-46.225814, -23.888619], [-46.226087, -23.888035], [-46.225726, -23.887851], [-46.225411, -23.888412]]]}, "properties": {"nsvia": "Caetê", "address": "Rua Caminho 6 (Caete), 0"}},
{"type": "Feature", "geometry": {"type": "Polygon", "coordinates": [[[-46.224382, -23.885813], [-46.224448, -23.886077], [-46.225405, -23.885876], [-46.225341, -23.885612], [-46.224382, -23.885813]]]}, "properties": {"nsvia": "Caetê", "address": "Rua Caminho 6 (Caete), 0"}},
{"type": "Feature", "geometry": {"type": "Polygon", "coordinates": [[[-46.190669, -23.884869], [-46.192073, -23.885544], [-46.192141, -23.885424], [-46.190737, -23.884749], [-46.190669, -23.884869]]]}, "properties": {"nsvia": "Caruara", "address": "Rua Andrade Soares, 0"}},
{"type": "Feature", "geometry": {"type": "Polygon", "coordinates": [[[-46.188021, -23.886312], [-46.187878, -23.886257], [-46.187796, -23.886682], [-46.187963, -23.886733], [-46.189408, -23.887117], [-46.189512, -23.886868], [-46.188021, -23.886312]]]}, "properties": {"nsvia": "Caruara", "address": "Rua Andrade Soares, 0"}},
{"type": "Feature", "geometry": {"type": "Polygon", "coordinates": [[[-46.187249, -23.883465], [-46.187093, -23.884243], [-46.187363, -23.884291], [-46.187518, -23.883518], [-46.187249, -23.883465]]]}, "properties": {"nsvia": "Caruara", "address": "Rua Caramuru do Caruara, 0"}},
{"type": "Feature", "geometry": {"type": "Polygon", "coordinates": [[[-46.184371, -23.883873], [-46.18413, -23.885072], [-46.184377, -23.885235], [-46.184641, -23.883921], [-46.184371, -23.883873]]]}, "properties": {"nsvia": "Caruara", "address": "Rua Caramuru do Caruara, 0"}},
{"type": "Feature", "geometry": {"type": "Polygon", "coordinates": [[[-46.186531, -23.884255], [-46.186118, -23.886232], [-46.186344, -23.886585], [-46.186801, -23.884302], [-46.186531, -23.884255]]]}, "properties": {"nsvia": "Caruara", "address": "Rua Caramuru do Caruara, 0"}},
{"type": "Feature", "geometry": {"type": "Polygon", "coordinates": [[[-46.190044, -23.883089], [-46.189793, -23.884142], [-46.190064, -23.884272], [-46.190331, -23.883149], [-46.190044, -23.883089]]]}, "properties": {"nsvia": "Caruara", "address": "Rua Xavantes, 0"}},
{"type": "Feature", "geometry": {"type": "Polygon", "coordinates": [[[-46.226794, -23.891567], [-46.226746, -23.891834], [-46.227666, -23.891967], [-46.227881, -23.891721], [-46.226794, -23.891567]]]}, "properties": {"nsvia": "Caetê", "address": "Rua Caminho 2 (Caete), 0"}},
{"type": "Feature", "geometry": {"type": "Polygon", "coordinates": [[[-46.225262, -23.884862], [-46.225258, -23.884863], [-46.225255, -23.884864], [-46.225251, -23.884866], [-46.225245, -23.88487], [-46.225243, -23.884873], [-46.22524, -23.884876], [-46.225239, -23.884879], [-46.225237, -23.884882], [-46.225236, -23.884885], [-46.225389, -23.885521], [-46.226041, -23.885388], [-46.226056, -23.885099], [-46.225265, -23.884861], [-46.225262, -23.884862]]]}, "properties": {"nsvia": "Caetê", "address": "Rua Caminho 6 (Caete), 0"}},
{"type": "Feature", "geometry": {"type": "Polygon", "coordinates": [[[-46.224056, -23.890179], [-46.224275, -23.889485], [-46.223927, -23.889322], [-46.223693, -23.890079], [-46.224056, -23.890179]]]}, "properties": {"nsvia": "Caetê", "address": "Rua Caminho 5 (Caete), 0"}},
{"type": "Feature", "geometry": {"type": "Polygon", "coordinates": [[[-46.18923, -23.888217], [-46.190739, -23.888548], [-46.19079, -23.888342], [-46.189281, -23.888011], [-46.18923, -23.888217]]]}, "properties": {"nsvia": "Caruara", "address": "Rua Andrade Soares, 0"}},
{"type": "Feature", "geometry": {"type": "Polygon", "coordinates": [[[-46.189742, -23.886385], [-46.1883, -23.885767], [-46.188181, -23.886005], [-46.189636, -23.886619], [-46.189742, -23.886385]]]}, "properties": {"nsvia": "Caruara", "address": "Rua Andrade Soares, 0"}},
{"type": "Feature", "geometry": {"type": "Polygon", "coordinates": [[[-46.183603, -23.882125], [-46.183522, -23.882027], [-46.183475, -23.881978], [-46.183399, -23.881937], [-46.183346, -23.881939], [-46.183304, -23.88197], [-46.183285, -23.882039], [-46.18327, -23.882178], [-46.183248, -23.882229], [-46.183196, -23.882277], [-46.183134, -23.882304], [-46.18305, -23.882315], [-46.182982, -23.882313], [-46.182843, -23.882306], [-46.182716, -23.882304], [-46.182497, -23.882291], [-46.182868, -23.883501], [-46.183312, -23.883576], [-46.183603, -23.882125]]]}, "properties": {"nsvia": "Caruara", "address": "Rua Caramuru do Caruara, 0"}},
{"type": "Feature", "geometry": {"type": "Polygon", "coordinates": [[[-46.19623, -23.884395], [-46.195982, -23.885593], [-46.196289, -23.885554], [-46.196517, -23.884454], [-46.19623, -23.884395]]]}, "properties": {"nsvia": "Caruara", "address": "Rua Xavantes, 0"}},
{"type": "Feature", "geometry": {"type": "Polygon", "coordinates": [[[-46.187429, -23.882565], [-46.187249, -23.883465], [-46.187518, -23.883518], [-46.187698, -23.882618], [-46.187429, -23.882565]]]}, "properties": {"nsvia": "Caruara", "address": "Rua Xavantes, 0"}},
{"type": "Feature", "geometry": {"type": "Polygon", "coordinates": [[[-46.227307, -23.885702], [-46.227296, -23.885556], [-46.227295, -23.885548], [-46.227293, -23.885541], [-46.227287, -23.885527], [-46.227283, -23.88552], [-46.227278, -23.885514], [-46.227266, -23.885504], [-46.227259, -23.885499], [-46.227251, -23.885496], [-46.227244, -23.885493], [-46.226093, -23.88512], [-46.226084, -23.885526], [-46.227307, -23.885702]]]}, "properties": {"nsvia": "Caetê", "address": "Rua Caminho 7 (Caete), 0"}},
{"type": "Feature", "geometry": {"type": "Polygon", "coordinates": [[[-46.225828, -23.887282], [-46.226328, -23.887299], [-46.226355, -23.887212], [-46.226264, -23.886732], [-46.225708, -23.886843], [-46.225828, -23.887282]]]}, "properties": {"nsvia": "Caetê", "address": "Rua Caminho 6 (Caete), 0"}},
{"type": "Feature", "geometry": {"type": "Polygon", "coordinates": [[[-46.192278, -23.887876], [-46.19251, -23.887783], [-46.192614, -23.887695], [-46.19264, -23.887533], [-46.192667, -23.887416], [-46.192688, -23.887294], [-46.192709, -23.887187], [-46.192735, -23.887065], [-46.192829, -23.887018], [-46.192934, -23.887058], [-46.193062, -23.887133], [-46.193156, -23.887173], [-46.193273, -23.887198], [-46.193389, -23.887171], [-46.19346, -23.887135], [-46.193494, -23.887092], [-46.192661, -23.88669], [-46.192046, -23.88789], [-46.192234, -23.887927], [-46.192278, -23.887876]]]}, "properties": {"nsvia": "Caruara", "address": "Rua Caramuru do Caruara, 0"}},
{"type": "Feature", "geometry": {"type": "Polygon", "coordinates": [[[-46.194438, -23.881941], [-46.194092, -23.883295], [-46.194379, -23.883356], [-46.194747, -23.881915], [-46.194438, -23.881941]]]}, "properties": {"nsvia": "Caruara", "address": "Rua Tapuia, 0"}},
{"type": "Feature", "geometry": {"type": "Polygon", "coordinates": [[[-46.22713, -23.894046], [-46.227466, -23.8944], [-46.227909, -23.893882], [-46.227522, -23.893605], [-46.22713, -23.894046]]]}, "properties": {"nsvia": "Caetê", "address": "Rua Caminho 1 (Caete), 0"}},
{"type": "Feature", "geometry": {"type": "Polygon", "coordinates": [[[-46.2284, -23.894814], [-46.22847, -23.895261], [-46.229065, -23.895104], [-46.229015, -23.894654], [-46.2284, -23.894814]]]}, "properties": {"nsvia": "Caetê", "address": "Rua Caminho 1 (Caete), 0"}},
{"type": "Feature", "geometry": {"type": "Polygon", "coordinates": [[[-46.187787, -23.883571], [-46.187633, -23.884339], [-46.187903, -23.884387], [-46.188056, -23.883625], [-46.187787, -23.883571]]]}, "properties": {"nsvia": "Caruara", "address": "Rua Caramuru do Caruara, 0"}},
{"type": "Feature", "geometry": {"type": "Polygon", "coordinates": [[[-46.185721, -23.884112], [-46.185418, -23.885621], [-46.185449, -23.885579], [-46.185471, -23.885553], [-46.185498, -23.88551], [-46.185532, -23.885479], [-46.185562, -23.885458], [-46.185587, -23.885446], [-46.185621, -23.885444], [-46.185645, -23.885458], [-46.185662, -23.885478], [-46.185685, -23.885518], [-46.185708, -23.885571], [-46.185991, -23.884159], [-46.185721, -23.884112]]]}, "properties": {"nsvia": "Caruara", "address": "Rua Caramuru do Caruara, 0"}},
{"type": "Feature", "geometry": {"type": "Polygon", "coordinates": [[[-46.193569, -23.885643], [-46.193845, -23.885773], [-46.194219, -23.883965], [-46.193932, -23.883902], [-46.193569, -23.885643]]]}, "properties": {"nsvia": "Caruara", "address": "Rua Xavantes, 0"}},
{"type": "Feature", "geometry": {"type": "Polygon", "coordinates": [[[-46.188543, -23.882785], [-46.188363, -23.883685], [-46.18867, -23.883746], [-46.18885, -23.882845], [-46.188543, -23.882785]]]}, "properties": {"nsvia": "Caruara", "address": "Rua Xavantes, 0"}},
{"type": "Feature", "geometry": {"type": "Polygon", "coordinates": [[[-46.18885, -23.882845], [-46.18867, -23.883746], [-46.188974, -23.883817], [-46.189157, -23.882906], [-46.18885, -23.882845]]]}, "properties": {"nsvia": "Caruara", "address": "Rua Xavantes, 0"}},
{"type": "Feature", "geometry": {"type": "Polygon", "coordinates": [[[-46.22476, -23.892168], [-46.225876, -23.892328], [-46.225925, -23.892061], [-46.224834, -23.891904], [-46.22476, -23.892168]]]}, "properties": {"nsvia": "Caetê", "address": "Rua Caminho 3 (Caete), 0"}},
{"type": "Feature", "geometry": {"type": "Polygon", "coordinates": [[[-46.223487, -23.890753], [-46.223687, -23.890101], [-46.223432, -23.889949], [-46.223417, -23.889921], [-46.223343, -23.889895], [-46.22296, -23.889659], [-46.223169, -23.890592], [-46.223487, -23.890753]]]}, "properties": {"nsvia": "Caetê", "address": "Rua Caminho 4 (Caete), 0"}},
{"type": "Feature", "geometry": {"type": "Polygon", "coordinates": [[[-46.18867, -23.883746], [-46.188504, -23.884574], [-46.188796, -23.884707], [-46.188985, -23.884365], [-46.189119, -23.884123], [-46.189252, -23.883882], [-46.188974, -23.883817], [-46.18867, -23.883746]]]}, "properties": {"nsvia": "Caruara", "address": "Rua Caramuru do Caruara, 0"}},
{"type": "Feature", "geometry": {"type": "Polygon", "coordinates": [[[-46.194743, -23.885778], [-46.195082, -23.884145], [-46.194794, -23.884085], [-46.194456, -23.885718], [-46.194743, -23.885778]]]}, "properties": {"nsvia": "Caruara", "address": "Rua Xavantes, 0"}},
{"type": "Feature", "geometry": {"type": "Polygon", "coordinates": [[[-46.226873, -23.891121], [-46.226834, -23.891344], [-46.227989, -23.891508], [-46.228097, -23.891294], [-46.226873, -23.891121]]]}, "properties": {"nsvia": "Caetê", "address": "Rua Caminho 2 (Caete), 0"}},
{"type": "Feature", "geometry": {"type": "Polygon", "coordinates": [[[-46.22486, -23.890628], [-46.224614, -23.890567], [-46.22445, -23.890467], [-46.224319, -23.890874], [-46.22493, -23.891029], [-46.224988, -23.890636], [-46.22486, -23.890628]]]}, "properties": {"nsvia": "Caetê", "address": "Rua Caminho 6 (Caete), 0"}},
{"type": "Feature", "geometry": {"type": "Polygon", "coordinates": [[[-46.224639, -23.886871], [-46.224702, -23.887135], [-46.22566, -23.886934], [-46.225592, -23.88667], [-46.224639, -23.886871]]]}, "properties": {"nsvia": "Caetê", "address": "Rua Caminho 6 (Caete), 0"}},
{"type": "Feature", "geometry": {"type": "Polygon", "coordinates": [[[-46.190899, -23.887901], [-46.190953, -23.887681], [-46.189444, -23.88735], [-46.189389, -23.88757], [-46.190899, -23.887901]]]}, "properties": {"nsvia": "Caruara", "address": "Rua Andrade Soares, 0"}},
{"type": "Feature", "geometry": {"type": "Polygon", "coordinates": [[[-46.185028, -23.882111], [-46.184965, -23.882095], [-46.184883, -23.88208], [-46.184801, -23.882079], [-46.184754, -23.882085], [-46.184392, -23.883767], [-46.184662, -23.883814], [-46.185028, -23.882111]]]}, "properties": {"nsvia": "Caruara", "address": "Rua Caramuru do Caruara, 0"}},
{"type": "Feature", "geometry": {"type": "Polygon", "coordinates": [[[-46.185721, -23.884112], [-46.185451, -23.884064], [-46.185113, -23.885751], [-46.185151, -23.885769], [-46.185181, -23.88578], [-46.185232, -23.885781], [-46.18527, -23.885764], [-46.185314, -23.885726], [-46.185381, -23.885667], [-46.185391, -23.885653], [-46.185418, -23.885621], [-46.185721, -23.884112]]]}, "properties": {"nsvia": "Caruara", "address": "Rua Caramuru do Caruara, 0"}},
{"type": "Feature", "geometry": {"type": "Polygon", "coordinates": [[[-46.187963, -23.886733], [-46.187796, -23.886682], [-46.18768, -23.88665], [-46.187365, -23.888244], [-46.18765, -23.888314], [-46.187694, -23.888092], [-46.187826, -23.887423], [-46.187871, -23.8872], [-46.187915, -23.886977], [-46.187963, -23.886733]]]}, "properties": {"nsvia": "Caruara", "address": "Rua Tamoio, 0"}},
{"type": "Feature", "geometry": {"type": "Polygon", "coordinates": [[[-46.185302, -23.882145], [-46.18513, -23.882117], [-46.185089, -23.882122], [-46.185028, -23.882111], [-46.184662, -23.883814], [-46.184932, -23.883862], [-46.185302, -23.882145]]]}, "properties": {"nsvia": "Caruara", "address": "Rua Caramuru do Caruara, 0"}},
{"type": "Feature", "geometry": {"type": "Polygon", "coordinates": [[[-46.184911, -23.883969], [-46.18463, -23.885372], [-46.184871, -23.885562], [-46.185181, -23.884016], [-46.184911, -23.883969]]]}, "properties": {"nsvia": "Caruara", "address": "Rua Caramuru do Caruara, 0"}},
{"type": "Feature", "geometry": {"type": "Polygon", "coordinates": [[[-46.19623, -23.884395], [-46.195942, -23.884333], [-46.195674, -23.88563], [-46.195718, -23.885641], [-46.195778, -23.885643], [-46.195826, -23.885636], [-46.195912, -23.885616], [-46.195982, -23.885593], [-46.19623, -23.884395]]]}, "properties": {"nsvia": "Caruara", "address": "Rua Xavantes, 0"}},
{"type": "Feature", "geometry": {"type": "Polygon", "coordinates": [[[-46.189157, -23.882906], [-46.188974, -23.883817], [-46.189252, -23.883882], [-46.189445, -23.882966], [-46.189157, -23.882906]]]}, "properties": {"nsvia": "Caruara", "address": "Rua Xavantes, 0"}},
{"type": "Feature", "geometry": {"type": "Polygon", "coordinates": [[[-46.194128, -23.881967], [-46.193819, -23.881993], [-46.193518, -23.883171], [-46.193805, -23.883233], [-46.194128, -23.88197], [-46.194128, -23.881967]]]}, "properties": {"nsvia": "Caruara", "address": "Rua Tapuia, 0"}},
{"type": "Feature", "geometry": {"type": "Polygon", "coordinates": [[[-46.227108, -23.888841], [-46.227033, -23.889056], [-46.228433, -23.889448], [-46.22847, -23.889224], [-46.227108, -23.888841]]]}, "properties": {"nsvia": "Caetê", "address": "Rua Caminho 7 (Caete), 0"}},
{"type": "Feature", "geometry": {"type": "Polygon", "coordinates": [[[-46.22432, -23.885548], [-46.224384, -23.885813], [-46.225341, -23.885612], [-46.225278, -23.885347], [-46.22432, -23.885548]]]}, "properties": {"nsvia": "Caetê", "address": "Rua Caminho 6 (Caete), 0"}},
{"type": "Feature", "geometry": {"type": "Polygon", "coordinates": [[[-46.223466, -23.892311], [-46.223934, -23.892362], [-46.224025, -23.891826], [-46.223372, -23.891749], [-46.223466, -23.892311]]]}, "properties": {"nsvia": "Caetê", "address": "Rua Caminho 6 (Caete), 0"}},
{"type": "Feature", "geometry": {"type": "Polygon", "coordinates": [[[-46.190575, -23.884823], [-46.189119, -23.884123], [-46.188985, -23.884365], [-46.190439, -23.885064], [-46.190575, -23.884823]]]}, "properties": {"nsvia": "Caruara", "address": "Rua Andrade Soares, 0"}},
{"type": "Feature", "geometry": {"type": "Polygon", "coordinates": [[[-46.189951, -23.886184], [-46.191343, -23.886841], [-46.191485, -23.886586], [-46.190069, -23.885933], [-46.189951, -23.886184]]]}, "properties": {"nsvia": "Caruara", "address": "Rua Andrade Soares, 0"}},
{"type": "Feature", "geometry": {"type": "Polygon", "coordinates": [[[-46.186801, -23.884302], [-46.186344, -23.886585], [-46.186559, -23.88687], [-46.18666, -23.886375], [-46.187071, -23.88435], [-46.186801, -23.884302]]]}, "properties": {"nsvia": "Caruara", "address": "Rua Caramuru do Caruara, 0"}},
{"type": "Feature", "geometry": {"type": "Polygon", "coordinates": [[[-46.194522, -23.884028], [-46.194144, -23.885782], [-46.194456, -23.885718], [-46.194794, -23.884085], [-46.194522, -23.884028]]]}, "properties": {"nsvia": "Caruara", "address": "Rua Xavantes, 0"}},
{"type": "Feature", "geometry": {"type": "Polygon", "coordinates": [[[-46.189445, -23.882966], [-46.189252, -23.883882], [-46.189523, -23.884012], [-46.189756, -23.883029], [-46.189445, -23.882966]]]}, "properties": {"nsvia": "Caruara", "address": "Rua Xavantes, 0"}},
{"type": "Feature", "geometry": {"type": "Polygon", "coordinates": [[[-46.193508, -23.882027], [-46.193231, -23.883109], [-46.193518, -23.883171], [-46.193819, -23.881993], [-46.193508, -23.882027]]]}, "properties": {"nsvia": "Caruara", "address": "Rua Tapuia, 0"}},
{"type": "Feature", "geometry": {"type": "Polygon", "coordinates": [[[-46.226651, -23.892369], [-46.226603, -23.892636], [-46.227592, -23.892787], [-46.227648, -23.892516], [-46.226651, -23.892369]]]}, "properties": {"nsvia": "Caetê", "address": "Rua Caminho 2 (Caete), 0"}},
{"type": "Feature", "geometry": {"type": "Polygon", "coordinates": [[[-46.22859, -23.886488], [-46.228603, -23.886236], [-46.227403, -23.88589], [-46.227414, -23.886142], [-46.22859, -23.886488]]]}, "properties": {"nsvia": "Caetê", "address": "Rua Caminho 7 (Caete), 0"}},
{"type": "Feature", "geometry": {"type": "Polygon", "coordinates": [[[-46.226266, -23.88644], [-46.226306, -23.88669], [-46.227366, -23.886653], [-46.227336, -23.886402], [-46.226266, -23.88644]]]}, "properties": {"nsvia": "Caetê", "address": "Rua Caminho 7 (Caete), 0"}},
{"type": "Feature", "geometry": {"type": "Polygon", "coordinates": [[[-46.225932, -23.888398], [-46.227033, -23.88873], [-46.227123, -23.888472], [-46.226058, -23.888153], [-46.225932, -23.888398]]]}, "properties": {"nsvia": "Caetê", "address": "Rua Caminho 7 (Caete), 0"}},
{"type": "Feature", "geometry": {"type": "Polygon", "coordinates": [[[-46.224795, -23.889502], [-46.224793, -23.889508], [-46.224793, -23.889511], [-46.224792, -23.889514], [-46.224792, -23.889517], [-46.224793, -23.889519], [-46.224793, -23.889522], [-46.224795, -23.889525], [-46.224796, -23.889528], [-46.224798, -23.88953], [-46.2248, -23.889533], [-46.224804, -23.889537], [-46.224816, -23.889541], [-46.225405, -23.889644], [-46.225564, -23.889212], [-46.225091, -23.888972], [-46.224795, -23.889502]]]}, "properties": {"nsvia": "Caetê", "address": "Rua Caminho 6 (Caete), 0"}},
{"type": "Feature", "geometry": {"type": "Polygon", "coordinates": [[[-46.19194, -23.886348], [-46.191684, -23.886226], [-46.191485, -23.886586], [-46.191343, -23.886841], [-46.191206, -23.887089], [-46.191029, -23.887409], [-46.190953, -23.887681], [-46.191198, -23.887728], [-46.19194, -23.886348]]]}, "properties": {"nsvia": "Caruara", "address": "Rua Caramuru do Caruara, 6"}},
{"type": "Feature", "geometry": {"type": "Polygon", "coordinates": [[[-46.195654, -23.884272], [-46.195368, -23.884211], [-46.195033, -23.885827], [-46.195103, -23.885777], [-46.195192, -23.885678], [-46.195229, -23.885621], [-46.195253, -23.885596], [-46.195308, -23.885532], [-46.195365, -23.885436], [-46.195387, -23.885406], [-46.195414, -23.885384], [-46.195425, -23.885382], [-46.195654, -23.884272]]]}, "properties": {"nsvia": "Caruara", "address": "Rua Xavantes, 0"}},
{"type": "Feature", "geometry": {"type": "Polygon", "coordinates": [[[-46.227435, -23.896378], [-46.228258, -23.896692], [-46.228434, -23.896226], [-46.227543, -23.896145], [-46.227435, -23.896378]]]}, "properties": {"nsvia": "Caetê", "address": "Rua Caminho 1 (Caete), 0"}},
{"type": "Feature", "geometry": {"type": "Polygon", "coordinates": [[[-46.226306, -23.88669], [-46.226301, -23.886754], [-46.226326, -23.886961], [-46.227357, -23.886924], [-46.227366, -23.886653], [-46.226306, -23.88669]]]}, "properties": {"nsvia": "Caetê", "address": "Rua Caminho 7 (Caete), 0"}},
{"type": "Feature", "geometry": {"type": "Polygon", "coordinates": [[[-46.225822, -23.88865], [-46.226952, -23.88899], [-46.227033, -23.88873], [-46.225932, -23.888398], [-46.225822, -23.88865]]]}, "properties": {"nsvia": "Caetê", "address": "Rua Caminho 7 (Caete), 0"}},
{"type": "Feature", "geometry": {"type": "Polygon", "coordinates": [[[-46.224448, -23.886077], [-46.224511, -23.886342], [-46.225469, -23.886141], [-46.225401, -23.885877], [-46.224448, -23.886077]]]}, "properties": {"nsvia": "Caetê", "address": "Rua Caminho 6 (Caete), 0"}},
{"type": "Feature", "geometry": {"type": "Polygon", "coordinates": [[[-46.223372, -23.891749], [-46.224025, -23.891826], [-46.224091, -23.891434], [-46.223304, -23.891338], [-46.223372, -23.891749]]]}, "properties": {"nsvia": "Caetê", "address": "Rua Caminho 6 (Caete), 0"}},
{"type": "Feature", "geometry": {"type": "Polygon", "coordinates": [[[-46.223958, -23.892841], [-46.224337, -23.89289], [-46.224419, -23.892729], [-46.223981, -23.892671], [-46.223958, -23.892841]]]}, "properties": {"nsvia": "Caetê", "address": "Rua Caminho 6 (Caete), 914"}},
{"type": "Feature", "geometry": {"type": "Polygon", "coordinates": [[[-46.189335, -23.88779], [-46.190845, -23.888122], [-46.190899, -23.887901], [-46.189389, -23.88757], [-46.189335, -23.88779]]]}, "properties": {"nsvia": "Caruara", "address": "Rua Andrade Soares, 0"}},
{"type": "Feature", "geometry": {"type": "Polygon", "coordinates": [[[-46.189183, -23.887989], [-46.187782, -23.887646], [-46.187738, -23.887869], [-46.189134, -23.888196], [-46.189183, -23.887989]]]}, "properties": {"nsvia": "Caruara", "address": "Rua Andrade Soares, 0"}},
{"type": "Feature", "geometry": {"type": "Polygon", "coordinates": [[[-46.197472, -23.88191], [-46.19696, -23.883914], [-46.197247, -23.883976], [-46.19777, -23.881928], [-46.197472, -23.88191]]]}, "properties": {"nsvia": "Caruara", "address": "Rua Tapuia, 0"}},
{"type": "Feature", "geometry": {"type": "Polygon", "coordinates": [[[-46.197176, -23.881883], [-46.196673, -23.883852], [-46.19696, -23.883914], [-46.197472, -23.88191], [-46.197176, -23.881883]]]}, "properties": {"nsvia": "Caruara", "address": "Rua Tapuia, 0"}},
{"type": "Feature", "geometry": {"type": "Polygon", "coordinates": [[[-46.196883, -23.881847], [-46.196379, -23.883789], [-46.196376, -23.8838], [-46.196673, -23.883852], [-46.197176, -23.881883], [-46.196883, -23.881847]]]}, "properties": {"nsvia": "Caruara", "address": "Rua Tapuia, 0"}},
{"type": "Feature", "geometry": {"type": "Polygon", "coordinates": [[[-46.193198, -23.882053], [-46.192945, -23.883047], [-46.193231, -23.883109], [-46.193508, -23.882027], [-46.193198, -23.882053]]]}, "properties": {"nsvia": "Caruara", "address": "Rua Tapuia, 0"}},
{"type": "Feature", "geometry": {"type": "Polygon", "coordinates": [[[-46.192887, -23.882088], [-46.192658, -23.882985], [-46.192945, -23.883047], [-46.193198, -23.882053], [-46.192887, -23.882088]]]}, "properties": {"nsvia": "Caruara", "address": "Rua Tapuia, 0"}},
{"type": "Feature", "geometry": {"type": "Polygon", "coordinates": [[[-46.192578, -23.882114], [-46.192371, -23.882923], [-46.192658, -23.882985], [-46.192887, -23.882088], [-46.192578, -23.882114]]]}, "properties": {"nsvia": "Caruara", "address": "Rua Tapuia, 0"}},
{"type": "Feature", "geometry": {"type": "Polygon", "coordinates": [[[-46.226834, -23.891344], [-46.226794, -23.891567], [-46.227881, -23.891721], [-46.227989, -23.891508], [-46.226834, -23.891344]]]}, "properties": {"nsvia": "Caetê", "address": "Rua Caminho 2 (Caete), 0"}},
{"type": "Feature", "geometry": {"type": "Polygon", "coordinates": [[[-46.226326, -23.886961], [-46.226375, -23.887228], [-46.227376, -23.887194], [-46.227357, -23.886924], [-46.226326, -23.886961]]]}, "properties": {"nsvia": "Caetê", "address": "Rua Caminho 7 (Caete), 0"}},
{"type": "Feature", "geometry": {"type": "Polygon", "coordinates": [[[-46.225054, -23.89052], [-46.226175, -23.89069], [-46.226223, -23.890422], [-46.225131, -23.890253], [-46.225054, -23.89052]]]}, "properties": {"nsvia": "Caetê", "address": "Rua Caminho 3 (Caete), 0"}},
{"type": "Feature", "geometry": {"type": "Polygon", "coordinates": [[[-46.22476, -23.892168], [-46.224642, -23.892427], [-46.225833, -23.892596], [-46.225876, -23.892328], [-46.22476, -23.892168]]]}, "properties": {"nsvia": "Caetê", "address": "Rua Caminho 3 (Caete), 0"}},
{"type": "Feature", "geometry": {"type": "Polygon", "coordinates": [[[-46.22393, -23.89302], [-46.223878, -23.893416], [-46.223847, -23.89365], [-46.223859, -23.893959], [-46.22386, -23.893962], [-46.22386, -23.893965], [-46.223861, -23.893968], [-46.223863, -23.89397], [-46.223864, -23.893973], [-46.223866, -23.893975], [-46.223868, -23.893978], [-46.223871, -23.89398], [-46.223873, -23.893981], [-46.223876, -23.893983], [-46.223882, -23.893985], [-46.223895, -23.893985], [-46.223901, -23.893983], [-46.223904, -23.893981], [-46.223907, -23.89398], [-46.224267, -23.893725], [-46.224221, -23.893566], [-46.224236, -23.893061], [-46.22393, -23.89302]]]}, "properties": {"nsvia": "Caetê", "address": "Rua Caminho 6 (Caete), 0"}},
{"type": "Feature", "geometry": {"type": "Polygon", "coordinates": [[[-46.224032, -23.892304], [-46.224628, -23.892375], [-46.224724, -23.892162], [-46.22407, -23.89208], [-46.224032, -23.892304]]]}, "properties": {"nsvia": "Caetê", "address": "Rua Caminho 6 (Caete), 0"}},
{"type": "Feature", "geometry": {"type": "Polygon", "coordinates": [[[-46.18698, -23.883412], [-46.186823, -23.884196], [-46.187093, -23.884243], [-46.187249, -23.883465], [-46.18698, -23.883412]]]}, "properties": {"nsvia": "Caruara", "address": "Rua Caramuru do Caruara, 0"}},
{"type": "Feature", "geometry": {"type": "Polygon", "coordinates": [[[-46.192746, -23.885254], [-46.192853, -23.885304], [-46.193025, -23.885386], [-46.193355, -23.883783], [-46.193063, -23.883726], [-46.192746, -23.885254]]]}, "properties": {"nsvia": "Caruara", "address": "Rua Xavantes, 0"}},
{"type": "Feature", "geometry": {"type": "Polygon", "coordinates": [[[-46.193299, -23.885515], [-46.193328, -23.885529], [-46.193569, -23.885643], [-46.193932, -23.883902], [-46.193647, -23.883841], [-46.193299, -23.885515]]]}, "properties": {"nsvia": "Caruara", "address": "Rua Xavantes, 0"}},
{"type": "Feature", "geometry": {"type": "Polygon", "coordinates": [[[-46.312975, -23.88071], [-46.310347, -23.884431], [-46.310384, -23.884434], [-46.310484, -23.88446], [-46.310643, -23.884534], [-46.310711, -23.884581], [-46.310821, -23.884608], [-46.311425, -23.885154], [-46.311468, -23.885172], [-46.311598, -23.885182], [-46.311827, -23.885168], [-46.312436, -23.885155], [-46.312673, -23.885184], [-46.313088, -23.885204], [-46.313389, -23.885185], [-46.313595, -23.885065], [-46.313979, -23.884843], [-46.314154, -23.88474], [-46.314438, -23.884571], [-46.314701, -23.884415], [-46.315005, -23.884238], [-46.315135, -23.884159], [-46.315092, -23.884007], [-46.315075, -23.88383], [-46.31509, -23.883665], [-46.31512, -23.883542], [-46.315191, -23.883376], [-46.31547, -23.882937], [-46.315727, -23.88254], [-46.316122, -23.881929], [-46.316139, -23.881859], [-46.316132, -23.881819], [-46.316115, -23.881784], [-46.316058, -23.88173], [-46.315927, -23.881765], [-46.315865, -23.881775], [-46.315784, -23.881775], [-46.315689, -23.881755], [-46.315604, -23.881718], [-46.31554, -23.881672], [-46.315408, -23.88152], [-46.315328, -23.881473], [-46.313426, -23.880792], [-46.313001, -23.880672], [-46.312975, -23.88071]]]}, "properties": {"nsvia": "Quilombo", "address": "Rodovia Cônego Domênico Rangoni, 0"}},
{"type": "Feature", "geometry": {"type": "Polygon", "coordinates": [[[-46.227294, -23.897042], [-46.227982, -23.89731], [-46.22812, -23.897001], [-46.227305, -23.89669], [-46.227294, -23.897042]]]}, "properties": {"nsvia": "Caetê", "address": "Rua Caminho 1 (Caete), 0"}},
{"type": "Feature", "geometry": {"type": "Polygon", "coordinates": [[[-46.228346, -23.894365], [-46.2284, -23.894814], [-46.229015, -23.894654], [-46.229053, -23.894094], [-46.228346, -23.894365]]]}, "properties": {"nsvia": "Caetê", "address": "Rua Caminho 1 (Caete), 0"}},
{"type": "Feature", "geometry": {"type": "Polygon", "coordinates": [[[-46.227488, -23.88715], [-46.227503, -23.887403], [-46.228555, -23.887735], [-46.228528, -23.88748], [-46.227488, -23.88715]]]}, "properties": {"nsvia": "Caetê", "address": "Rua Caminho 7 (Caete), 0"}},
{"type": "Feature", "geometry": {"type": "Polygon", "coordinates": [[[-46.227424, -23.885551], [-46.227421, -23.88555], [-46.227419, -23.885549], [-46.227413, -23.885549], [-46.22741, -23.88555], [-46.227407, -23.88555], [-46.227401, -23.885552], [-46.227399, -23.885554], [-46.227396, -23.885556], [-46.227394, -23.885557], [-46.227392, -23.88556], [-46.22739, -23.885562], [-46.227389, -23.885564], [-46.227388, -23.885567], [-46.227387, -23.885569], [-46.227386, -23.885572], [-46.227386, -23.885578], [-46.227403, -23.88589], [-46.228603, -23.886236], [-46.228593, -23.885883], [-46.227424, -23.885551]]]}, "properties": {"nsvia": "Caetê", "address": "Rua Caminho 7 (Caete), 0"}},
{"type": "Feature", "geometry": {"type": "Polygon", "coordinates": [[[-46.226319, -23.889886], [-46.225371, -23.889734], [-46.225247, -23.889994], [-46.226271, -23.890154], [-46.226319, -23.889886]]]}, "properties": {"nsvia": "Caetê", "address": "Rua Caminho 3 (Caete), 0"}},
{"type": "Feature", "geometry": {"type": "Polygon", "coordinates": [[[-46.187694, -23.888092], [-46.18765, -23.888314], [-46.189029, -23.888653], [-46.18908, -23.888431], [-46.187694, -23.888092]]]}, "properties": {"nsvia": "Caruara", "address": "Rua Andrade Soares, 0"}},
{"type": "Feature", "geometry": {"type": "Polygon", "coordinates": [[[-46.18698, -23.883412], [-46.18716, -23.882512], [-46.18692, -23.882464], [-46.186553, -23.884148], [-46.186823, -23.884196], [-46.18698, -23.883412]]]}, "properties": {"nsvia": "Caruara", "address": "Rua Caramuru do Caruara, 0"}},
{"type": "Feature", "geometry": {"type": "Polygon", "coordinates": [[[-46.196587, -23.88182], [-46.1961, -23.883728], [-46.196379, -23.883789], [-46.196883, -23.881847], [-46.196587, -23.88182]]]}, "properties": {"nsvia": "Caruara", "address": "Rua Tapuia, 0"}},
{"type": "Feature", "geometry": {"type": "Polygon", "coordinates": [[[-46.365163, -23.857797], [-46.364033, -23.858798], [-46.363971, -23.858798], [-46.363525, -23.859698], [-46.363034, -23.864295], [-46.363967, -23.866325], [-46.364443, -23.869392], [-46.368219, -23.869716], [-46.368713, -23.869761], [-46.36926, -23.869795], [-46.369647, -23.868504], [-46.370287, -23.86827], [-46.371015, -23.868511], [-46.372052, -23.868578], [-46.372527, -23.870044], [-46.373228, -23.870092], [-46.374017, -23.870295], [-46.373733, -23.870793], [-46.377301, -23.871237], [-46.37742, -23.868721], [-46.376811, -23.867983], [-46.371817, -23.866008], [-46.370172, -23.865203], [-46.366488, -23.857728], [-46.365163, -23.857797]]]}, "properties": {"info": {"is_agg": true, "properties_agg": [{"via": "Rodovia Cônego Domênico Rangoni", "hnum": 0, "nsvia": "Piaçaguera", "feature_id": 38798}], "geom_cmp_equals": [true], "geom_cmp_intersec": [1]}, "error": 100, "nsvia": "Piaçaguera", "address": "Rodovia Cônego Domênico Rangoni, 0"}},
{"type": "Feature", "geometry": {"type": "Polygon", "coordinates": [[[-46.225059, -23.893302], [-46.224369, -23.893766], [-46.22439, -23.893874], [-46.224464, -23.89387], [-46.224748, -23.893798], [-46.225252, -23.893574], [-46.225059, -23.893302]]]}, "properties": {"nsvia": "Caetê", "address": "Rua Caminho 1 (Caete), 0"}},
{"type": "Feature", "geometry": {"type": "Polygon", "coordinates": [[[-46.228372, -23.896652], [-46.229597, -23.896493], [-46.229786, -23.896099], [-46.228446, -23.896485], [-46.228372, -23.896652]]]}, "properties": {"nsvia": "Caetê", "address": "Rua Caminho 1 (Caete), 0"}},
{"type": "Feature", "geometry": {"type": "Polygon", "coordinates": [[[-46.227314, -23.885896], [-46.227307, -23.885702], [-46.226084, -23.885526], [-46.226146, -23.885941], [-46.227314, -23.885896]]]}, "properties": {"nsvia": "Caetê", "address": "Rua Caminho 7 (Caete), 0"}},
{"type": "Feature", "geometry": {"type": "Polygon", "coordinates": [[[-46.224624, -23.887666], [-46.224487, -23.887906], [-46.225354, -23.88833], [-46.225491, -23.88809], [-46.224624, -23.887666]]]}, "properties": {"nsvia": "Caetê", "address": "Rua Caminho 6 (Caete), 0"}},
{"type": "Feature", "geometry": {"type": "Polygon", "coordinates": [[[-46.191561, -23.889212], [-46.192863, -23.88947], [-46.192315, -23.889194], [-46.192111, -23.888943], [-46.192036, -23.888698], [-46.192013, -23.888401], [-46.192077, -23.888152], [-46.192234, -23.887927], [-46.192046, -23.88789], [-46.191894, -23.887858], [-46.191561, -23.889212]]]}, "properties": {"nsvia": "Caruara", "address": "Rua Tamoio, 0"}},
{"type": "Feature", "geometry": {"type": "Polygon", "coordinates": [[[-46.191671, -23.883421], [-46.191421, -23.884627], [-46.191685, -23.884752], [-46.191947, -23.883485], [-46.191671, -23.883421]]]}, "properties": {"nsvia": "Caruara", "address": "Rua Xavantes, 0"}},
{"type": "Feature", "geometry": {"type": "Polygon", "coordinates": [[[-46.191685, -23.884752], [-46.191949, -23.884877], [-46.192211, -23.883547], [-46.191947, -23.883485], [-46.191685, -23.884752]]]}, "properties": {"nsvia": "Caruara", "address": "Rua Xavantes, 0"}},
{"type": "Feature", "geometry": {"type": "Polygon", "coordinates": [[[-46.225833, -23.892596], [-46.224642, -23.892427], [-46.224519, -23.892682], [-46.225597, -23.892836], [-46.22578, -23.892723], [-46.225794, -23.892709], [-46.225805, -23.892693], [-46.225814, -23.892677], [-46.225821, -23.892659], [-46.225825, -23.892641], [-46.225833, -23.892596]]]}, "properties": {"nsvia": "Caetê", "address": "Rua Caminho 1 (Caete), 0"}},
{"type": "Feature", "geometry": {"type": "Polygon", "coordinates": [[[-46.227488, -23.88715], [-46.228528, -23.88748], [-46.22859, -23.887238], [-46.227485, -23.886897], [-46.227488, -23.88715]]]}, "properties": {"nsvia": "Caetê", "address": "Rua Caminho 7 (Caete), 0"}},
{"type": "Feature", "geometry": {"type": "Polygon", "coordinates": [[[-46.227441, -23.886394], [-46.227474, -23.886645], [-46.22859, -23.886993], [-46.228578, -23.886741], [-46.227441, -23.886394]]]}, "properties": {"nsvia": "Caetê", "address": "Rua Caminho 7 (Caete), 0"}},
{"type": "Feature", "geometry": {"type": "Polygon", "coordinates": [[[-46.225131, -23.890253], [-46.226223, -23.890422], [-46.226271, -23.890154], [-46.225247, -23.889994], [-46.225131, -23.890253]]]}, "properties": {"nsvia": "Caetê", "address": "Rua Caminho 3 (Caete), 0"}},
{"type": "Feature", "geometry": {"type": "Polygon", "coordinates": [[[-46.193025, -23.885386], [-46.19308, -23.885412], [-46.193299, -23.885515], [-46.193647, -23.883841], [-46.193355, -23.883783], [-46.193025, -23.885386]]]}, "properties": {"nsvia": "Caruara", "address": "Rua Xavantes, 0"}},
{"type": "Feature", "geometry": {"type": "Polygon", "coordinates": [[[-46.195056, -23.881889], [-46.194666, -23.883418], [-46.194952, -23.88348], [-46.195368, -23.881854], [-46.195056, -23.881889]]]}, "properties": {"nsvia": "Caruara", "address": "Rua Tapuia, 0"}},
{"type": "Feature", "geometry": {"type": "Polygon", "coordinates": [[[-46.227536, -23.892066], [-46.227666, -23.891967], [-46.226746, -23.891834], [-46.226699, -23.892102], [-46.227583, -23.892223], [-46.227536, -23.892066]]]}, "properties": {"nsvia": "Caetê", "address": "Rua Caminho 2 (Caete), 0"}},
{"type": "Feature", "geometry": {"type": "Polygon", "coordinates": [[[-46.226993, -23.890453], [-46.226953, -23.890676], [-46.228196, -23.890851], [-46.228238, -23.890629], [-46.226993, -23.890453]]]}, "properties": {"nsvia": "Caetê", "address": "Rua Caminho 2 (Caete), 0"}},
{"type": "Feature", "geometry": {"type": "Polygon", "coordinates": [[[-46.225008, -23.890787], [-46.226127, -23.890957], [-46.226175, -23.89069], [-46.225054, -23.89052], [-46.225008, -23.890787]]]}, "properties": {"nsvia": "Caetê", "address": "Rua Caminho 3 (Caete), 0"}},
{"type": "Feature", "geometry": {"type": "Polygon", "coordinates": [[[-46.189614, -23.886904], [-46.191029, -23.887409], [-46.191206, -23.887089], [-46.189837, -23.886429], [-46.189614, -23.886904]]]}, "properties": {"nsvia": "Caruara", "address": "Rua Andrade Soares, 0"}},
{"type": "Feature", "geometry": {"type": "Polygon", "coordinates": [[[-46.189837, -23.886429], [-46.191206, -23.887089], [-46.191343, -23.886841], [-46.189951, -23.886184], [-46.189837, -23.886429]]]}, "properties": {"nsvia": "Caruara", "address": "Rua Andrade Soares, 0"}},
{"type": "Feature", "geometry": {"type": "Polygon", "coordinates": [[[-46.188446, -23.885483], [-46.1883, -23.885767], [-46.189742, -23.886385], [-46.18986, -23.886139], [-46.188446, -23.885483]]]}, "properties": {"nsvia": "Caruara", "address": "Rua Andrade Soares, 0"}},
{"type": "Feature", "geometry": {"type": "Polygon", "coordinates": [[[-46.18692, -23.882464], [-46.186651, -23.882411], [-46.186283, -23.8841], [-46.186553, -23.884148], [-46.18692, -23.882464]]]}, "properties": {"nsvia": "Caruara", "address": "Rua Caramuru do Caruara, 0"}},
{"type": "Feature", "geometry": {"type": "Polygon", "coordinates": [[[-46.195368, -23.884211], [-46.195082, -23.884145], [-46.194743, -23.885778], [-46.194899, -23.885829], [-46.194964, -23.885837], [-46.195004, -23.885833], [-46.195033, -23.885827], [-46.195368, -23.884211]]]}, "properties": {"nsvia": "Caruara", "address": "Rua Xavantes, 0"}},
{"type": "Feature", "geometry": {"type": "Polygon", "coordinates": [[[-46.196885, -23.885546], [-46.196932, -23.885498], [-46.196915, -23.885429], [-46.196907, -23.885369], [-46.196897, -23.885252], [-46.196917, -23.885176], [-46.196963, -23.8851], [-46.197029, -23.885055], [-46.197114, -23.884981], [-46.197196, -23.884908], [-46.197283, -23.884823], [-46.197497, -23.88465], [-46.196805, -23.884513], [-46.19659, -23.885551], [-46.196885, -23.885546]]]}, "properties": {"nsvia": "Caruara", "address": "Rua Xavantes, 0"}},
{"type": "Feature", "geometry": {"type": "Polygon", "coordinates": [[[-46.188236, -23.882724], [-46.188056, -23.883625], [-46.188363, -23.883685], [-46.188543, -23.882785], [-46.188236, -23.882724]]]}, "properties": {"nsvia": "Caruara", "address": "Rua Xavantes, 0"}},
{"type": "Feature", "geometry": {"type": "Polygon", "coordinates": [[[-46.226032, -23.891986], [-46.225914, -23.892609], [-46.225913, -23.892614], [-46.225913, -23.892619], [-46.225915, -23.892629], [-46.225917, -23.892634], [-46.225919, -23.892638], [-46.225922, -23.892643], [-46.225929, -23.89265], [-46.225934, -23.892653], [-46.225938, -23.892656], [-46.225943, -23.892658], [-46.225949, -23.89266], [-46.225954, -23.892661], [-46.226445, -23.89274], [-46.22645, -23.892741], [-46.226455, -23.892741], [-46.22647, -23.892738], [-46.22648, -23.892734], [-46.226488, -23.892728], [-46.226491, -23.892724], [-46.226494, -23.892721], [-46.226497, -23.892717], [-46.226499, -23.892712], [-46.226501, -23.892708], [-46.226502, -23.892703], [-46.226613, -23.89208], [-46.226032, -23.891986]]]}, "properties": {"nsvia": "Caetê", "address": "Rua Caminho 1 (Caete), 0"}},
{"type": "Feature", "geometry": {"type": "Polygon", "coordinates": [[[-46.227336, -23.886402], [-46.227324, -23.886149], [-46.226225, -23.886188], [-46.226266, -23.886439], [-46.227336, -23.886402]]]}, "properties": {"nsvia": "Caetê", "address": "Rua Caminho 7 (Caete), 0"}},
{"type": "Feature", "geometry": {"type": "Polygon", "coordinates": [[[-46.192172, -23.886458], [-46.191492, -23.887782], [-46.191567, -23.887796], [-46.191769, -23.887834], [-46.192417, -23.886574], [-46.192172, -23.886458]]]}, "properties": {"nsvia": "Caruara", "address": "Rua Caramuru do Caruara, 0"}},
{"type": "Feature", "geometry": {"type": "Polygon", "coordinates": [[[-46.195368, -23.881854], [-46.194952, -23.88348], [-46.195239, -23.883542], [-46.195677, -23.881828], [-46.195368, -23.881854]]]}, "properties": {"nsvia": "Caruara", "address": "Rua Tapuia, 0"}},
{"type": "Feature", "geometry": {"type": "Polygon", "coordinates": [[[-46.227763, -23.895011], [-46.22779, -23.895036], [-46.227813, -23.895063], [-46.227833, -23.895092], [-46.227849, -23.895123], [-46.227861, -23.895156], [-46.227869, -23.89519], [-46.227873, -23.895224], [-46.227873, -23.895258], [-46.227869, -23.895293], [-46.227861, -23.895326], [-46.227848, -23.895359], [-46.227832, -23.89539], [-46.227812, -23.895419], [-46.228395, -23.895357], [-46.228326, -23.89491], [-46.227729, -23.894993], [-46.227763, -23.895011]]]}, "properties": {"nsvia": "Caetê", "address": "Rua Caminho 1 (Caete), 0"}},
{"type": "Feature", "geometry": {"type": "Polygon", "coordinates": [[[-46.22826, -23.896903], [-46.229319, -23.896842], [-46.229597, -23.896493], [-46.228372, -23.896652], [-46.22826, -23.896903]]]}, "properties": {"nsvia": "Caetê", "address": "Rua Caminho 1 (Caete), 0"}},
{"type": "Feature", "geometry": {"type": "Polygon", "coordinates": [[[-46.226699, -23.892102], [-46.226651, -23.892369], [-46.227648, -23.892516], [-46.227583, -23.892223], [-46.226699, -23.892102]]]}, "properties": {"nsvia": "Caetê", "address": "Rua Caminho 2 (Caete), 0"}},
{"type": "Feature", "geometry": {"type": "Polygon", "coordinates": [[[-46.189134, -23.888196], [-46.187738, -23.887869], [-46.187694, -23.888092], [-46.18908, -23.888431], [-46.189134, -23.888196]]]}, "properties": {"nsvia": "Caruara", "address": "Rua Andrade Soares, 0"}},
{"type": "Feature", "geometry": {"type": "Polygon", "coordinates": [[[-46.195942, -23.884333], [-46.195654, -23.884272], [-46.195425, -23.885382], [-46.195448, -23.885393], [-46.195471, -23.885418], [-46.195549, -23.885539], [-46.195569, -23.88556], [-46.195596, -23.885585], [-46.195633, -23.885611], [-46.195674, -23.88563], [-46.195942, -23.884333]]]}, "properties": {"nsvia": "Caruara", "address": "Rua Xavantes, 0"}},
{"type": "Feature", "geometry": {"type": "Polygon", "coordinates": [[[-46.30768, -23.887299], [-46.30659, -23.887933], [-46.307326, -23.888793], [-46.30831, -23.888205], [-46.30768, -23.887299]]]}, "properties": {"nsvia": "Piaçaguera", "address": "Rodovia Cônego Domênico Rangoni, 0"}},
{"type": "Feature", "geometry": {"type": "Polygon", "coordinates": [[[-46.224519, -23.892682], [-46.224371, -23.892943], [-46.225245, -23.893066], [-46.225597, -23.892836], [-46.224519, -23.892682]]]}, "properties": {"nsvia": "Caetê", "address": "Rua Caminho 1 (Caete), 0"}},
{"type": "Feature", "geometry": {"type": "Polygon", "coordinates": [[[-46.225739, -23.888862], [-46.225643, -23.889073], [-46.226805, -23.889421], [-46.226879, -23.889206], [-46.226877, -23.889206], [-46.225739, -23.888862]]]}, "properties": {"nsvia": "Caetê", "address": "Rua Caminho 7 (Caete), 0"}},
{"type": "Feature", "geometry": {"type": "Polygon", "coordinates": [[[-46.224256, -23.885284], [-46.22432, -23.885548], [-46.225278, -23.885347], [-46.22521, -23.885083], [-46.224256, -23.885284]]]}, "properties": {"nsvia": "Caetê", "address": "Rua Caminho 6 (Caete), 0"}},
{"type": "Feature", "geometry": {"type": "Polygon", "coordinates": [[[-46.223958, -23.892841], [-46.22393, -23.89302], [-46.224236, -23.893061], [-46.224337, -23.89289], [-46.223958, -23.892841]]]}, "properties": {"nsvia": "Caetê", "address": "Rua Caminho 6 (Caete), 932"}},
{"type": "Feature", "geometry": {"type": "Polygon", "coordinates": [[[-46.226201, -23.891326], [-46.226195, -23.891325], [-46.22619, -23.891325], [-46.226175, -23.891328], [-46.22617, -23.89133], [-46.226166, -23.891332], [-46.226158, -23.891338], [-46.226151, -23.891345], [-46.226148, -23.891349], [-46.226146, -23.891354], [-46.226145, -23.891358], [-46.226144, -23.891363], [-46.226032, -23.891986], [-46.226613, -23.89208], [-46.226724, -23.891455], [-46.226725, -23.89145], [-46.226725, -23.891445], [-46.226723, -23.891435], [-46.226721, -23.891431], [-46.226719, -23.891426], [-46.226716, -23.891422], [-46.226712, -23.891418], [-46.226709, -23.891414], [-46.226704, -23.891411], [-46.2267, -23.891409], [-46.226695, -23.891406], [-46.22669, -23.891405], [-46.226684, -23.891404], [-46.226201, -23.891326]]]}, "properties": {"nsvia": "Caetê", "address": "Rua Caminho 4 (Caete), 0"}},
{"type": "Feature", "geometry": {"type": "Polygon", "coordinates": [[[-46.191421, -23.884627], [-46.191671, -23.883421], [-46.191511, -23.883384], [-46.190936, -23.884397], [-46.191421, -23.884627]]]}, "properties": {"nsvia": "Caruara", "address": "Rua Xavantes, 0"}},
{"type": "Feature", "geometry": {"type": "Polygon", "coordinates": [[[-46.191949, -23.884877], [-46.192213, -23.885002], [-46.192502, -23.88361], [-46.192211, -23.883547], [-46.191949, -23.884877]]]}, "properties": {"nsvia": "Caruara", "address": "Rua Xavantes, 0"}},
{"type": "Feature", "geometry": {"type": "Polygon", "coordinates": [[[-46.225889, -23.892753], [-46.225874, -23.892758], [-46.225859, -23.892765], [-46.225845, -23.892773], [-46.225059, -23.893302], [-46.225252, -23.893574], [-46.225542, -23.893477], [-46.225763, -23.893482], [-46.225905, -23.89275], [-46.225889, -23.892753]]]}, "properties": {"nsvia": "Caetê", "address": "Rua Caminho 1 (Caete), 0"}},
{"type": "Feature", "geometry": {"type": "Polygon", "coordinates": [[[-46.227032, -23.89023], [-46.226993, -23.890453], [-46.228238, -23.890629], [-46.228284, -23.890407], [-46.227032, -23.89023]]]}, "properties": {"nsvia": "Caetê", "address": "Rua Caminho 2 (Caete), 0"}},
{"type": "Feature", "geometry": {"type": "Polygon", "coordinates": [[[-46.223981, -23.892671], [-46.224419, -23.892729], [-46.224464, -23.892614], [-46.223997, -23.892559], [-46.223981, -23.892671]]]}, "properties": {"nsvia": "Caetê", "address": "Rua Caminho 6 (Caete), 898"}},
{"type": "Feature", "geometry": {"type": "Polygon", "coordinates": [[[-46.19194, -23.886348], [-46.191198, -23.887728], [-46.191267, -23.887741], [-46.191492, -23.887782], [-46.192172, -23.886458], [-46.19194, -23.886348]]]}, "properties": {"nsvia": "Caruara", "address": "Rua Caramuru do Caruara, 0"}},
{"type": "Feature", "geometry": {"type": "Polygon", "coordinates": [[[-46.187698, -23.882618], [-46.187518, -23.883518], [-46.187787, -23.883571], [-46.187967, -23.882671], [-46.187698, -23.882618]]]}, "properties": {"nsvia": "Caruara", "address": "Rua Xavantes, 0"}},
{"type": "Feature", "geometry": {"type": "Polygon", "coordinates": [[[-46.227305, -23.89669], [-46.22812, -23.897001], [-46.228258, -23.896692], [-46.227435, -23.896378], [-46.227305, -23.89669]]]}, "properties": {"nsvia": "Caetê", "address": "Rua Caminho 1 (Caete), 0"}},
{"type": "Feature", "geometry": {"type": "Polygon", "coordinates": [[[-46.226052, -23.891371], [-46.226053, -23.891367], [-46.226053, -23.891357], [-46.226052, -23.891352], [-46.22605, -23.891348], [-46.226048, -23.891343], [-46.226042, -23.891335], [-46.226039, -23.891332], [-46.226031, -23.891326], [-46.226021, -23.891322], [-46.226017, -23.89132], [-46.226011, -23.891319], [-46.225996, -23.891319], [-46.225142, -23.891449], [-46.224918, -23.891458], [-46.224892, -23.891637], [-46.225974, -23.891794], [-46.226052, -23.891371]]]}, "properties": {"nsvia": "Caetê", "address": "Rua Caminho 3 (Caete), 0"}},
{"type": "Feature", "geometry": {"type": "Polygon", "coordinates": [[[-46.191245, -23.889137], [-46.191567, -23.887796], [-46.191492, -23.887782], [-46.191267, -23.887741], [-46.190938, -23.889075], [-46.191245, -23.889137]]]}, "properties": {"nsvia": "Caruara", "address": "Rua Tamoio, 0"}},
{"type": "Feature", "geometry": {"type": "Polygon", "coordinates": [[[-46.190737, -23.884749], [-46.192141, -23.885424], [-46.19221, -23.885304], [-46.190809, -23.884628], [-46.190737, -23.884749]]]}, "properties": {"nsvia": "Caruara", "address": "Rua Andrade Soares, 0"}},
{"type": "Feature", "geometry": {"type": "Polygon", "coordinates": [[[-46.185991, -23.884159], [-46.185708, -23.885571], [-46.185918, -23.885921], [-46.186261, -23.884207], [-46.185991, -23.884159]]]}, "properties": {"nsvia": "Caruara", "address": "Rua Caramuru do Caruara, 0"}},
{"type": "Feature", "geometry": {"type": "Polygon", "coordinates": [[[-46.192213, -23.885002], [-46.192346, -23.885065], [-46.192477, -23.885127], [-46.192786, -23.883666], [-46.192502, -23.88361], [-46.192213, -23.885002]]]}, "properties": {"nsvia": "Caruara", "address": "Rua Xavantes, 0"}},
{"type": "Feature", "geometry": {"type": "Polygon", "coordinates": [[[-46.228514, -23.896268], [-46.228446, -23.896485], [-46.229786, -23.896099], [-46.229767, -23.895793], [-46.228514, -23.896268]]]}, "properties": {"nsvia": "Caetê", "address": "Rua Caminho 1 (Caete), 0"}},
{"type": "Feature", "geometry": {"type": "Polygon", "coordinates": [[[-46.226327, -23.887497], [-46.227377, -23.887465], [-46.227376, -23.887194], [-46.226375, -23.887228], [-46.226327, -23.887497]]]}, "properties": {"nsvia": "Caetê", "address": "Rua Caminho 7 (Caete), 0"}},
{"type": "Feature", "geometry": {"type": "Polygon", "coordinates": [[[-46.224624, -23.887666], [-46.225491, -23.88809], [-46.225628, -23.88785], [-46.224761, -23.887426], [-46.224624, -23.887666]]]}, "properties": {"nsvia": "Caetê", "address": "Rua Caminho 6 (Caete), 0"}},
{"type": "Feature", "geometry": {"type": "Polygon", "coordinates": [[[-46.224214, -23.888386], [-46.225081, -23.88881], [-46.225218, -23.88857], [-46.22435, -23.888146], [-46.224214, -23.888386]]]}, "properties": {"nsvia": "Caetê", "address": "Rua Caminho 6 (Caete), 0"}},
{"type": "Feature", "geometry": {"type": "Polygon", "coordinates": [[[-46.224077, -23.888626], [-46.224944, -23.88905], [-46.225081, -23.88881], [-46.224214, -23.888386], [-46.224077, -23.888626]]]}, "properties": {"nsvia": "Caetê", "address": "Rua Caminho 6 (Caete), 0"}},
{"type": "Feature", "geometry": {"type": "Polygon", "coordinates": [[[-46.223927, -23.889322], [-46.223805, -23.889246], [-46.222994, -23.889602], [-46.223349, -23.889874], [-46.223422, -23.889899], [-46.223438, -23.889928], [-46.223693, -23.890079], [-46.223927, -23.889322]]]}, "properties": {"nsvia": "Caetê", "address": "Rua Caminho 5 (Caete), 0"}},
{"type": "Feature", "geometry": {"type": "Polygon", "coordinates": [[[-46.191561, -23.889212], [-46.191894, -23.887859], [-46.191769, -23.887834], [-46.191567, -23.887796], [-46.191245, -23.889137], [-46.191561, -23.889212]]]}, "properties": {"nsvia": "Caruara", "address": "Rua Tamoio, 0"}},
{"type": "Feature", "geometry": {"type": "Polygon", "coordinates": [[[-46.189486, -23.887176], [-46.189444, -23.88735], [-46.190953, -23.887681], [-46.191029, -23.887409], [-46.189614, -23.886904], [-46.189486, -23.887176]]]}, "properties": {"nsvia": "Caruara", "address": "Rua Andrade Soares, 0"}},
{"type": "Feature", "geometry": {"type": "Polygon", "coordinates": [[[-46.189354, -23.887246], [-46.189408, -23.887117], [-46.187963, -23.886733], [-46.187915, -23.886977], [-46.189334, -23.887325], [-46.189354, -23.887246]]]}, "properties": {"nsvia": "Caruara", "address": "Rua Andrade Soares, 0"}},
{"type": "Feature", "geometry": {"type": "Polygon", "coordinates": [[[-46.191975, -23.88626], [-46.192219, -23.886376], [-46.192853, -23.885304], [-46.192746, -23.885254], [-46.192591, -23.88518], [-46.191975, -23.88626]]]}, "properties": {"nsvia": "Caruara", "address": "Rua Caramuru do Caruara, 0"}},
{"type": "Feature", "geometry": {"type": "Polygon", "coordinates": [[[-46.182904, -23.883619], [-46.183407, -23.884494], [-46.183561, -23.88373], [-46.182904, -23.883619]]]}, "properties": {"nsvia": "Caruara", "address": "Rua Caramuru do Caruara, 0"}},
{"type": "Feature", "geometry": {"type": "Polygon", "coordinates": [[[-46.227594, -23.894622], [-46.22763, -23.894837], [-46.227729, -23.894993], [-46.228326, -23.89491], [-46.228268, -23.894461], [-46.227569, -23.894554], [-46.227594, -23.894622]]]}, "properties": {"nsvia": "Caetê", "address": "Rua Caminho 1 (Caete), 0"}},
{"type": "Feature", "geometry": {"type": "Polygon", "coordinates": [[[-46.22847, -23.895261], [-46.228549, -23.895774], [-46.229273, -23.895423], [-46.229108, -23.895344], [-46.229053, -23.895243], [-46.229065, -23.895104], [-46.22847, -23.895261]]]}, "properties": {"nsvia": "Caetê", "address": "Rua Caminho 1 (Caete), 0"}}]}
