{"type":"FeatureCollection","features":[{"type":"Feature","geometry":{"type":"Polygon","coordinates":[[[-38.63832,-3.80048],[-38.63826,-3.80044],[-38.63822,-3.80041],[-38.63815,-3.80036],[-38.63811,-3.80031],[-38.63788,-3.80007],[-38.63775,-3.79996],[-38.63761,-3.79988],[-38.63749,-3.79981],[-38.63739,-3.79959],[-38.6373,-3.79941],[-38.63717,-3.79926],[-38.63701,-3.79913],[-38.63673,-3.79896],[-38.63669,-3.79893],[-38.63661,-3.79889],[-38.63657,-3.79884],[-38.63655,-3.79882],[-38.63634,-3.79857],[-38.63618,-3.79842],[-38.636,-3.79831],[-38.63599,-3.79831],[-38.63594,-3.79823],[-38.63585,-3.79813],[-38.63583,-3.79808],[-38.63574,-3.7979],[-38.63562,-3.79775],[-38.63557,-3.7977],[-38.63562,-3.79767],[-38.63575,-3.79757],[-38.63586,-3.79744],[-38.6361,-3.79713],[-38.6362,-3.79697],[-38.63626,-3.79679],[-38.6363,-3.79661],[-38.63632,-3.79635],[-38.63631,-3.7961],[-38.63624,-3.79587],[-38.63621,-3.7958],[-38.63624,-3.79572],[-38.63626,-3.79567],[-38.63627,-3.79566],[-38.6364,-3.79553],[-38.6365,-3.79538],[-38.63658,-3.79522],[-38.63662,-3.79504],[-38.63666,-3.79481],[-38.63667,-3.79471],[-38.63667,-3.79464],[-38.63668,-3.79449],[-38.63667,-3.79434],[-38.63664,-3.79418],[-38.63642,-3.79338],[-38.63636,-3.7932],[-38.63627,-3.79304],[-38.63614,-3.79291],[-38.63602,-3.79281],[-38.63603,-3.79276],[-38.63605,-3.79255],[-38.63605,-3.79168],[-38.63603,-3.79147],[-38.63596,-3.79127],[-38.63585,-3.79104],[-38.63576,-3.79087],[-38.63563,-3.79073],[-38.63548,-3.79061],[-38.63531,-3.79052],[-38.63492,-3.79037],[-38.63454,-3.79001],[-38.63439,-3.7899],[-38.63427,-3.78984],[-38.63254,-3.78348],[-38.63247,-3.7833],[-38.63237,-3.78314],[-38.63225,-3.783],[-38.63209,-3.78289],[-38.63192,-3.7828],[-38.63174,-3.78276],[-38.63155,-3.78274],[-38.63136,-3.78277],[-38.63084,-3.78289],[-38.63081,-3.78289],[-38.63063,-3.78292],[-38.62918,-3.78331],[-38.62914,-3.78332],[-38.62867,-3.78346],[-38.62856,-3.78306],[-38.6285,-3.78283],[-38.62839,-3.78238],[-38.62833,-3.78219],[-38.62822,-3.78202],[-38.62809,-3.78187],[-38.62792,-3.78175],[-38.62774,-3.78167],[-38.62755,-3.78163],[-38.62735,-3.78162],[-38.62715,-3.78166],[-38.62668,-3.78179],[-38.62665,-3.78172],[-38.62659,-3.78147],[-38.62657,-3.78136],[-38.62657,-3.78131],[-38.62652,-3.78108],[-38.62645,-3.78087],[-38.6264,-3.78074],[-38.62639,-3.78072],[-38.62637,-3.78067],[-38.62636,-3.78065],[-38.62635,-3.78064],[-38.62631,-3.78052],[-38.6262,-3.78035],[-38.62607,-3.7802],[-38.6259,-3.78009],[-38.62572,-3.78001],[-38.62553,-3.77997],[-38.62533,-3.77996],[-38.62514,-3.78],[-38.6237,-3.7804],[-38.6237,-3.7804],[-38.6232,-3.78055],[-38.62307,-3.78009],[-38.62288,-3.77942],[-38.62268,-3.7787],[-38.62251,-3.77802],[-38.6225,-3.77797],[-38.62234,-3.77746],[-38.62234,-3.77746],[-38.6224,-3.77727],[-38.62243,-3.77708],[-38.62242,-3.77688],[-38.62237,-3.77669],[-38.62233,-3.77658],[-38.62228,-3.77649],[-38.62216,-3.77624],[-38.6219,-3.7757],[-38.62188,-3.77565],[-38.62124,-3.77447],[-38.62091,-3.77385],[-38.62079,-3.77361],[-38.62078,-3.77357],[-38.62019,-3.77245],[-38.62017,-3.77241],[-38.6201,-3.77228],[-38.61999,-3.77208],[-38.61979,-3.77169],[-38.61978,-3.77167],[-38.61958,-3.77132],[-38.61942,-3.77098],[-38.61941,-3.77096],[-38.61938,-3.7709],[-38.61926,-3.77066],[-38.61924,-3.77062],[-38.6192,-3.77055],[-38.61901,-3.7702],[-38.61893,-3.77005],[-38.61886,-3.76992],[-38.61874,-3.76976],[-38.61873,-3.76974],[-38.6187,-3.7697],[-38.61844,-3.76935],[-38.61843,-3.76935],[-38.61817,-3.76899],[-38.61816,-3.76898],[-38.61796,-3.76873],[-38.61797,-3.76864],[-38.61795,-3.76844],[-38.61788,-3.76824],[-38.61778,-3.76806],[-38.61775,-3.76802],[-38.6176,-3.76777],[-38.61746,-3.76748],[-38.61731,-3.76713],[-38.6173,-3.76711],[-38.61706,-3.76657],[-38.6168,-3.76598],[-38.6168,-3.76598],[-38.61645,-3.76518],[-38.61645,-3.76518],[-38.61617,-3.76455],[-38.61585,-3.76381],[-38.61566,-3.76337],[-38.61566,-3.76337],[-38.61547,-3.76294],[-38.61545,-3.7629],[-38.61536,-3.76268],[-38.61536,-3.76267],[-38.61508,-3.76203],[-38.61491,-3.76165],[-38.61491,-3.76164],[-38.61454,-3.76081],[-38.61388,-3.75929],[-38.61345,-3.75828],[-38.61344,-3.75825],[-38.61323,-3.7578],[-38.61301,-3.75733],[-38.613,-3.75729],[-38.61276,-3.75682],[-38.61275,-3.75681],[-38.61265,-3.75662],[-38.61264,-3.75659],[-38.61253,-3.7564],[-38.61252,-3.75638],[-38.6123,-3.75601],[-38.61228,-3.75598],[-38.61204,-3.7556],[-38.61202,-3.75558],[-38.61192,-3.75543],[-38.61192,-3.75543],[-38.61185,-3.75534],[-38.61183,-3.75531],[-38.61128,-3.75458],[-38.61122,-3.75452],[-38.61049,-3.75372],[-38.61044,-3.75366],[-38.60991,-3.75317],[-38.60987,-3.75314],[-38.60945,-3.75279],[-38.60943,-3.75277],[-38.60927,-3.75264],[-38.60926,-3.75263],[-38.60905,-3.75247],[-38.60902,-3.75245],[-38.60874,-3.75224],[-38.60872,-3.75223],[-38.60824,-3.7519],[-38.60824,-3.7519],[-38.60803,-3.75176],[-38.60803,-3.75176],[-38.6077,-3.75153],[-38.60769,-3.75153],[-38.60736,-3.7513],[-38.60523,-3.74987],[-38.60516,-3.74982],[-38.60497,-3.74972],[-38.60496,-3.74971],[-38.60488,-3.74967],[-38.60487,-3.74966],[-38.60463,-3.74951],[-38.60368,-3.74891],[-38.60345,-3.74875],[-38.60345,-3.74875],[-38.60275,-3.74827],[-38.60274,-3.74826],[-38.60224,-3.74792],[-38.60215,-3.74785],[-38.60201,-3.7477],[-38.60186,-3.74752],[-38.60164,-3.74718],[-38.60139,-3.7466],[-38.60108,-3.74561],[-38.60107,-3.74559],[-38.60036,-3.74346],[-38.60034,-3.7434],[-38.60011,-3.74268],[-38.60017,-3.74271],[-38.60036,-3.74275],[-38.60053,-3.74277],[-38.60071,-3.74278],[-38.60089,-3.74276],[-38.60106,-3.7427],[-38.60125,-3.74262],[-38.60141,-3.74253],[-38.60156,-3.74243],[-38.60173,-3.74229],[-38.60186,-3.74211],[-38.60195,-3.74197],[-38.60202,-3.74181],[-38.6021,-3.74161],[-38.60215,-3.74144],[-38.60218,-3.74127],[-38.60219,-3.74123],[-38.6022,-3.74117],[-38.60221,-3.74113],[-38.60247,-3.74054],[-38.60254,-3.74034],[-38.60265,-3.73979],[-38.60267,-3.73963],[-38.60271,-3.7388],[-38.60271,-3.73868],[-38.60266,-3.73799],[-38.6028,-3.7379],[-38.60296,-3.73774],[-38.60307,-3.73756],[-38.60315,-3.73741],[-38.60321,-3.73724],[-38.60324,-3.73706],[-38.60324,-3.73688],[-38.60322,-3.73668],[-38.60319,-3.7365],[-38.60312,-3.73632],[-38.60302,-3.73617],[-38.60256,-3.73556],[-38.6023,-3.73491],[-38.6024,-3.73486],[-38.60259,-3.73475],[-38.6028,-3.73458],[-38.60294,-3.73445],[-38.60305,-3.7343],[-38.60324,-3.73396],[-38.60421,-3.73314],[-38.60433,-3.73302],[-38.60442,-3.73288],[-38.60548,-3.73107],[-38.60555,-3.73091],[-38.6056,-3.73074],[-38.60561,-3.73056],[-38.60561,-3.73023],[-38.60567,-3.7299],[-38.60627,-3.72911],[-38.60634,-3.729],[-38.6067,-3.72836],[-38.6068,-3.72812],[-38.60684,-3.72797],[-38.60692,-3.72795],[-38.60708,-3.72787],[-38.60847,-3.72701],[-38.60865,-3.72687],[-38.60874,-3.72678],[-38.60887,-3.72671],[-38.60905,-3.7266],[-38.6092,-3.72645],[-38.60946,-3.72613],[-38.60956,-3.72597],[-38.60963,-3.7258],[-38.60967,-3.72562],[-38.60971,-3.7256],[-38.60987,-3.72549],[-38.61,-3.72536],[-38.61003,-3.72532],[-38.61005,-3.72532],[-38.61023,-3.72531],[-38.6104,-3.72528],[-38.61057,-3.72521],[-38.61068,-3.72516],[-38.61085,-3.72505],[-38.611,-3.72491],[-38.61106,-3.72483],[-38.61118,-3.72466],[-38.61121,-3.72457],[-38.61139,-3.72454],[-38.6116,-3.72447],[-38.6118,-3.72436],[-38.61212,-3.72413],[-38.6126,-3.724],[-38.61285,-3.7239],[-38.61362,-3.72345],[-38.61364,-3.72344],[-38.6138,-3.72355],[-38.61398,-3.72365],[-38.61417,-3.72371],[-38.61452,-3.72378],[-38.61471,-3.7238],[-38.6149,-3.72379],[-38.61508,-3.72373],[-38.61531,-3.72365],[-38.61548,-3.72356],[-38.61563,-3.72345],[-38.61576,-3.7233],[-38.61589,-3.72313],[-38.61598,-3.72297],[-38.61604,-3.72281],[-38.61608,-3.72263],[-38.61608,-3.72245],[-38.61607,-3.72235],[-38.61619,-3.72223],[-38.61624,-3.72236],[-38.61633,-3.72251],[-38.61644,-3.72266],[-38.61658,-3.72281],[-38.61674,-3.72293],[-38.61693,-3.72301],[-38.61713,-3.72306],[-38.61728,-3.72308],[-38.6175,-3.72308],[-38.61771,-3.72303],[-38.61791,-3.72294],[-38.61812,-3.72282],[-38.6183,-3.72268],[-38.61844,-3.72251],[-38.61863,-3.72223],[-38.61874,-3.72201],[-38.61885,-3.7217],[-38.61886,-3.72165],[-38.61894,-3.72138],[-38.61895,-3.72137],[-38.61901,-3.72115],[-38.61904,-3.72095],[-38.61904,-3.72076],[-38.61902,-3.72055],[-38.6191,-3.72054],[-38.61928,-3.72051],[-38.61944,-3.72045],[-38.61954,-3.72041],[-38.61961,-3.72037],[-38.61977,-3.72028],[-38.61989,-3.7202],[-38.62,-3.72011],[-38.62013,-3.71999],[-38.62024,-3.71987],[-38.62028,-3.71982],[-38.62035,-3.71974],[-38.62042,-3.71966],[-38.62045,-3.71962],[-38.62047,-3.7196],[-38.62049,-3.71957],[-38.62057,-3.71951],[-38.6206,-3.71948],[-38.62069,-3.7194],[-38.62081,-3.71925],[-38.62091,-3.71907],[-38.62101,-3.71884],[-38.62101,-3.71883],[-38.6211,-3.71862],[-38.62122,-3.71833],[-38.62128,-3.71817],[-38.62134,-3.71788],[-38.62141,-3.71764],[-38.62145,-3.71742],[-38.62147,-3.71703],[-38.62147,-3.71691],[-38.62146,-3.71669],[-38.62143,-3.71653],[-38.62138,-3.71637],[-38.62125,-3.71605],[-38.62111,-3.71581],[-38.62051,-3.71504],[-38.62039,-3.71458],[-38.62019,-3.71289],[-38.62015,-3.71273],[-38.62001,-3.71225],[-38.61993,-3.71204],[-38.61954,-3.71134],[-38.61942,-3.71116],[-38.61924,-3.71096],[-38.61946,-3.711],[-38.61968,-3.71105],[-38.6199,-3.71107],[-38.6201,-3.71107],[-38.62014,-3.71107],[-38.62035,-3.71107],[-38.62039,-3.71106],[-38.62055,-3.71105],[-38.62073,-3.71102],[-38.62094,-3.71096],[-38.62103,-3.71094],[-38.6212,-3.71087],[-38.62142,-3.71076],[-38.62155,-3.71067],[-38.6216,-3.71063],[-38.6217,-3.71055],[-38.6219,-3.71034],[-38.62199,-3.7102],[-38.62209,-3.71003],[-38.62215,-3.70985],[-38.62221,-3.70957],[-38.62222,-3.70954],[-38.62228,-3.70924],[-38.62228,-3.70924],[-38.62234,-3.70891],[-38.62234,-3.70891],[-38.62238,-3.7087],[-38.62243,-3.70848],[-38.62243,-3.70847],[-38.62249,-3.70822],[-38.62253,-3.70806],[-38.62254,-3.70801],[-38.62257,-3.70784],[-38.62263,-3.70761],[-38.62263,-3.7076],[-38.62269,-3.70738],[-38.6227,-3.70736],[-38.62274,-3.70717],[-38.6228,-3.70694],[-38.62285,-3.70678],[-38.62288,-3.70669],[-38.62293,-3.70664],[-38.62301,-3.70651],[-38.62307,-3.70638],[-38.62317,-3.7062],[-38.62326,-3.70598],[-38.62331,-3.70577],[-38.62332,-3.70574],[-38.62342,-3.70532],[-38.62344,-3.70521],[-38.62355,-3.70426],[-38.62355,-3.704],[-38.62344,-3.70322],[-38.62341,-3.70306],[-38.62335,-3.70291],[-38.62312,-3.70246],[-38.62298,-3.70224],[-38.62272,-3.70196],[-38.62254,-3.7018],[-38.62233,-3.70165],[-38.62216,-3.70156],[-38.62197,-3.7015],[-38.62178,-3.70148],[-38.62154,-3.70147],[-38.62123,-3.70147],[-38.62104,-3.70148],[-38.61954,-3.70173],[-38.61953,-3.70173],[-38.61897,-3.70183],[-38.6181,-3.70199],[-38.61613,-3.70212],[-38.61419,-3.70218],[-38.61206,-3.70223],[-38.61067,-3.70223],[-38.60931,-3.70212],[-38.60812,-3.70183],[-38.607,-3.70141],[-38.60693,-3.70139],[-38.60623,-3.70119],[-38.60596,-3.70116],[-38.60537,-3.70116],[-38.60516,-3.70118],[-38.60436,-3.70135],[-38.60416,-3.70142],[-38.60308,-3.70191],[-38.60172,-3.70224],[-38.60067,-3.70235],[-38.60058,-3.70237],[-38.59944,-3.7026],[-38.59875,-3.70262],[-38.59785,-3.70253],[-38.59709,-3.70231],[-38.59682,-3.70222],[-38.59616,-3.70199],[-38.59613,-3.70198],[-38.59561,-3.70182],[-38.59483,-3.70158],[-38.59427,-3.70134],[-38.59379,-3.70114],[-38.59351,-3.70093],[-38.59314,-3.70063],[-38.59306,-3.70058],[-38.59269,-3.70035],[-38.59245,-3.70023],[-38.59162,-3.69998],[-38.59105,-3.69961],[-38.59089,-3.69942],[-38.59062,-3.69912],[-38.59039,-3.69886],[-38.59017,-3.69859],[-38.59004,-3.69843],[-38.58966,-3.69798],[-38.58958,-3.69788],[-38.58868,-3.69648],[-38.58835,-3.69586],[-38.58869,-3.69491],[-38.58873,-3.69473],[-38.58874,-3.69455],[-38.58872,-3.69436],[-38.58867,-3.69419],[-38.58768,-3.69183],[-38.58758,-3.69166],[-38.58746,-3.69151],[-38.58731,-3.69139],[-38.58714,-3.6913],[-38.58696,-3.69124],[-38.58676,-3.69122],[-38.58657,-3.69124],[-38.58638,-3.69129],[-38.58628,-3.69133],[-38.58612,-3.69142],[-38.58597,-3.69153],[-38.58584,-3.69168],[-38.58582,-3.69172],[-38.58549,-3.69197],[-38.58503,-3.6923],[-38.58459,-3.69252],[-38.58387,-3.69283],[-38.58359,-3.69291],[-38.58296,-3.69302],[-38.58243,-3.69311],[-38.58218,-3.6931],[-38.58206,-3.69289],[-38.58204,-3.69285],[-38.58209,-3.69278],[-38.58219,-3.6926],[-38.58225,-3.69241],[-38.58227,-3.69222],[-38.58226,-3.69202],[-38.5822,-3.69182],[-38.58211,-3.69165],[-38.58198,-3.69149],[-38.5819,-3.6914],[-38.58174,-3.69128],[-38.58157,-3.69118],[-38.58138,-3.69113],[-38.58119,-3.6911],[-38.58099,-3.69112],[-38.58081,-3.69118],[-38.58063,-3.69127],[-38.58048,-3.69139],[-38.58036,-3.69154],[-38.57991,-3.6922],[-38.57983,-3.69235],[-38.57977,-3.69251],[-38.57974,-3.69267],[-38.57973,-3.69275],[-38.57974,-3.69295],[-38.57978,-3.69315],[-38.5798,-3.6932],[-38.57962,-3.69338],[-38.57954,-3.69347],[-38.57887,-3.69431],[-38.5783,-3.69487],[-38.57812,-3.69498],[-38.57804,-3.69501],[-38.5772,-3.69395],[-38.57707,-3.69382],[-38.57692,-3.69371],[-38.57676,-3.69363],[-38.57658,-3.69359],[-38.5764,-3.69357],[-38.5763,-3.69357],[-38.5761,-3.6936],[-38.57591,-3.69366],[-38.57573,-3.69376],[-38.57558,-3.6939],[-38.57546,-3.69406],[-38.57537,-3.69424],[-38.57533,-3.69444],[-38.57532,-3.6945],[-38.57531,-3.6947],[-38.57534,-3.6949],[-38.57542,-3.69509],[-38.57553,-3.69526],[-38.57605,-3.69591],[-38.57599,-3.69601],[-38.57571,-3.69642],[-38.57546,-3.69671],[-38.5754,-3.69679],[-38.57517,-3.69713],[-38.57517,-3.69713],[-38.57496,-3.69743],[-38.57484,-3.69756],[-38.57483,-3.69756],[-38.57466,-3.69746],[-38.57449,-3.69738],[-38.5743,-3.6973],[-38.57409,-3.69728],[-38.57388,-3.69729],[-38.57368,-3.69735],[-38.5735,-3.69744],[-38.57334,-3.69758],[-38.57321,-3.69774],[-38.57317,-3.6978],[-38.57309,-3.69797],[-38.57304,-3.69814],[-38.57302,-3.69829],[-38.57288,-3.69844],[-38.57238,-3.69892],[-38.57194,-3.6993],[-38.57189,-3.69934],[-38.57166,-3.69957],[-38.57162,-3.69942],[-38.57161,-3.69937],[-38.57154,-3.69922],[-38.57145,-3.69907],[-38.57142,-3.69903],[-38.57123,-3.69884],[-38.57119,-3.69881],[-38.57104,-3.69871],[-38.57087,-3.69864],[-38.57082,-3.69863],[-38.57066,-3.69859],[-38.5705,-3.69859],[-38.57045,-3.69859],[-38.5703,-3.69861],[-38.57015,-3.69864],[-38.57011,-3.69866],[-38.56996,-3.69873],[-38.56982,-3.69882],[-38.56978,-3.69885],[-38.56965,-3.69897],[-38.56955,-3.69911],[-38.56952,-3.69916],[-38.56944,-3.69931],[-38.56939,-3.69948],[-38.56938,-3.69953],[-38.56936,-3.69981],[-38.56936,-3.69986],[-38.56942,-3.70013],[-38.56944,-3.70018],[-38.56949,-3.70029],[-38.56916,-3.70044],[-38.56914,-3.70045],[-38.56851,-3.70076],[-38.56837,-3.70082],[-38.56801,-3.701],[-38.56787,-3.70107],[-38.56772,-3.70116],[-38.56758,-3.70129],[-38.56752,-3.70137],[-38.56724,-3.70154],[-38.56678,-3.70177],[-38.56676,-3.70178],[-38.5662,-3.70207],[-38.56558,-3.7022],[-38.56387,-3.70223],[-38.56316,-3.70064],[-38.56381,-3.69975],[-38.56409,-3.69979],[-38.56429,-3.6998],[-38.56448,-3.69977],[-38.56467,-3.6997],[-38.56483,-3.69959],[-38.56489,-3.69955],[-38.56503,-3.69942],[-38.56514,-3.69926],[-38.56522,-3.69909],[-38.56527,-3.6989],[-38.56528,-3.6987],[-38.56525,-3.69851],[-38.56518,-3.69833],[-38.56515,-3.69826],[-38.56505,-3.69809],[-38.56491,-3.69794],[-38.56476,-3.69783],[-38.56458,-3.69774],[-38.56439,-3.6977],[-38.56347,-3.69756],[-38.56329,-3.69755],[-38.56312,-3.69757],[-38.56295,-3.69762],[-38.56279,-3.6977],[-38.5627,-3.69776],[-38.56255,-3.69787],[-38.56242,-3.69801],[-38.5611,-3.69981],[-38.56098,-3.70003],[-38.56094,-3.70012],[-38.56089,-3.70031],[-38.56087,-3.70051],[-38.56089,-3.70071],[-38.56095,-3.7009],[-38.56205,-3.7034],[-38.56176,-3.70356],[-38.56132,-3.70378],[-38.56076,-3.70403],[-38.56073,-3.70404],[-38.56042,-3.7042],[-38.56038,-3.70421],[-38.56001,-3.7035],[-38.5599,-3.70333],[-38.55976,-3.70319],[-38.5596,-3.70308],[-38.55941,-3.703],[-38.55932,-3.70298],[-38.55914,-3.70294],[-38.55895,-3.70294],[-38.55877,-3.70297],[-38.55859,-3.70304],[-38.55844,-3.70314],[-38.5583,-3.70326],[-38.55819,-3.70341],[-38.5581,-3.70358],[-38.55807,-3.70367],[-38.55802,-3.70386],[-38.558,-3.70406],[-38.55803,-3.70426],[-38.5581,-3.70445],[-38.55811,-3.70448],[-38.55804,-3.70453],[-38.55719,-3.70507],[-38.55696,-3.70516],[-38.55691,-3.70518],[-38.55676,-3.70525],[-38.55669,-3.70529],[-38.55651,-3.70539],[-38.55631,-3.70547],[-38.55613,-3.70521],[-38.55558,-3.70437],[-38.55543,-3.70419],[-38.55524,-3.70405],[-38.55519,-3.70402],[-38.55501,-3.70394],[-38.55481,-3.70389],[-38.5546,-3.70389],[-38.55441,-3.70393],[-38.55422,-3.704],[-38.55405,-3.70412],[-38.55398,-3.70418],[-38.55383,-3.70433],[-38.55372,-3.70452],[-38.55365,-3.70472],[-38.55362,-3.70493],[-38.55364,-3.70515],[-38.55365,-3.7052],[-38.55371,-3.70538],[-38.5538,-3.70554],[-38.55417,-3.70611],[-38.5541,-3.70618],[-38.55406,-3.70622],[-38.55385,-3.70644],[-38.55382,-3.70648],[-38.5537,-3.70662],[-38.55344,-3.7068],[-38.55331,-3.70691],[-38.55316,-3.70707],[-38.55305,-3.70715],[-38.55304,-3.70716],[-38.55275,-3.70738],[-38.55233,-3.70671],[-38.55221,-3.70655],[-38.55206,-3.70642],[-38.55189,-3.70632],[-38.5517,-3.70626],[-38.5515,-3.70624],[-38.55142,-3.70623],[-38.55123,-3.70625],[-38.55104,-3.7063],[-38.55087,-3.70638],[-38.55072,-3.7065],[-38.55059,-3.70664],[-38.5505,-3.70681],[-38.55047,-3.70687],[-38.55041,-3.70703],[-38.55038,-3.70721],[-38.55038,-3.70738],[-38.55039,-3.7075],[-38.55041,-3.70766],[-38.55047,-3.70782],[-38.55055,-3.70796],[-38.55086,-3.70842],[-38.55059,-3.70864],[-38.55058,-3.70865],[-38.55043,-3.70867],[-38.55038,-3.70868],[-38.55021,-3.70873],[-38.55004,-3.70881],[-38.5499,-3.70893],[-38.54978,-3.70906],[-38.54968,-3.70922],[-38.54968,-3.70923],[-38.54942,-3.70945],[-38.54929,-3.70953],[-38.54857,-3.70838],[-38.54848,-3.70826],[-38.54837,-3.70815],[-38.5483,-3.70809],[-38.54814,-3.70798],[-38.54795,-3.7079],[-38.54776,-3.70786],[-38.54756,-3.70786],[-38.54747,-3.70787],[-38.54728,-3.70791],[-38.54709,-3.70798],[-38.54692,-3.70809],[-38.54678,-3.70823],[-38.54667,-3.7084],[-38.5466,-3.70859],[-38.54656,-3.70878],[-38.54657,-3.70898],[-38.54658,-3.7091],[-38.54663,-3.70931],[-38.54673,-3.70951],[-38.54731,-3.71045],[-38.54676,-3.71089],[-38.5465,-3.71103],[-38.54649,-3.71104],[-38.54624,-3.71063],[-38.54612,-3.71047],[-38.54598,-3.71033],[-38.54581,-3.71023],[-38.54562,-3.71017],[-38.54542,-3.71014],[-38.54531,-3.71014],[-38.54511,-3.71015],[-38.54492,-3.7102],[-38.54474,-3.71029],[-38.54458,-3.71041],[-38.54445,-3.71056],[-38.54435,-3.71073],[-38.54429,-3.71092],[-38.54427,-3.71102],[-38.54425,-3.71121],[-38.54426,-3.71141],[-38.54432,-3.7116],[-38.5444,-3.71177],[-38.54456,-3.71202],[-38.54428,-3.71224],[-38.54373,-3.71257],[-38.54356,-3.71231],[-38.54343,-3.71215],[-38.54326,-3.71202],[-38.54308,-3.71193],[-38.54288,-3.71188],[-38.54283,-3.71188],[-38.54249,-3.71092],[-38.54243,-3.71078],[-38.54235,-3.71066],[-38.54229,-3.71058],[-38.54215,-3.71043],[-38.54199,-3.71031],[-38.54181,-3.71023],[-38.54172,-3.7102],[-38.54154,-3.71015],[-38.54135,-3.71014],[-38.54116,-3.71017],[-38.54099,-3.71023],[-38.54082,-3.71032],[-38.54068,-3.71044],[-38.54056,-3.71059],[-38.54047,-3.71076],[-38.54044,-3.71084],[-38.54038,-3.71102],[-38.54036,-3.71121],[-38.54037,-3.71139],[-38.54042,-3.71158],[-38.54067,-3.71225],[-38.54067,-3.71227],[-38.54069,-3.71245],[-38.54074,-3.71263],[-38.54081,-3.71279],[-38.54089,-3.71289],[-38.54091,-3.71296],[-38.54097,-3.71333],[-38.54102,-3.7135],[-38.5411,-3.71367],[-38.54121,-3.71387],[-38.54031,-3.71466],[-38.53936,-3.71533],[-38.53923,-3.71525],[-38.53905,-3.71518],[-38.53886,-3.71514],[-38.53866,-3.71514],[-38.53858,-3.71515],[-38.53839,-3.71519],[-38.53821,-3.71527],[-38.53805,-3.71538],[-38.53791,-3.71551],[-38.53788,-3.71556],[-38.53614,-3.71648],[-38.53611,-3.71649],[-38.53606,-3.71649],[-38.53583,-3.71645],[-38.53564,-3.71637],[-38.53543,-3.7163],[-38.53522,-3.71629],[-38.535,-3.71632],[-38.53479,-3.7164],[-38.53466,-3.71647],[-38.53329,-3.71714],[-38.53329,-3.71715],[-38.53276,-3.71741],[-38.53266,-3.71741],[-38.53247,-3.71746],[-38.53171,-3.71774],[-38.53154,-3.71782],[-38.53138,-3.71794],[-38.53135,-3.71797],[-38.53124,-3.71801],[-38.53114,-3.71805],[-38.53111,-3.71802],[-38.5311,-3.71796],[-38.53102,-3.71779],[-38.53091,-3.71764],[-38.53077,-3.71751],[-38.53067,-3.71743],[-38.53051,-3.71733],[-38.53034,-3.71726],[-38.53016,-3.71723],[-38.52997,-3.71723],[-38.52979,-3.71726],[-38.52776,-3.71782],[-38.52758,-3.71789],[-38.52743,-3.71798],[-38.52729,-3.71811],[-38.52725,-3.71815],[-38.52714,-3.7183],[-38.52706,-3.71846],[-38.52703,-3.71854],[-38.52674,-3.7186],[-38.52663,-3.71862],[-38.52606,-3.7188],[-38.52606,-3.71879],[-38.526,-3.71861],[-38.52598,-3.71857],[-38.52589,-3.71841],[-38.52577,-3.71827],[-38.52563,-3.71815],[-38.52547,-3.71806],[-38.52529,-3.718],[-38.52524,-3.71799],[-38.52504,-3.71797],[-38.52483,-3.71799],[-38.52463,-3.71752],[-38.5254,-3.71719],[-38.52542,-3.71718],[-38.52649,-3.71671],[-38.52696,-3.71701],[-38.52714,-3.71709],[-38.52734,-3.71715],[-38.52754,-3.71716],[-38.52774,-3.71713],[-38.52793,-3.71706],[-38.5281,-3.71695],[-38.52825,-3.71682],[-38.52833,-3.71672],[-38.52844,-3.71657],[-38.52852,-3.71639],[-38.52857,-3.71621],[-38.52858,-3.71602],[-38.52855,-3.71583],[-38.52849,-3.71565],[-38.52839,-3.71549],[-38.52827,-3.71534],[-38.52812,-3.71522],[-38.52715,-3.71459],[-38.52697,-3.7145],[-38.52678,-3.71445],[-38.52659,-3.71443],[-38.52639,-3.71445],[-38.5262,-3.71452],[-38.52178,-3.71646],[-38.52176,-3.71647],[-38.5216,-3.71654],[-38.52148,-3.71594],[-38.52143,-3.71575],[-38.52134,-3.71557],[-38.52121,-3.71542],[-38.52106,-3.7153],[-38.52089,-3.7152],[-38.5207,-3.71514],[-38.5205,-3.71512],[-38.52031,-3.71514],[-38.52019,-3.71517],[-38.52,-3.71522],[-38.51983,-3.71531],[-38.51968,-3.71543],[-38.51955,-3.71558],[-38.51946,-3.71575],[-38.5194,-3.71594],[-38.51938,-3.71613],[-38.51939,-3.71632],[-38.51944,-3.71661],[-38.51931,-3.71668],[-38.51911,-3.7168],[-38.51865,-3.71693],[-38.51858,-3.71695],[-38.51816,-3.7171],[-38.5176,-3.71725],[-38.51682,-3.71739],[-38.51679,-3.71739],[-38.51667,-3.71742],[-38.51662,-3.71741],[-38.5166,-3.71741],[-38.51638,-3.7174],[-38.51625,-3.71741],[-38.5157,-3.71746],[-38.51566,-3.71746],[-38.51528,-3.71751],[-38.51522,-3.71752],[-38.51483,-3.7176],[-38.51481,-3.7176],[-38.51416,-3.71774],[-38.51354,-3.71768],[-38.51313,-3.7176],[-38.51288,-3.71755],[-38.5127,-3.71749],[-38.51267,-3.71738],[-38.51259,-3.7172],[-38.51257,-3.71717],[-38.51256,-3.71713],[-38.51245,-3.71614],[-38.5124,-3.71568],[-38.51241,-3.71565],[-38.51244,-3.71548],[-38.51244,-3.71531],[-38.51243,-3.71518],[-38.51239,-3.715],[-38.51233,-3.71484],[-38.51231,-3.7148],[-38.51223,-3.71404],[-38.51222,-3.71395],[-38.51212,-3.71344],[-38.51207,-3.71327],[-38.51199,-3.71311],[-38.51189,-3.71297],[-38.51183,-3.7129],[-38.5117,-3.71277],[-38.51154,-3.71267],[-38.51137,-3.7126],[-38.51119,-3.71256],[-38.51101,-3.71256],[-38.51083,-3.71259],[-38.51078,-3.7126],[-38.51061,-3.71266],[-38.51045,-3.71275],[-38.51032,-3.71286],[-38.5102,-3.713],[-38.51011,-3.71315],[-38.51006,-3.71326],[-38.51,-3.71345],[-38.50998,-3.71364],[-38.50999,-3.71384],[-38.51001,-3.71397],[-38.51,-3.71409],[-38.51003,-3.71432],[-38.51006,-3.7144],[-38.51009,-3.715],[-38.51013,-3.71524],[-38.51015,-3.71529],[-38.51014,-3.71537],[-38.51015,-3.7156],[-38.51026,-3.7162],[-38.51044,-3.7178],[-38.51043,-3.7178],[-38.5099,-3.71808],[-38.50982,-3.71813],[-38.50846,-3.71903],[-38.50833,-3.71909],[-38.50513,-3.72037],[-38.5051,-3.72025],[-38.50501,-3.72006],[-38.50487,-3.7199],[-38.50479,-3.71982],[-38.50464,-3.7197],[-38.50447,-3.7196],[-38.50429,-3.71955],[-38.5041,-3.71953],[-38.50403,-3.71953],[-38.50383,-3.71954],[-38.50365,-3.7196],[-38.50347,-3.71969],[-38.50332,-3.71981],[-38.50326,-3.71986],[-38.50313,-3.72002],[-38.50303,-3.72021],[-38.50298,-3.72041],[-38.50296,-3.72062],[-38.50297,-3.72074],[-38.50301,-3.72098],[-38.50311,-3.7212],[-38.50314,-3.72125],[-38.50328,-3.72162],[-38.50172,-3.72218],[-38.49853,-3.72284],[-38.49683,-3.72313],[-38.49553,-3.72319],[-38.4956,-3.72305],[-38.49564,-3.72287],[-38.49565,-3.72268],[-38.49562,-3.72249],[-38.4956,-3.72241],[-38.49553,-3.72221],[-38.49542,-3.72202],[-38.49527,-3.72187],[-38.49509,-3.72175],[-38.49503,-3.72172],[-38.49484,-3.72165],[-38.49464,-3.72161],[-38.49443,-3.72162],[-38.49438,-3.72163],[-38.49425,-3.72161],[-38.49406,-3.7216],[-38.49388,-3.72163],[-38.49381,-3.72165],[-38.49373,-3.72167],[-38.49366,-3.7217],[-38.49349,-3.72177],[-38.49334,-3.72188],[-38.49321,-3.72201],[-38.49311,-3.72217],[-38.49303,-3.72234],[-38.49299,-3.72252],[-38.49298,-3.72259],[-38.49298,-3.7228],[-38.49302,-3.723],[-38.49323,-3.72371],[-38.49303,-3.72372],[-38.49273,-3.7237],[-38.49225,-3.72366],[-38.49181,-3.7236],[-38.49171,-3.72359],[-38.49152,-3.72358],[-38.49151,-3.7234],[-38.49145,-3.72319],[-38.49136,-3.72294],[-38.49127,-3.72277],[-38.49114,-3.72261],[-38.49099,-3.72248],[-38.49081,-3.72239],[-38.49062,-3.72233],[-38.49042,-3.72231],[-38.49032,-3.72231],[-38.49027,-3.72227],[-38.4901,-3.72217],[-38.49009,-3.72216],[-38.49008,-3.72216],[-38.48992,-3.72205],[-38.48984,-3.72201],[-38.48965,-3.72195],[-38.4896,-3.72186],[-38.48947,-3.72171],[-38.48932,-3.72159],[-38.48914,-3.7215],[-38.48882,-3.72138],[-38.48862,-3.72132],[-38.4884,-3.72131],[-38.4875,-3.72137],[-38.48739,-3.72139],[-38.48698,-3.72146],[-38.48689,-3.72148],[-38.48665,-3.72155],[-38.48648,-3.72161],[-38.48638,-3.72167],[-38.48552,-3.72143],[-38.48542,-3.72141],[-38.48437,-3.72122],[-38.48409,-3.72121],[-38.48398,-3.72122],[-38.48395,-3.72123],[-38.48384,-3.72124],[-38.48365,-3.72129],[-38.4833,-3.72141],[-38.48304,-3.72144],[-38.48277,-3.72139],[-38.4822,-3.72122],[-38.48179,-3.72104],[-38.48132,-3.72082],[-38.48095,-3.72063],[-38.48086,-3.72057],[-38.48071,-3.72047],[-38.48054,-3.7204],[-38.4804,-3.72036],[-38.48012,-3.72021],[-38.47995,-3.72014],[-38.4799,-3.72012],[-38.47987,-3.72001],[-38.47979,-3.71984],[-38.47977,-3.71979],[-38.47966,-3.71964],[-38.47953,-3.71951],[-38.47938,-3.7194],[-38.47921,-3.71933],[-38.47903,-3.71929],[-38.47884,-3.71928],[-38.47866,-3.71931],[-38.47861,-3.71932],[-38.47833,-3.71925],[-38.47814,-3.71922],[-38.47795,-3.71923],[-38.47787,-3.71924],[-38.47778,-3.71918],[-38.47763,-3.71909],[-38.47746,-3.71903],[-38.47739,-3.71902],[-38.4772,-3.7189],[-38.47716,-3.71885],[-38.47716,-3.71882],[-38.47712,-3.71862],[-38.47705,-3.71844],[-38.47703,-3.71839],[-38.47704,-3.71839],[-38.47722,-3.71837],[-38.47722,-3.71837],[-38.47757,-3.7183],[-38.4777,-3.71827],[-38.47784,-3.71822],[-38.47802,-3.71814],[-38.47818,-3.71803],[-38.47832,-3.71789],[-38.47842,-3.71772],[-38.47849,-3.71754],[-38.47853,-3.71735],[-38.47852,-3.71716],[-38.47848,-3.71697],[-38.47824,-3.71621],[-38.47829,-3.71592],[-38.47834,-3.71581],[-38.47839,-3.71562],[-38.47841,-3.71543],[-38.47838,-3.71525],[-38.47833,-3.71506],[-38.47823,-3.7149],[-38.4781,-3.7147],[-38.47804,-3.71461],[-38.47795,-3.71448],[-38.47614,-3.71181],[-38.47432,-3.70665],[-38.47609,-3.70492],[-38.47621,-3.70477],[-38.47631,-3.7046],[-38.47637,-3.70442],[-38.47639,-3.70423],[-38.47638,-3.70404],[-38.47633,-3.70385],[-38.47624,-3.70368],[-38.47613,-3.70353],[-38.47605,-3.70344],[-38.47648,-3.70283],[-38.47675,-3.70251],[-38.47679,-3.70247],[-38.47701,-3.70217],[-38.47706,-3.7021],[-38.4772,-3.70188],[-38.47726,-3.70186],[-38.47745,-3.70186],[-38.47765,-3.70184],[-38.47785,-3.70177],[-38.47803,-3.70167],[-38.47809,-3.70162],[-38.47853,-3.7015],[-38.47854,-3.70149],[-38.47929,-3.70128],[-38.47954,-3.70128],[-38.47975,-3.70126],[-38.47995,-3.70119],[-38.48013,-3.70109],[-38.48025,-3.701],[-38.48088,-3.70069],[-38.48185,-3.70028],[-38.4823,-3.70009],[-38.48232,-3.70009],[-38.48233,-3.70009],[-38.48247,-3.70011],[-38.48255,-3.70012],[-38.48276,-3.7001],[-38.48296,-3.70003],[-38.48315,-3.69993],[-38.48331,-3.69979],[-38.48343,-3.69962],[-38.48352,-3.69943],[-38.48361,-3.69917],[-38.48365,-3.69899],[-38.48366,-3.6988],[-38.48363,-3.69862],[-38.48357,-3.69844],[-38.48348,-3.69828],[-38.48333,-3.69807],[-38.48319,-3.6979],[-38.48301,-3.69777],[-38.48282,-3.69768],[-38.48261,-3.69764],[-38.48247,-3.69763],[-38.4823,-3.69762],[-38.48212,-3.69765],[-38.48196,-3.69771],[-38.48128,-3.69802],[-38.48103,-3.69813],[-38.48103,-3.69813],[-38.48027,-3.69846],[-38.47915,-3.69895],[-38.47842,-3.69918],[-38.47762,-3.6994],[-38.47728,-3.69949],[-38.476,-3.69981],[-38.47592,-3.69983],[-38.47538,-3.70002],[-38.47441,-3.70022],[-38.47429,-3.70026],[-38.47404,-3.70035],[-38.474,-3.70036],[-38.47328,-3.70065],[-38.47312,-3.70073],[-38.47298,-3.70084],[-38.47263,-3.70116],[-38.47252,-3.70128],[-38.47232,-3.70153],[-38.47229,-3.70157],[-38.47194,-3.70204],[-38.4719,-3.70211],[-38.47162,-3.70256],[-38.47159,-3.70261],[-38.47105,-3.70363],[-38.47104,-3.70365],[-38.47047,-3.70478],[-38.46986,-3.70579],[-38.46976,-3.70602],[-38.46971,-3.70617],[-38.46967,-3.7062],[-38.46929,-3.70638],[-38.46914,-3.70646],[-38.46879,-3.7067],[-38.46871,-3.7067],[-38.46852,-3.70664],[-38.46781,-3.70653],[-38.46762,-3.70652],[-38.46742,-3.70654],[-38.46724,-3.70661],[-38.46707,-3.70671],[-38.46692,-3.70684],[-38.4668,-3.70699],[-38.46671,-3.70717],[-38.46668,-3.70725],[-38.46668,-3.70726],[-38.46572,-3.70679],[-38.46562,-3.70673],[-38.4656,-3.70672],[-38.46558,-3.7067],[-38.46543,-3.70655],[-38.46525,-3.70643],[-38.46507,-3.70634],[-38.4649,-3.70627],[-38.46472,-3.70624],[-38.46466,-3.70624],[-38.46382,-3.70578],[-38.46381,-3.70578],[-38.46368,-3.70566],[-38.46353,-3.70556],[-38.46288,-3.70524],[-38.46274,-3.70518],[-38.46263,-3.70516],[-38.46177,-3.7047],[-38.46168,-3.70466],[-38.46151,-3.70458],[-38.46096,-3.70429],[-38.46076,-3.70421],[-38.46055,-3.70417],[-38.46033,-3.70418],[-38.46012,-3.70424],[-38.46004,-3.70427],[-38.45986,-3.70436],[-38.4597,-3.70449],[-38.45957,-3.70466],[-38.45948,-3.70484],[-38.45942,-3.70504],[-38.45941,-3.70525],[-38.45941,-3.70533],[-38.45944,-3.70553],[-38.45952,-3.70572],[-38.45962,-3.7059],[-38.45977,-3.70604],[-38.45993,-3.70616],[-38.46095,-3.70671],[-38.46096,-3.70672],[-38.46159,-3.70705],[-38.46175,-3.70718],[-38.46247,-3.70759],[-38.46262,-3.70766],[-38.46277,-3.7077],[-38.46318,-3.70791],[-38.46386,-3.70827],[-38.46388,-3.70828],[-38.46404,-3.70835],[-38.46401,-3.7085],[-38.46377,-3.70908],[-38.46372,-3.70925],[-38.46369,-3.70942],[-38.46368,-3.7096],[-38.46357,-3.71005],[-38.46355,-3.71016],[-38.46342,-3.71109],[-38.46317,-3.71207],[-38.46314,-3.71222],[-38.46307,-3.71296],[-38.4629,-3.71333],[-38.46284,-3.71353],[-38.46267,-3.71432],[-38.46235,-3.71525],[-38.46231,-3.71538],[-38.46219,-3.71596],[-38.462,-3.7162],[-38.46188,-3.7164],[-38.46181,-3.71653],[-38.46178,-3.71662],[-38.46125,-3.7181],[-38.46092,-3.71883],[-38.46088,-3.71891],[-38.46078,-3.71919],[-38.4601,-3.72087],[-38.46006,-3.721],[-38.46,-3.72125],[-38.45998,-3.72133],[-38.45989,-3.72149],[-38.4597,-3.72173],[-38.45956,-3.72196],[-38.45925,-3.72268],[-38.45888,-3.72336],[-38.45883,-3.72346],[-38.45761,-3.72642],[-38.45724,-3.7272],[-38.45688,-3.72776],[-38.45683,-3.72785],[-38.45659,-3.72834],[-38.45652,-3.72852],[-38.45636,-3.7291],[-38.45634,-3.72912],[-38.45597,-3.72951],[-38.45581,-3.72972],[-38.45566,-3.72998],[-38.45558,-3.73018],[-38.45557,-3.73019],[-38.45521,-3.73108],[-38.45433,-3.73275],[-38.45432,-3.73277],[-38.45343,-3.73455],[-38.45338,-3.73466],[-38.45333,-3.73481],[-38.45229,-3.73653],[-38.4522,-3.73669],[-38.45204,-3.73712],[-38.45163,-3.73799],[-38.45119,-3.73877],[-38.45114,-3.73886],[-38.45097,-3.73928],[-38.45035,-3.74044],[-38.44944,-3.7419],[-38.4494,-3.74197],[-38.44891,-3.74291],[-38.4489,-3.74295],[-38.44864,-3.74349],[-38.44859,-3.74363],[-38.4483,-3.74461],[-38.44792,-3.74515],[-38.44783,-3.74528],[-38.44774,-3.74543],[-38.44767,-3.7456],[-38.44762,-3.7458],[-38.4476,-3.74584],[-38.4475,-3.74595],[-38.4474,-3.74608],[-38.44736,-3.74615],[-38.44734,-3.74618],[-38.44721,-3.74636],[-38.44717,-3.74643],[-38.44665,-3.74743],[-38.44662,-3.74749],[-38.44627,-3.74831],[-38.44619,-3.74847],[-38.44608,-3.7486],[-38.44599,-3.74874],[-38.44593,-3.7489],[-38.44587,-3.74911],[-38.4457,-3.74943],[-38.4456,-3.74952],[-38.44548,-3.74969],[-38.44515,-3.75031],[-38.44513,-3.75034],[-38.44479,-3.75102],[-38.44472,-3.75117],[-38.44462,-3.75135],[-38.44456,-3.75155],[-38.44454,-3.75162],[-38.44395,-3.75275],[-38.44351,-3.75352],[-38.44329,-3.75385],[-38.44309,-3.75404],[-38.44295,-3.75421],[-38.44284,-3.75441],[-38.4424,-3.75556],[-38.44195,-3.75645],[-38.44189,-3.75658],[-38.44151,-3.75768],[-38.4414,-3.75788],[-38.44132,-3.75807],[-38.44123,-3.75833],[-38.44077,-3.75912],[-38.44073,-3.75921],[-38.44039,-3.75995],[-38.4401,-3.76044],[-38.44006,-3.76052],[-38.4397,-3.76129],[-38.4386,-3.76326],[-38.43784,-3.76445],[-38.43757,-3.76479],[-38.43738,-3.76494],[-38.43724,-3.7651],[-38.43713,-3.76529],[-38.43706,-3.76549],[-38.43705,-3.76556],[-38.43698,-3.76568],[-38.43686,-3.76575],[-38.43672,-3.76589],[-38.4366,-3.76605],[-38.43653,-3.76623],[-38.43648,-3.76643],[-38.43642,-3.767],[-38.43626,-3.76731],[-38.43614,-3.76744],[-38.43602,-3.76759],[-38.43593,-3.76776],[-38.43588,-3.76794],[-38.43579,-3.76837],[-38.43564,-3.76888],[-38.43531,-3.76942],[-38.43522,-3.76959],[-38.4352,-3.76964],[-38.43503,-3.76958],[-38.43482,-3.76955],[-38.43474,-3.76955],[-38.43459,-3.76953],[-38.43437,-3.76954],[-38.43416,-3.76958],[-38.43397,-3.76968],[-38.43388,-3.76973],[-38.43373,-3.76984],[-38.4336,-3.76998],[-38.4335,-3.77014],[-38.43349,-3.77016],[-38.43348,-3.77017],[-38.43338,-3.7703],[-38.4333,-3.77043],[-38.4332,-3.77052],[-38.43304,-3.77071],[-38.43292,-3.77089],[-38.43284,-3.77103],[-38.43278,-3.77118],[-38.43278,-3.77121],[-38.43262,-3.7714],[-38.43252,-3.77153],[-38.43231,-3.77188],[-38.43225,-3.77199],[-38.43207,-3.7724],[-38.43183,-3.77288],[-38.43181,-3.77291],[-38.4314,-3.77381],[-38.4308,-3.77503],[-38.43038,-3.7757],[-38.43005,-3.77609],[-38.42995,-3.77624],[-38.42926,-3.77742],[-38.42925,-3.77745],[-38.42896,-3.7779],[-38.42888,-3.77804],[-38.42885,-3.77813],[-38.42883,-3.77815],[-38.42875,-3.7783],[-38.42871,-3.77839],[-38.42864,-3.77846],[-38.42853,-3.77863],[-38.42846,-3.77882],[-38.42845,-3.7789],[-38.42741,-3.78075],[-38.42709,-3.78118],[-38.42701,-3.78131],[-38.42664,-3.782],[-38.42643,-3.78228],[-38.42635,-3.78241],[-38.42596,-3.78312],[-38.42575,-3.78342],[-38.42566,-3.78356],[-38.42523,-3.78445],[-38.42496,-3.78481],[-38.42488,-3.78494],[-38.42467,-3.78532],[-38.42457,-3.78544],[-38.42444,-3.78563],[-38.42431,-3.78588],[-38.4243,-3.78589],[-38.42418,-3.78603],[-38.42409,-3.78618],[-38.42398,-3.78643],[-38.42333,-3.78741],[-38.42327,-3.78752],[-38.42269,-3.78867],[-38.42202,-3.78965],[-38.42195,-3.78975],[-38.42097,-3.79161],[-38.42037,-3.7926],[-38.42034,-3.79262],[-38.42018,-3.79272],[-38.42004,-3.79285],[-38.41993,-3.79301],[-38.41965,-3.79351],[-38.41962,-3.79356],[-38.41946,-3.7939],[-38.41939,-3.79409],[-38.41937,-3.79417],[-38.4193,-3.79429],[-38.4191,-3.79464],[-38.41893,-3.79485],[-38.41854,-3.79518],[-38.4185,-3.7952],[-38.41834,-3.79531],[-38.41821,-3.79544],[-38.4181,-3.79559],[-38.41802,-3.79577],[-38.41798,-3.79595],[-38.41797,-3.79614],[-38.41797,-3.79617],[-38.41727,-3.79736],[-38.41723,-3.79744],[-38.41681,-3.79833],[-38.41669,-3.79841],[-38.41657,-3.79855],[-38.41647,-3.7987],[-38.41634,-3.79894],[-38.41624,-3.79904],[-38.41616,-3.79915],[-38.41608,-3.79916],[-38.41589,-3.7992],[-38.41571,-3.79928],[-38.41555,-3.7994],[-38.41542,-3.79954],[-38.41531,-3.79971],[-38.41524,-3.7999],[-38.41522,-3.79999],[-38.41519,-3.80016],[-38.4152,-3.80034],[-38.41523,-3.80051],[-38.41525,-3.80057],[-38.41523,-3.8006],[-38.41518,-3.80065],[-38.41505,-3.80078],[-38.415,-3.80086],[-38.41494,-3.80091],[-38.41482,-3.80105],[-38.41437,-3.8017],[-38.41415,-3.80191],[-38.41408,-3.80193],[-38.41388,-3.80198],[-38.4137,-3.80207],[-38.41354,-3.8022],[-38.41341,-3.80236],[-38.41331,-3.80254],[-38.41326,-3.80274],[-38.41324,-3.80295],[-38.41327,-3.80313],[-38.41322,-3.80326],[-38.41318,-3.80342],[-38.41318,-3.80346],[-38.41316,-3.80347],[-38.41314,-3.80351],[-38.41291,-3.8038],[-38.41286,-3.80388],[-38.41257,-3.80435],[-38.41236,-3.80467],[-38.41227,-3.80479],[-38.41227,-3.80479],[-38.41213,-3.8049],[-38.41202,-3.80502],[-38.41177,-3.80537],[-38.41157,-3.80562],[-38.4115,-3.80571],[-38.41139,-3.80588],[-38.41135,-3.80596],[-38.41115,-3.80634],[-38.411,-3.80663],[-38.41098,-3.80666],[-38.41082,-3.807],[-38.4106,-3.80728],[-38.41039,-3.8075],[-38.41023,-3.80773],[-38.41011,-3.80797],[-38.40988,-3.80834],[-38.40979,-3.80855],[-38.40977,-3.8086],[-38.40967,-3.8087],[-38.4096,-3.80877],[-38.40918,-3.80925],[-38.4091,-3.80935],[-38.40873,-3.80989],[-38.40834,-3.81044],[-38.40787,-3.81089],[-38.40775,-3.81103],[-38.40765,-3.8112],[-38.4075,-3.81153],[-38.40718,-3.81215],[-38.40695,-3.81254],[-38.40692,-3.8126],[-38.40663,-3.81314],[-38.40621,-3.81394],[-38.40565,-3.81465],[-38.40564,-3.81466],[-38.40533,-3.81506],[-38.40496,-3.81551],[-38.40491,-3.81558],[-38.4044,-3.81633],[-38.40435,-3.8164],[-38.40402,-3.81697],[-38.40288,-3.81856],[-38.40276,-3.8188],[-38.40264,-3.81911],[-38.40264,-3.81913],[-38.40252,-3.81947],[-38.40247,-3.81954],[-38.40236,-3.81963],[-38.40224,-3.81973],[-38.40218,-3.81977],[-38.40199,-3.81994],[-38.40185,-3.82009],[-38.40169,-3.8203],[-38.40157,-3.82052],[-38.40146,-3.82078],[-38.40145,-3.82081],[-38.40132,-3.82115],[-38.40127,-3.8214],[-38.40124,-3.8217],[-38.4012,-3.8218],[-38.40116,-3.82196],[-38.40115,-3.82213],[-38.40116,-3.82221],[-38.40113,-3.8223],[-38.40095,-3.82259],[-38.40073,-3.82289],[-38.40064,-3.82305],[-38.40057,-3.82323],[-38.40054,-3.82342],[-38.40055,-3.8236],[-38.40059,-3.82379],[-38.40066,-3.82396],[-38.40077,-3.82411],[-38.40087,-3.82424],[-38.40076,-3.82452],[-38.40049,-3.82513],[-38.40042,-3.82538],[-38.40034,-3.82594],[-38.40033,-3.82617],[-38.40037,-3.82667],[-38.4004,-3.82686],[-38.40046,-3.82703],[-38.40056,-3.82719],[-38.40069,-3.82733],[-38.40084,-3.82745],[-38.40129,-3.82772],[-38.40147,-3.82781],[-38.40167,-3.82786],[-38.40187,-3.82787],[-38.40207,-3.82783],[-38.40256,-3.8277],[-38.40266,-3.82767],[-38.40333,-3.82741],[-38.40349,-3.82734],[-38.40363,-3.82724],[-38.40422,-3.82673],[-38.40426,-3.82669],[-38.40508,-3.82589],[-38.40584,-3.8254],[-38.40599,-3.82529],[-38.4065,-3.82481],[-38.40662,-3.8247],[-38.40677,-3.82452],[-38.40688,-3.8243],[-38.40693,-3.82414],[-38.40698,-3.82395],[-38.40699,-3.82376],[-38.40696,-3.82356],[-38.40682,-3.82297],[-38.40678,-3.8226],[-38.40674,-3.82216],[-38.40676,-3.82209],[-38.40762,-3.82131],[-38.40892,-3.82048],[-38.40987,-3.81997],[-38.40988,-3.81997],[-38.4292,-3.80914],[-38.44232,-3.80294],[-38.44233,-3.80299],[-38.44235,-3.80305],[-38.44243,-3.80322],[-38.44254,-3.80338],[-38.44267,-3.80351],[-38.44276,-3.80359],[-38.44281,-3.80363],[-38.44297,-3.80373],[-38.44313,-3.80381],[-38.44331,-3.80385],[-38.44336,-3.80385],[-38.44342,-3.8039],[-38.44352,-3.80396],[-38.44352,-3.80403],[-38.44352,-3.80417],[-38.44354,-3.80434],[-38.4436,-3.80451],[-38.44367,-3.80469],[-38.44376,-3.80485],[-38.44388,-3.805],[-38.44402,-3.80512],[-38.44412,-3.80519],[-38.4443,-3.80529],[-38.4445,-3.80536],[-38.44465,-3.80537],[-38.44471,-3.80543],[-38.44466,-3.80552],[-38.44458,-3.80572],[-38.44453,-3.80579],[-38.44444,-3.80595],[-38.44438,-3.80611],[-38.44432,-3.80631],[-38.44423,-3.80649],[-38.44409,-3.80667],[-38.44409,-3.80668],[-38.44361,-3.8073],[-38.44242,-3.80861],[-38.44232,-3.80876],[-38.44224,-3.80891],[-38.44168,-3.81029],[-38.44167,-3.81031],[-38.44129,-3.81134],[-38.44124,-3.81153],[-38.44122,-3.81172],[-38.44128,-3.81381],[-38.44129,-3.81393],[-38.4416,-3.81596],[-38.44166,-3.81617],[-38.44176,-3.81637],[-38.44215,-3.81695],[-38.44314,-3.81847],[-38.44324,-3.8186],[-38.44424,-3.8197],[-38.44447,-3.82082],[-38.44446,-3.82154],[-38.44446,-3.82161],[-38.44461,-3.82426],[-38.44461,-3.82427],[-38.44473,-3.826],[-38.44472,-3.82639],[-38.44473,-3.82655],[-38.44477,-3.82672],[-38.44577,-3.82976],[-38.44578,-3.82977],[-38.44662,-3.83224],[-38.44663,-3.83228],[-38.44739,-3.83425],[-38.4474,-3.83425],[-38.44811,-3.83606],[-38.44844,-3.83691],[-38.44894,-3.83822],[-38.44902,-3.83837],[-38.44912,-3.83851],[-38.45071,-3.84036],[-38.45083,-3.84048],[-38.45097,-3.84058],[-38.45112,-3.84065],[-38.45297,-3.84131],[-38.45316,-3.84136],[-38.45496,-3.84164],[-38.45499,-3.84164],[-38.4556,-3.84171],[-38.45653,-3.84226],[-38.45735,-3.84329],[-38.45748,-3.84342],[-38.45762,-3.84352],[-38.4583,-3.84392],[-38.45845,-3.844],[-38.45861,-3.84404],[-38.45878,-3.84406],[-38.45929,-3.84408],[-38.4595,-3.84406],[-38.4603,-3.84391],[-38.46077,-3.84389],[-38.46154,-3.84413],[-38.46231,-3.84443],[-38.46247,-3.84447],[-38.46318,-3.84461],[-38.46346,-3.84463],[-38.46371,-3.84461],[-38.46388,-3.84458],[-38.46405,-3.84452],[-38.46421,-3.84443],[-38.46434,-3.84431],[-38.46451,-3.84413],[-38.46463,-3.84399],[-38.46475,-3.84406],[-38.46494,-3.84413],[-38.46557,-3.84427],[-38.46557,-3.84428],[-38.46569,-3.84455],[-38.46575,-3.84467],[-38.46595,-3.84502],[-38.466,-3.84509],[-38.4661,-3.84523],[-38.46624,-3.84557],[-38.46636,-3.84601],[-38.46634,-3.84712],[-38.46634,-3.84722],[-38.46643,-3.84836],[-38.46643,-3.84844],[-38.46656,-3.84926],[-38.46659,-3.84941],[-38.46664,-3.84954],[-38.46674,-3.84975],[-38.46694,-3.85017],[-38.46706,-3.85037],[-38.46739,-3.85077],[-38.46747,-3.85086],[-38.46772,-3.85111],[-38.46787,-3.85134],[-38.468,-3.85151],[-38.46814,-3.85165],[-38.4683,-3.85179],[-38.46849,-3.85189],[-38.4687,-3.85194],[-38.46891,-3.85195],[-38.46914,-3.85194],[-38.46936,-3.85191],[-38.46956,-3.85182],[-38.46996,-3.85161],[-38.4701,-3.85152],[-38.47023,-3.8514],[-38.47024,-3.85139],[-38.47035,-3.85144],[-38.47062,-3.85156],[-38.47071,-3.85159],[-38.47072,-3.85164],[-38.47067,-3.85168],[-38.47051,-3.85188],[-38.47038,-3.85208],[-38.47027,-3.85232],[-38.47021,-3.85247],[-38.47018,-3.85263],[-38.47013,-3.85298],[-38.47014,-3.85327],[-38.47021,-3.85371],[-38.47026,-3.85388],[-38.47033,-3.85404],[-38.47043,-3.85418],[-38.47055,-3.85431],[-38.47073,-3.85446],[-38.47094,-3.8546],[-38.47121,-3.85473],[-38.47144,-3.85481],[-38.47168,-3.85483],[-38.47244,-3.8548],[-38.47244,-3.85481],[-38.47254,-3.855],[-38.47264,-3.85515],[-38.47276,-3.8553],[-38.4729,-3.85542],[-38.47306,-3.85552],[-38.47349,-3.85571],[-38.47365,-3.85577],[-38.47382,-3.8558],[-38.47399,-3.8558],[-38.47416,-3.85577],[-38.47433,-3.85572],[-38.47454,-3.85564],[-38.47474,-3.85553],[-38.47482,-3.85557],[-38.47483,-3.85558],[-38.47486,-3.85562],[-38.4749,-3.85576],[-38.47492,-3.85597],[-38.47482,-3.85633],[-38.47481,-3.85635],[-38.47461,-3.85657],[-38.47451,-3.8567],[-38.47444,-3.85684],[-38.47439,-3.857],[-38.47431,-3.85732],[-38.47428,-3.8575],[-38.47428,-3.85768],[-38.47433,-3.85809],[-38.47438,-3.8583],[-38.47448,-3.8585],[-38.47462,-3.85868],[-38.47481,-3.85887],[-38.47495,-3.85899],[-38.47512,-3.85908],[-38.4753,-3.85913],[-38.47548,-3.85916],[-38.47567,-3.85915],[-38.47585,-3.85912],[-38.47609,-3.85932],[-38.47625,-3.85942],[-38.47672,-3.85968],[-38.47683,-3.85978],[-38.47687,-3.85982],[-38.4768,-3.8599],[-38.47669,-3.86006],[-38.47662,-3.86024],[-38.47661,-3.86029],[-38.47651,-3.86042],[-38.47643,-3.86058],[-38.47637,-3.86075],[-38.47633,-3.8609],[-38.47631,-3.86111],[-38.47633,-3.86133],[-38.47639,-3.86163],[-38.47644,-3.8618],[-38.47652,-3.86196],[-38.47693,-3.86262],[-38.47708,-3.86281],[-38.47727,-3.86295],[-38.47737,-3.86302],[-38.47756,-3.8631],[-38.47775,-3.86315],[-38.47796,-3.86315],[-38.47812,-3.86314],[-38.47828,-3.86324],[-38.47847,-3.86331],[-38.47866,-3.86333],[-38.47871,-3.86334],[-38.47891,-3.86332],[-38.47911,-3.86327],[-38.47924,-3.8632],[-38.47965,-3.8637],[-38.47992,-3.86418],[-38.48004,-3.86436],[-38.4802,-3.8645],[-38.48031,-3.86458],[-38.48045,-3.86467],[-38.48061,-3.86473],[-38.48079,-3.86478],[-38.48096,-3.86482],[-38.48115,-3.86482],[-38.48133,-3.86479],[-38.48145,-3.86476],[-38.48162,-3.8647],[-38.48177,-3.86461],[-38.48191,-3.86449],[-38.48202,-3.86438],[-38.48211,-3.86433],[-38.48216,-3.86429],[-38.48218,-3.86429],[-38.48235,-3.8643],[-38.48251,-3.86428],[-38.48266,-3.86424],[-38.48274,-3.86441],[-38.48289,-3.86458],[-38.48312,-3.86481],[-38.48319,-3.86487],[-38.4833,-3.86496],[-38.48336,-3.86501],[-38.48349,-3.86513],[-38.48365,-3.86522],[-38.48382,-3.86529],[-38.48399,-3.86533],[-38.48431,-3.86542],[-38.48455,-3.86546],[-38.48478,-3.86544],[-38.48487,-3.86542],[-38.4849,-3.86547],[-38.48492,-3.86552],[-38.48499,-3.86565],[-38.48509,-3.86579],[-38.4852,-3.86593],[-38.48537,-3.8661],[-38.48558,-3.86627],[-38.48575,-3.86637],[-38.48591,-3.86643],[-38.48595,-3.86646],[-38.48615,-3.86654],[-38.48635,-3.86658],[-38.48656,-3.86658],[-38.48676,-3.86653],[-38.48681,-3.86651],[-38.48688,-3.86656],[-38.48708,-3.86668],[-38.48724,-3.86676],[-38.48735,-3.86679],[-38.48735,-3.86679],[-38.48735,-3.86679],[-38.48738,-3.8669],[-38.4874,-3.86695],[-38.48747,-3.8671],[-38.48757,-3.86724],[-38.48762,-3.8673],[-38.48766,-3.86733],[-38.48767,-3.86743],[-38.48779,-3.86804],[-38.48782,-3.86829],[-38.48791,-3.86976],[-38.48795,-3.86998],[-38.48807,-3.87039],[-38.48811,-3.8705],[-38.48828,-3.87091],[-38.48856,-3.87159],[-38.4886,-3.87167],[-38.48864,-3.87175],[-38.48876,-3.87193],[-38.4889,-3.87207],[-38.48903,-3.87218],[-38.48907,-3.87226],[-38.48914,-3.87241],[-38.48924,-3.87254],[-38.48943,-3.87275],[-38.48949,-3.87285],[-38.48965,-3.87317],[-38.48973,-3.87331],[-38.49003,-3.87374],[-38.49006,-3.87388],[-38.49007,-3.87394],[-38.49015,-3.87415],[-38.49026,-3.87433],[-38.49033,-3.87441],[-38.49048,-3.87457],[-38.49066,-3.87468],[-38.4907,-3.8747],[-38.49068,-3.87475],[-38.49065,-3.87505],[-38.49064,-3.87526],[-38.49068,-3.87546],[-38.49074,-3.87561],[-38.49069,-3.87571],[-38.49063,-3.87589],[-38.49061,-3.87608],[-38.49061,-3.87623],[-38.49063,-3.87644],[-38.49068,-3.87662],[-38.4907,-3.87677],[-38.49075,-3.87694],[-38.49083,-3.87711],[-38.491,-3.87738],[-38.49113,-3.87755],[-38.49119,-3.87759],[-38.49123,-3.8777],[-38.49132,-3.87787],[-38.49144,-3.87802],[-38.49145,-3.87803],[-38.49143,-3.87818],[-38.49144,-3.87835],[-38.49144,-3.87836],[-38.49139,-3.87864],[-38.49138,-3.87885],[-38.49141,-3.87907],[-38.49145,-3.87918],[-38.49139,-3.87935],[-38.49136,-3.87956],[-38.49137,-3.87976],[-38.49143,-3.87996],[-38.49164,-3.8805],[-38.49172,-3.88067],[-38.49184,-3.88083],[-38.49198,-3.88095],[-38.49214,-3.88106],[-38.4922,-3.8811],[-38.49223,-3.88112],[-38.49231,-3.88129],[-38.49231,-3.88129],[-38.49232,-3.88148],[-38.49237,-3.88167],[-38.49252,-3.88209],[-38.49255,-3.88229],[-38.49254,-3.88238],[-38.49253,-3.88255],[-38.49256,-3.88272],[-38.49261,-3.88288],[-38.49311,-3.88406],[-38.49319,-3.88423],[-38.49331,-3.88437],[-38.4934,-3.88445],[-38.49345,-3.88455],[-38.49356,-3.8847],[-38.4937,-3.88483],[-38.49378,-3.88489],[-38.49387,-3.88495],[-38.49391,-3.88506],[-38.494,-3.88526],[-38.49413,-3.88544],[-38.4943,-3.88558],[-38.49438,-3.88563],[-38.49472,-3.88605],[-38.49493,-3.88624],[-38.49512,-3.88638],[-38.49523,-3.88644],[-38.49524,-3.88651],[-38.49532,-3.88671],[-38.49543,-3.88688],[-38.49551,-3.88698],[-38.49564,-3.88711],[-38.49578,-3.88722],[-38.49594,-3.8873],[-38.49611,-3.88734],[-38.49638,-3.88739],[-38.49645,-3.88745],[-38.4966,-3.88751],[-38.49668,-3.88764],[-38.49682,-3.88779],[-38.4971,-3.88805],[-38.49725,-3.88815],[-38.4974,-3.88823],[-38.49799,-3.88846],[-38.49814,-3.8885],[-38.49845,-3.88857],[-38.49864,-3.88859],[-38.49883,-3.88857],[-38.49891,-3.88856],[-38.499,-3.88853],[-38.49909,-3.88853],[-38.49915,-3.88852],[-38.49939,-3.8886],[-38.49946,-3.88861],[-38.50013,-3.88876],[-38.50018,-3.88877],[-38.5003,-3.88883],[-38.50043,-3.88889],[-38.50053,-3.88891],[-38.50054,-3.88893],[-38.50062,-3.88897],[-38.5008,-3.88907],[-38.50099,-3.88912],[-38.5012,-3.88913],[-38.50128,-3.88912],[-38.50135,-3.88912],[-38.50155,-3.88908],[-38.50172,-3.88901],[-38.50183,-3.88908],[-38.50197,-3.88914],[-38.5024,-3.88929],[-38.50289,-3.88947],[-38.50305,-3.88951],[-38.50322,-3.88953],[-38.50345,-3.88953],[-38.50361,-3.88957],[-38.50368,-3.88958],[-38.50372,-3.88965],[-38.50383,-3.8898],[-38.50442,-3.89041],[-38.50445,-3.89053],[-38.50451,-3.89069],[-38.50461,-3.89084],[-38.50486,-3.89117],[-38.505,-3.89132],[-38.50517,-3.89144],[-38.50536,-3.89152],[-38.50556,-3.89156],[-38.50576,-3.89156],[-38.50596,-3.89152],[-38.50615,-3.89144],[-38.50694,-3.89099],[-38.50751,-3.89067],[-38.50771,-3.89056],[-38.50775,-3.89053],[-38.50796,-3.8904],[-38.50801,-3.89037],[-38.50817,-3.89026],[-38.50822,-3.89021],[-38.50838,-3.89009],[-38.50839,-3.89008],[-38.5087,-3.88982],[-38.50879,-3.88974],[-38.50886,-3.88974],[-38.5089,-3.88975],[-38.50906,-3.88981],[-38.50914,-3.88983],[-38.5092,-3.88984],[-38.50934,-3.88987],[-38.50941,-3.88988],[-38.50954,-3.88988],[-38.5096,-3.88988],[-38.50969,-3.88988],[-38.50974,-3.88987],[-38.5098,-3.88986],[-38.51031,-3.88978],[-38.51033,-3.88978],[-38.51065,-3.88972],[-38.5108,-3.88978],[-38.51099,-3.88986],[-38.51105,-3.88993],[-38.51118,-3.8901],[-38.5112,-3.89011],[-38.51152,-3.89051],[-38.51156,-3.89055],[-38.51173,-3.89073],[-38.51174,-3.89074],[-38.51175,-3.89084],[-38.51177,-3.89095],[-38.51179,-3.89103],[-38.5118,-3.89108],[-38.51191,-3.89142],[-38.51192,-3.89146],[-38.51219,-3.89222],[-38.51231,-3.89258],[-38.51232,-3.89262],[-38.51249,-3.89309],[-38.51264,-3.89352],[-38.51307,-3.89485],[-38.51315,-3.89504],[-38.51326,-3.8952],[-38.51341,-3.89534],[-38.51358,-3.89544],[-38.51376,-3.89551],[-38.51396,-3.89554],[-38.51416,-3.89553],[-38.51435,-3.89549],[-38.51453,-3.8954],[-38.51469,-3.89528],[-38.51528,-3.89475],[-38.51529,-3.89474],[-38.51552,-3.89452],[-38.51643,-3.8937],[-38.51742,-3.8928],[-38.51868,-3.89169],[-38.51869,-3.89169],[-38.51943,-3.89104],[-38.51944,-3.89104],[-38.51988,-3.89064],[-38.51999,-3.89055],[-38.52021,-3.89035],[-38.52022,-3.89035],[-38.52089,-3.88974],[-38.52155,-3.88915],[-38.52239,-3.8884],[-38.5226,-3.88821],[-38.52261,-3.8882],[-38.52422,-3.8868],[-38.52513,-3.88603],[-38.52518,-3.88597],[-38.52553,-3.88563],[-38.52696,-3.88435],[-38.52824,-3.88324],[-38.52825,-3.88324],[-38.52956,-3.88208],[-38.53052,-3.88126],[-38.53054,-3.88124],[-38.53148,-3.88039],[-38.53178,-3.88013],[-38.53192,-3.87998],[-38.53203,-3.87981],[-38.53209,-3.87962],[-38.53212,-3.87943],[-38.53211,-3.87923],[-38.53207,-3.87903],[-38.53198,-3.87885],[-38.53186,-3.87869],[-38.53171,-3.87856],[-38.53153,-3.87846],[-38.53124,-3.87833],[-38.53086,-3.87812],[-38.53081,-3.87808],[-38.53078,-3.87805],[-38.53076,-3.87802],[-38.53067,-3.87788],[-38.53062,-3.87779],[-38.53057,-3.87766],[-38.53047,-3.87735],[-38.53027,-3.87664],[-38.53027,-3.87663],[-38.53016,-3.87622],[-38.53014,-3.87618],[-38.53006,-3.87592],[-38.53005,-3.8759],[-38.52996,-3.87563],[-38.52991,-3.8755],[-38.52983,-3.87535],[-38.52972,-3.87514],[-38.52972,-3.87512],[-38.52954,-3.87478],[-38.52944,-3.87454],[-38.5294,-3.87445],[-38.52938,-3.87437],[-38.52933,-3.87416],[-38.52932,-3.87415],[-38.52908,-3.87322],[-38.52908,-3.87321],[-38.529,-3.87294],[-38.52893,-3.87267],[-38.5289,-3.87258],[-38.52881,-3.87233],[-38.52876,-3.87222],[-38.5287,-3.8721],[-38.52864,-3.87201],[-38.52857,-3.8719],[-38.52855,-3.87188],[-38.52843,-3.87171],[-38.52825,-3.87144],[-38.52822,-3.87139],[-38.52803,-3.87112],[-38.52778,-3.87072],[-38.52775,-3.87069],[-38.52761,-3.8705],[-38.52756,-3.87043],[-38.5274,-3.87025],[-38.52735,-3.87019],[-38.52673,-3.86956],[-38.5267,-3.86954],[-38.52629,-3.86915],[-38.52626,-3.86912],[-38.5259,-3.86881],[-38.52583,-3.86876],[-38.52541,-3.86846],[-38.52538,-3.86844],[-38.52496,-3.86816],[-38.5249,-3.86812],[-38.52432,-3.86779],[-38.52427,-3.86776],[-38.52333,-3.8673],[-38.52328,-3.86728],[-38.52311,-3.8672],[-38.52299,-3.86715],[-38.52282,-3.86708],[-38.52277,-3.86706],[-38.52156,-3.86661],[-38.52153,-3.8666],[-38.52111,-3.86646],[-38.52108,-3.8664],[-38.52074,-3.86557],[-38.52065,-3.86535],[-38.52201,-3.86505],[-38.52338,-3.86479],[-38.52339,-3.86479],[-38.52353,-3.86476],[-38.52357,-3.86475],[-38.52505,-3.8644],[-38.52517,-3.86437],[-38.52657,-3.86404],[-38.5267,-3.86402],[-38.52671,-3.86401],[-38.53743,-3.86149],[-38.53758,-3.86144],[-38.53813,-3.86122],[-38.53857,-3.86106],[-38.53949,-3.86085],[-38.54254,-3.86017],[-38.54272,-3.86011],[-38.54289,-3.86002],[-38.54304,-3.85989],[-38.54316,-3.85974],[-38.54325,-3.85957],[-38.5433,-3.85939],[-38.54332,-3.8592],[-38.5433,-3.859],[-38.54326,-3.85876],[-38.54247,-3.85404],[-38.54499,-3.8531],[-38.54505,-3.85307],[-38.54571,-3.85277],[-38.55059,-3.8506],[-38.55127,-3.8503],[-38.55231,-3.84987],[-38.5538,-3.84931],[-38.55381,-3.8493],[-38.55723,-3.84795],[-38.55743,-3.84791],[-38.55747,-3.8479],[-38.55767,-3.84785],[-38.55987,-3.84702],[-38.56108,-3.84657],[-38.56343,-3.84576],[-38.56345,-3.84575],[-38.56582,-3.84488],[-38.56689,-3.84471],[-38.56714,-3.84463],[-38.56744,-3.8445],[-38.56749,-3.84448],[-38.56758,-3.84443],[-38.56936,-3.84398],[-38.56937,-3.84398],[-38.57149,-3.84343],[-38.57545,-3.84243],[-38.57546,-3.84243],[-38.57636,-3.84219],[-38.57872,-3.84158],[-38.58061,-3.84109],[-38.58061,-3.84109],[-38.58195,-3.84074],[-38.58195,-3.84074],[-38.58315,-3.84042],[-38.58343,-3.8404],[-38.58347,-3.8404],[-38.58365,-3.84036],[-38.58374,-3.84033],[-38.5838,-3.84036],[-38.58399,-3.84041],[-38.58419,-3.84042],[-38.58438,-3.84039],[-38.58448,-3.84037],[-38.58449,-3.84036],[-38.58592,-3.83999],[-38.58593,-3.83998],[-38.58692,-3.83971],[-38.58721,-3.83984],[-38.58741,-3.8399],[-38.58762,-3.83993],[-38.58783,-3.8399],[-38.58803,-3.83984],[-38.58821,-3.83973],[-38.58824,-3.83971],[-38.58853,-3.83951],[-38.58856,-3.83949],[-38.58876,-3.83934],[-38.58917,-3.83904],[-38.58964,-3.83872],[-38.58966,-3.83871],[-38.59018,-3.83833],[-38.59035,-3.83817],[-38.59041,-3.8381],[-38.59043,-3.83808],[-38.59066,-3.8378],[-38.59067,-3.83778],[-38.59073,-3.8377],[-38.59107,-3.83744],[-38.59158,-3.83709],[-38.59213,-3.83671],[-38.59264,-3.83637],[-38.59317,-3.83603],[-38.5932,-3.83601],[-38.59372,-3.83564],[-38.59422,-3.8353],[-38.59464,-3.83503],[-38.5949,-3.83488],[-38.5966,-3.83442],[-38.59689,-3.83434],[-38.59711,-3.83426],[-38.59713,-3.83425],[-38.59798,-3.83383],[-38.59802,-3.83382],[-38.59867,-3.83347],[-38.59896,-3.83331],[-38.59899,-3.8333],[-38.59996,-3.83276],[-38.60095,-3.83224],[-38.60191,-3.83173],[-38.6024,-3.83147],[-38.60288,-3.83124],[-38.60379,-3.8308],[-38.60439,-3.83051],[-38.60446,-3.83048],[-38.60486,-3.83025],[-38.60519,-3.83007],[-38.60553,-3.82988],[-38.60555,-3.82987],[-38.60587,-3.82968],[-38.60683,-3.82919],[-38.60684,-3.82919],[-38.60782,-3.82867],[-38.60783,-3.82867],[-38.60879,-3.82815],[-38.60975,-3.82764],[-38.61073,-3.82715],[-38.61074,-3.82715],[-38.61173,-3.82664],[-38.61175,-3.82663],[-38.6127,-3.82612],[-38.61368,-3.82563],[-38.61384,-3.82553],[-38.61398,-3.82539],[-38.614,-3.82537],[-38.61405,-3.82534],[-38.61512,-3.82485],[-38.6153,-3.82474],[-38.61546,-3.8246],[-38.61558,-3.82442],[-38.61565,-3.8243],[-38.61572,-3.82412],[-38.61576,-3.82394],[-38.61577,-3.82375],[-38.61575,-3.82344],[-38.61571,-3.82322],[-38.61787,-3.82209],[-38.61798,-3.82213],[-38.61817,-3.82215],[-38.61837,-3.82214],[-38.61856,-3.82208],[-38.61874,-3.82199],[-38.6189,-3.82187],[-38.61934,-3.82144],[-38.61971,-3.82107],[-38.6205,-3.82032],[-38.62052,-3.8203],[-38.62097,-3.81985],[-38.6213,-3.81953],[-38.62208,-3.81877],[-38.62321,-3.8177],[-38.62333,-3.81755],[-38.62343,-3.81738],[-38.62349,-3.8172],[-38.62352,-3.81701],[-38.6235,-3.81681],[-38.62345,-3.81663],[-38.62337,-3.81645],[-38.62308,-3.81597],[-38.62306,-3.81594],[-38.62305,-3.81591],[-38.62292,-3.8157],[-38.62283,-3.81555],[-38.62345,-3.81506],[-38.62476,-3.81406],[-38.62613,-3.81302],[-38.62744,-3.81205],[-38.62745,-3.81205],[-38.62769,-3.81186],[-38.62849,-3.81132],[-38.62851,-3.81131],[-38.62854,-3.8113],[-38.62856,-3.8113],[-38.63071,-3.81074],[-38.63074,-3.81073],[-38.63081,-3.81071],[-38.63098,-3.81064],[-38.63114,-3.81054],[-38.63128,-3.81041],[-38.63139,-3.81026],[-38.63147,-3.81009],[-38.63152,-3.80991],[-38.63153,-3.80972],[-38.6315,-3.80953],[-38.63136,-3.8089],[-38.63121,-3.80826],[-38.63106,-3.80761],[-38.63099,-3.80727],[-38.6323,-3.80695],[-38.63458,-3.80641],[-38.6361,-3.80612],[-38.63614,-3.80611],[-38.63658,-3.80601],[-38.6367,-3.80597],[-38.63708,-3.80583],[-38.63725,-3.80579],[-38.63741,-3.80578],[-38.63755,-3.80576],[-38.63776,-3.80571],[-38.63787,-3.80569],[-38.63806,-3.80564],[-38.63824,-3.80556],[-38.6384,-3.80544],[-38.63853,-3.80529],[-38.63863,-3.80512],[-38.6387,-3.80494],[-38.63872,-3.80474],[-38.6388,-3.80309],[-38.6389,-3.80168],[-38.6389,-3.80167],[-38.63891,-3.80148],[-38.6389,-3.80128],[-38.63885,-3.80109],[-38.63877,-3.80091],[-38.63865,-3.80075],[-38.63851,-3.80062],[-38.63832,-3.80048]]]},"properties":{"ghs":"7pk","size":312.42,"ghs_len":3,"ghs_area":324.07,"ghs_bytes":633562,"ghs_items":121,"size_unit":"km2","ghsval_unit":"bytes","ghs_itemsdensity":0.37,"size_unitdensity":0.96}}]}
