{"type":"FeatureCollection","features":[{"type":"Feature","geometry":{"type":"MultiPolygon","coordinates":[[[[-46.48501,-23.02734],[-46.48439,-23.02708],[-46.48421,-23.02702],[-46.48401,-23.027],[-46.48381,-23.02702],[-46.48362,-23.02707],[-46.48345,-23.02717],[-46.48329,-23.02729],[-46.48324,-23.02734],[-46.48501,-23.02734]]],[[[-46.51298,-23.02734],[-46.51121,-23.02702],[-46.50324,-23.02503],[-46.50302,-23.025],[-46.5028,-23.02502],[-46.50259,-23.02509],[-46.49751,-23.02734],[-46.51298,-23.02734]]],[[[-46.53809,-23.02734],[-46.53876,-23.02734],[-46.53671,-23.02529],[-46.53656,-23.02517],[-46.5364,-23.02508],[-46.53622,-23.02503],[-46.53604,-23.025],[-46.53585,-23.02501],[-46.53567,-23.02505],[-46.5355,-23.02513],[-46.53163,-23.02734],[-46.53809,-23.02734]]],[[[-46.58203,-23.02734],[-46.68295,-23.02734],[-46.68341,-23.02685],[-46.68347,-23.02681],[-46.68353,-23.02679],[-46.68419,-23.02674],[-46.68429,-23.02673],[-46.68502,-23.0266],[-46.68519,-23.02655],[-46.68594,-23.02627],[-46.68609,-23.0262],[-46.68676,-23.02581],[-46.68693,-23.02569],[-46.68731,-23.02535],[-46.68746,-23.02521],[-46.68778,-23.02507],[-46.68779,-23.02507],[-46.68893,-23.02459],[-46.6891,-23.0245],[-46.68948,-23.02425],[-46.68961,-23.02415],[-46.68972,-23.02402],[-46.68996,-23.02371],[-46.69004,-23.02358],[-46.69021,-23.02328],[-46.6903,-23.02303],[-46.69038,-23.02269],[-46.69041,-23.02251],[-46.6904,-23.02233],[-46.69036,-23.022],[-46.69033,-23.02186],[-46.69027,-23.02163],[-46.69027,-23.02162],[-46.69031,-23.02154],[-46.69052,-23.02132],[-46.69132,-23.02067],[-46.69197,-23.02015],[-46.69237,-23.01984],[-46.6925,-23.01973],[-46.69284,-23.01937],[-46.69292,-23.01927],[-46.69319,-23.0189],[-46.69325,-23.0188],[-46.69354,-23.01827],[-46.69363,-23.01807],[-46.69367,-23.01786],[-46.6937,-23.01744],[-46.69373,-23.01707],[-46.69382,-23.01674],[-46.69382,-23.01674],[-46.69392,-23.01634],[-46.69395,-23.01614],[-46.69396,-23.01606],[-46.69457,-23.01595],[-46.69463,-23.01594],[-46.69514,-23.01582],[-46.69532,-23.01575],[-46.69557,-23.01564],[-46.69571,-23.01561],[-46.69572,-23.01561],[-46.6959,-23.01577],[-46.69604,-23.01587],[-46.69626,-23.01601],[-46.69641,-23.01609],[-46.69656,-23.01614],[-46.69678,-23.01619],[-46.69704,-23.01621],[-46.69731,-23.01621],[-46.69751,-23.01618],[-46.6977,-23.01612],[-46.69785,-23.01605],[-46.69799,-23.01597],[-46.69812,-23.01587],[-46.69823,-23.01575],[-46.69836,-23.01557],[-46.69846,-23.01541],[-46.69853,-23.01524],[-46.6987,-23.01465],[-46.69874,-23.01445],[-46.69877,-23.01401],[-46.69877,-23.01385],[-46.69874,-23.01368],[-46.69864,-23.01328],[-46.69855,-23.01307],[-46.69827,-23.01253],[-46.69817,-23.01238],[-46.69804,-23.01224],[-46.69767,-23.01193],[-46.69758,-23.01185],[-46.697,-23.01147],[-46.69694,-23.0114],[-46.69681,-23.01114],[-46.69673,-23.01088],[-46.69667,-23.0105],[-46.69666,-23.0102],[-46.69663,-23.01002],[-46.69658,-23.00984],[-46.69648,-23.00968],[-46.69636,-23.00953],[-46.69622,-23.00941],[-46.69605,-23.00932],[-46.69587,-23.00927],[-46.69568,-23.00924],[-46.68542,-23.00901],[-46.67871,-23.00229],[-46.67862,-23.00222],[-46.67362,-22.99822],[-46.67343,-22.9981],[-46.67322,-22.99803],[-46.673,-22.998],[-46.661,-22.998],[-46.66079,-22.99802],[-46.6606,-22.99809],[-46.66042,-22.99819],[-46.66026,-22.99833],[-46.6504,-23.00917],[-46.64179,-23.013],[-46.641,-23.013],[-46.6408,-23.01302],[-46.64062,-23.01308],[-46.64044,-23.01317],[-46.64029,-23.01329],[-46.63978,-23.0138],[-46.63716,-23.01643],[-46.63183,-23.00845],[-46.63169,-23.00828],[-46.63152,-23.00814],[-46.63132,-23.00805],[-46.62232,-23.00505],[-46.62213,-23.00501],[-46.62195,-23.005],[-46.62176,-23.00503],[-46.62158,-23.00509],[-46.62142,-23.00519],[-46.62128,-23.00531],[-46.62116,-23.00546],[-46.62107,-23.00562],[-46.62102,-23.0058],[-46.61916,-23.0151],[-46.60487,-23.01701],[-46.60482,-23.01702],[-46.59405,-23.01897],[-46.58727,-23.01704],[-46.58706,-23.017],[-46.58684,-23.01701],[-46.58663,-23.01707],[-46.58212,-23.01888],[-46.57955,-23.01717],[-46.57938,-23.01708],[-46.57919,-23.01702],[-46.579,-23.017],[-46.5788,-23.01702],[-46.57862,-23.01708],[-46.57844,-23.01717],[-46.57829,-23.01729],[-46.57817,-23.01744],[-46.57808,-23.01762],[-46.57802,-23.01781],[-46.578,-23.018],[-46.578,-23.02362],[-46.57465,-23.02734],[-46.58203,-23.02734]]],[[[-46.62598,-23.20312],[-46.58203,-23.20312],[-46.53852,-23.20312],[-46.54186,-23.20719],[-46.53906,-23.21465],[-46.53902,-23.21482],[-46.539,-23.215],[-46.539,-23.21552],[-46.52976,-23.22291],[-46.52518,-23.22175],[-46.52382,-23.22072],[-46.52365,-23.22061],[-46.52346,-23.22054],[-46.52326,-23.22051],[-46.52306,-23.22052],[-46.52195,-23.2207],[-46.5219,-23.22071],[-46.51965,-23.22116],[-46.51949,-23.22121],[-46.51678,-23.22225],[-46.51656,-23.22237],[-46.51611,-23.2227],[-46.51593,-23.22255],[-46.51573,-23.22241],[-46.515,-23.22204],[-46.51482,-23.22197],[-46.51462,-23.22193],[-46.51442,-23.22194],[-46.51387,-23.22201],[-46.51371,-23.22204],[-46.51356,-23.2221],[-46.51341,-23.22219],[-46.51231,-23.22299],[-46.51216,-23.22311],[-46.51205,-23.22327],[-46.51196,-23.22344],[-46.51191,-23.22363],[-46.51189,-23.22382],[-46.51192,-23.22401],[-46.51204,-23.22459],[-46.51101,-23.22536],[-46.51087,-23.22549],[-46.51076,-23.22564],[-46.51067,-23.22581],[-46.51062,-23.22599],[-46.51022,-23.22825],[-46.5102,-23.22845],[-46.51022,-23.22933],[-46.50968,-23.23132],[-46.50915,-23.23237],[-46.50908,-23.23255],[-46.50904,-23.23274],[-46.50904,-23.23293],[-46.50908,-23.23311],[-46.50915,-23.23329],[-46.50925,-23.23345],[-46.50939,-23.23359],[-46.50954,-23.2337],[-46.51001,-23.23397],[-46.51038,-23.23436],[-46.51054,-23.2345],[-46.51072,-23.2346],[-46.51126,-23.23483],[-46.51148,-23.23511],[-46.51159,-23.23524],[-46.51172,-23.23535],[-46.51187,-23.23543],[-46.51345,-23.23616],[-46.51347,-23.23617],[-46.51373,-23.23696],[-46.51383,-23.23717],[-46.51402,-23.23748],[-46.51414,-23.23763],[-46.51428,-23.23776],[-46.5149,-23.23821],[-46.5151,-23.23833],[-46.51533,-23.23839],[-46.51672,-23.2386],[-46.51693,-23.23861],[-46.51924,-23.23848],[-46.51941,-23.23846],[-46.52,-23.23832],[-46.52114,-23.23833],[-46.52133,-23.23831],[-46.52151,-23.23826],[-46.52157,-23.23824],[-46.5216,-23.23831],[-46.5217,-23.23845],[-46.52183,-23.23857],[-46.52197,-23.23866],[-46.52303,-23.23924],[-46.5232,-23.23932],[-46.52338,-23.23936],[-46.52465,-23.23953],[-46.52495,-23.23965],[-46.52537,-23.23995],[-46.52599,-23.24074],[-46.52613,-23.24093],[-46.52624,-23.24107],[-46.52638,-23.24118],[-46.52682,-23.24149],[-46.52711,-23.2417],[-46.52732,-23.242],[-46.52744,-23.24214],[-46.5276,-23.24226],[-46.52763,-23.24229],[-46.52773,-23.24237],[-46.52792,-23.24251],[-46.52814,-23.2426],[-46.52854,-23.24271],[-46.52868,-23.24274],[-46.52883,-23.24274],[-46.52929,-23.24273],[-46.52949,-23.2427],[-46.52969,-23.24263],[-46.53187,-23.24158],[-46.53263,-23.2414],[-46.53432,-23.2417],[-46.53452,-23.24172],[-46.53472,-23.24169],[-46.53646,-23.2413],[-46.53815,-23.24116],[-46.53826,-23.24115],[-46.54,-23.24082],[-46.54014,-23.24078],[-46.54021,-23.24075],[-46.54022,-23.24077],[-46.54041,-23.24091],[-46.54062,-23.241],[-46.5428,-23.24167],[-46.54297,-23.2417],[-46.54389,-23.24182],[-46.54474,-23.24208],[-46.54492,-23.24212],[-46.54586,-23.24222],[-46.54641,-23.2423],[-46.54662,-23.2423],[-46.54683,-23.24227],[-46.54702,-23.24219],[-46.54719,-23.24207],[-46.54781,-23.24154],[-46.54792,-23.24144],[-46.54801,-23.24132],[-46.54837,-23.24076],[-46.54867,-23.24054],[-46.54868,-23.24053],[-46.54898,-23.24053],[-46.54958,-23.24064],[-46.54974,-23.24066],[-46.55117,-23.24069],[-46.55135,-23.24068],[-46.55153,-23.24063],[-46.55169,-23.24055],[-46.55184,-23.24044],[-46.55197,-23.24031],[-46.55207,-23.24016],[-46.55223,-23.23985],[-46.55233,-23.23958],[-46.55252,-23.23864],[-46.55288,-23.23824],[-46.553,-23.23808],[-46.55308,-23.23791],[-46.55313,-23.23771],[-46.55314,-23.23752],[-46.55311,-23.23699],[-46.55315,-23.23699],[-46.55369,-23.23705],[-46.55389,-23.23705],[-46.55437,-23.237],[-46.55441,-23.237],[-46.55489,-23.23693],[-46.55502,-23.2369],[-46.55534,-23.23682],[-46.55551,-23.23675],[-46.55567,-23.23666],[-46.55596,-23.23645],[-46.55601,-23.23641],[-46.55629,-23.23617],[-46.55694,-23.23604],[-46.55717,-23.23596],[-46.55731,-23.23589],[-46.5583,-23.23596],[-46.55934,-23.23634],[-46.55957,-23.23639],[-46.55981,-23.23639],[-46.56039,-23.23631],[-46.56115,-23.23627],[-46.56147,-23.23631],[-46.56155,-23.23632],[-46.56182,-23.23634],[-46.56186,-23.23635],[-46.56193,-23.23646],[-46.56202,-23.23661],[-46.56214,-23.23673],[-46.56228,-23.23683],[-46.56257,-23.23702],[-46.56271,-23.23709],[-46.56286,-23.23714],[-46.5632,-23.23722],[-46.5634,-23.23725],[-46.56359,-23.23724],[-46.56422,-23.23714],[-46.56432,-23.23712],[-46.56533,-23.23685],[-46.56623,-23.23703],[-46.56642,-23.23705],[-46.56661,-23.23703],[-46.5668,-23.23698],[-46.56697,-23.23689],[-46.56712,-23.23677],[-46.5673,-23.2366],[-46.56741,-23.23647],[-46.5675,-23.23633],[-46.56755,-23.23623],[-46.56762,-23.23607],[-46.56765,-23.2359],[-46.56768,-23.2357],[-46.56768,-23.23543],[-46.56766,-23.23532],[-46.56768,-23.23514],[-46.56793,-23.23459],[-46.56811,-23.23459],[-46.56828,-23.2346],[-46.56829,-23.2346],[-46.56946,-23.23462],[-46.56988,-23.23463],[-46.57002,-23.23462],[-46.57013,-23.23461],[-46.57051,-23.23456],[-46.57081,-23.2346],[-46.57114,-23.23464],[-46.57115,-23.23465],[-46.5713,-23.23472],[-46.5715,-23.23478],[-46.57171,-23.2348],[-46.57182,-23.2348],[-46.57201,-23.23479],[-46.5722,-23.23473],[-46.57237,-23.23464],[-46.57252,-23.23452],[-46.57265,-23.23437],[-46.57274,-23.23419],[-46.57278,-23.23411],[-46.57279,-23.23407],[-46.57348,-23.23364],[-46.57411,-23.23351],[-46.57479,-23.23341],[-46.57503,-23.23341],[-46.57523,-23.2334],[-46.57566,-23.23333],[-46.57705,-23.2337],[-46.57723,-23.23373],[-46.57756,-23.23376],[-46.57774,-23.23375],[-46.57793,-23.23372],[-46.5781,-23.23364],[-46.57825,-23.23354],[-46.57837,-23.23345],[-46.57881,-23.23341],[-46.57943,-23.23363],[-46.57952,-23.23368],[-46.57976,-23.23378],[-46.57989,-23.23381],[-46.58009,-23.23385],[-46.58022,-23.23385],[-46.5805,-23.23383],[-46.58065,-23.2338],[-46.58083,-23.23374],[-46.5811,-23.23362],[-46.58207,-23.23328],[-46.5823,-23.23326],[-46.5829,-23.23336],[-46.58297,-23.23338],[-46.58298,-23.23338],[-46.58335,-23.23401],[-46.58352,-23.23422],[-46.58441,-23.23507],[-46.58454,-23.23518],[-46.58468,-23.23526],[-46.58484,-23.23532],[-46.58511,-23.23539],[-46.58537,-23.23543],[-46.58566,-23.23543],[-46.58577,-23.23542],[-46.5867,-23.23532],[-46.58734,-23.23536],[-46.5877,-23.23547],[-46.58784,-23.23557],[-46.58822,-23.23599],[-46.58909,-23.2372],[-46.58921,-23.23734],[-46.58936,-23.23745],[-46.58952,-23.23754],[-46.58969,-23.2376],[-46.58987,-23.23762],[-46.59006,-23.23761],[-46.59069,-23.23751],[-46.59093,-23.23748],[-46.5918,-23.2376],[-46.59189,-23.23761],[-46.59283,-23.23765],[-46.593,-23.23764],[-46.59363,-23.23756],[-46.59385,-23.2375],[-46.59405,-23.2374],[-46.59444,-23.23715],[-46.59455,-23.23707],[-46.5949,-23.23676],[-46.59524,-23.23659],[-46.59561,-23.23648],[-46.5957,-23.23647],[-46.59654,-23.23673],[-46.59676,-23.23677],[-46.59698,-23.23676],[-46.5973,-23.23671],[-46.59751,-23.23665],[-46.59771,-23.23655],[-46.59802,-23.23635],[-46.59812,-23.23626],[-46.59827,-23.23626],[-46.5983,-23.23626],[-46.59872,-23.23623],[-46.59894,-23.23619],[-46.59914,-23.2361],[-46.60077,-23.23518],[-46.60087,-23.23514],[-46.60089,-23.23515],[-46.60302,-23.23601],[-46.60324,-23.23607],[-46.60347,-23.23608],[-46.60397,-23.23604],[-46.60418,-23.23601],[-46.60437,-23.23593],[-46.60454,-23.23582],[-46.60469,-23.23567],[-46.605,-23.23528],[-46.60512,-23.23509],[-46.6052,-23.23487],[-46.60532,-23.23431],[-46.60534,-23.23413],[-46.60533,-23.23394],[-46.60529,-23.23377],[-46.60525,-23.23369],[-46.60534,-23.23357],[-46.60541,-23.23339],[-46.60546,-23.23321],[-46.60557,-23.23236],[-46.60558,-23.23221],[-46.60556,-23.23206],[-46.60541,-23.23117],[-46.60615,-23.22925],[-46.60619,-23.22908],[-46.60621,-23.22891],[-46.60623,-23.22804],[-46.60847,-23.2265],[-46.60853,-23.22652],[-46.60945,-23.22706],[-46.60967,-23.22715],[-46.60991,-23.22719],[-46.61151,-23.22726],[-46.61213,-23.22769],[-46.6123,-23.22778],[-46.61248,-23.22784],[-46.61345,-23.22805],[-46.61358,-23.22807],[-46.61402,-23.2281],[-46.61438,-23.22836],[-46.6139,-23.22962],[-46.61385,-23.2298],[-46.61362,-23.23119],[-46.6136,-23.23134],[-46.61361,-23.2315],[-46.61367,-23.23192],[-46.61371,-23.2321],[-46.61379,-23.23227],[-46.61389,-23.23242],[-46.61409,-23.23266],[-46.61422,-23.23278],[-46.61437,-23.23289],[-46.61453,-23.23296],[-46.61471,-23.233],[-46.6154,-23.23311],[-46.61621,-23.23364],[-46.61654,-23.23405],[-46.61664,-23.23489],[-46.6165,-23.23547],[-46.61647,-23.23569],[-46.61649,-23.23591],[-46.61656,-23.23612],[-46.61722,-23.2376],[-46.61724,-23.23763],[-46.61748,-23.23812],[-46.61729,-23.23825],[-46.61713,-23.23837],[-46.61701,-23.23853],[-46.61691,-23.2387],[-46.61668,-23.23926],[-46.61666,-23.2393],[-46.61642,-23.23995],[-46.61637,-23.24013],[-46.61636,-23.24032],[-46.61638,-23.24051],[-46.61644,-23.24069],[-46.61653,-23.2409],[-46.61664,-23.2411],[-46.6168,-23.24127],[-46.61731,-23.2417],[-46.61902,-23.24328],[-46.61918,-23.2434],[-46.61935,-23.24348],[-46.61954,-23.24353],[-46.62041,-23.24367],[-46.62059,-23.24369],[-46.62111,-23.24368],[-46.62128,-23.24366],[-46.62144,-23.24363],[-46.62166,-23.24395],[-46.62171,-23.24407],[-46.62172,-23.2444],[-46.62174,-23.24458],[-46.62193,-23.24553],[-46.6217,-23.24679],[-46.62148,-23.24782],[-46.62146,-23.24798],[-46.62147,-23.24814],[-46.62154,-23.24877],[-46.62145,-23.25001],[-46.62145,-23.25009],[-46.62145,-23.25102],[-46.62147,-23.25121],[-46.62152,-23.25139],[-46.62161,-23.25156],[-46.62189,-23.25199],[-46.62189,-23.25205],[-46.62181,-23.25224],[-46.62132,-23.25281],[-46.6212,-23.25298],[-46.62112,-23.25318],[-46.62108,-23.25338],[-46.62103,-23.25398],[-46.62103,-23.25415],[-46.62106,-23.25432],[-46.62112,-23.25448],[-46.62139,-23.25505],[-46.62148,-23.25563],[-46.62147,-23.25636],[-46.62149,-23.25658],[-46.62156,-23.25679],[-46.62167,-23.25698],[-46.6223,-23.25782],[-46.62243,-23.25796],[-46.62258,-23.25807],[-46.62275,-23.25815],[-46.62293,-23.2582],[-46.62312,-23.25822],[-46.62331,-23.2582],[-46.62551,-23.25773],[-46.62587,-23.25848],[-46.62597,-23.25865],[-46.6261,-23.25879],[-46.62625,-23.25891],[-46.62643,-23.259],[-46.62662,-23.25904],[-46.6274,-23.25916],[-46.62794,-23.25937],[-46.62908,-23.25989],[-46.62925,-23.25995],[-46.62942,-23.25998],[-46.62987,-23.26002],[-46.63004,-23.26002],[-46.6302,-23.25999],[-46.63083,-23.25983],[-46.631,-23.25977],[-46.63115,-23.25968],[-46.63171,-23.25929],[-46.63185,-23.25924],[-46.6323,-23.25934],[-46.63247,-23.25936],[-46.63264,-23.25935],[-46.63315,-23.25928],[-46.63336,-23.25923],[-46.63354,-23.25914],[-46.63371,-23.25902],[-46.63403,-23.25872],[-46.63416,-23.25856],[-46.63426,-23.25837],[-46.63432,-23.25817],[-46.63433,-23.25811],[-46.63439,-23.25808],[-46.63465,-23.25824],[-46.63478,-23.2583],[-46.63492,-23.25835],[-46.63538,-23.25846],[-46.63543,-23.25851],[-46.63556,-23.2586],[-46.6357,-23.25868],[-46.63667,-23.25908],[-46.63682,-23.25913],[-46.63698,-23.25916],[-46.63741,-23.25919],[-46.63761,-23.25918],[-46.63781,-23.25914],[-46.63799,-23.25906],[-46.63815,-23.25894],[-46.63891,-23.25826],[-46.63976,-23.2575],[-46.63981,-23.25746],[-46.63999,-23.25727],[-46.64014,-23.25718],[-46.64024,-23.25713],[-46.64085,-23.25715],[-46.64097,-23.25714],[-46.64138,-23.25711],[-46.64155,-23.25708],[-46.6417,-23.25703],[-46.6427,-23.25659],[-46.64336,-23.25649],[-46.64484,-23.25671],[-46.64676,-23.25754],[-46.64689,-23.25759],[-46.64997,-23.25842],[-46.65012,-23.25869],[-46.65029,-23.25988],[-46.65033,-23.26008],[-46.65042,-23.26026],[-46.65054,-23.26042],[-46.65069,-23.26055],[-46.65086,-23.26065],[-46.65213,-23.26122],[-46.65232,-23.26129],[-46.65251,-23.26131],[-46.65481,-23.26138],[-46.65509,-23.26135],[-46.65946,-23.26023],[-46.67153,-23.25715],[-46.67414,-23.26151],[-46.67425,-23.26166],[-46.67439,-23.26179],[-46.67455,-23.26189],[-46.67472,-23.26196],[-46.6749,-23.262],[-46.67509,-23.262],[-46.67527,-23.26196],[-46.67545,-23.26189],[-46.68312,-23.25806],[-46.68676,-23.25897],[-46.68686,-23.25899],[-46.69386,-23.25999],[-46.69405,-23.26],[-46.69425,-23.25997],[-46.69443,-23.2599],[-46.6946,-23.2598],[-46.6986,-23.2568],[-46.69875,-23.25666],[-46.69887,-23.25649],[-46.69895,-23.2563],[-46.699,-23.25609],[-46.69899,-23.25589],[-46.69895,-23.25568],[-46.69833,-23.25382],[-46.70414,-23.25299],[-46.70433,-23.25295],[-46.7045,-23.25287],[-46.70465,-23.25276],[-46.70478,-23.25262],[-46.70489,-23.25246],[-46.70496,-23.25229],[-46.70499,-23.2521],[-46.705,-23.25191],[-46.70496,-23.25173],[-46.70304,-23.24498],[-46.70489,-23.23758],[-46.71361,-23.23079],[-46.71375,-23.23067],[-46.71385,-23.23052],[-46.71393,-23.23036],[-46.71398,-23.23018],[-46.714,-23.23],[-46.714,-23.22416],[-46.71589,-23.2185],[-46.71873,-23.21521],[-46.71884,-23.21505],[-46.71892,-23.21487],[-46.71897,-23.21468],[-46.71897,-23.21448],[-46.71894,-23.21428],[-46.71886,-23.2141],[-46.71876,-23.21393],[-46.71862,-23.21379],[-46.71846,-23.21368],[-46.71588,-23.21226],[-46.71552,-23.21145],[-46.71541,-23.21127],[-46.71527,-23.21111],[-46.7151,-23.21099],[-46.7149,-23.2109],[-46.71471,-23.21084],[-46.7145,-23.2108],[-46.71429,-23.21081],[-46.71408,-23.21085],[-46.71389,-23.21094],[-46.71372,-23.21107],[-46.71339,-23.21139],[-46.71269,-23.21133],[-46.71267,-23.21085],[-46.71269,-23.21059],[-46.71267,-23.21038],[-46.71262,-23.21018],[-46.71252,-23.21],[-46.71239,-23.20984],[-46.71218,-23.20962],[-46.71217,-23.20961],[-46.71202,-23.20947],[-46.71201,-23.20946],[-46.7118,-23.20926],[-46.71174,-23.20921],[-46.71179,-23.20917],[-46.71193,-23.20901],[-46.71203,-23.20883],[-46.71204,-23.20881],[-46.7121,-23.20877],[-46.71225,-23.20865],[-46.71238,-23.20849],[-46.71247,-23.20831],[-46.71253,-23.20812],[-46.71255,-23.20792],[-46.71252,-23.20772],[-46.71246,-23.20753],[-46.71236,-23.20736],[-46.71229,-23.20726],[-46.71214,-23.20709],[-46.71141,-23.20644],[-46.7114,-23.20636],[-46.71134,-23.20618],[-46.71125,-23.20602],[-46.71113,-23.20588],[-46.70913,-23.20394],[-46.70895,-23.20379],[-46.70873,-23.2037],[-46.70844,-23.20361],[-46.7082,-23.20356],[-46.70799,-23.20355],[-46.70773,-23.20357],[-46.70654,-23.20383],[-46.70529,-23.20353],[-46.70504,-23.2035],[-46.70406,-23.20352],[-46.70383,-23.20355],[-46.70353,-23.20363],[-46.70336,-23.20369],[-46.70321,-23.20378],[-46.70307,-23.20389],[-46.70296,-23.20403],[-46.70287,-23.20418],[-46.70281,-23.2043],[-46.70274,-23.20449],[-46.70272,-23.20469],[-46.70273,-23.20489],[-46.70283,-23.20548],[-46.70288,-23.20567],[-46.70293,-23.20578],[-46.70281,-23.20598],[-46.70273,-23.20617],[-46.70269,-23.20638],[-46.70269,-23.20659],[-46.70273,-23.2068],[-46.70294,-23.20741],[-46.70305,-23.20763],[-46.70313,-23.20777],[-46.70313,-23.20778],[-46.70307,-23.20799],[-46.70303,-23.20816],[-46.70297,-23.20814],[-46.70278,-23.2081],[-46.7027,-23.2081],[-46.70264,-23.20803],[-46.70196,-23.2074],[-46.70181,-23.20729],[-46.70165,-23.20721],[-46.70147,-23.20716],[-46.70129,-23.20714],[-46.70129,-23.20714],[-46.70117,-23.20706],[-46.70036,-23.20661],[-46.7002,-23.20654],[-46.70003,-23.2065],[-46.69985,-23.20649],[-46.69913,-23.20651],[-46.69893,-23.20653],[-46.69874,-23.2066],[-46.69856,-23.2067],[-46.69841,-23.20684],[-46.69835,-23.20691],[-46.69766,-23.2067],[-46.69747,-23.20666],[-46.69684,-23.20659],[-46.69666,-23.20659],[-46.69647,-23.20662],[-46.6963,-23.20669],[-46.69548,-23.20708],[-46.69533,-23.20718],[-46.69519,-23.2073],[-46.69508,-23.20744],[-46.69499,-23.2076],[-46.69462,-23.20849],[-46.69459,-23.20862],[-46.69421,-23.20862],[-46.69401,-23.20864],[-46.69383,-23.20869],[-46.69314,-23.20897],[-46.69248,-23.20874],[-46.69196,-23.20833],[-46.69197,-23.20829],[-46.692,-23.20811],[-46.692,-23.20792],[-46.69196,-23.20774],[-46.69189,-23.20756],[-46.69179,-23.2074],[-46.69166,-23.20727],[-46.69151,-23.20716],[-46.69071,-23.20669],[-46.69053,-23.20661],[-46.69033,-23.20656],[-46.69014,-23.20656],[-46.68994,-23.20659],[-46.6899,-23.2066],[-46.68984,-23.20644],[-46.68974,-23.20628],[-46.68961,-23.20614],[-46.68909,-23.20568],[-46.68892,-23.20556],[-46.68873,-23.20548],[-46.68853,-23.20543],[-46.6876,-23.20534],[-46.68751,-23.20534],[-46.68701,-23.20534],[-46.6869,-23.20534],[-46.68604,-23.20542],[-46.68583,-23.20547],[-46.68563,-23.20556],[-46.68545,-23.20569],[-46.68531,-23.20586],[-46.68473,-23.20671],[-46.68439,-23.20663],[-46.6843,-23.20651],[-46.68415,-23.20637],[-46.68397,-23.20627],[-46.68356,-23.20609],[-46.68334,-23.20602],[-46.6831,-23.206],[-46.68285,-23.20602],[-46.68267,-23.20604],[-46.68249,-23.2061],[-46.68233,-23.2062],[-46.68218,-23.20632],[-46.68207,-23.20646],[-46.68198,-23.20663],[-46.68179,-23.20707],[-46.68165,-23.20716],[-46.68132,-23.20715],[-46.68111,-23.20717],[-46.68091,-23.20724],[-46.68073,-23.20734],[-46.68057,-23.20749],[-46.68045,-23.20766],[-46.68008,-23.20829],[-46.68,-23.20848],[-46.67996,-23.20868],[-46.67996,-23.20889],[-46.67997,-23.20898],[-46.67969,-23.20917],[-46.67798,-23.2103],[-46.67783,-23.21042],[-46.67772,-23.21055],[-46.67762,-23.21071],[-46.67757,-23.21086],[-46.67715,-23.21066],[-46.67699,-23.2106],[-46.67542,-23.21017],[-46.67523,-23.21014],[-46.67504,-23.21014],[-46.67485,-23.21019],[-46.67351,-23.21062],[-46.67331,-23.21071],[-46.67313,-23.21085],[-46.67263,-23.21132],[-46.6725,-23.21147],[-46.67241,-23.21164],[-46.67235,-23.21183],[-46.67232,-23.21202],[-46.67234,-23.21222],[-46.67236,-23.21232],[-46.67221,-23.21241],[-46.67207,-23.21254],[-46.67195,-23.21271],[-46.67169,-23.21316],[-46.67137,-23.21361],[-46.67128,-23.21378],[-46.67126,-23.21383],[-46.67121,-23.21383],[-46.67106,-23.21352],[-46.67093,-23.2133],[-46.67077,-23.2131],[-46.67077,-23.2131],[-46.67078,-23.21309],[-46.67092,-23.21302],[-46.67105,-23.21292],[-46.67124,-23.21275],[-46.67139,-23.21258],[-46.6715,-23.21239],[-46.67156,-23.21217],[-46.6716,-23.21194],[-46.67161,-23.2117],[-46.67156,-23.21146],[-46.67147,-23.21118],[-46.67163,-23.21082],[-46.67168,-23.21064],[-46.67176,-23.21033],[-46.67178,-23.21015],[-46.67178,-23.20996],[-46.67173,-23.20978],[-46.67159,-23.20936],[-46.67149,-23.20914],[-46.67121,-23.20871],[-46.67111,-23.20858],[-46.67098,-23.20846],[-46.67084,-23.20837],[-46.67099,-23.20794],[-46.67109,-23.20784],[-46.67123,-23.20769],[-46.67133,-23.20751],[-46.67139,-23.20731],[-46.67144,-23.20709],[-46.67146,-23.20689],[-46.67144,-23.20668],[-46.67137,-23.20649],[-46.67128,-23.20632],[-46.67114,-23.20616],[-46.66795,-23.20312],[-46.62598,-23.20312]]]]},"properties":{"ghs":"6gy","size":0.62,"ghs_len":3,"ghs_area":113.66,"ghs_bytes":918341,"ghs_items":4747,"size_unit":"km2","ghsval_unit":"bytes","ghs_itemsdensity":41.76,"size_unitdensity":0.01}},{"type":"Feature","geometry":{"type":"MultiPolygon","coordinates":[[[[-46.58203,-23.02734],[-46.58203,-23.07129],[-46.58203,-23.11523],[-46.62598,-23.11523],[-46.62598,-23.15918],[-46.62598,-23.20312],[-46.66795,-23.20312],[-46.66023,-23.19579],[-46.66289,-23.19045],[-46.66297,-23.19025],[-46.663,-23.19005],[-46.66299,-23.18984],[-46.66293,-23.18964],[-46.655,-23.16882],[-46.655,-23.16348],[-46.66462,-23.15578],[-46.66477,-23.15564],[-46.66488,-23.15548],[-46.66496,-23.15529],[-46.67296,-23.12929],[-46.67297,-23.12923],[-46.67897,-23.10423],[-46.679,-23.10403],[-46.67898,-23.10383],[-46.67893,-23.10363],[-46.67514,-23.09415],[-46.6778,-23.0906],[-46.6779,-23.09044],[-46.67797,-23.09026],[-46.678,-23.09007],[-46.67799,-23.08988],[-46.67729,-23.08412],[-46.67896,-23.08113],[-46.67896,-23.08113],[-46.67897,-23.08111],[-46.67897,-23.08111],[-46.68095,-23.07755],[-46.68487,-23.07049],[-46.68489,-23.07045],[-46.68589,-23.06845],[-46.68596,-23.06827],[-46.686,-23.06808],[-46.68606,-23.06736],[-46.687,-23.05608],[-46.68699,-23.05587],[-46.68694,-23.05565],[-46.68684,-23.05546],[-46.67784,-23.04146],[-46.67751,-23.04093],[-46.67762,-23.04087],[-46.67778,-23.04077],[-46.67791,-23.04064],[-46.67802,-23.0405],[-46.67812,-23.04034],[-46.67821,-23.04014],[-46.67826,-23.03994],[-46.6783,-23.03963],[-46.6783,-23.0394],[-46.67822,-23.03869],[-46.67819,-23.03853],[-46.67818,-23.03849],[-46.67823,-23.03828],[-46.67838,-23.03801],[-46.67845,-23.03786],[-46.67863,-23.03738],[-46.67869,-23.03713],[-46.67875,-23.03658],[-46.67873,-23.0363],[-46.67866,-23.03592],[-46.67859,-23.0357],[-46.6784,-23.03527],[-46.67867,-23.03506],[-46.67883,-23.03491],[-46.67914,-23.03455],[-46.67915,-23.03453],[-46.67964,-23.03391],[-46.6797,-23.03384],[-46.68017,-23.03313],[-46.68017,-23.03312],[-46.68049,-23.03262],[-46.68068,-23.03241],[-46.6813,-23.03197],[-46.68132,-23.03196],[-46.68264,-23.03096],[-46.68281,-23.03079],[-46.683,-23.03055],[-46.68309,-23.03042],[-46.68316,-23.03028],[-46.68324,-23.03007],[-46.68329,-23.02985],[-46.6833,-23.02962],[-46.68327,-23.02934],[-46.68323,-23.02916],[-46.68317,-23.02899],[-46.68307,-23.02883],[-46.68293,-23.02864],[-46.6828,-23.0285],[-46.68266,-23.02839],[-46.68249,-23.02831],[-46.68223,-23.02821],[-46.68208,-23.0281],[-46.6828,-23.0275],[-46.68289,-23.02741],[-46.68295,-23.02734],[-46.58203,-23.02734]]],[[[-46.58203,-23.20312],[-46.58203,-23.15918],[-46.53809,-23.15918],[-46.51838,-23.15918],[-46.52574,-23.16898],[-46.52222,-23.17338],[-46.52214,-23.17349],[-46.51914,-23.17849],[-46.51906,-23.17867],[-46.51901,-23.17887],[-46.519,-23.17907],[-46.51904,-23.17927],[-46.51911,-23.17946],[-46.51923,-23.17963],[-46.53852,-23.20312],[-46.58203,-23.20312]]],[[[-46.49414,-23.11523],[-46.49414,-23.07129],[-46.53809,-23.07129],[-46.53809,-23.02734],[-46.53163,-23.02734],[-46.5285,-23.02913],[-46.52832,-23.02927],[-46.52817,-23.02945],[-46.5267,-23.03165],[-46.52251,-23.02914],[-46.52235,-23.02906],[-46.52218,-23.02902],[-46.51891,-23.02842],[-46.51298,-23.02734],[-46.49751,-23.02734],[-46.49443,-23.02872],[-46.49364,-23.02907],[-46.49104,-23.02993],[-46.48501,-23.02734],[-46.48324,-23.02734],[-46.47829,-23.03229],[-46.47821,-23.03239],[-46.46451,-23.05],[-46.46028,-23.05],[-46.46097,-23.04724],[-46.461,-23.04704],[-46.46099,-23.04684],[-46.46093,-23.04664],[-46.46084,-23.04646],[-46.46071,-23.0463],[-46.46055,-23.04617],[-46.45187,-23.04038],[-46.44896,-23.02974],[-46.4489,-23.02956],[-46.4488,-23.0294],[-46.44868,-23.02927],[-46.44853,-23.02915],[-46.44836,-23.02907],[-46.44819,-23.02902],[-46.448,-23.029],[-46.441,-23.029],[-46.44082,-23.02902],[-46.44064,-23.02907],[-46.44048,-23.02914],[-46.44034,-23.02925],[-46.43134,-23.03725],[-46.43121,-23.03738],[-46.43112,-23.03753],[-46.43105,-23.03769],[-46.43101,-23.03786],[-46.431,-23.03804],[-46.4324,-23.07307],[-46.43244,-23.0733],[-46.43253,-23.07352],[-46.44322,-23.09266],[-46.44332,-23.09282],[-46.44345,-23.09295],[-46.4436,-23.09305],[-46.44377,-23.09312],[-46.44395,-23.09317],[-46.44426,-23.09321],[-46.44434,-23.09322],[-46.44457,-23.09324],[-46.44481,-23.09322],[-46.44504,-23.09316],[-46.44518,-23.09309],[-46.44534,-23.09301],[-46.4457,-23.09277],[-46.44584,-23.09265],[-46.44596,-23.09251],[-46.44596,-23.09251],[-46.44614,-23.09247],[-46.44633,-23.09239],[-46.44638,-23.09236],[-46.44691,-23.09248],[-46.44713,-23.09256],[-46.44706,-23.09275],[-46.44701,-23.09298],[-46.44701,-23.0932],[-46.44707,-23.09343],[-46.44718,-23.09374],[-46.44726,-23.0939],[-46.44737,-23.09405],[-46.4475,-23.09418],[-46.44766,-23.09428],[-46.44783,-23.09435],[-46.44821,-23.09447],[-46.44843,-23.09451],[-46.44865,-23.0945],[-46.44886,-23.09444],[-46.44906,-23.09435],[-46.44946,-23.09408],[-46.44964,-23.09399],[-46.44964,-23.09412],[-46.44968,-23.09431],[-46.44975,-23.09449],[-46.44986,-23.09465],[-46.44999,-23.09479],[-46.45023,-23.09499],[-46.45039,-23.0951],[-46.4504,-23.0951],[-46.45033,-23.09535],[-46.4503,-23.09554],[-46.4503,-23.09573],[-46.45034,-23.09592],[-46.45042,-23.0961],[-46.45053,-23.0963],[-46.45064,-23.09646],[-46.45078,-23.0966],[-46.45094,-23.09671],[-46.45113,-23.09678],[-46.45132,-23.09682],[-46.45156,-23.09684],[-46.45175,-23.09683],[-46.45194,-23.09679],[-46.45212,-23.09672],[-46.45248,-23.09652],[-46.45259,-23.09645],[-46.4528,-23.0963],[-46.45282,-23.09632],[-46.45299,-23.09638],[-46.45413,-23.09672],[-46.4543,-23.09675],[-46.45448,-23.09676],[-46.45465,-23.09673],[-46.45489,-23.09667],[-46.45509,-23.0966],[-46.45527,-23.09648],[-46.45542,-23.09633],[-46.45548,-23.09625],[-46.45558,-23.0962],[-46.45581,-23.09618],[-46.45588,-23.0962],[-46.45599,-23.09634],[-46.45613,-23.09647],[-46.45629,-23.09657],[-46.45647,-23.09664],[-46.45655,-23.09666],[-46.45656,-23.09673],[-46.45662,-23.09692],[-46.45671,-23.09709],[-46.45684,-23.09724],[-46.45699,-23.09737],[-46.45714,-23.09746],[-46.45731,-23.09755],[-46.45749,-23.09761],[-46.45768,-23.09763],[-46.45787,-23.09761],[-46.45819,-23.09755],[-46.45841,-23.09822],[-46.45849,-23.09839],[-46.45859,-23.09854],[-46.45885,-23.09885],[-46.45899,-23.09903],[-46.45913,-23.09917],[-46.45929,-23.09928],[-46.45946,-23.09936],[-46.45965,-23.0994],[-46.45984,-23.0994],[-46.46003,-23.09937],[-46.46021,-23.0993],[-46.46032,-23.09925],[-46.46037,-23.09925],[-46.46065,-23.09931],[-46.46084,-23.09932],[-46.46102,-23.09931],[-46.4612,-23.09925],[-46.46137,-23.09917],[-46.46152,-23.09905],[-46.46153,-23.09904],[-46.46167,-23.09902],[-46.46169,-23.09902],[-46.46177,-23.09909],[-46.46191,-23.09919],[-46.46208,-23.09927],[-46.46226,-23.09931],[-46.46244,-23.09933],[-46.46265,-23.09932],[-46.46284,-23.0993],[-46.46303,-23.09924],[-46.46315,-23.09929],[-46.46334,-23.09932],[-46.46353,-23.09932],[-46.46371,-23.09928],[-46.46375,-23.09927],[-46.46377,-23.0993],[-46.4639,-23.09944],[-46.46405,-23.09954],[-46.46423,-23.09962],[-46.46441,-23.09967],[-46.4646,-23.09968],[-46.46478,-23.09966],[-46.46495,-23.09962],[-46.46515,-23.09955],[-46.46532,-23.09945],[-46.46537,-23.0994],[-46.46541,-23.09942],[-46.46562,-23.09946],[-46.466,-23.0995],[-46.46616,-23.0995],[-46.46625,-23.09949],[-46.46618,-23.09967],[-46.46614,-23.09986],[-46.46614,-23.10006],[-46.46618,-23.10025],[-46.46625,-23.10043],[-46.46636,-23.1006],[-46.4665,-23.10074],[-46.46667,-23.10084],[-46.46697,-23.101],[-46.46714,-23.10107],[-46.46732,-23.10111],[-46.46747,-23.10113],[-46.4675,-23.10113],[-46.46761,-23.10114],[-46.46778,-23.10113],[-46.46795,-23.1011],[-46.46807,-23.10107],[-46.46824,-23.10101],[-46.46824,-23.10101],[-46.46827,-23.10109],[-46.46835,-23.10127],[-46.46847,-23.10144],[-46.46862,-23.10157],[-46.4688,-23.10168],[-46.46899,-23.10174],[-46.46915,-23.10178],[-46.46934,-23.1018],[-46.46953,-23.10179],[-46.46972,-23.10174],[-46.46988,-23.10166],[-46.46993,-23.10172],[-46.47006,-23.10184],[-46.46997,-23.10194],[-46.46986,-23.10208],[-46.46978,-23.10223],[-46.46972,-23.10239],[-46.46969,-23.10256],[-46.46968,-23.10273],[-46.46969,-23.10292],[-46.46974,-23.10312],[-46.46982,-23.10329],[-46.46993,-23.10345],[-46.47008,-23.10359],[-46.4702,-23.10368],[-46.47037,-23.10379],[-46.47055,-23.10385],[-46.47075,-23.10388],[-46.47076,-23.10388],[-46.47076,-23.10395],[-46.4708,-23.10416],[-46.47087,-23.10436],[-46.47096,-23.10457],[-46.4711,-23.10475],[-46.47128,-23.10489],[-46.4714,-23.10497],[-46.47154,-23.10504],[-46.47168,-23.10509],[-46.47184,-23.10514],[-46.47202,-23.10517],[-46.4722,-23.10517],[-46.47222,-23.10516],[-46.47231,-23.10534],[-46.47244,-23.10551],[-46.47254,-23.10559],[-46.47257,-23.10572],[-46.47261,-23.10585],[-46.4727,-23.10603],[-46.47282,-23.1062],[-46.47297,-23.10633],[-46.47315,-23.10643],[-46.47334,-23.1065],[-46.47354,-23.10654],[-46.4737,-23.10656],[-46.47373,-23.10662],[-46.47384,-23.1068],[-46.47396,-23.10695],[-46.4741,-23.10708],[-46.47426,-23.10718],[-46.47444,-23.10724],[-46.47455,-23.10727],[-46.47474,-23.1073],[-46.47492,-23.1073],[-46.4751,-23.10726],[-46.47527,-23.10719],[-46.47532,-23.10717],[-46.47539,-23.10723],[-46.47556,-23.10733],[-46.47575,-23.1074],[-46.47595,-23.10742],[-46.47619,-23.10743],[-46.4762,-23.10743],[-46.47641,-23.10743],[-46.47652,-23.10752],[-46.47658,-23.10757],[-46.47683,-23.10776],[-46.47698,-23.10785],[-46.47715,-23.10792],[-46.47732,-23.10795],[-46.47747,-23.10795],[-46.47748,-23.10801],[-46.47752,-23.1082],[-46.47761,-23.10838],[-46.47773,-23.10854],[-46.47787,-23.10867],[-46.47799,-23.10874],[-46.47808,-23.10888],[-46.47821,-23.10902],[-46.47837,-23.10913],[-46.47855,-23.10921],[-46.47874,-23.10926],[-46.47884,-23.10927],[-46.47904,-23.10928],[-46.47923,-23.10925],[-46.47941,-23.10918],[-46.47958,-23.10908],[-46.47972,-23.10894],[-46.4798,-23.10885],[-46.48008,-23.10893],[-46.48059,-23.10911],[-46.48064,-23.10923],[-46.48074,-23.10939],[-46.48091,-23.10961],[-46.48105,-23.10976],[-46.48113,-23.10983],[-46.48108,-23.10999],[-46.48105,-23.11021],[-46.48103,-23.11043],[-46.48107,-23.11064],[-46.48115,-23.11084],[-46.48127,-23.11102],[-46.48136,-23.11113],[-46.48149,-23.11126],[-46.48164,-23.11136],[-46.48165,-23.11137],[-46.48164,-23.1114],[-46.48158,-23.1117],[-46.48156,-23.11193],[-46.4816,-23.11215],[-46.48168,-23.11236],[-46.48177,-23.11253],[-46.48188,-23.11269],[-46.482,-23.11284],[-46.48204,-23.11289],[-46.48225,-23.11312],[-46.48247,-23.11339],[-46.48259,-23.11353],[-46.48274,-23.11364],[-46.48304,-23.11382],[-46.48326,-23.11392],[-46.4835,-23.11399],[-46.48369,-23.11403],[-46.48389,-23.11403],[-46.48408,-23.114],[-46.48428,-23.11394],[-46.48446,-23.11386],[-46.48462,-23.11375],[-46.48476,-23.11361],[-46.48489,-23.11345],[-46.48497,-23.11334],[-46.48508,-23.11315],[-46.48513,-23.11309],[-46.48521,-23.11313],[-46.48538,-23.11316],[-46.48556,-23.11317],[-46.48574,-23.11314],[-46.48591,-23.11308],[-46.48614,-23.11298],[-46.48632,-23.11288],[-46.48647,-23.11275],[-46.48659,-23.11259],[-46.48667,-23.11241],[-46.48671,-23.1123],[-46.48681,-23.11217],[-46.48685,-23.1121],[-46.48693,-23.11218],[-46.48693,-23.11218],[-46.487,-23.11502],[-46.48703,-23.11522],[-46.48709,-23.11542],[-46.48719,-23.11559],[-46.49414,-23.12506],[-46.49414,-23.11523]]]]},"properties":{"ghs":"6gyu","size":1.93,"ghs_len":4,"ghs_area":232.65,"ghs_bytes":2468911,"ghs_items":11900,"size_unit":"km2","ghsval_unit":"bytes","ghs_itemsdensity":51.15,"size_unitdensity":0.01}},{"type":"Feature","geometry":{"type":"Polygon","coordinates":[[[-46.58203,-23.15918],[-46.58203,-23.20312],[-46.62598,-23.20312],[-46.62598,-23.15918],[-46.58203,-23.15918]]]},"properties":{"ghs":"6gyu5","size":0.43,"ghs_len":5,"ghs_area":21.9,"ghs_bytes":694373,"ghs_items":3414,"size_unit":"km2","ghsval_unit":"bytes","ghs_itemsdensity":155.91,"size_unitdensity":0.02}},{"type":"Feature","geometry":{"type":"Polygon","coordinates":[[[-46.58203,-23.11523],[-46.58203,-23.15918],[-46.62598,-23.15918],[-46.62598,-23.11523],[-46.58203,-23.11523]]]},"properties":{"ghs":"6gyu7","size":1.09,"ghs_len":5,"ghs_area":21.9,"ghs_bytes":2654593,"ghs_items":11795,"size_unit":"km2","ghsval_unit":"bytes","ghs_itemsdensity":538.48,"size_unitdensity":0.05}},{"type":"Feature","geometry":{"type":"Polygon","coordinates":[[[-46.57104,-23.11523],[-46.57104,-23.12073],[-46.57104,-23.12622],[-46.57104,-23.13171],[-46.57104,-23.13721],[-46.56006,-23.13721],[-46.56006,-23.1427],[-46.56006,-23.14819],[-46.54907,-23.14819],[-46.54907,-23.1427],[-46.54907,-23.13721],[-46.54907,-23.13171],[-46.54907,-23.12622],[-46.54907,-23.12073],[-46.54907,-23.11523],[-46.53809,-23.11523],[-46.53809,-23.15918],[-46.58203,-23.15918],[-46.58203,-23.11523],[-46.57104,-23.11523]]]},"properties":{"ghs":"6gyuk","size":1.38,"ghs_len":5,"ghs_area":15.06,"ghs_bytes":2864247,"ghs_items":10696,"size_unit":"km2","ghsval_unit":"bytes","ghs_itemsdensity":710.25,"size_unitdensity":0.09}},{"type":"Feature","geometry":{"type":"Polygon","coordinates":[[[-46.56006,-23.1427],[-46.54907,-23.1427],[-46.54907,-23.14819],[-46.56006,-23.14819],[-46.56006,-23.1427]]]},"properties":{"ghs":"6gyukd","size":0.16,"ghs_len":6,"ghs_area":0.68,"ghs_bytes":384792,"ghs_items":1409,"size_unit":"km2","ghsval_unit":"bytes","ghs_itemsdensity":2058.52,"size_unitdensity":0.23}},{"type":"Feature","geometry":{"type":"Polygon","coordinates":[[[-46.56006,-23.13721],[-46.54907,-23.13721],[-46.54907,-23.1427],[-46.56006,-23.1427],[-46.56006,-23.13721]]]},"properties":{"ghs":"6gyuke","size":0.17,"ghs_len":6,"ghs_area":0.68,"ghs_bytes":458343,"ghs_items":1448,"size_unit":"km2","ghsval_unit":"bytes","ghs_itemsdensity":2115.41,"size_unitdensity":0.24}},{"type":"Feature","geometry":{"type":"Polygon","coordinates":[[[-46.57104,-23.13171],[-46.56006,-23.13171],[-46.56006,-23.13721],[-46.57104,-23.13721],[-46.57104,-23.13171]]]},"properties":{"ghs":"6gyukk","size":0.1,"ghs_len":6,"ghs_area":0.68,"ghs_bytes":290612,"ghs_items":1086,"size_unit":"km2","ghsval_unit":"bytes","ghs_itemsdensity":1586.5,"size_unitdensity":0.14}},{"type":"Feature","geometry":{"type":"Polygon","coordinates":[[[-46.57104,-23.12622],[-46.56006,-23.12622],[-46.56006,-23.13171],[-46.57104,-23.13171],[-46.57104,-23.12622]]]},"properties":{"ghs":"6gyukm","size":0.23,"ghs_len":6,"ghs_area":0.68,"ghs_bytes":697386,"ghs_items":2858,"size_unit":"km2","ghsval_unit":"bytes","ghs_itemsdensity":4174.98,"size_unitdensity":0.34}},{"type":"Feature","geometry":{"type":"Polygon","coordinates":[[[-46.57104,-23.12073],[-46.56006,-23.12073],[-46.56006,-23.12622],[-46.57104,-23.12622],[-46.57104,-23.12073]]]},"properties":{"ghs":"6gyukq","size":0.21,"ghs_len":6,"ghs_area":0.68,"ghs_bytes":518785,"ghs_items":2200,"size_unit":"km2","ghsval_unit":"bytes","ghs_itemsdensity":3213.64,"size_unitdensity":0.3}},{"type":"Feature","geometry":{"type":"Polygon","coordinates":[[[-46.57104,-23.11523],[-46.56006,-23.11523],[-46.56006,-23.12073],[-46.57104,-23.12073],[-46.57104,-23.11523]]]},"properties":{"ghs":"6gyukr","size":0.21,"ghs_len":6,"ghs_area":0.68,"ghs_bytes":488807,"ghs_items":1888,"size_unit":"km2","ghsval_unit":"bytes","ghs_itemsdensity":2757.78,"size_unitdensity":0.31}},{"type":"Feature","geometry":{"type":"Polygon","coordinates":[[[-46.56006,-23.13171],[-46.54907,-23.13171],[-46.54907,-23.13721],[-46.56006,-23.13721],[-46.56006,-23.13171]]]},"properties":{"ghs":"6gyuks","size":0.14,"ghs_len":6,"ghs_area":0.68,"ghs_bytes":434696,"ghs_items":1278,"size_unit":"km2","ghsval_unit":"bytes","ghs_itemsdensity":1866.98,"size_unitdensity":0.21}},{"type":"Feature","geometry":{"type":"Polygon","coordinates":[[[-46.56006,-23.12622],[-46.54907,-23.12622],[-46.54907,-23.13171],[-46.56006,-23.13171],[-46.56006,-23.12622]]]},"properties":{"ghs":"6gyukt","size":0.17,"ghs_len":6,"ghs_area":0.68,"ghs_bytes":589190,"ghs_items":1813,"size_unit":"km2","ghsval_unit":"bytes","ghs_itemsdensity":2648.44,"size_unitdensity":0.25}},{"type":"Feature","geometry":{"type":"Polygon","coordinates":[[[-46.56006,-23.12073],[-46.54907,-23.12073],[-46.54907,-23.12622],[-46.56006,-23.12622],[-46.56006,-23.12073]]]},"properties":{"ghs":"6gyukw","size":0.18,"ghs_len":6,"ghs_area":0.68,"ghs_bytes":367811,"ghs_items":1368,"size_unit":"km2","ghsval_unit":"bytes","ghs_itemsdensity":1998.3,"size_unitdensity":0.27}},{"type":"Feature","geometry":{"type":"Polygon","coordinates":[[[-46.56006,-23.11523],[-46.54907,-23.11523],[-46.54907,-23.12073],[-46.56006,-23.12073],[-46.56006,-23.11523]]]},"properties":{"ghs":"6gyukx","size":0.2,"ghs_len":6,"ghs_area":0.68,"ghs_bytes":436147,"ghs_items":1529,"size_unit":"km2","ghsval_unit":"bytes","ghs_itemsdensity":2233.39,"size_unitdensity":0.29}},{"type":"Feature","geometry":{"type":"Polygon","coordinates":[[[-46.49414,-23.11523],[-46.49414,-23.12506],[-46.50907,-23.14542],[-46.51102,-23.15422],[-46.51108,-23.15439],[-46.51116,-23.15454],[-46.51127,-23.15468],[-46.5114,-23.1548],[-46.51155,-23.15489],[-46.51734,-23.15779],[-46.51838,-23.15918],[-46.53809,-23.15918],[-46.53809,-23.11523],[-46.49414,-23.11523]]]},"properties":{"ghs":"6gyum","size":0.3,"ghs_len":5,"ghs_area":17.42,"ghs_bytes":686745,"ghs_items":2338,"size_unit":"km2","ghsval_unit":"bytes","ghs_itemsdensity":134.2,"size_unitdensity":0.02}},{"type":"Feature","geometry":{"type":"Polygon","coordinates":[[[-46.53809,-23.07129],[-46.53809,-23.11523],[-46.54907,-23.11523],[-46.56006,-23.11523],[-46.57104,-23.11523],[-46.58203,-23.11523],[-46.58203,-23.07129],[-46.53809,-23.07129]]]},"properties":{"ghs":"6gyus","size":1.33,"ghs_len":5,"ghs_area":21.91,"ghs_bytes":2442085,"ghs_items":10006,"size_unit":"km2","ghsval_unit":"bytes","ghs_itemsdensity":456.67,"size_unitdensity":0.06}},{"type":"Feature","geometry":{"type":"Polygon","coordinates":[[[-46.49414,-23.07129],[-46.49414,-23.11523],[-46.53809,-23.11523],[-46.53809,-23.07129],[-46.49414,-23.07129]]]},"properties":{"ghs":"6gyut","size":0.59,"ghs_len":5,"ghs_area":21.91,"ghs_bytes":1434431,"ghs_items":4845,"size_unit":"km2","ghsval_unit":"bytes","ghs_itemsdensity":221.12,"size_unitdensity":0.03}},{"type":"Feature","geometry":{"type":"Polygon","coordinates":[[[-46.57465,-23.02734],[-46.56926,-23.03333],[-46.56911,-23.03355],[-46.56392,-23.04393],[-46.56228,-23.04122],[-46.56001,-23.03608],[-46.5599,-23.0359],[-46.55865,-23.03417],[-46.55852,-23.03402],[-46.55836,-23.03391],[-46.55819,-23.03382],[-46.553,-23.03187],[-46.5528,-23.03181],[-46.54148,-23.03006],[-46.53876,-23.02734],[-46.53809,-23.02734],[-46.53809,-23.07129],[-46.58203,-23.07129],[-46.58203,-23.02734],[-46.57465,-23.02734]]]},"properties":{"ghs":"6gyuu","size":0.38,"ghs_len":5,"ghs_area":19.49,"ghs_bytes":624839,"ghs_items":3173,"size_unit":"km2","ghsval_unit":"bytes","ghs_itemsdensity":162.83,"size_unitdensity":0.02}}]}
