{"type":"FeatureCollection","features":[{"type":"Feature","geometry":{"type":"Polygon","coordinates":[[[-46.10599,-23.08384],[-46.10593,-23.08364],[-46.10584,-23.08346],[-46.10572,-23.08331],[-46.10557,-23.08318],[-46.10539,-23.08308],[-46.1052,-23.08302],[-46.105,-23.083],[-46.09454,-23.083],[-46.09103,-23.07774],[-46.092,-23.06608],[-46.09199,-23.0659],[-46.09196,-23.06571],[-46.09189,-23.06554],[-46.07735,-23.03744],[-46.08245,-23.03489],[-46.08261,-23.03479],[-46.08275,-23.03467],[-46.08286,-23.03451],[-46.08294,-23.03434],[-46.08299,-23.03416],[-46.083,-23.03397],[-46.08298,-23.03378],[-46.08098,-23.02478],[-46.08093,-23.02463],[-46.08085,-23.02448],[-46.08076,-23.02435],[-46.07194,-23.01408],[-46.072,-23.00801],[-46.07199,-23.00783],[-46.07194,-23.00766],[-46.07151,-23.00647],[-46.06731,-22.9947],[-46.07024,-22.99397],[-46.07041,-22.99391],[-46.07057,-22.99382],[-46.07071,-22.99371],[-46.07082,-22.99357],[-46.07091,-22.99341],[-46.07097,-22.99324],[-46.07184,-22.98976],[-46.08234,-22.98594],[-46.08252,-22.98585],[-46.08268,-22.98574],[-46.08281,-22.98559],[-46.08291,-22.98542],[-46.08297,-22.98523],[-46.083,-22.98503],[-46.08299,-22.98484],[-46.08294,-22.98465],[-46.08285,-22.98447],[-46.07785,-22.97647],[-46.07774,-22.97632],[-46.0776,-22.9762],[-46.07744,-22.9761],[-46.07726,-22.97604],[-46.07708,-22.976],[-46.07689,-22.97601],[-46.07671,-22.97604],[-46.06724,-22.97888],[-46.06365,-22.97574],[-46.06045,-22.97294],[-46.05976,-22.97234],[-46.05758,-22.97043],[-46.0575,-22.97036],[-46.05684,-22.96978],[-46.052,-22.96555],[-46.052,-22.94],[-46.05197,-22.93976],[-46.05188,-22.93953],[-46.0432,-22.92303],[-46.04205,-22.92085],[-46.04396,-22.91129],[-46.04488,-22.90668],[-46.05045,-22.90389],[-46.05061,-22.90379],[-46.05075,-22.90366],[-46.05086,-22.9035],[-46.05094,-22.90333],[-46.05099,-22.90314],[-46.05185,-22.89716],[-46.05185,-22.89714],[-46.05195,-22.89706],[-46.05208,-22.89691],[-46.05218,-22.89674],[-46.05225,-22.89656],[-46.05227,-22.89636],[-46.05226,-22.89616],[-46.05221,-22.89597],[-46.05212,-22.8958],[-46.052,-22.89564],[-46.05185,-22.89551],[-46.05168,-22.89541],[-46.0515,-22.89535],[-46.05137,-22.89532],[-46.04895,-22.89477],[-46.04859,-22.89469],[-46.04211,-22.89109],[-46.03909,-22.88941],[-46.03668,-22.88725],[-46.03648,-22.88712],[-46.03626,-22.88703],[-46.03262,-22.8861],[-46.02932,-22.88452],[-46.02776,-22.88377],[-46.02755,-22.88369],[-46.02732,-22.88367],[-46.0271,-22.88367],[-46.02552,-22.88368],[-46.02535,-22.8837],[-46.02519,-22.88374],[-46.02504,-22.88381],[-46.02205,-22.88546],[-46.01948,-22.88621],[-46.01934,-22.88625],[-46.01721,-22.88654],[-46.01459,-22.88558],[-46.01441,-22.88553],[-46.01422,-22.88552],[-46.01284,-22.88556],[-46.01267,-22.88558],[-46.0125,-22.88563],[-46.01235,-22.8857],[-46.00872,-22.88789],[-46.00249,-22.87921],[-46.00234,-22.87904],[-46.00215,-22.87891],[-46.00083,-22.87821],[-46.0006,-22.87813],[-46.00037,-22.8781],[-46.00019,-22.8781],[-45.9944,-22.87807],[-45.99373,-22.87774],[-45.99308,-22.87708],[-45.99288,-22.87687],[-45.99179,-22.87508],[-45.99253,-22.87326],[-45.9939,-22.87098],[-45.99399,-22.8708],[-45.99403,-22.87061],[-45.99404,-22.87041],[-45.99401,-22.87021],[-45.99394,-22.87002],[-45.99383,-22.86985],[-45.99314,-22.86898],[-45.99301,-22.86884],[-45.99285,-22.86873],[-45.99268,-22.86865],[-45.99105,-22.86809],[-45.99082,-22.86804],[-45.98321,-22.86727],[-45.97858,-22.86525],[-45.97694,-22.86454],[-45.97368,-22.86269],[-45.97197,-22.86059],[-45.97185,-22.86047],[-45.97172,-22.86038],[-45.97157,-22.8603],[-45.9692,-22.85932],[-45.96561,-22.85494],[-45.96547,-22.85481],[-45.96532,-22.8547],[-45.96515,-22.85462],[-45.96497,-22.85458],[-45.96478,-22.85457],[-45.96317,-22.85466],[-45.96297,-22.85469],[-45.96279,-22.85476],[-45.96262,-22.85486],[-45.96248,-22.85499],[-45.96239,-22.85509],[-45.96091,-22.85672],[-45.96045,-22.85553],[-45.96007,-22.85456],[-45.96,-22.85443],[-45.95992,-22.8543],[-45.95873,-22.8528],[-45.95719,-22.84983],[-45.95707,-22.84964],[-45.9569,-22.84948],[-45.95671,-22.84937],[-45.95654,-22.8493],[-45.95233,-22.84745],[-45.95211,-22.84643],[-45.95206,-22.84626],[-45.95197,-22.84609],[-45.95186,-22.84595],[-45.95113,-22.8452],[-45.95098,-22.84507],[-45.95081,-22.84497],[-45.95062,-22.84491],[-45.95043,-22.84489],[-45.94342,-22.84474],[-45.94322,-22.84475],[-45.93982,-22.84534],[-45.9375,-22.8444],[-45.93416,-22.84113],[-45.93067,-22.83664],[-45.93057,-22.83652],[-45.92604,-22.8323],[-45.92485,-22.82964],[-45.92423,-22.82522],[-45.92419,-22.82507],[-45.92413,-22.82492],[-45.92348,-22.82359],[-45.92338,-22.82345],[-45.92327,-22.82332],[-45.92144,-22.82158],[-45.92122,-22.82142],[-45.91507,-22.81822],[-45.91348,-22.81601],[-45.91335,-22.81587],[-45.91321,-22.81575],[-45.91304,-22.81567],[-45.91286,-22.81561],[-45.91268,-22.8156],[-45.91249,-22.81561],[-45.90963,-22.81612],[-45.90944,-22.81617],[-45.90394,-22.81832],[-45.90376,-22.81841],[-45.90361,-22.81854],[-45.90348,-22.81869],[-45.90338,-22.81886],[-45.90332,-22.81905],[-45.9033,-22.81925],[-45.9033,-22.82158],[-45.90332,-22.8218],[-45.9034,-22.82201],[-45.90468,-22.82471],[-45.90484,-22.82495],[-45.90515,-22.82528],[-45.90688,-22.82719],[-45.90772,-22.82943],[-45.90731,-22.83047],[-45.90373,-22.83491],[-45.90342,-22.83529],[-45.90122,-22.83557],[-45.90106,-22.83561],[-45.90091,-22.83566],[-45.89938,-22.83641],[-45.8992,-22.83652],[-45.89661,-22.83851],[-45.89521,-22.83858],[-45.89434,-22.83826],[-45.89416,-22.83822],[-45.89396,-22.8382],[-45.89377,-22.83823],[-45.89359,-22.83829],[-45.89343,-22.83838],[-45.89328,-22.83851],[-45.89316,-22.83866],[-45.89307,-22.83883],[-45.89302,-22.83901],[-45.893,-22.8392],[-45.89302,-22.83939],[-45.89325,-22.8406],[-45.89306,-22.84138],[-45.89292,-22.84192],[-45.89041,-22.84389],[-45.89027,-22.84402],[-45.89016,-22.84419],[-45.89008,-22.84437],[-45.89004,-22.84456],[-45.89003,-22.84476],[-45.89007,-22.84495],[-45.89048,-22.84638],[-45.89054,-22.84654],[-45.89063,-22.84669],[-45.89075,-22.84682],[-45.89294,-22.84896],[-45.89298,-22.8492],[-45.89141,-22.85292],[-45.89135,-22.85313],[-45.89133,-22.85335],[-45.89136,-22.85357],[-45.89144,-22.85378],[-45.89186,-22.85457],[-45.8919,-22.85464],[-45.89305,-22.85647],[-45.89305,-22.85651],[-45.89198,-22.85704],[-45.89012,-22.85698],[-45.88993,-22.85699],[-45.88975,-22.85703],[-45.88958,-22.85711],[-45.88943,-22.85721],[-45.8893,-22.85734],[-45.8892,-22.8575],[-45.88913,-22.85767],[-45.88857,-22.85937],[-45.88853,-22.85953],[-45.88801,-22.86297],[-45.88801,-22.86325],[-45.88827,-22.86513],[-45.88698,-22.87074],[-45.88658,-22.87141],[-45.8865,-22.87159],[-45.88645,-22.87179],[-45.88644,-22.87199],[-45.88647,-22.87218],[-45.88654,-22.87237],[-45.88779,-22.8749],[-45.88589,-22.87505],[-45.87945,-22.8745],[-45.87673,-22.87196],[-45.87659,-22.87185],[-45.87644,-22.87177],[-45.87627,-22.87172],[-45.87215,-22.87076],[-45.8711,-22.87021],[-45.87092,-22.87014],[-45.87072,-22.8701],[-45.87052,-22.8701],[-45.87033,-22.87014],[-45.87015,-22.87022],[-45.86998,-22.87034],[-45.86985,-22.87048],[-45.86974,-22.87065],[-45.86967,-22.87084],[-45.86964,-22.87103],[-45.86902,-22.88068],[-45.86216,-22.89146],[-45.86207,-22.89163],[-45.86202,-22.89181],[-45.862,-22.89199],[-45.86202,-22.89218],[-45.86207,-22.89236],[-45.86215,-22.89253],[-45.86226,-22.89268],[-45.87311,-22.90451],[-45.876,-22.91415],[-45.876,-22.921],[-45.87602,-22.92122],[-45.8761,-22.92143],[-45.87621,-22.92161],[-45.88321,-22.93061],[-45.88334,-22.93075],[-45.88349,-22.93086],[-45.88366,-22.93094],[-45.89388,-22.93466],[-45.89307,-22.93952],[-45.88229,-22.95029],[-45.88217,-22.95044],[-45.88208,-22.95062],[-45.88202,-22.9508],[-45.882,-22.951],[-45.88202,-22.95119],[-45.88208,-22.95138],[-45.88217,-22.95155],[-45.8858,-22.957],[-45.88017,-22.96545],[-45.88008,-22.96562],[-45.88002,-22.96581],[-45.88,-22.966],[-45.88002,-22.9662],[-45.88008,-22.96638],[-45.88017,-22.96656],[-45.88029,-22.96671],[-45.88045,-22.96683],[-45.88917,-22.97265],[-45.89406,-22.98634],[-45.89416,-22.98654],[-45.8943,-22.98672],[-45.89448,-22.98685],[-45.91731,-23.00075],[-45.92915,-23.0171],[-45.93088,-23.02007],[-45.92808,-23.02661],[-45.92802,-23.02679],[-45.928,-23.02699],[-45.92802,-23.02719],[-45.92807,-23.02737],[-45.92816,-23.02755],[-45.92829,-23.0277],[-45.93044,-23.02988],[-45.92982,-23.03032],[-45.92979,-23.03034],[-45.92397,-23.03476],[-45.88557,-23.00818],[-45.8854,-23.00808],[-45.88522,-23.00803],[-45.88503,-23.008],[-45.88484,-23.00801],[-45.88466,-23.00806],[-45.88449,-23.00814],[-45.88433,-23.00825],[-45.8842,-23.00839],[-45.8841,-23.00855],[-45.88404,-23.00873],[-45.884,-23.00892],[-45.88401,-23.00911],[-45.88405,-23.00946],[-45.88496,-23.01774],[-45.87836,-23.02717],[-45.87065,-23.03006],[-45.87046,-23.03016],[-45.87029,-23.03029],[-45.86942,-23.03117],[-45.85658,-23.03709],[-45.85643,-23.03718],[-45.8563,-23.03729],[-45.85619,-23.03742],[-45.85149,-23.044],[-45.84829,-23.044],[-45.84302,-23.04065],[-45.84283,-23.04056],[-45.84263,-23.04051],[-45.84242,-23.0405],[-45.84222,-23.04053],[-45.84203,-23.04061],[-45.84185,-23.04072],[-45.84171,-23.04087],[-45.80286,-23.08868],[-45.80275,-23.08883],[-45.80268,-23.089],[-45.7988,-23.10096],[-45.79833,-23.10115],[-45.79715,-23.10115],[-45.79703,-23.10116],[-45.79554,-23.10134],[-45.79532,-23.10139],[-45.79512,-23.10149],[-45.79405,-23.10217],[-45.79391,-23.10228],[-45.7938,-23.1024],[-45.7937,-23.10254],[-45.7931,-23.10366],[-45.79303,-23.10384],[-45.79299,-23.10402],[-45.79284,-23.10526],[-45.79284,-23.10529],[-45.79273,-23.10639],[-45.79255,-23.10683],[-45.79244,-23.10693],[-45.79204,-23.10709],[-45.79147,-23.10708],[-45.79126,-23.1071],[-45.79107,-23.10716],[-45.79019,-23.10752],[-45.79001,-23.10762],[-45.78818,-23.10885],[-45.78813,-23.10889],[-45.78657,-23.11012],[-45.78647,-23.1102],[-45.78578,-23.11091],[-45.78552,-23.11103],[-45.78497,-23.11097],[-45.78401,-23.11057],[-45.78336,-23.11006],[-45.78242,-23.1093],[-45.78217,-23.10916],[-45.78133,-23.10881],[-45.78116,-23.10876],[-45.78099,-23.10874],[-45.77995,-23.1087],[-45.77972,-23.10872],[-45.7795,-23.10879],[-45.7785,-23.10925],[-45.77835,-23.10933],[-45.77821,-23.10944],[-45.7781,-23.10957],[-45.77801,-23.10972],[-45.77758,-23.11062],[-45.77751,-23.1108],[-45.77748,-23.111],[-45.77749,-23.1112],[-45.77764,-23.11215],[-45.77769,-23.11235],[-45.77779,-23.11254],[-45.77837,-23.11342],[-45.77842,-23.11349],[-45.77893,-23.11414],[-45.77901,-23.11444],[-45.77895,-23.11467],[-45.77889,-23.11477],[-45.77886,-23.11479],[-45.77839,-23.11477],[-45.77721,-23.11452],[-45.77702,-23.1145],[-45.77682,-23.11451],[-45.7762,-23.11462],[-45.77599,-23.11468],[-45.7758,-23.11478],[-45.77564,-23.11493],[-45.77521,-23.11539],[-45.7751,-23.11554],[-45.77501,-23.11571],[-45.77496,-23.11589],[-45.77482,-23.11665],[-45.77481,-23.11684],[-45.77483,-23.11703],[-45.77489,-23.11721],[-45.77516,-23.11787],[-45.77526,-23.11805],[-45.7754,-23.11821],[-45.77574,-23.11853],[-45.77564,-23.11873],[-45.77559,-23.1188],[-45.77535,-23.11889],[-45.7752,-23.11888],[-45.77496,-23.11886],[-45.7749,-23.11885],[-45.77479,-23.11882],[-45.77462,-23.1188],[-45.77455,-23.11879],[-45.77417,-23.11868],[-45.7741,-23.11866],[-45.77394,-23.11863],[-45.77386,-23.11858],[-45.77351,-23.1183],[-45.77341,-23.11823],[-45.77318,-23.11809],[-45.77313,-23.11807],[-45.77253,-23.11734],[-45.77229,-23.11689],[-45.77221,-23.11646],[-45.77222,-23.11566],[-45.77221,-23.11548],[-45.77216,-23.11531],[-45.77194,-23.1147],[-45.77186,-23.11452],[-45.77177,-23.11437],[-45.77167,-23.11424],[-45.77156,-23.11412],[-45.77142,-23.11403],[-45.77097,-23.11376],[-45.77074,-23.11366],[-45.77022,-23.11351],[-45.76999,-23.11347],[-45.76977,-23.11348],[-45.76917,-23.11358],[-45.76901,-23.11363],[-45.76885,-23.1137],[-45.76819,-23.11407],[-45.76806,-23.11416],[-45.76794,-23.11428],[-45.76784,-23.11441],[-45.76758,-23.11481],[-45.76712,-23.11531],[-45.76708,-23.11536],[-45.76678,-23.11575],[-45.76671,-23.11582],[-45.76658,-23.11583],[-45.76621,-23.11573],[-45.76629,-23.11551],[-45.76634,-23.11533],[-45.76636,-23.11515],[-45.76635,-23.11449],[-45.76637,-23.11384],[-45.76651,-23.11306],[-45.76652,-23.11294],[-45.76656,-23.11217],[-45.76655,-23.11194],[-45.76643,-23.11132],[-45.76637,-23.1111],[-45.76625,-23.11089],[-45.76585,-23.11037],[-45.76567,-23.11019],[-45.76529,-23.10989],[-45.76511,-23.10978],[-45.76492,-23.1097],[-45.76456,-23.10961],[-45.76436,-23.10958],[-45.76415,-23.1096],[-45.76394,-23.10966],[-45.76323,-23.10994],[-45.76303,-23.11005],[-45.76286,-23.11019],[-45.76229,-23.11082],[-45.76215,-23.11101],[-45.7617,-23.11181],[-45.76164,-23.11194],[-45.76123,-23.11301],[-45.76093,-23.11355],[-45.76088,-23.11359],[-45.76071,-23.11362],[-45.76051,-23.11357],[-45.76021,-23.11335],[-45.76007,-23.11313],[-45.75974,-23.11226],[-45.75965,-23.11208],[-45.75917,-23.11131],[-45.75903,-23.11114],[-45.75885,-23.111],[-45.75806,-23.1105],[-45.75787,-23.11041],[-45.75767,-23.11036],[-45.75693,-23.11025],[-45.75674,-23.11024],[-45.75655,-23.11027],[-45.75562,-23.1105],[-45.75543,-23.11057],[-45.75525,-23.11068],[-45.75449,-23.11126],[-45.75434,-23.1114],[-45.75422,-23.11158],[-45.75384,-23.11228],[-45.75377,-23.11245],[-45.75373,-23.11264],[-45.75364,-23.11347],[-45.75364,-23.11366],[-45.75367,-23.11384],[-45.75386,-23.11453],[-45.75394,-23.11472],[-45.75425,-23.11533],[-45.75425,-23.11543],[-45.75415,-23.11565],[-45.75392,-23.1159],[-45.75356,-23.11604],[-45.75277,-23.11622],[-45.75181,-23.1163],[-45.75162,-23.11634],[-45.75145,-23.11641],[-45.75129,-23.11651],[-45.75115,-23.11664],[-45.75104,-23.1168],[-45.75096,-23.11697],[-45.75091,-23.11716],[-45.7509,-23.11735],[-45.75093,-23.11754],[-45.75099,-23.11772],[-45.75109,-23.11788],[-45.75122,-23.11803],[-45.75198,-23.11875],[-45.75203,-23.11879],[-45.75267,-23.11933],[-45.75286,-23.11946],[-45.75308,-23.11954],[-45.7536,-23.11966],[-45.75385,-23.11969],[-45.75443,-23.11968],[-45.75449,-23.11969],[-45.75637,-23.12086],[-45.75648,-23.12092],[-45.7588,-23.12198],[-45.75877,-23.12201],[-45.75868,-23.12218],[-45.75861,-23.12237],[-45.75838,-23.12344],[-45.75836,-23.12356],[-45.75826,-23.12471],[-45.75827,-23.12497],[-45.7585,-23.12627],[-45.75855,-23.12647],[-45.75865,-23.12665],[-45.75905,-23.12726],[-45.75913,-23.12736],[-45.75931,-23.12758],[-45.75937,-23.12777],[-45.75945,-23.12793],[-45.75955,-23.12807],[-45.75967,-23.1282],[-45.75969,-23.12821],[-45.75973,-23.12826],[-45.75509,-23.13547],[-45.755,-23.13563],[-45.75495,-23.13581],[-45.75493,-23.136],[-45.75494,-23.13618],[-45.75499,-23.13636],[-45.75508,-23.13653],[-45.759,-23.14291],[-45.75873,-23.15033],[-45.75547,-23.15766],[-45.7554,-23.15787],[-45.75538,-23.1581],[-45.75542,-23.15833],[-45.75798,-23.16772],[-45.75758,-23.16832],[-45.75348,-23.17449],[-45.75342,-23.17459],[-45.75198,-23.17745],[-45.75192,-23.1776],[-45.75188,-23.17776],[-45.74967,-23.19344],[-45.74767,-23.19701],[-45.74615,-23.19893],[-45.74496,-23.19985],[-45.74481,-23.19999],[-45.7447,-23.20015],[-45.74462,-23.20033],[-45.74411,-23.20187],[-45.74209,-23.20347],[-45.74192,-23.20365],[-45.7418,-23.20385],[-45.74129,-23.205],[-45.74122,-23.20523],[-45.74105,-23.20621],[-45.74085,-23.20635],[-45.7407,-23.20648],[-45.74058,-23.20663],[-45.74049,-23.2068],[-45.73709,-23.21531],[-45.73403,-23.22272],[-45.73242,-23.22476],[-45.7323,-23.22493],[-45.73223,-23.22513],[-45.73206,-23.22581],[-45.73203,-23.22598],[-45.73203,-23.22616],[-45.73207,-23.22634],[-45.73213,-23.2265],[-45.73223,-23.22666],[-45.73243,-23.22692],[-45.7314,-23.22805],[-45.73062,-23.22861],[-45.73042,-23.2288],[-45.72929,-23.23021],[-45.72918,-23.23038],[-45.72911,-23.23057],[-45.72907,-23.23076],[-45.72886,-23.23355],[-45.72864,-23.23445],[-45.72862,-23.2346],[-45.72844,-23.23666],[-45.72594,-23.23842],[-45.72579,-23.23856],[-45.72567,-23.23871],[-45.72558,-23.23889],[-45.72553,-23.23909],[-45.72552,-23.23928],[-45.72555,-23.23948],[-45.72562,-23.23967],[-45.72572,-23.23984],[-45.72585,-23.23999],[-45.72602,-23.2401],[-45.7262,-23.24019],[-45.72639,-23.24023],[-45.72659,-23.24024],[-45.72953,-23.24004],[-45.73507,-23.24736],[-45.73507,-23.24738],[-45.73516,-23.24755],[-45.73529,-23.2477],[-45.73544,-23.24783],[-45.73561,-23.24792],[-45.73579,-23.24798],[-45.73599,-23.248],[-45.73618,-23.24798],[-45.73637,-23.24793],[-45.74067,-23.24621],[-45.74721,-23.25461],[-45.74734,-23.25475],[-45.7475,-23.25487],[-45.74767,-23.25494],[-45.74786,-23.25499],[-45.74805,-23.255],[-45.7534,-23.25473],[-45.75976,-23.256],[-45.75996,-23.25602],[-45.76015,-23.256],[-45.76033,-23.25595],[-45.7605,-23.25586],[-45.76065,-23.25574],[-45.76334,-23.25317],[-45.76513,-23.25643],[-45.76708,-23.2613],[-45.76719,-23.26151],[-45.76721,-23.26155],[-45.76734,-23.26169],[-45.76749,-23.26181],[-45.76766,-23.2619],[-45.76784,-23.26195],[-45.76803,-23.26197],[-45.7733,-23.26196],[-45.77609,-23.26925],[-45.77614,-23.26934],[-45.77691,-23.27084],[-45.777,-23.27098],[-45.77711,-23.27111],[-45.78819,-23.28161],[-45.79376,-23.2926],[-45.79387,-23.29277],[-45.79402,-23.29292],[-45.7942,-23.29303],[-45.79439,-23.29311],[-45.7946,-23.29314],[-45.80597,-23.29374],[-45.80615,-23.29373],[-45.80633,-23.29369],[-45.8065,-23.29362],[-45.81262,-23.29031],[-45.82078,-23.29088],[-45.82082,-23.29088],[-45.8246,-23.29101],[-45.82718,-23.29347],[-45.82732,-23.29358],[-45.82748,-23.29367],[-45.82765,-23.29372],[-45.83241,-23.29476],[-45.83266,-23.29478],[-45.83548,-23.29469],[-45.83679,-23.29491],[-45.83831,-23.29595],[-45.83998,-23.30182],[-45.84006,-23.30201],[-45.84017,-23.30219],[-45.84225,-23.30465],[-45.84236,-23.30476],[-45.8425,-23.30486],[-45.84264,-23.30493],[-45.84801,-23.30705],[-45.84823,-23.30711],[-45.84846,-23.30711],[-45.85882,-23.30618],[-45.85906,-23.30613],[-45.85927,-23.30603],[-45.86962,-23.2993],[-45.87617,-23.30029],[-45.87632,-23.3003],[-45.87648,-23.30029],[-45.9052,-23.29551],[-45.90538,-23.29546],[-45.90554,-23.29538],[-45.9057,-23.29527],[-45.90582,-23.29513],[-45.90798,-23.29235],[-45.90827,-23.29197],[-45.90898,-23.29106],[-45.90958,-23.29029],[-45.91093,-23.28855],[-45.91104,-23.28837],[-45.91111,-23.28817],[-45.91163,-23.28598],[-45.91219,-23.28362],[-45.91241,-23.28268],[-45.91293,-23.28051],[-45.91356,-23.27932],[-45.91573,-23.27524],[-45.91577,-23.27515],[-45.91662,-23.27311],[-45.91703,-23.27213],[-45.91791,-23.26999],[-45.91813,-23.26967],[-45.91867,-23.26889],[-45.91949,-23.26768],[-45.9205,-23.2662],[-45.92189,-23.26416],[-45.92223,-23.26367],[-45.92338,-23.26283],[-45.9289,-23.25883],[-45.92995,-23.25823],[-45.93109,-23.25783],[-45.93353,-23.25776],[-45.93453,-23.25859],[-45.93467,-23.25869],[-45.93483,-23.25876],[-45.935,-23.25881],[-45.9365,-23.25907],[-45.94133,-23.26066],[-45.9415,-23.2607],[-45.94169,-23.26071],[-45.94187,-23.26068],[-45.94422,-23.26013],[-45.94431,-23.2601],[-45.94588,-23.25957],[-45.94815,-23.259],[-45.94831,-23.25894],[-45.94847,-23.25885],[-45.94865,-23.25873],[-45.94886,-23.25867],[-45.9511,-23.25809],[-45.95124,-23.25813],[-45.95227,-23.25838],[-45.95246,-23.2584],[-45.95266,-23.25839],[-45.95285,-23.25834],[-45.95303,-23.25825],[-45.95319,-23.25813],[-45.95331,-23.25802],[-45.95396,-23.25741],[-45.95468,-23.25673],[-45.95482,-23.25657],[-45.95492,-23.25639],[-45.95607,-23.2537],[-45.96118,-23.24901],[-45.96182,-23.24848],[-45.96191,-23.24839],[-45.96332,-23.24688],[-45.96343,-23.24675],[-45.96351,-23.24659],[-45.96471,-23.24376],[-45.96477,-23.24359],[-45.96479,-23.24341],[-45.96492,-23.24003],[-45.96502,-23.23917],[-45.96502,-23.23896],[-45.96499,-23.23876],[-45.96491,-23.23858],[-45.96479,-23.23841],[-45.96465,-23.23827],[-45.96447,-23.23816],[-45.96428,-23.23809],[-45.96394,-23.23799],[-45.96402,-23.23781],[-45.96433,-23.23736],[-45.96449,-23.2372],[-45.96544,-23.23662],[-45.96701,-23.236],[-45.97023,-23.23531],[-45.9704,-23.23525],[-45.97078,-23.23509],[-45.97135,-23.23486],[-45.97151,-23.23477],[-45.97166,-23.23465],[-45.97178,-23.23451],[-45.97215,-23.23398],[-45.97224,-23.23383],[-45.9723,-23.23365],[-45.97233,-23.23348],[-45.97233,-23.23329],[-45.97229,-23.23311],[-45.97209,-23.23246],[-45.97202,-23.23229],[-45.97193,-23.23214],[-45.9718,-23.232],[-45.97166,-23.2319],[-45.9715,-23.23182],[-45.97035,-23.23137],[-45.97017,-23.23132],[-45.96997,-23.2313],[-45.96822,-23.23132],[-45.96616,-23.23077],[-45.96481,-23.23018],[-45.9646,-23.23005],[-45.96459,-23.23001],[-45.96459,-23.22971],[-45.96468,-23.22929],[-45.96525,-23.22844],[-45.96572,-23.22779],[-45.96595,-23.22745],[-45.96604,-23.22731],[-45.9661,-23.22715],[-45.96614,-23.22698],[-45.96622,-23.22619],[-45.96622,-23.22598],[-45.96618,-23.22578],[-45.9661,-23.22559],[-45.96573,-23.22493],[-45.9656,-23.22475],[-45.96543,-23.22461],[-45.9648,-23.22416],[-45.96461,-23.22405],[-45.9644,-23.22399],[-45.96418,-23.22398],[-45.96355,-23.224],[-45.96337,-23.22403],[-45.96319,-23.22409],[-45.96303,-23.22418],[-45.96275,-23.22437],[-45.96246,-23.22441],[-45.96232,-23.22439],[-45.96215,-23.22437],[-45.96206,-23.22436],[-45.96172,-23.22389],[-45.96155,-23.22334],[-45.96172,-23.22242],[-45.96203,-23.22161],[-45.96208,-23.22144],[-45.96209,-23.22126],[-45.9621,-23.22053],[-45.96208,-23.22033],[-45.96202,-23.22014],[-45.96193,-23.21997],[-45.96147,-23.21928],[-45.96132,-23.2191],[-45.9608,-23.21863],[-45.96066,-23.21852],[-45.9605,-23.21843],[-45.96032,-23.21838],[-45.95878,-23.21807],[-45.95857,-23.21805],[-45.95837,-23.21807],[-45.95748,-23.21825],[-45.95732,-23.2183],[-45.95717,-23.21837],[-45.95704,-23.21847],[-45.95655,-23.21889],[-45.95643,-23.21901],[-45.95634,-23.21915],[-45.95607,-23.21962],[-45.95553,-23.22015],[-45.95547,-23.22007],[-45.95527,-23.21982],[-45.95525,-23.21897],[-45.95525,-23.21896],[-45.95525,-23.21896],[-45.95527,-23.21754],[-45.95526,-23.21736],[-45.95522,-23.21719],[-45.95515,-23.21703],[-45.95452,-23.21591],[-45.95439,-23.21573],[-45.95423,-23.21558],[-45.95404,-23.21548],[-45.95383,-23.21541],[-45.95285,-23.21523],[-45.95267,-23.21522],[-45.95138,-23.21522],[-45.95007,-23.21458],[-45.94956,-23.21406],[-45.94929,-23.21362],[-45.94908,-23.21258],[-45.94925,-23.21209],[-45.94954,-23.21165],[-45.94962,-23.21151],[-45.94988,-23.21096],[-45.94995,-23.21076],[-45.94997,-23.21055],[-45.94995,-23.21034],[-45.94989,-23.21014],[-45.94989,-23.21013],[-45.95078,-23.20916],[-45.95314,-23.20765],[-45.95443,-23.20683],[-45.95459,-23.2067],[-45.95473,-23.20654],[-45.95482,-23.20636],[-45.95488,-23.20617],[-45.9549,-23.20597],[-45.95489,-23.20591],[-45.95816,-23.20708],[-45.95835,-23.20713],[-45.95856,-23.20714],[-45.95876,-23.2071],[-45.95894,-23.20703],[-45.95972,-23.20664],[-45.96246,-23.20526],[-45.96689,-23.20302],[-45.96689,-23.20301],[-45.97071,-23.20105],[-45.97086,-23.20096],[-45.97099,-23.20084],[-45.97109,-23.20071],[-45.97377,-23.19655],[-45.98115,-23.20246],[-45.98118,-23.20248],[-45.98153,-23.20275],[-45.9817,-23.20285],[-45.98189,-23.20292],[-45.98209,-23.20295],[-45.98229,-23.20293],[-45.98248,-23.20288],[-45.98266,-23.20279],[-45.98282,-23.20267],[-45.99165,-23.19426],[-45.9924,-23.19447],[-45.99259,-23.19451],[-45.99278,-23.19451],[-45.99297,-23.19447],[-45.99314,-23.19439],[-45.9933,-23.19429],[-45.99344,-23.19415],[-45.99355,-23.19399],[-45.99362,-23.19382],[-45.99366,-23.19363],[-45.99373,-23.19307],[-45.9946,-23.19346],[-45.99478,-23.19352],[-45.99497,-23.19355],[-45.99517,-23.19353],[-45.99535,-23.19348],[-45.99553,-23.1934],[-45.99605,-23.19309],[-45.99621,-23.19296],[-45.99635,-23.1928],[-45.99645,-23.19262],[-45.99651,-23.19242],[-45.99653,-23.19221],[-45.99652,-23.19153],[-45.99689,-23.19078],[-45.99697,-23.19057],[-45.99699,-23.19034],[-45.99699,-23.18985],[-45.997,-23.18983],[-45.99701,-23.18984],[-45.99721,-23.18988],[-45.99741,-23.18989],[-45.99761,-23.18985],[-45.99779,-23.18978],[-45.99796,-23.18967],[-45.9981,-23.18953],[-45.99821,-23.18936],[-45.99829,-23.18917],[-45.9984,-23.18878],[-45.99864,-23.18904],[-45.99881,-23.18918],[-45.999,-23.18928],[-45.99921,-23.18934],[-45.99999,-23.18946],[-46.00042,-23.1898],[-46.00052,-23.18988],[-46.00168,-23.19057],[-46.00249,-23.19138],[-46.00263,-23.1915],[-46.0041,-23.19248],[-46.00429,-23.19317],[-46.00437,-23.19337],[-46.0045,-23.19355],[-46.00522,-23.19439],[-46.00536,-23.19452],[-46.00551,-23.19462],[-46.00568,-23.19469],[-46.00587,-23.19473],[-46.00627,-23.19477],[-46.00616,-23.1949],[-46.00553,-23.19576],[-46.00542,-23.19593],[-46.00536,-23.19611],[-46.00533,-23.19631],[-46.00534,-23.1965],[-46.00539,-23.19669],[-46.00548,-23.19687],[-46.0056,-23.19703],[-46.00574,-23.19716],[-46.00591,-23.19726],[-46.00649,-23.19752],[-46.00677,-23.19775],[-46.00671,-23.19798],[-46.00669,-23.19803],[-46.00636,-23.1994],[-46.00633,-23.1996],[-46.00635,-23.19981],[-46.00641,-23.20001],[-46.0065,-23.2002],[-46.00664,-23.20035],[-46.00716,-23.20086],[-46.00733,-23.20099],[-46.00753,-23.20108],[-46.00774,-23.20113],[-46.00796,-23.20113],[-46.00879,-23.20104],[-46.01002,-23.2013],[-46.01023,-23.20132],[-46.01044,-23.2013],[-46.01065,-23.20123],[-46.01166,-23.20076],[-46.01232,-23.20071],[-46.01252,-23.20067],[-46.01394,-23.20025],[-46.01419,-23.20025],[-46.01515,-23.20085],[-46.01531,-23.20093],[-46.01549,-23.20099],[-46.01567,-23.20101],[-46.01585,-23.20099],[-46.01602,-23.20095],[-46.01649,-23.20078],[-46.01667,-23.20069],[-46.01683,-23.20057],[-46.01726,-23.20016],[-46.018,-23.20013],[-46.0182,-23.20011],[-46.0184,-23.20004],[-46.01921,-23.19965],[-46.0194,-23.19953],[-46.01956,-23.19937],[-46.01968,-23.19919],[-46.02069,-23.19714],[-46.02071,-23.19707],[-46.02329,-23.19074],[-46.03173,-23.19149],[-46.03191,-23.19149],[-46.05283,-23.18947],[-46.05301,-23.18943],[-46.05319,-23.18937],[-46.05334,-23.18927],[-46.05348,-23.18914],[-46.05359,-23.18899],[-46.05367,-23.18882],[-46.0557,-23.1833],[-46.05575,-23.18313],[-46.05577,-23.18295],[-46.05575,-23.18278],[-46.0557,-23.18261],[-46.05563,-23.18245],[-46.05286,-23.17775],[-46.05459,-23.17678],[-46.06419,-23.17363],[-46.07339,-23.18079],[-46.07355,-23.18089],[-46.07372,-23.18096],[-46.07391,-23.181],[-46.0741,-23.18099],[-46.07429,-23.18096],[-46.07447,-23.18089],[-46.07462,-23.18078],[-46.07476,-23.18065],[-46.07487,-23.18049],[-46.07495,-23.18032],[-46.07825,-23.17046],[-46.09189,-23.17199],[-46.0921,-23.172],[-46.0923,-23.17195],[-46.09249,-23.17187],[-46.09266,-23.17175],[-46.0928,-23.1716],[-46.1018,-23.1596],[-46.1019,-23.15943],[-46.10197,-23.15924],[-46.102,-23.15904],[-46.10199,-23.15884],[-46.10194,-23.15865],[-46.10185,-23.15847],[-46.09227,-23.14314],[-46.09771,-23.13771],[-46.09784,-23.13755],[-46.09793,-23.13736],[-46.09799,-23.13716],[-46.098,-23.13695],[-46.09797,-23.13675],[-46.09789,-23.13655],[-46.09617,-23.13311],[-46.1018,-23.1256],[-46.10191,-23.12542],[-46.10197,-23.12523],[-46.102,-23.12502],[-46.10198,-23.12482],[-46.10192,-23.12462],[-46.10183,-23.12444],[-46.10169,-23.12428],[-46.10153,-23.12415],[-46.09547,-23.12036],[-46.10426,-23.11796],[-46.10445,-23.11789],[-46.10461,-23.11779],[-46.10475,-23.11766],[-46.10487,-23.1175],[-46.10495,-23.11732],[-46.10499,-23.11713],[-46.105,-23.11693],[-46.10496,-23.11674],[-46.10489,-23.11655],[-46.10113,-23.10902],[-46.10788,-23.09647],[-46.10796,-23.09627],[-46.108,-23.09605],[-46.10799,-23.09584],[-46.10599,-23.08384]],[[-45.99272,-23.19118],[-45.99282,-23.19102],[-45.99278,-23.19113],[-45.99274,-23.19131],[-45.99272,-23.19118]]]},"properties":{"ghs":"6gz","size":104.87,"ghs_len":3,"ghs_area":1115.88,"ghs_bytes":318441,"ghs_items":343,"size_unit":"km2","ghsval_unit":"bytes","ghs_itemsdensity":0.31,"size_unitdensity":0.09}}]}
